{"type":"FeatureCollection","features":[{"type":"Feature","geometry":{"type":"LineString","coordinates":[[-80.5379323611111,27.787255611111114],[-80.54355791666667,27.785147000000002],[-80.54916324999999,27.782764999999998],[-80.55472558333334,27.78010461111111],[-80.56022083333333,27.777162555555556],[-80.56562408333333,27.773937694444445],[-80.5709095,27.77043111111111],[-80.57605097222222,27.766646166666668],[-80.58102219444444,27.76258877777778],[-80.5857971111111,27.758267361111113],[-80.59035038888888,27.753692833333332],[-80.59465758333333,27.748878694444446],[-80.59869580555555,27.743840805555557],[-80.60244380555555,27.738597333333335],[-80.60588255555555,27.733168499999998],[-80.6068318611111,27.731463166666664]]},"properties":{"style":"solid","thickness":1}},{"type":"Feature","geometry":{"type":"LineString","coordinates":[[-80.61749099999999,27.705692222222222],[-80.61795313888888,27.704060416666668],[-80.61928708333333,27.698022972222223],[-80.62025688888889,27.691974000000002],[-80.62086686111111,27.685938750000002],[-80.6211241111111,27.67994152777778],[-80.62103833333333,27.67400538888889],[-80.62062158333333,27.668151972222223],[-80.61988788888888,27.662401166666665],[-80.61885305555555,27.656771055555556],[-80.61753424999999,27.651277861111108],[-80.61594975,27.645935722222223],[-80.61411869444444,27.640756777777778],[-80.61201994444444,27.635659027777777],[-80.60961408333333,27.630566055555555],[-80.60689438888889,27.625497777777777],[-80.60385619444443,27.620475388888888],[-80.60049697222222,27.615520944444444],[-80.59681675,27.610657361111112],[-80.5928181111111,27.605907972222223],[-80.58850638888889,27.60129638888889],[-80.58388980555556,27.596846083333332],[-80.57897938888888,27.592580138888888],[-80.57378905555555,27.588520805555554],[-80.56833547222222,27.58468922222222],[-80.56263794444445,27.58110511111111],[-80.55671819444444,27.577786333333332],[-80.5506,27.574748805555554],[-80.54430905555556,27.57200602777778],[-80.53787247222222,27.569569055555554],[-80.53131847222222,27.56744625],[-80.5246758888889,27.565643277777777],[-80.51797391666666,27.564162944444444],[-80.51124144444445,27.563005361111113],[-80.50450697222222,27.56216802777778],[-80.49779797222223,27.561645777777777],[-80.49114072222223,27.56143122222222],[-80.48455994444444,27.561514777777777],[-80.47807866666668,27.561885],[-80.47171783333333,27.562528750000002],[-80.46549644444444,27.563431611111113],[-80.45943116666668,27.564578055555558],[-80.45353658333333,27.56595175]]},"properties":{"style":"solid","thickness":1}},{"type":"Feature","geometry":{"type":"LineString","coordinates":[[-80.55658944444444,27.70238075],[-80.55668075,27.702792305555555],[-80.55684847222221,27.70321661111111],[-80.55710186111111,27.70363811111111],[-80.55744497222221,27.704037277777775],[-80.55787433333333,27.704392444444444],[-80.55837783333332,27.70468261111111],[-80.55893516666666,27.704891055555557],[-80.55952041666666,27.705008083333333],[-80.56010594444444,27.705032499999998],[-80.56066641666666,27.704971277777776],[-80.56118202777778,27.704837388888887],[-80.56163994444444,27.704647055555554],[-80.56203413888889,27.704417055555556],[-80.56238894444444,27.704140888888887],[-80.56271794444444,27.703799444444442],[-80.56300133333333,27.70339336111111],[-80.56321816666666,27.702929305555553],[-80.563349,27.70242077777778],[-80.56337958333333,27.70188758333333],[-80.56330372222222,27.701353777777776],[-80.56312494444444,27.700844166666666],[-80.56285594444444,27.700380638888888],[-80.56251613888888,27.69997927777778],[-80.56212808333333,27.699648777777778],[-80.56171394444443,27.699390972222222],[-80.56129308333333,27.69920213888889],[-80.56084697222222,27.69906675],[-80.56035025,27.69898388888889],[-80.55981344444444,27.698968472222223],[-80.55925352777777,27.699033361111113],[-80.55869330555555,27.699186722222223],[-80.55815925,27.699429722222224],[-80.55767777777777,27.699755111111113],[-80.55727130555556,27.700147694444443],[-80.55695477777778,27.700586777777776],[-80.55673411111111,27.701049388888887],[-80.55660655555555,27.701513777777777],[-80.55656277777777,27.70196188888889],[-80.55658944444444,27.70238075]]},"properties":{"style":"solid","thickness":1}},{"type":"Feature","geometry":{"type":"LineString","coordinates":[[-80.56096347222221,27.708975666666667],[-80.5609353611111,27.708253055555556],[-80.56099038888888,27.707507083333333],[-80.56113563888889,27.706748666666666],[-80.56137583333333,27.70599052777778],[-80.56171272222223,27.705246638888887],[-80.56214447222222,27.704531416666665],[-80.56266572222222,27.703858999999998],[-80.56326761111112,27.70324225],[-80.56393838888889,27.702692],[-80.56466397222222,27.70221638888889],[-80.56542913888889,27.701820527777777],[-80.56621822222222,27.70150647222222],[-80.56701625,27.701273305555556],[-80.5678095,27.701117583333332]]},"properties":{"style":"solid","thickness":1}},{"type":"Feature","geometry":{"type":"LineString","coordinates":[[-80.56096347222221,27.708975666666667],[-80.56078852777777,27.708269583333333],[-80.56052658333333,27.707559305555556],[-80.56017375,27.706856944444443],[-80.55972902777778,27.706175916666666],[-80.55919466666667,27.705530083333333],[-80.55857644444444,27.704933055555554],[-80.55788352777778,27.704397305555556],[-80.55712802777778,27.70393333333333],[-80.55632447222222,27.703549027777775],[-80.55548869444443,27.703249194444442],[-80.55463688888888,27.70303536111111],[-80.55378480555555,27.70290602777778],[-80.55294666666667,27.702857027777778],[-80.55213480555555,27.702881972222222]]},"properties":{"style":"solid","thickness":1}},{"type":"Feature","geometry":{"type":"LineString","coordinates":[[-80.55213480555555,27.702881972222222],[-80.55292811111111,27.70272636111111],[-80.55372616666666,27.70249325],[-80.55451530555555,27.70217925],[-80.55528047222222,27.70178347222222],[-80.5560061111111,27.701307888888888],[-80.55667688888889,27.700757666666664],[-80.55727880555555,27.700140944444442],[-80.55780008333333,27.699468555555555],[-80.55823183333334,27.698753333333332],[-80.55856869444445,27.698009444444445],[-80.55880891666666,27.697251305555557],[-80.55895416666667,27.69649288888889],[-80.55900919444444,27.695746916666668],[-80.55898111111111,27.695024305555556]]},"properties":{"style":"solid","thickness":1}},{"type":"Feature","geometry":{"type":"LineString","coordinates":[[-80.55898111111111,27.695024305555556],[-80.559156,27.69573038888889],[-80.55941791666666,27.696440694444444],[-80.55977072222223,27.697143055555557],[-80.56021541666667,27.697824083333334],[-80.56074972222223,27.698469916666667],[-80.56136791666667,27.699066944444446],[-80.56206083333333,27.699602666666667],[-80.56281630555556,27.70006661111111],[-80.5636198611111,27.70045086111111],[-80.56445566666666,27.700750666666664],[-80.56530744444444,27.700964444444445],[-80.56615952777777,27.701093694444445],[-80.56699766666667,27.70114263888889],[-80.5678095,27.701117583333332]]},"properties":{"style":"solid","thickness":1}},{"type":"Feature","geometry":{"type":"LineString","coordinates":[[-80.43958255555556,27.566458611111113],[-80.44953444444445,27.56534527777778],[-80.44564130555555,27.57358836111111],[-80.43958255555556,27.566458611111113]]},"properties":{"style":"solid","thickness":1}},{"type":"Feature","geometry":{"type":"LineString","coordinates":[[-80.52242886111111,27.788358916666667],[-80.53239955555556,27.78723975],[-80.52850491666666,27.7954845],[-80.52242886111111,27.788358916666667]]},"properties":{"style":"solid","thickness":1}},{"type":"Feature","geometry":{"type":"LineString","coordinates":[[-80.10312866666666,26.685518083333335],[-80.10327797222222,26.68661025]]},"properties":{"style":"solid","thickness":1}},{"type":"Feature","geometry":{"type":"LineString","coordinates":[[-80.10280977777778,26.685442388888887],[-80.10298891666666,26.686753]]},"properties":{"style":"solid","thickness":1}},{"type":"Feature","geometry":{"type":"LineString","coordinates":[[-80.10250583333332,26.685475916666668],[-80.10268497222222,26.686786527777777]]},"properties":{"style":"solid","thickness":1}},{"type":"Feature","geometry":{"type":"LineString","coordinates":[[-80.10221680555556,26.685618666666667],[-80.10236608333332,26.686710833333333]]},"properties":{"style":"solid","thickness":1}},{"type":"Feature","geometry":{"type":"LineString","coordinates":[[-80.10198747222222,26.686198277777777],[-80.10200277777777,26.686275194444445],[-80.10202902777777,26.686354444444444],[-80.10206749999999,26.68643436111111],[-80.10211902777777,26.68651286111111],[-80.1021838611111,26.6865875],[-80.10226152777777,26.686655666666667],[-80.10235077777777,26.686714805555557],[-80.10244947222222,26.686762722222223],[-80.1025548611111,26.68679775],[-80.10266380555555,26.686819],[-80.10277294444444,26.686826333333332],[-80.10287930555555,26.68682052777778],[-80.10298022222221,26.686802833333335],[-80.10307375,26.68677511111111],[-80.10315855555555,26.68673927777778],[-80.10323394444444,26.686697333333335],[-80.10330155555555,26.686649805555557],[-80.10336613888889,26.68659302777778],[-80.10342602777777,26.68652638888889],[-80.1034788611111,26.68645013888889],[-80.10352213888888,26.686365055555555],[-80.10355344444444,26.686272555555554],[-80.10357083333332,26.68617477777778],[-80.10357294444444,26.686074277777777],[-80.10355924999999,26.685974027777778],[-80.10353013888889,26.685877],[-80.10348691666665,26.68578588888889],[-80.10343163888888,26.685702944444444],[-80.10336672222222,26.685629777777777],[-80.10329494444444,26.68556727777778],[-80.1032188611111,26.68551563888889],[-80.10314088888889,26.685474583333335],[-80.10306252777777,26.685443166666666],[-80.10297805555555,26.68541886111111],[-80.10288613888888,26.68540252777778],[-80.10278791666666,26.685395916666668],[-80.10268525,26.685400722222223],[-80.10258047222221,26.68541816666667],[-80.10247652777777,26.68544902777778],[-80.10237658333332,26.685493305555557],[-80.10228375,26.685550194444446],[-80.10220088888889,26.685618138888888],[-80.10213022222221,26.685694916666666],[-80.10207319444444,26.685777944444446],[-80.10203038888888,26.685864444444444],[-80.10200155555555,26.685951805555554],[-80.10198575,26.686037722222224],[-80.1019816111111,26.686120333333335],[-80.10198747222222,26.686198277777777]]},"properties":{"style":"solid","thickness":1}}]}
