{
	"type": "FeatureCollection",
	"features": [
		{
			"type": "Feature",
			"geometry": {
				"type": "LineString",
				"coordinates": [
					[-81.23305555555555, 28.00027777777778],
					[-81.23305555555555, 27.746111111111112]
				]
			},
			"properties":{
				"style": "solid",
				"thickness":1
			}
		},
		{
			"type": "Feature",
			"geometry": {
				"type": "LineString",
				"coordinates": [
					[-81.23305555555555, 27.746111111111112],
					[-81.19416666666667, 27.746111111111112]
				]
			},
			"properties":{
				"style": "solid",
				"thickness":1
			}
		},
		{
			"type": "Feature",
			"geometry": {
				"type": "LineString",
				"coordinates": [
					[-81.19416666666667, 27.746111111111112],
					[-81.14972222222222, 27.58361111111111]
				]
			},
			"properties":{
				"style": "solid",
				"thickness":1
			}
		},
		{
			"type": "Feature",
			"geometry": {
				"type": "LineString",
				"coordinates": [
					[-81.14972222222222, 27.58361111111111],
					[-81.12305555555555, 27.541944444444447]
				]
			},
			"properties":{
				"style": "solid",
				"thickness":1
			}
		},
		{
			"type": "Feature",
			"geometry": {
				"type": "LineString",
				"coordinates": [
					[-81.12305555555555, 27.541944444444447],
					[-81.09083333333332, 27.491944444444446]
				]
			},
			"properties":{
				"style": "solid",
				"thickness":1
			}
		},
		{
			"type": "Feature",
			"geometry": {
				"type": "LineString",
				"coordinates": [
					[-81.09083333333332, 27.491944444444446],
					[-80.99972222222222, 27.35027777777778]
				]
			},
			"properties":{
				"style": "solid",
				"thickness":1
			}
		},
		{
			"type": "Feature",
			"geometry": {
				"type": "LineString",
				"coordinates": [
					[-80.99972222222222, 27.35027777777778],
					[-81.09972222222221, 27.279444444444444]
				]
			},
			"properties":{
				"style": "solid",
				"thickness":1
			}
		},
		{
			"type": "Feature",
			"geometry": {
				"type": "LineString",
				"coordinates": [
					[-81.09972222222221, 27.279444444444444],
					[-81.18305555555555, 27.412777777777777]
				]
			},
			"properties":{
				"style": "solid",
				"thickness":1
			}
		},
		{
			"type": "Feature",
			"geometry": {
				"type": "LineString",
				"coordinates": [
					[-81.18305555555555, 27.412777777777777],
					[-81.29694444444445, 27.512777777777778]
				]
			},
			"properties":{
				"style": "solid",
				"thickness":1
			}
		},
		{
			"type": "Feature",
			"geometry": {
				"type": "LineString",
				"coordinates": [
					[-81.29694444444445, 27.512777777777778],
					[-81.36083333333333, 27.5425]
				]
			},
			"properties":{
				"style": "solid",
				"thickness":1
			}
		},
		{
			"type": "Feature",
			"geometry": {
				"type": "LineString",
				"coordinates": [
					[-81.36083333333333, 27.5425],
					[-81.42194444444445, 27.700277777777778]
				]
			},
			"properties":{
				"style": "solid",
				"thickness":1
			}
		},
		{
			"type": "Feature",
			"geometry": {
				"type": "LineString",
				"coordinates": [
					[-81.42194444444445, 27.700277777777778],
					[-81.42194444444445, 27.916944444444447]
				]
			},
			"properties":{
				"style": "solid",
				"thickness":1
			}
		},
		{
			"type": "Feature",
			"geometry": {
				"type": "LineString",
				"coordinates": [
					[-81.42194444444445, 27.916944444444447],
					[-81.34972222222221, 28.00027777777778]
				]
			},
			"properties":{
				"style": "solid",
				"thickness":1
			}
		},
		{
			"type": "Feature",
			"geometry": {
				"type": "LineString",
				"coordinates": [
					[-81.34972222222221, 28.00027777777778],
					[-81.23305555555555, 28.00027777777778]
				]
			},
			"properties":{
				"style": "solid",
				"thickness":1
			}
		},
		{
			"type": "Feature",
			"geometry": {
				"type": "LineString",
				"coordinates": [
					[-80.10485455555555, 26.678605305555557],
					[-80.10485455555555, 26.679522472222224]
				]
			},
			"properties":{
				"style": "solid",
				"thickness":1
			}
		},
		{
			"type": "Feature",
			"geometry": {
				"type": "LineString",
				"coordinates": [
					[-80.10459930555555, 26.678513583333334],
					[-80.10459933333333, 26.679614194444447]
				]
			},
			"properties":{
				"style": "solid",
				"thickness":1
			}
		},
		{
			"type": "Feature",
			"geometry": {
				"type": "LineString",
				"coordinates": [
					[-80.10434405555554, 26.678513583333334],
					[-80.10434408333333, 26.679614194444447]
				]
			},
			"properties":{
				"style": "solid",
				"thickness":1
			}
		},
		{
			"type": "Feature",
			"geometry": {
				"type": "LineString",
				"coordinates": [
					[-80.10408883333332, 26.678605305555557],
					[-80.10408883333332, 26.679522472222224]
				]
			},
			"properties":{
				"style": "solid",
				"thickness":1
			}
		},
		{
			"type": "Feature",
			"geometry": {
				"type": "LineString",
				"coordinates": [
					[-80.10383358333333, 26.67906388888889],
					[-80.10383755555554, 26.679128916666667],
					[-80.10385033333333, 26.67919688888889],
					[-80.1038731111111, 26.6792665],
					[-80.10390683333333, 26.67933613888889],
					[-80.10395202777777, 26.679403805555555],
					[-80.10400861111111, 26.67946727777778],
					[-80.10407572222222, 26.679524361111113],
					[-80.10415197222221, 26.679573],
					[-80.10423519444444, 26.679611611111113],
					[-80.10432288888889, 26.67963911111111],
					[-80.1044123611111, 26.67965513888889],
					[-80.104501, 26.67966002777778],
					[-80.1045865, 26.67965463888889],
					[-80.10466699999999, 26.679640194444445],
					[-80.10474119444444, 26.679618305555557],
					[-80.10480830555555, 26.679590472222223],
					[-80.1048696111111, 26.679557333333335],
					[-80.10492944444444, 26.679516250000002],
					[-80.10498652777777, 26.679466611111113],
					[-80.10503886111111, 26.679408333333335],
					[-80.10508427777778, 26.67934188888889],
					[-80.10512063888888, 26.679268222222223],
					[-80.10514608333332, 26.679188916666668],
					[-80.10515919444444, 26.679105972222224],
					[-80.10515919444444, 26.67902177777778],
					[-80.10514608333332, 26.678938833333333],
					[-80.10512063888888, 26.678859527777778],
					[-80.10508427777778, 26.678785861111113],
					[-80.10503886111111, 26.678719416666667],
					[-80.10498652777777, 26.678661166666668],
					[-80.10492944444444, 26.678611500000002],
					[-80.10486958333333, 26.678570416666666],
					[-80.10480827777778, 26.678537277777778],
					[-80.10474116666666, 26.678509472222224],
					[-80.10466697222222, 26.678487555555556],
					[-80.10458647222222, 26.67847313888889],
					[-80.104501, 26.678467722222223],
					[-80.1044123611111, 26.67847261111111],
					[-80.10432288888889, 26.678488666666667],
					[-80.10423516666665, 26.678516166666668],
					[-80.10415194444444, 26.67855475],
					[-80.10407572222222, 26.678603416666668],
					[-80.10400858333333, 26.6786605],
					[-80.10395202777777, 26.678723972222222],
					[-80.10390683333333, 26.67879163888889],
					[-80.1038731111111, 26.67886127777778],
					[-80.10385030555555, 26.67893088888889],
					[-80.10383755555554, 26.67899886111111],
					[-80.10383358333333, 26.67906388888889]
				]
			},
			"properties":{
				"style": "solid",
				"thickness":1
			}
		},
		{
			"type": "Feature",
			"geometry": {
				"type": "LineString",
				"coordinates": [
					[-80.10313513888889, 26.685652527777776],
					[-80.10313513888889, 26.686569694444444]
				]
			},
			"properties":{
				"style": "solid",
				"thickness":1
			}
		},
		{
			"type": "Feature",
			"geometry": {
				"type": "LineString",
				"coordinates": [
					[-80.10287988888888, 26.685560805555557],
					[-80.10287988888888, 26.686661416666666]
				]
			},
			"properties":{
				"style": "solid",
				"thickness":1
			}
		},
		{
			"type": "Feature",
			"geometry": {
				"type": "LineString",
				"coordinates": [
					[-80.10262461111111, 26.685560805555557],
					[-80.10262461111111, 26.686661416666666]
				]
			},
			"properties":{
				"style": "solid",
				"thickness":1
			}
		},
		{
			"type": "Feature",
			"geometry": {
				"type": "LineString",
				"coordinates": [
					[-80.1023693611111, 26.685652527777776],
					[-80.1023693611111, 26.686569694444444]
				]
			},
			"properties":{
				"style": "solid",
				"thickness":1
			}
		},
		{
			"type": "Feature",
			"geometry": {
				"type": "LineString",
				"coordinates": [
					[-80.1021141111111, 26.68611111111111],
					[-80.10211805555555, 26.68617613888889],
					[-80.10213083333333, 26.686244083333335],
					[-80.1021536111111, 26.686313722222224],
					[-80.1021873611111, 26.686383361111112],
					[-80.10223255555555, 26.686451027777778],
					[-80.1022891111111, 26.6865145],
					[-80.10235625, 26.686571583333333],
					[-80.10243249999999, 26.686620222222224],
					[-80.10251572222222, 26.686658833333333],
					[-80.10260341666667, 26.686686333333334],
					[-80.10269291666665, 26.68670238888889],
					[-80.10278155555555, 26.68670725],
					[-80.10286705555555, 26.68670186111111],
					[-80.10294755555555, 26.686687444444445],
					[-80.10302175, 26.686665527777777],
					[-80.10308888888888, 26.686637722222223],
					[-80.10315016666667, 26.686604583333335],
					[-80.10321002777778, 26.686563472222222],
					[-80.10326711111111, 26.686513833333333],
					[-80.10331944444444, 26.686455555555554],
					[-80.1033648611111, 26.68638911111111],
					[-80.10340122222222, 26.686315444444446],
					[-80.10342666666666, 26.68623613888889],
					[-80.10343977777777, 26.686153194444444],
					[-80.10343977777777, 26.686069027777776],
					[-80.10342666666666, 26.685986083333333],
					[-80.10340122222222, 26.68590675],
					[-80.1033648611111, 26.685833111111112],
					[-80.10331944444444, 26.685766666666666],
					[-80.10326711111111, 26.68570838888889],
					[-80.10321002777778, 26.68565872222222],
					[-80.10315016666667, 26.68561763888889],
					[-80.1030888611111, 26.6855845],
					[-80.10302175, 26.685556694444443],
					[-80.10294755555555, 26.68553477777778],
					[-80.10286705555555, 26.685520361111113],
					[-80.10278155555555, 26.685514972222222],
					[-80.10269291666665, 26.685519833333334],
					[-80.10260344444444, 26.68553588888889],
					[-80.10251572222222, 26.685563388888887],
					[-80.10243249999999, 26.685601972222223],
					[-80.10235625, 26.685650638888887],
					[-80.1022891111111, 26.685707722222222],
					[-80.10223255555555, 26.685771194444445],
					[-80.1021873611111, 26.68583886111111],
					[-80.1021536111111, 26.6859085],
					[-80.10213083333333, 26.685978111111112],
					[-80.10211808333332, 26.686046083333334],
					[-80.1021141111111, 26.68611111111111]
				]
			},
			"properties":{
				"style": "solid",
				"thickness":1
			}
		}
	]
}