{
"type": "FeatureCollection",
"name": "pbi251sgp",
"features": [
{ "type": "Feature", "properties": { "style": "solid", "thickness": 1 }, "geometry": { "type": "LineString", "coordinates": [ [ -80.925, 27.933333333333334 ], [ -80.956111111111113, 27.951333333333334 ] ] } },
{ "type": "Feature", "properties": { "style": "solid", "thickness": 1 }, "geometry": { "type": "LineString", "coordinates": [ [ -81.009722222222223, 27.981666666666666 ], [ -81.041388888888889, 28.0 ] ] } },
{ "type": "Feature", "properties": { "style": "solid", "thickness": 1 }, "geometry": { "type": "LineString", "coordinates": [ [ -81.039722222222224, 28.033333333333335 ], [ -81.041388888888889, 28.0 ] ] } },
{ "type": "Feature", "properties": { "style": "solid", "thickness": 1 }, "geometry": { "type": "LineString", "coordinates": [ [ -81.036944444444444, 28.075555555555557 ], [ -81.012777777777771, 28.136111111111109 ] ] } },
{ "type": "Feature", "properties": { "style": "solid", "thickness": 1 }, "geometry": { "type": "LineString", "coordinates": [ [ -80.9925, 28.160555555555554 ], [ -80.970555555555563, 28.187777777777779 ] ] } },
{ "type": "Feature", "properties": { "style": "solid", "thickness": 1 }, "geometry": { "type": "LineString", "coordinates": [ [ -80.944722222222225, 28.218888888888888 ], [ -80.925555555555562, 28.242777777777778 ] ] } },
{ "type": "Feature", "properties": { "style": "solid", "thickness": 1 }, "geometry": { "type": "LineString", "coordinates": [ [ -80.928333333333342, 28.272222222222222 ], [ -80.929166666666674, 28.288888888888891 ] ] } },
{ "type": "Feature", "properties": { "style": "solid", "thickness": 1 }, "geometry": { "type": "LineString", "coordinates": [ [ -80.894166666666678, 28.276388888888889 ], [ -80.929166666666674, 28.288888888888891 ] ] } },
{ "type": "Feature", "properties": { "style": "solid", "thickness": 1 }, "geometry": { "type": "LineString", "coordinates": [ [ -80.774722222222223, 28.231944444444444 ], [ -80.740833333333327, 28.2175 ] ] } },
{ "type": "Feature", "properties": { "style": "solid", "thickness": 1 }, "geometry": { "type": "LineString", "coordinates": [ [ -80.72, 28.24527777777778 ], [ -80.740833333333327, 28.2175 ] ] } },
{ "type": "Feature", "properties": { "style": "solid", "thickness": 1 }, "geometry": { "type": "LineString", "coordinates": [ [ -80.675, 28.304444444444446 ], [ -80.653611111111118, 28.332222222222221 ] ] } },
{ "type": "Feature", "properties": { "style": "solid", "thickness": 1 }, "geometry": { "type": "LineString", "coordinates": [ [ -80.650277777777788, 28.348611111111111 ], [ -80.653611111111118, 28.332222222222221 ] ] } },
{ "type": "Feature", "properties": { "style": "solid", "thickness": 1 }, "geometry": { "type": "LineString", "coordinates": [ [ -80.640833333333333, 28.385277777777777 ], [ -80.633055555555543, 28.417777777777779 ] ] } },
{ "type": "Feature", "properties": { "style": "solid", "thickness": 1 }, "geometry": { "type": "LineString", "coordinates": [ [ -80.595277777777767, 28.415 ], [ -80.633055555555543, 28.417777777777779 ] ] } },
{ "type": "Feature", "properties": { "style": "solid", "thickness": 1 }, "geometry": { "type": "LineString", "coordinates": [ [ -80.433611111111119, 28.403611111111111 ], [ -80.395833333333343, 28.40111111111111 ] ] } },
{ "type": "Feature", "properties": { "style": "solid", "thickness": 1 }, "geometry": { "type": "LineString", "coordinates": [ [ -80.203888888888898, 28.387777777777778 ], [ -80.166666666666671, 28.385555555555555 ] ] } },
{ "type": "Feature", "properties": { "style": "solid", "thickness": 1 }, "geometry": { "type": "LineString", "coordinates": [ [ -80.166666666666671, 28.352222222222224 ], [ -80.166666666666671, 28.385555555555555 ] ] } },
{ "type": "Feature", "properties": { "style": "solid", "thickness": 1 }, "geometry": { "type": "LineString", "coordinates": [ [ -80.166666666666671, 28.218055555555555 ], [ -80.166666666666671, 28.184722222222224 ] ] } },
{ "type": "Feature", "properties": { "style": "solid", "thickness": 1 }, "geometry": { "type": "LineString", "coordinates": [ [ -80.166666666666671, 28.048888888888889 ], [ -80.166666666666671, 28.016666666666666 ] ] } },
{ "type": "Feature", "properties": { "style": "solid", "thickness": 1 }, "geometry": { "type": "LineString", "coordinates": [ [ -80.103213666666662, 26.68555175 ], [ -80.103213666666662, 26.6866705 ] ] } },
{ "type": "Feature", "properties": { "style": "solid", "thickness": 1 }, "geometry": { "type": "LineString", "coordinates": [ [ -80.102902333333333, 26.68543986111111 ], [ -80.102902305555546, 26.68678236111111 ] ] } },
{ "type": "Feature", "properties": { "style": "solid", "thickness": 1 }, "geometry": { "type": "LineString", "coordinates": [ [ -80.102590972222217, 26.68543986111111 ], [ -80.102590944444444, 26.68678236111111 ] ] } },
{ "type": "Feature", "properties": { "style": "solid", "thickness": 1 }, "geometry": { "type": "LineString", "coordinates": [ [ -80.102279611111101, 26.685551722222222 ], [ -80.102279583333328, 26.686670472222222 ] ] } },
{ "type": "Feature", "properties": { "style": "solid", "thickness": 1 }, "geometry": { "type": "LineString", "coordinates": [ [ -80.10196825, 26.68611111111111 ], [ -80.101973083333334, 26.686190416666665 ], [ -80.101988638888884, 26.686273305555556 ], [ -80.102016444444445, 26.68635825 ], [ -80.102057583333334, 26.686443194444443 ], [ -80.102112722222216, 26.686525722222221 ], [ -80.102181722222213, 26.686603166666668 ], [ -80.102263611111098, 26.68667277777778 ], [ -80.102356583333332, 26.686732138888889 ], [ -80.102458111111105, 26.686779194444444 ], [ -80.102565111111105, 26.68681275 ], [ -80.10267425, 26.686832333333335 ], [ -80.10278236111111, 26.686838277777778 ], [ -80.102886666666663, 26.686831694444443 ], [ -80.102984861111111, 26.686814111111111 ], [ -80.103075361111109, 26.686787388888888 ], [ -80.10315725, 26.686753444444445 ], [ -80.103232, 26.686713027777778 ], [ -80.103305027777779, 26.686662916666666 ], [ -80.103374666666667, 26.68660236111111 ], [ -80.1034385, 26.686531277777778 ], [ -80.103493888888877, 26.686450222222224 ], [ -80.10353825, 26.68636038888889 ], [ -80.103569305555553, 26.686263638888889 ], [ -80.103585277777768, 26.686162472222222 ], [ -80.103585277777768, 26.686059777777778 ], [ -80.103569305555553, 26.685958611111111 ], [ -80.10353825, 26.68586186111111 ], [ -80.103493888888877, 26.685772 ], [ -80.1034385, 26.685690944444445 ], [ -80.103374666666667, 26.68561988888889 ], [ -80.103305027777779, 26.685559305555557 ], [ -80.103232027777779, 26.685509194444446 ], [ -80.10315725, 26.685468777777778 ], [ -80.103075388888882, 26.685434861111112 ], [ -80.102984861111111, 26.685408111111112 ], [ -80.102886666666663, 26.685390527777777 ], [ -80.102782388888883, 26.685383944444446 ], [ -80.102674277777766, 26.685389888888889 ], [ -80.102565111111105, 26.685409472222222 ], [ -80.102458138888878, 26.685443 ], [ -80.102356611111105, 26.685490083333335 ], [ -80.102263638888886, 26.685549416666667 ], [ -80.102181722222213, 26.685619055555556 ], [ -80.102112749999989, 26.685696472222222 ], [ -80.102057611111107, 26.685779 ], [ -80.102016444444445, 26.685863944444446 ], [ -80.101988638888884, 26.685948888888888 ], [ -80.101973083333334, 26.686031777777778 ], [ -80.10196825, 26.68611111111111 ] ] } },
{ "type": "Feature", "properties": { "style": "solid", "thickness": 1 }, "geometry": { "type": "LineString", "coordinates": [ [ -80.605814222222222, 28.235467277777779 ], [ -80.604017555555544, 28.235669138888891 ] ] } },
{ "type": "Feature", "properties": { "style": "solid", "thickness": 1 }, "geometry": { "type": "LineString", "coordinates": [ [ -80.610499916666654, 28.23868238888889 ], [ -80.610727944444434, 28.240273555555557 ] ] } },
{ "type": "Feature", "properties": { "style": "solid", "thickness": 1 }, "geometry": { "type": "LineString", "coordinates": [ [ -80.609444555555555, 28.231317583333333 ], [ -80.609216555555548, 28.229726444444442 ] ] } },
{ "type": "Feature", "properties": { "style": "solid", "thickness": 1 }, "geometry": { "type": "LineString", "coordinates": [ [ -80.614130166666655, 28.234532611111113 ], [ -80.615926805555546, 28.234330611111112 ] ] } },
{ "type": "Feature", "properties": { "style": "solid", "thickness": 1 }, "geometry": { "type": "LineString", "coordinates": [ [ -80.612221694444443, 28.238112416666667 ], [ -80.612593611111109, 28.237875861111114 ], [ -80.61295305555555, 28.237587944444446 ], [ -80.61328833333333, 28.237247194444446 ], [ -80.613586388888876, 28.23685475 ], [ -80.61383375, 28.236414944444444 ], [ -80.614017749999988, 28.235935555555557 ], [ -80.614127833333328, 28.235427722222223 ], [ -80.614157055555552, 28.234905277777777 ], [ -80.614102916666667, 28.2343835 ], [ -80.613967833333334, 28.233877833333334 ], [ -80.613758805555548, 28.233402166666668 ], [ -80.6134865, 28.23296786111111 ], [ -80.613163888888877, 28.232582888888889 ], [ -80.612804805555555, 28.232251638888886 ], [ -80.612422777777766, 28.231975166666665 ], [ -80.612029833333324, 28.231751888888887 ], [ -80.61162511111111, 28.231573916666665 ], [ -80.611178194444435, 28.231429388888888 ], [ -80.610689861111112, 28.231326555555555 ], [ -80.610166694444445, 28.231275055555553 ], [ -80.609618527777769, 28.231283583333333 ], [ -80.609058416666656, 28.231358888888888 ], [ -80.608501861111108, 28.231504666666666 ], [ -80.607965777777778, 28.231720777777777 ], [ -80.607466805555546, 28.232002861111109 ], [ -80.607019805555552, 28.232342527777774 ], [ -80.606636194444434, 28.23272825 ], [ -80.606323249999988, 28.233146527777777 ], [ -80.606083722222223, 28.233583305555555 ], [ -80.60591622222222, 28.234025277777778 ], [ -80.605815972222217, 28.234460861111113 ], [ -80.605775861111098, 28.23488075 ], [ -80.605787722222217, 28.235280777777778 ], [ -80.605851, 28.235690444444444 ], [ -80.605973333333324, 28.23611375 ], [ -80.606161472222212, 28.236541666666668 ], [ -80.60641994444444, 28.23696288888889 ], [ -80.606750138888884, 28.237364472222222 ], [ -80.607149333333325, 28.237732611111113 ], [ -80.607610444444433, 28.238054 ], [ -80.608122055555555, 28.238317138888888 ], [ -80.6086695, 28.238513583333333 ], [ -80.609236, 28.23863888888889 ], [ -80.609804472222223, 28.238692888888888 ], [ -80.610359083333321, 28.238679305555557 ], [ -80.6108865, 28.238605055555556 ], [ -80.611376666666658, 28.238479166666668 ], [ -80.611822888888881, 28.238311611111111 ], [ -80.612221694444443, 28.238112416666667 ] ] } },
{ "type": "Feature", "properties": { "style": "solid", "thickness": 1 }, "geometry": { "type": "LineString", "coordinates": [ [ -80.681310555555555, 28.342080611111111 ], [ -80.679512305555562, 28.342283444444444 ] ] } },
{ "type": "Feature", "properties": { "style": "solid", "thickness": 1 }, "geometry": { "type": "LineString", "coordinates": [ [ -80.686002972222227, 28.345293027777778 ], [ -80.686232333333336, 28.346883972222223 ] ] } },
{ "type": "Feature", "properties": { "style": "solid", "thickness": 1 }, "geometry": { "type": "LineString", "coordinates": [ [ -80.6849415, 28.337929194444442 ], [ -80.684712194444444, 28.336338222222221 ] ] } },
{ "type": "Feature", "properties": { "style": "solid", "thickness": 1 }, "geometry": { "type": "LineString", "coordinates": [ [ -80.689633861111119, 28.3411415 ], [ -80.691432083333339, 28.340938527777777 ] ] } },
{ "type": "Feature", "properties": { "style": "solid", "thickness": 1 }, "geometry": { "type": "LineString", "coordinates": [ [ -80.687726027777785, 28.344722138888887 ], [ -80.68809813888889, 28.344485416666664 ], [ -80.688457722222225, 28.344197305555554 ], [ -80.688793083333337, 28.343856388888888 ], [ -80.689091138888898, 28.343463805555555 ], [ -80.689338444444445, 28.34302386111111 ], [ -80.689522277777783, 28.342544416666666 ], [ -80.689632138888896, 28.342036555555556 ], [ -80.689661027777788, 28.34151411111111 ], [ -80.689606472222223, 28.340992416666666 ], [ -80.689470888888891, 28.340486833333333 ], [ -80.689261333333334, 28.340011305555553 ], [ -80.688988472222221, 28.339577166666665 ], [ -80.688665277777787, 28.339192388888886 ], [ -80.688305638888892, 28.338861333333334 ], [ -80.687923027777785, 28.338585111111112 ], [ -80.687529555555557, 28.338362055555553 ], [ -80.687124333333344, 28.338184305555554 ], [ -80.68667686111111, 28.338040027777776 ], [ -80.686188027777789, 28.337937472222222 ], [ -80.685664305555562, 28.33788625 ], [ -80.685115611111115, 28.337895083333333 ], [ -80.684555, 28.337970694444444 ], [ -80.683998027777776, 28.33811675 ], [ -80.68346158333334, 28.338333138888888 ], [ -80.682962333333336, 28.338615472222219 ], [ -80.682515111111115, 28.338955388888888 ], [ -80.682131416666678, 28.339341305555553 ], [ -80.681818472222233, 28.339759722222222 ], [ -80.681579027777786, 28.340196611111111 ], [ -80.681411666666676, 28.340638638888887 ], [ -80.681311611111113, 28.34107425 ], [ -80.68127175, 28.341494138888887 ], [ -80.681283916666672, 28.341894166666666 ], [ -80.681347527777788, 28.34230375 ], [ -80.68147025, 28.34272697222222 ], [ -80.681658861111117, 28.34315475 ], [ -80.68191788888889, 28.343575833333333 ], [ -80.682248694444453, 28.343977194444442 ], [ -80.682648527777786, 28.34434511111111 ], [ -80.683110277777786, 28.34466625 ], [ -80.683622583333332, 28.344929083333334 ], [ -80.684170666666674, 28.345125222222222 ], [ -80.684737805555557, 28.345250222222219 ], [ -80.685306861111115, 28.345303888888889 ], [ -80.685862, 28.34529 ], [ -80.686389888888897, 28.345215472222222 ], [ -80.686880416666668, 28.34508933333333 ], [ -80.68732694444445, 28.344921555555555 ], [ -80.687726027777785, 28.344722138888887 ] ] } },
{ "type": "Feature", "properties": { "style": "solid", "thickness": 1 }, "geometry": { "type": "LineString", "coordinates": [ [ -80.641097111111122, 28.103218305555558 ], [ -80.63930266666668, 28.103420611111112 ] ] } },
{ "type": "Feature", "properties": { "style": "solid", "thickness": 1 }, "geometry": { "type": "LineString", "coordinates": [ [ -80.645778194444446, 28.106432472222224 ], [ -80.646006444444453, 28.108023638888891 ] ] } },
{ "type": "Feature", "properties": { "style": "solid", "thickness": 1 }, "geometry": { "type": "LineString", "coordinates": [ [ -80.644721833333335, 28.099067527777777 ], [ -80.644493611111116, 28.097476333333333 ] ] } },
{ "type": "Feature", "properties": { "style": "solid", "thickness": 1 }, "geometry": { "type": "LineString", "coordinates": [ [ -80.64940283333334, 28.102281583333333 ], [ -80.651197277777783, 28.10207913888889 ] ] } },
{ "type": "Feature", "properties": { "style": "solid", "thickness": 1 }, "geometry": { "type": "LineString", "coordinates": [ [ -80.647497750000014, 28.105862027777778 ], [ -80.647869166666666, 28.105625388888889 ], [ -80.648228083333336, 28.105337361111111 ], [ -80.648562833333344, 28.1049965 ], [ -80.648860416666679, 28.104603972222225 ], [ -80.64910736111112, 28.104164083333334 ], [ -80.649290972222232, 28.103684611111113 ], [ -80.649400777777785, 28.10317675 ], [ -80.649429805555556, 28.10265425 ], [ -80.649375583333338, 28.102132472222223 ], [ -80.6492405, 28.101626805555558 ], [ -80.649031555555567, 28.101151166666668 ], [ -80.648759444444451, 28.100716916666666 ], [ -80.648437111111122, 28.100332 ], [ -80.648078361111118, 28.100000805555556 ], [ -80.647696694444448, 28.099724416666664 ], [ -80.647304138888899, 28.099501222222219 ], [ -80.646899861111123, 28.099323333333331 ], [ -80.646453416666674, 28.099178916666666 ], [ -80.645965666666669, 28.099076194444443 ], [ -80.645443111111121, 28.099024805555555 ], [ -80.644895583333337, 28.099033472222221 ], [ -80.644336166666676, 28.099108916666665 ], [ -80.643780305555566, 28.099254833333333 ], [ -80.643244944444447, 28.099471083333331 ], [ -80.642746666666667, 28.099753305555556 ], [ -80.642300277777778, 28.100093111111114 ], [ -80.64191725, 28.100478944444447 ], [ -80.641604805555559, 28.100897333333336 ], [ -80.641365722222233, 28.101334166666668 ], [ -80.641198555555562, 28.101776222222224 ], [ -80.641098555555558, 28.102211833333335 ], [ -80.64105861111112, 28.10263175 ], [ -80.641070583333345, 28.103031805555556 ], [ -80.641133916666675, 28.103441472222222 ], [ -80.641256222222225, 28.10386477777778 ], [ -80.641444277777779, 28.104292666666669 ], [ -80.641702583333341, 28.104713833333335 ], [ -80.642032500000013, 28.105115361111114 ], [ -80.642431333333334, 28.105483444444445 ], [ -80.64289197222223, 28.10580475 ], [ -80.64340308333334, 28.10606775 ], [ -80.643949916666671, 28.106264083333336 ], [ -80.644515777777784, 28.10638927777778 ], [ -80.645083583333346, 28.106443111111112 ], [ -80.645637527777779, 28.106429388888891 ], [ -80.646164305555558, 28.106355027777781 ], [ -80.646653833333346, 28.106229 ], [ -80.647099472222223, 28.106061333333336 ], [ -80.647497750000014, 28.105862027777778 ] ] } },
{ "type": "Feature", "properties": { "style": "solid", "thickness": 1 }, "geometry": { "type": "LineString", "coordinates": [ [ -80.795060666666672, 28.515295194444445 ], [ -80.79325980555555, 28.5154995 ] ] } },
{ "type": "Feature", "properties": { "style": "solid", "thickness": 1 }, "geometry": { "type": "LineString", "coordinates": [ [ -80.79976383333333, 28.518503472222221 ], [ -80.799995222222222, 28.520094083333333 ] ] } },
{ "type": "Feature", "properties": { "style": "solid", "thickness": 1 }, "geometry": { "type": "LineString", "coordinates": [ [ -80.79869294444444, 28.511141166666668 ], [ -80.798461583333335, 28.509550527777776 ] ] } },
{ "type": "Feature", "properties": { "style": "solid", "thickness": 1 }, "geometry": { "type": "LineString", "coordinates": [ [ -80.803396027777779, 28.514349305555555 ], [ -80.805196833333326, 28.51414488888889 ] ] } },
{ "type": "Feature", "properties": { "style": "solid", "thickness": 1 }, "geometry": { "type": "LineString", "coordinates": [ [ -80.801488972222216, 28.51793122222222 ], [ -80.801861416666668, 28.517694194444445 ], [ -80.802221277777775, 28.517405833333331 ], [ -80.802556777777781, 28.517064666666666 ], [ -80.802854888888888, 28.51667186111111 ], [ -80.803102138888889, 28.516231777777779 ], [ -80.80328575, 28.515752222222222 ], [ -80.80339525, 28.515244305555555 ], [ -80.803423611111114, 28.514721888888889 ], [ -80.803368444444445, 28.514200277777778 ], [ -80.803232111111114, 28.513694833333332 ], [ -80.803021722222226, 28.513219527777778 ], [ -80.802747972222221, 28.512785666666666 ], [ -80.802423861111109, 28.512401194444443 ], [ -80.802063333333336, 28.512070472222224 ], [ -80.801679833333324, 28.511794555555557 ], [ -80.8012855, 28.511571833333335 ], [ -80.800879472222221, 28.511394472222221 ], [ -80.800431138888882, 28.511250555555556 ], [ -80.79994141666667, 28.511148416666668 ], [ -80.799416833333325, 28.511097638888888 ], [ -80.798867305555547, 28.511106916666666 ], [ -80.798305888888891, 28.511182972222223 ], [ -80.797748194444438, 28.5113295 ], [ -80.79721111111111, 28.511546305555555 ], [ -80.79671138888888, 28.511829027777779 ], [ -80.796263833333327, 28.51216925 ], [ -80.795879944444437, 28.512555444444445 ], [ -80.795566944444445, 28.512974111111109 ], [ -80.795327583333332, 28.513411138888888 ], [ -80.795160416666661, 28.513853277777777 ], [ -80.795060666666672, 28.514288916666668 ], [ -80.795021166666672, 28.514708805555557 ], [ -80.795033777777775, 28.515108777777776 ], [ -80.795097944444436, 28.515518305555556 ], [ -80.795221305555557, 28.515941361111111 ], [ -80.795410666666669, 28.516368944444444 ], [ -80.79567055555556, 28.516789777777777 ], [ -80.796002277777774, 28.517190833333334 ], [ -80.796403111111104, 28.517558416666667 ], [ -80.796865944444448, 28.51787911111111 ], [ -80.797379333333325, 28.518141527777775 ], [ -80.797928472222225, 28.518337194444445 ], [ -80.798496638888892, 28.518461694444444 ], [ -80.799066638888888, 28.518514916666664 ], [ -80.799622611111104, 28.518500555555555 ], [ -80.80015125, 28.518425611111109 ], [ -80.800642416666662, 28.518299083333332 ], [ -80.801089472222216, 28.518130944444444 ], [ -80.801488972222216, 28.51793122222222 ] ] } },
{ "type": "Feature", "properties": { "style": "solid", "thickness": 1 }, "geometry": { "type": "LineString", "coordinates": [ [ -80.690195277777775, 28.615375444444446 ], [ -80.688392555555566, 28.615578388888892 ] ] } },
{ "type": "Feature", "properties": { "style": "solid", "thickness": 1 }, "geometry": { "type": "LineString", "coordinates": [ [ -80.694899722222232, 28.618587055555555 ], [ -80.695129805555553, 28.62017777777778 ] ] } },
{ "type": "Feature", "properties": { "style": "solid", "thickness": 1 }, "geometry": { "type": "LineString", "coordinates": [ [ -80.693834805555554, 28.61122425 ], [ -80.69360475, 28.6096335 ] ] } },
{ "type": "Feature", "properties": { "style": "solid", "thickness": 1 }, "geometry": { "type": "LineString", "coordinates": [ [ -80.69853919444445, 28.61443575 ], [ -80.700341861111113, 28.61423266666667 ] ] } },
{ "type": "Feature", "properties": { "style": "solid", "thickness": 1 }, "geometry": { "type": "LineString", "coordinates": [ [ -80.696627, 28.618016083333334 ], [ -80.697, 28.617779361111111 ], [ -80.697360444444442, 28.617491277777777 ], [ -80.697696611111112, 28.617150361111111 ], [ -80.697995361111111, 28.616757805555554 ], [ -80.69824325, 28.616317916666667 ], [ -80.698427472222221, 28.6158385 ], [ -80.698537555555561, 28.615330694444445 ], [ -80.698566472222225, 28.614808333333336 ], [ -80.698511722222221, 28.614286694444445 ], [ -80.69837575, 28.613781166666669 ], [ -80.698165611111108, 28.613305722222222 ], [ -80.697892027777783, 28.612871694444447 ], [ -80.697568, 28.612486972222225 ], [ -80.697207416666672, 28.612156 ], [ -80.69682383333334, 28.611879833333333 ], [ -80.696429361111115, 28.611656833333335 ], [ -80.696023111111117, 28.611479166666669 ], [ -80.695574527777779, 28.611334916666667 ], [ -80.695084444444447, 28.611232416666667 ], [ -80.694559416666664, 28.61118125 ], [ -80.694009361111114, 28.61119013888889 ], [ -80.693447361111112, 28.611265777777778 ], [ -80.692889, 28.611411861111112 ], [ -80.69235125, 28.611628277777779 ], [ -80.691850805555561, 28.611910611111114 ], [ -80.6914025, 28.6122505 ], [ -80.691017861111121, 28.612636416666668 ], [ -80.69070419444445, 28.613054805555556 ], [ -80.690464194444445, 28.613491666666668 ], [ -80.690296472222229, 28.613933638888891 ], [ -80.690196222222227, 28.614369222222223 ], [ -80.690156277777788, 28.614789055555558 ], [ -80.690168527777786, 28.615189 ], [ -80.690232361111114, 28.615598555555557 ], [ -80.69035544444445, 28.616021694444445 ], [ -80.690544555555562, 28.616449416666669 ], [ -80.690804277777787, 28.616870416666668 ], [ -80.691135944444454, 28.617271694444444 ], [ -80.691536805555558, 28.617639555555556 ], [ -80.69199975, 28.617960583333335 ], [ -80.692513361111111, 28.618223361111113 ], [ -80.693062833333343, 28.618419416666669 ], [ -80.693631388888889, 28.618544361111113 ], [ -80.694201861111111, 28.618597972222222 ], [ -80.694758388888886, 28.618584055555555 ], [ -80.695287583333339, 28.6185095 ], [ -80.695779305555561, 28.618383305555557 ], [ -80.696226944444447, 28.6182155 ], [ -80.696627, 28.618016083333334 ] ] } },
{ "type": "Feature", "properties": { "style": "solid", "thickness": 1 }, "geometry": { "type": "LineString", "coordinates": [ [ -80.56245025, 28.46806611111111 ], [ -80.560649722222223, 28.468267416666666 ] ] } },
{ "type": "Feature", "properties": { "style": "solid", "thickness": 1 }, "geometry": { "type": "LineString", "coordinates": [ [ -80.567144638888891, 28.471282277777775 ], [ -80.567372555555551, 28.472873333333332 ] ] } },
{ "type": "Feature", "properties": { "style": "solid", "thickness": 1 }, "geometry": { "type": "LineString", "coordinates": [ [ -80.566089833333336, 28.463917916666666 ], [ -80.565861944444435, 28.462326861111109 ] ] } },
{ "type": "Feature", "properties": { "style": "solid", "thickness": 1 }, "geometry": { "type": "LineString", "coordinates": [ [ -80.570784138888882, 28.467134 ], [ -80.572584638888884, 28.466932527777775 ] ] } },
{ "type": "Feature", "properties": { "style": "solid", "thickness": 1 }, "geometry": { "type": "LineString", "coordinates": [ [ -80.568870277777776, 28.47071286111111 ], [ -80.569243083333333, 28.470476444444444 ], [ -80.569603388888879, 28.470188666666665 ], [ -80.5699395, 28.469848055555556 ], [ -80.570238333333336, 28.469455722222222 ], [ -80.570486388888881, 28.469016027777776 ], [ -80.570670944444444, 28.46853675 ], [ -80.570781472222222, 28.468029 ], [ -80.570810944444446, 28.467506611111109 ], [ -80.57075688888888, 28.466984888888888 ], [ -80.570621694444441, 28.466479222222222 ], [ -80.570412416666656, 28.466003555555556 ], [ -80.570139694444435, 28.465569222222221 ], [ -80.569816527777775, 28.465184194444443 ], [ -80.569456833333334, 28.464852861111112 ], [ -80.569074083333334, 28.464576305555553 ], [ -80.568680388888879, 28.464352916666666 ], [ -80.56827488888888, 28.464174861111111 ], [ -80.567827083333327, 28.46403022222222 ], [ -80.56733777777778, 28.46392725 ], [ -80.5668135, 28.46387561111111 ], [ -80.56626416666667, 28.46388397222222 ], [ -80.565702833333333, 28.463959111111109 ], [ -80.565145055555547, 28.464104694444444 ], [ -80.56460775, 28.464320638888889 ], [ -80.564107638888885, 28.464602527777778 ], [ -80.563659555555546, 28.464942027777777 ], [ -80.563274972222217, 28.46532761111111 ], [ -80.562961222222214, 28.46574575 ], [ -80.562721027777769, 28.466182416666665 ], [ -80.562553027777781, 28.466624305555555 ], [ -80.562452388888886, 28.467059805555554 ], [ -80.562412027777782, 28.467479638888886 ], [ -80.562423777777781, 28.467879638888888 ], [ -80.562487027777777, 28.468289277777775 ], [ -80.562609444444448, 28.468712555555555 ], [ -80.562797805555547, 28.469140472222222 ], [ -80.563056694444441, 28.46956175 ], [ -80.563387444444444, 28.469963388888889 ], [ -80.563787333333337, 28.47033161111111 ], [ -80.564249277777776, 28.470653111111108 ], [ -80.564761888888881, 28.470916361111108 ], [ -80.565310416666662, 28.471112944444442 ], [ -80.565878055555558, 28.471238416666665 ], [ -80.566447722222222, 28.471292555555554 ], [ -80.5670035, 28.471279138888889 ], [ -80.567532083333333, 28.471205055555554 ], [ -80.568023305555556, 28.471079333333332 ], [ -80.568470527777777, 28.470911916666665 ], [ -80.568870277777776, 28.47071286111111 ] ] } },
{ "type": "Feature", "properties": { "style": "solid", "thickness": 1 }, "geometry": { "type": "LineString", "coordinates": [ [ -80.831223444444447, 28.6230185 ], [ -80.82942088888889, 28.62322325 ] ] } },
{ "type": "Feature", "properties": { "style": "solid", "thickness": 1 }, "geometry": { "type": "LineString", "coordinates": [ [ -80.835932277777772, 28.626225361111111 ], [ -80.836164444444435, 28.627815805555556 ] ] } },
{ "type": "Feature", "properties": { "style": "solid", "thickness": 1 }, "geometry": { "type": "LineString", "coordinates": [ [ -80.834857833333331, 28.618863722222223 ], [ -80.834625722222214, 28.61727325 ] ] } },
{ "type": "Feature", "properties": { "style": "solid", "thickness": 1 }, "geometry": { "type": "LineString", "coordinates": [ [ -80.83956661111111, 28.622070444444446 ], [ -80.841369138888879, 28.621865555555555 ] ] } },
{ "type": "Feature", "properties": { "style": "solid", "thickness": 1 }, "geometry": { "type": "LineString", "coordinates": [ [ -80.837658916666669, 28.625652666666667 ], [ -80.838031666666666, 28.625415555555556 ], [ -80.83839175, 28.625127111111112 ], [ -80.8387275, 28.624785861111111 ], [ -80.839025777777778, 28.624393027777778 ], [ -80.839273083333325, 28.623952888888891 ], [ -80.839456722222224, 28.623473305555557 ], [ -80.839566138888884, 28.62296538888889 ], [ -80.839594388888884, 28.622443 ], [ -80.839538944444442, 28.621921416666666 ], [ -80.839402333333325, 28.621416055555557 ], [ -80.839191583333331, 28.620940833333332 ], [ -80.838917416666661, 28.620507055555557 ], [ -80.83859286111111, 28.620122694444444 ], [ -80.838231833333325, 28.619792083333333 ], [ -80.837847861111101, 28.619516305555557 ], [ -80.83745308333333, 28.619293694444444 ], [ -80.837046583333333, 28.619116444444444 ], [ -80.836597777777769, 28.618972666666668 ], [ -80.83610752777777, 28.61887063888889 ], [ -80.835582416666668, 28.61882 ], [ -80.835032361111104, 28.618829444444444 ], [ -80.834470416666662, 28.61890563888889 ], [ -80.833912222222224, 28.619052305555556 ], [ -80.833374694444444, 28.619269222222222 ], [ -80.832874583333336, 28.619552083333335 ], [ -80.832426694444436, 28.619892416666666 ], [ -80.832042555555546, 28.620278694444444 ], [ -80.831729388888888, 28.620697388888889 ], [ -80.831489944444442, 28.621134472222224 ], [ -80.831322777777771, 28.621576638888889 ], [ -80.831223083333327, 28.622012277777777 ], [ -80.831183694444434, 28.622432166666666 ], [ -80.831196444444444, 28.622832111111112 ], [ -80.831260805555559, 28.623241583333336 ], [ -80.831384444444438, 28.62366461111111 ], [ -80.831574138888882, 28.624092111111111 ], [ -80.831834416666666, 28.624512833333334 ], [ -80.832166583333333, 28.624913805555558 ], [ -80.832567972222222, 28.625281222222224 ], [ -80.833031333333324, 28.625601805555554 ], [ -80.833545333333333, 28.625864055555557 ], [ -80.834095083333324, 28.626059555555557 ], [ -80.834663833333323, 28.626183916666665 ], [ -80.835234416666665, 28.626236972222223 ], [ -80.83579094444444, 28.626222472222224 ], [ -80.836320083333334, 28.626147388888889 ], [ -80.836811694444435, 28.626020722222222 ], [ -80.837259111111109, 28.625852472222224 ], [ -80.837658916666669, 28.625652666666667 ] ] } },
{ "type": "Feature", "properties": { "style": "solid", "thickness": 1 }, "geometry": { "type": "LineString", "coordinates": [ [ -80.554191444444442, 27.961343638888888 ], [ -80.552399083333327, 27.961544833333331 ] ] } },
{ "type": "Feature", "properties": { "style": "solid", "thickness": 1 }, "geometry": { "type": "LineString", "coordinates": [ [ -80.558864027777773, 27.964560916666667 ], [ -80.559090722222223, 27.966152333333334 ] ] } },
{ "type": "Feature", "properties": { "style": "solid", "thickness": 1 }, "geometry": { "type": "LineString", "coordinates": [ [ -80.557814833333325, 27.957194861111109 ], [ -80.557588166666662, 27.955603416666666 ] ] } },
{ "type": "Feature", "properties": { "style": "solid", "thickness": 1 }, "geometry": { "type": "LineString", "coordinates": [ [ -80.56248736111111, 27.960412027777778 ], [ -80.564279666666664, 27.960210694444445 ] ] } },
{ "type": "Feature", "properties": { "style": "solid", "thickness": 1 }, "geometry": { "type": "LineString", "coordinates": [ [ -80.56058183333333, 27.9639915 ], [ -80.560952972222225, 27.963755083333332 ], [ -80.561311666666668, 27.963467277777777 ], [ -80.56164625, 27.963126611111111 ], [ -80.56194377777777, 27.96273422222222 ], [ -80.56219075, 27.962294444444442 ], [ -80.5623745, 27.961815083333331 ], [ -80.56248458333333, 27.96130725 ], [ -80.562514, 27.96078475 ], [ -80.562460222222214, 27.960262916666665 ], [ -80.562325722222226, 27.959757111111109 ], [ -80.562117444444439, 27.959281305555553 ], [ -80.561846, 27.958846861111109 ], [ -80.561524388888884, 27.958461722222221 ], [ -80.561166361111106, 27.958130277777776 ], [ -80.560785388888888, 27.957853638888889 ], [ -80.560393527777777, 27.957630194444445 ], [ -80.559989888888893, 27.957452055555557 ], [ -80.559544138888882, 27.957307333333333 ], [ -80.559057083333329, 27.957204305555553 ], [ -80.558535222222218, 27.957152583333333 ], [ -80.557988388888887, 27.957160916666666 ], [ -80.557429611111104, 27.957236027777778 ], [ -80.556874361111113, 27.957381583333333 ], [ -80.5563395, 27.957597527777779 ], [ -80.555841638888893, 27.957879444444444 ], [ -80.555395555555549, 27.958219 ], [ -80.555012694444443, 27.95860461111111 ], [ -80.554700333333329, 27.959022833333332 ], [ -80.554461194444443, 27.959459555555554 ], [ -80.554293888888893, 27.959901527777777 ], [ -80.55419363888889, 27.960337111111109 ], [ -80.554153444444438, 27.960757027777777 ], [ -80.554165083333331, 27.96115711111111 ], [ -80.554228, 27.961566833333332 ], [ -80.554349833333333, 27.96199025 ], [ -80.554537277777769, 27.962418277777775 ], [ -80.554794944444438, 27.962839638888887 ], [ -80.555124111111112, 27.963241388888889 ], [ -80.555522166666663, 27.96360975 ], [ -80.55598194444444, 27.963931361111111 ], [ -80.556492194444445, 27.964194694444444 ], [ -80.557038194444445, 27.964391388888888 ], [ -80.557603222222212, 27.964516916666668 ], [ -80.558170277777776, 27.964571138888889 ], [ -80.558723527777772, 27.96455775 ], [ -80.559249694444446, 27.964483694444443 ], [ -80.559738694444448, 27.964358 ], [ -80.560183888888886, 27.964190583333334 ], [ -80.56058183333333, 27.9639915 ] ] } }
]
}
