{"type":"FeatureCollection","features":[{"type":"Feature","geometry":{"type":"LineString","coordinates":[[-80.211288,26.79522227777778],[-80.21935436111112,26.786845222222222],[-80.22678391666666,26.77800688888889],[-80.23354413888889,26.768746138888886],[-80.23960547222222,26.759103694444445],[-80.24494141666666,26.749121972222223],[-80.24952872222222,26.738844833333335],[-80.25334747222222,26.728317444444443],[-80.25638105555555,26.717586055555554],[-80.25861638888888,26.706697805555557],[-80.26004386111111,26.6957005],[-80.26065747222222,26.684642416666666],[-80.26045472222222,26.673572083333333],[-80.25943680555555,26.66253808333333],[-80.25760833333334,26.65158875],[-80.25497761111112,26.640772166666665],[-80.25155638888889,26.630135722222224],[-80.24735983333333,26.619726],[-80.24240658333333,26.609588666666667],[-80.23671852777778,26.59976808333333],[-80.23032072222223,26.59030725],[-80.2232413611111,26.581247583333333],[-80.22268058333333,26.58058161111111]]},"properties":{"style":"solid","thickness":1}},{"type":"Feature","geometry":{"type":"LineString","coordinates":[[-80.3937736388889,26.77331836111111],[-80.39840030555557,26.759055666666665],[-80.40223605555556,26.744605194444446],[-80.40527183333334,26.730002277777775],[-80.40750052777778,26.715282527777777],[-80.40891702777779,26.70048186111111],[-80.40951816666667,26.685636416666668],[-80.40930280555555,26.67078236111111],[-80.40827177777778,26.655955916666667],[-80.40642791666667,26.64119322222222],[-80.40377605555557,26.626530194444445],[-80.401787,26.61774263888889]]},"properties":{"style":"solid","thickness":1}},{"type":"Feature","geometry":{"type":"LineString","coordinates":[[-80.23979080555556,26.588096138888886],[-80.224071,26.597022416666665]]},"properties":{"style":"solid","thickness":1}},{"type":"Feature","geometry":{"type":"LineString","coordinates":[[-80.22914705555556,26.789203500000003],[-80.21441697222222,26.778975555555554]]},"properties":{"style":"solid","thickness":1}},{"type":"Feature","geometry":{"type":"LineString","coordinates":[[-80.2511813888889,26.68936338888889],[-80.26976905555556,26.690153777777777]]},"properties":{"style":"solid","thickness":1}},{"type":"Feature","geometry":{"type":"LineString","coordinates":[[-80.39988966666667,26.695618666666668],[-80.41847927777778,26.69638966666667]]},"properties":{"style":"solid","thickness":1}},{"type":"Feature","geometry":{"type":"LineString","coordinates":[[-80.21528330555556,26.58564297222222],[-80.23007719444445,26.57551986111111]]},"properties":{"style":"solid","thickness":1}},{"type":"Feature","geometry":{"type":"LineString","coordinates":[[-80.20444780555556,26.789551000000003],[-80.21812888888888,26.80089325]]},"properties":{"style":"solid","thickness":1}},{"type":"Feature","geometry":{"type":"LineString","coordinates":[[-80.39756108333334,26.644672944444444],[-80.416009,26.64253311111111]]},"properties":{"style":"solid","thickness":1}},{"type":"Feature","geometry":{"type":"LineString","coordinates":[[-80.39270375000001,26.619530305555557],[-80.41087,26.615954416666668]]},"properties":{"style":"solid","thickness":1}},{"type":"Feature","geometry":{"type":"LineString","coordinates":[[-80.39233158333334,26.746153055555556],[-80.41049766666667,26.74981275]]},"properties":{"style":"solid","thickness":1}},{"type":"Feature","geometry":{"type":"LineString","coordinates":[[-80.38490119444445,26.770784027777776],[-80.40264647222223,26.775852138888887]]},"properties":{"style":"solid","thickness":1}},{"type":"Feature","geometry":{"type":"LineString","coordinates":[[-80.07531841666666,26.668750916666667],[-80.07585855555556,26.66989652777778],[-80.07634716666666,26.671073305555556],[-80.07678130555556,26.672278527777777],[-80.0771583611111,26.673509222222222],[-80.07747586111111,26.67476211111111],[-80.07773177777777,26.676033750000002],[-80.07792430555556,26.677320444444447],[-80.07805208333333,26.67861838888889],[-80.07811408333333,26.679923583333334],[-80.07810969444444,26.681232027777778],[-80.07803869444444,26.682539611111114],[-80.0779013611111,26.68384222222222],[-80.07769830555556,26.685135805555557],[-80.07743052777778,26.686416416666667],[-80.0770995,26.687680166666667],[-80.07670702777777,26.688923388888888],[-80.07625525,26.690142583333333],[-80.07574661111111,26.691334472222223],[-80.07518383333333,26.692496000000002],[-80.07456994444443,26.693624472222222],[-80.07390808333334,26.69471736111111]]},"properties":{"style":"solid","thickness":1}},{"type":"Feature","geometry":{"type":"LineString","coordinates":[[-80.07531841666666,26.668750916666667],[-80.07465702777777,26.669844],[-80.07404355555555,26.670972555555558],[-80.07348119444444,26.672134194444446],[-80.07297286111111,26.673326111111113],[-80.07252133333333,26.674545277777778],[-80.07212905555555,26.6757885],[-80.07179819444444,26.677052194444446],[-80.0715305,26.678332750000003],[-80.07132747222222,26.679626250000002],[-80.07119011111111,26.68092877777778],[-80.07111905555556,26.68223627777778],[-80.07111452777778,26.68354461111111],[-80.07117636111111,26.68484975],[-80.07130394444444,26.68614761111111],[-80.07149625,26.68743427777778],[-80.07175191666666,26.68870588888889],[-80.07206919444444,26.68995877777778],[-80.07244597222221,26.6911895],[-80.0728798611111,26.69239477777778],[-80.07336819444444,26.693571666666667],[-80.07390808333334,26.69471736111111]]},"properties":{"style":"solid","thickness":1}},{"type":"Feature","geometry":{"type":"LineString","coordinates":[[-80.4521525,26.697095666666666],[-80.44828975,26.697531194444444],[-80.44602430555555,26.695842222222222],[-80.44565761111112,26.695154416666668],[-80.44530763888889,26.69458625],[-80.44510705555555,26.693150583333335],[-80.44548938888889,26.69201375],[-80.44613808333334,26.69084691666667],[-80.4468703888889,26.69027827777778],[-80.447353,26.689859277777778],[-80.44836836111112,26.68938025],[-80.45076575,26.689109916666666],[-80.45188144444445,26.689348666666667],[-80.45276419444444,26.689856722222224],[-80.45354719444445,26.690619083333335],[-80.45408055555556,26.691531138888887],[-80.45433083333333,26.692353583333333],[-80.45449808333333,26.693549972222222],[-80.4544485,26.694163166666666],[-80.45414927777779,26.694926083333332],[-80.45366666666666,26.695345083333333],[-80.4521525,26.697095666666666],[-80.45348508333333,26.697917583333332],[-80.45428488888889,26.698799555555556],[-80.45463491666666,26.699367722222224],[-80.45490252777778,26.701281916666666],[-80.45443725,26.702792694444444],[-80.45408780555556,26.703196666666667],[-80.4529558611111,26.703810416666666],[-80.45220680555556,26.704259472222223],[-80.45047511111112,26.70445472222222],[-80.44922608333334,26.70423097222222],[-80.44731047222223,26.703110166666665],[-80.44696047222223,26.702542027777778],[-80.44665955555556,26.7003885],[-80.44689197222223,26.699147083333333],[-80.44700844444445,26.699012416666665],[-80.44760758333334,26.698458777777777],[-80.44828975,26.697531194444444]]},"properties":{"style":"solid","thickness":1}},{"type":"Feature","geometry":{"type":"LineString","coordinates":[[-80.43014375,26.706138],[-80.43100983333333,26.706526555555556],[-80.43197572222223,26.706660833333334],[-80.43517280555555,26.70630075],[-80.43633827777778,26.705926416666667],[-80.43672119444444,26.705761777777777],[-80.43856897222223,26.704459888888888],[-80.43960072222222,26.703128416666665],[-80.43983322222222,26.701887],[-80.44046486111111,26.699628416666666],[-80.44008050000001,26.696876694444445],[-80.43963027777778,26.695590666666668],[-80.43908030555556,26.694558944444445],[-80.43838044444445,26.693422555555557],[-80.43686469444445,26.692256583333332],[-80.43416697222223,26.691345277777778],[-80.43238533333334,26.691181416666666],[-80.43092019444445,26.69134641666667],[-80.42910558333334,26.691915333333334],[-80.42848969444445,26.69234927777778],[-80.42799030555555,26.692648555555557]]},"properties":{"style":"solid","thickness":1}},{"type":"Feature","geometry":{"type":"LineString","coordinates":[[-80.05576452777777,26.701611777777778],[-80.05783644444445,26.716811749999998],[-80.05117274999999,26.71754425],[-80.05060702777777,26.71736347222222],[-80.04934233333333,26.717016527777776],[-80.04797980555556,26.715951472222223],[-80.04728366666666,26.714813194444442],[-80.047088,26.71337697222222],[-80.04745802777778,26.71212152777778],[-80.04849438888888,26.71079288888889],[-80.04962855555556,26.710182333333332],[-80.050129,26.709884388888888],[-80.05679225,26.709151944444443]]},"properties":{"style":"solid","thickness":1}},{"type":"Feature","geometry":{"type":"LineString","coordinates":[[-80.04004016666667,26.70333972222222],[-80.04211002777778,26.718539916666664],[-80.03651236111111,26.719154611111108],[-80.03531286111111,26.719286305555553],[-80.03428216666667,26.718670611111108],[-80.03350172222223,26.717905944444443],[-80.03343658333333,26.717427194444443],[-80.03311075,26.715033444444444],[-80.03319516666667,26.71465975],[-80.03346463888889,26.71365836111111],[-80.03463444444444,26.712315194444443],[-80.033204,26.71174336111111],[-80.03248877777777,26.71145747222222],[-80.031741,26.710932166666666],[-80.03119458333333,26.70989886111111],[-80.0307711388889,26.706786972222222],[-80.03105691666667,26.705905277777777],[-80.03189202777777,26.70508475],[-80.03249319444444,26.70453286111111],[-80.03311061111111,26.70410063888889],[-80.04004016666667,26.70333972222222]]},"properties":{"style":"solid","thickness":1}},{"type":"Feature","geometry":{"type":"LineString","coordinates":[[-80.04116466666666,26.711598111111112],[-80.03463444444444,26.712315194444443]]},"properties":{"style":"solid","thickness":1}},{"type":"Feature","geometry":{"type":"LineString","coordinates":[[-80.02484836111111,26.705007444444444],[-80.02691625,26.72020786111111]]},"properties":{"style":"solid","thickness":1}},{"type":"Feature","geometry":{"type":"LineString","coordinates":[[-80.22617469444445,26.818594527777776],[-80.22666988888889,26.82218438888889],[-80.22735066666667,26.824174222222222],[-80.22774947222223,26.825101916666668],[-80.22824866666667,26.825775444444446],[-80.23004730555556,26.82703363888889],[-80.23173041666666,26.827454166666666],[-80.23226394444444,26.827394916666666],[-80.23378188888888,26.826618805555555],[-80.2350508611111,26.82501988888889],[-80.23548525,26.82424263888889],[-80.23561986111112,26.82325572222222],[-80.23573919444445,26.821177],[-80.23524372222222,26.817587166666666],[-80.23456286111112,26.815597361111113],[-80.23416402777778,26.814669722222224],[-80.23353147222223,26.814011],[-80.23186636111112,26.81273802777778],[-80.23018347222222,26.812317500000002],[-80.22965002777778,26.812376750000002],[-80.22813222222223,26.813152805555557],[-80.22672994444444,26.8147665],[-80.22642888888889,26.81552891666667],[-80.22629419444445,26.816515833333334],[-80.22617469444445,26.818594527777776]]},"properties":{"style":"solid","thickness":1}},{"type":"Feature","geometry":{"type":"LineString","coordinates":[[-80.21991455555556,26.813457777777778],[-80.21467416666667,26.82946913888889],[-80.20564441666667,26.815041083333334]]},"properties":{"style":"solid","thickness":1}},{"type":"Feature","geometry":{"type":"LineString","coordinates":[[-80.21819038888889,26.818630444444445],[-80.20858763888889,26.819695888888887]]},"properties":{"style":"solid","thickness":1}},{"type":"Feature","geometry":{"type":"LineString","coordinates":[[-80.25582325,26.793725611111114],[-80.25631927777778,26.79731538888889],[-80.25700038888888,26.799305083333333],[-80.25739936111111,26.800232694444446],[-80.25789861111112,26.80090613888889],[-80.25969722222223,26.802163944444445],[-80.26138005555555,26.80258413888889],[-80.26191344444445,26.80252477777778],[-80.26343088888889,26.801748361111112],[-80.26469913888889,26.80014913888889],[-80.26513325,26.79937180555556],[-80.26526758333333,26.798384861111114],[-80.26538633333334,26.796306111111114],[-80.26489005555555,26.79271636111111],[-80.26420883333333,26.790726694444444],[-80.26380983333334,26.789799111111112],[-80.26317727777777,26.78914052777778],[-80.26151216666666,26.78786791666667],[-80.25982955555556,26.787447722222225],[-80.25929622222222,26.787507083333335],[-80.25777894444444,26.788283472222226],[-80.2563773888889,26.789897444444446],[-80.25607661111111,26.79065991666667],[-80.25594219444444,26.79164686111111],[-80.25582325,26.793725611111114]]},"properties":{"style":"solid","thickness":1}},{"type":"Feature","geometry":{"type":"LineString","coordinates":[[-80.24942983333334,26.788604972222224],[-80.25152891666667,26.803801833333335],[-80.24592825,26.804424722222222],[-80.24472808333333,26.804558166666666],[-80.2436955,26.803944],[-80.24291311111111,26.8031805],[-80.24284702777778,26.80270186111111],[-80.24251661111111,26.80030863888889],[-80.24260038888889,26.799934833333335],[-80.24286825,26.79893305555556],[-80.24403647222222,26.797588194444447],[-80.24260391666667,26.797018472222224],[-80.24188766666667,26.79673361111111],[-80.24113836111111,26.796209444444447],[-80.24058966666666,26.795176944444446],[-80.24016022222223,26.792065750000003],[-80.24044461111112,26.79118366666667],[-80.24127883333334,26.79036191666667],[-80.24187944444445,26.78980913888889],[-80.24249655555556,26.789376055555557],[-80.24942983333334,26.788604972222224]]},"properties":{"style":"solid","thickness":1}},{"type":"Feature","geometry":{"type":"LineString","coordinates":[[-80.25057019444445,26.79686152777778],[-80.24403647222222,26.797588194444447]]},"properties":{"style":"solid","thickness":1}},{"type":"Feature","geometry":{"type":"LineString","coordinates":[[-80.29816069444445,26.686007222222223],[-80.29865755555555,26.689596944444446],[-80.29933875,26.691586472222223],[-80.29973769444445,26.692513972222223],[-80.30023672222222,26.693187277777778],[-80.30203408333333,26.694444611111113],[-80.3037155,26.694864305555555],[-80.30424838888888,26.69480477777778],[-80.3057641111111,26.69402788888889],[-80.30703058333333,26.692428305555556],[-80.307464,26.691650805555557],[-80.3075978611111,26.690663805555555],[-80.30771575,26.688584972222223],[-80.30721861111111,26.684995305555557],[-80.30653730555555,26.683005805555556],[-80.30613836111111,26.682078305555557],[-80.30550613888889,26.681419916666666],[-80.30384213888888,26.68014775],[-80.30216091666667,26.679728027777777],[-80.30162813888889,26.679787555555556],[-80.30011255555556,26.68056441666667],[-80.29871291666666,26.682178833333335],[-80.29841266666666,26.68294141666667],[-80.29827875,26.683928416666667],[-80.29816069444445,26.686007222222223]]},"properties":{"style":"solid","thickness":1}},{"type":"Feature","geometry":{"type":"LineString","coordinates":[[-80.28271752777778,26.696601],[-80.28358302777778,26.69699047222222],[-80.28454866666667,26.69712572222222],[-80.28774597222223,26.696768944444443],[-80.28891183333333,26.696395833333334],[-80.28929494444444,26.696231555555556],[-80.29114422222221,26.694931583333332],[-80.29217761111111,26.693601166666667],[-80.29241166666667,26.692359972222224],[-80.29304613888888,26.69010202777778],[-80.29266533333333,26.687349916666665],[-80.29221680555555,26.686063416666666],[-80.29166819444444,26.685031111111112],[-80.29096983333334,26.683894],[-80.28945572222221,26.682726444444445],[-80.28675936111111,26.681812361111113],[-80.28497808333333,26.68164663888889],[-80.28351283333333,26.68181013888889],[-80.28169763888889,26.682377194444445],[-80.28108125,26.682810472222222],[-80.2805815,26.68310925]]},"properties":{"style":"solid","thickness":1}},{"type":"Feature","geometry":{"type":"LineString","coordinates":[[-80.26763991666667,26.57312027777778],[-80.2681353611111,26.576710194444445],[-80.26881536111111,26.578699916666668],[-80.26921366666667,26.579627527777777],[-80.26971202777777,26.580300944444446],[-80.27150727777777,26.581558694444443],[-80.27318694444445,26.58197875],[-80.27371930555556,26.58191933333333],[-80.27523377777777,26.581142777777778],[-80.27649944444444,26.579543416666667],[-80.2769326388889,26.578765999999998],[-80.27706661111111,26.577779],[-80.27718497222222,26.575700166666667],[-80.27668927777778,26.572110305555555],[-80.27600916666667,26.57012061111111],[-80.27561083333333,26.56919302777778],[-80.27497941666667,26.568534472222222],[-80.27331738888888,26.567261916666666],[-80.27163794444445,26.56684183333333],[-80.27110563888888,26.56690125],[-80.26959136111111,26.567677777777778],[-80.26819263888889,26.569291944444444],[-80.26789247222221,26.57005447222222],[-80.26775844444444,26.571041472222223],[-80.26763991666667,26.57312027777778]]},"properties":{"style":"solid","thickness":1}},{"type":"Feature","geometry":{"type":"LineString","coordinates":[[-80.26125822222222,26.567999944444445],[-80.26335477777778,26.583197277777778],[-80.25749869444445,26.583850305555554],[-80.25586855555555,26.583789055555556],[-80.25515358333334,26.583504249999997],[-80.25397333333333,26.582785277777777],[-80.25219472222223,26.581647],[-80.25091552777778,26.58021],[-80.25048438888889,26.57904302777778],[-80.24994002777778,26.575094055555557],[-80.25005772222222,26.573987416666668],[-80.25065827777777,26.572462444444444],[-80.25147436111111,26.571520944444444],[-80.25225744444444,26.57034011111111],[-80.25347275,26.56935411111111],[-80.25502016666667,26.568817083333332],[-80.25593519444445,26.568593555555555],[-80.26125822222222,26.567999944444445]]},"properties":{"style":"solid","thickness":1}},{"type":"Feature","geometry":{"type":"LineString","coordinates":[[-80.44159711111112,26.60102141666667],[-80.43773752777778,26.601456666666667],[-80.43547411111112,26.599767472222222],[-80.43510777777779,26.59907961111111],[-80.43475816666667,26.598511416666664],[-80.43455788888889,26.59707569444444],[-80.43494,26.595938888888888],[-80.43558830555556,26.594772083333332],[-80.43632002777778,26.594203472222222],[-80.43680227777779,26.59378452777778],[-80.43781683333334,26.593305555555553],[-80.44021227777777,26.593035388888886],[-80.441327,26.59327425],[-80.44220897222223,26.593782388888886],[-80.44299125,26.594544833333334],[-80.44352408333334,26.595456916666667],[-80.44377408333334,26.596279416666665],[-80.44394105555556,26.59747583333333],[-80.44389147222222,26.598089055555555],[-80.44359241666668,26.598851944444444],[-80.44311016666667,26.599270916666665],[-80.44159711111112,26.60102141666667],[-80.44292850000001,26.601843444444444],[-80.44372755555555,26.602725500000002],[-80.44407722222222,26.603293694444446],[-80.44434444444445,26.605207944444444],[-80.44387938888889,26.606718722222222],[-80.44353019444445,26.607122694444445],[-80.44239913888889,26.60773636111111],[-80.44165066666667,26.60818536111111],[-80.4399203888889,26.608380472222223],[-80.43867241666668,26.60815663888889],[-80.43675852777778,26.60703566666667],[-80.43640886111112,26.606467444444444],[-80.4361083888889,26.60431388888889],[-80.43634075,26.603072444444447],[-80.4364571388889,26.602937805555555],[-80.43705583333333,26.602384194444447],[-80.43773752777778,26.601456666666667]]},"properties":{"style":"solid","thickness":1}},{"type":"Feature","geometry":{"type":"LineString","coordinates":[[-80.42263411111112,26.610450250000003],[-80.43075327777778,26.609535444444447],[-80.42863422222223,26.594340749999997],[-80.42038302777779,26.595270416666665]]},"properties":{"style":"solid","thickness":1}},{"type":"Feature","geometry":{"type":"LineString","coordinates":[[-80.42968533333334,26.60187827777778],[-80.4218328888889,26.60276302777778]]},"properties":{"style":"solid","thickness":1}},{"type":"Feature","geometry":{"type":"LineString","coordinates":[[-80.45388097222222,26.637279333333332],[-80.45002022222222,26.637714944444443],[-80.44775591666667,26.636025944444444],[-80.44738941666667,26.635338138888887],[-80.44703961111111,26.634769972222223],[-80.44683911111112,26.633334277777777],[-80.44722125,26.632197444444444],[-80.44786961111112,26.631030583333335],[-80.44860150000001,26.63046191666667],[-80.44908386111112,26.630042944444444],[-80.45009869444445,26.629563861111112],[-80.45249486111112,26.62929352777778],[-80.45360994444445,26.62953225],[-80.45449225,26.630040333333334],[-80.4552748611111,26.630802694444444],[-80.45580797222223,26.63171475],[-80.45605811111112,26.632537194444446],[-80.45622527777778,26.63373358333333],[-80.45617575,26.634346805555555],[-80.45587666666667,26.63510972222222],[-80.45539433333333,26.635528722222222],[-80.45388097222222,26.637279333333332],[-80.45521286111111,26.63810125],[-80.45601225,26.63898325],[-80.45636211111112,26.63955138888889],[-80.45662961111111,26.641465611111112],[-80.45616458333333,26.642976416666666],[-80.45581533333333,26.643380416666666],[-80.45468397222223,26.643994166666666],[-80.45393530555556,26.644443222222222],[-80.45220452777778,26.6446385],[-80.4509561388889,26.644414777777776],[-80.44904152777778,26.64329397222222],[-80.44869169444445,26.642725805555553],[-80.4483908888889,26.64057227777778],[-80.44862319444445,26.639330833333332],[-80.44873961111111,26.639196166666665],[-80.44933841666668,26.638642527777776],[-80.45002022222222,26.637714944444443]]},"properties":{"style":"solid","thickness":1}},{"type":"Feature","geometry":{"type":"LineString","coordinates":[[-80.44091330555555,26.63059986111111],[-80.44303466666668,26.645794277777778],[-80.43717647222222,26.646454694444444],[-80.43554536111111,26.64639547222222],[-80.43482955555555,26.646111583333333],[-80.43364755555555,26.64539411111111],[-80.43186622222223,26.644258083333334],[-80.43058411111112,26.64282275],[-80.43015088888889,26.641656305555554],[-80.42960008333334,26.63770811111111],[-80.42971613888889,26.63660133333333],[-80.43031461111111,26.63507561111111],[-80.43112969444445,26.63413311111111],[-80.43191136111112,26.632951333333335],[-80.43312575,26.631963805555557],[-80.43467316666667,26.631424833333334],[-80.43558836111112,26.631200166666666],[-80.44091330555555,26.63059986111111]]},"properties":{"style":"solid","thickness":1}},{"type":"Feature","geometry":{"type":"LineString","coordinates":[[-80.44875002777778,26.754764861111113],[-80.44488530555556,26.755200333333335],[-80.44261875000001,26.753511305555556],[-80.44225188888889,26.7528235],[-80.44190177777779,26.752255333333334],[-80.44170111111112,26.750819694444445],[-80.44208369444445,26.74968288888889],[-80.44273275,26.748516083333335],[-80.44346541666667,26.747947444444446],[-80.44394827777778,26.747528472222225],[-80.44496416666667,26.747049444444446],[-80.44736277777778,26.746779166666666],[-80.44847902777778,26.747017944444444],[-80.44936219444445,26.747526027777777],[-80.45014558333334,26.748288416666668],[-80.45067919444445,26.749200444444444],[-80.45092955555556,26.75002288888889],[-80.45109686111111,26.75121927777778],[-80.45104725,26.751832472222222],[-80.45074783333334,26.752595361111112],[-80.45026497222223,26.753014333333333],[-80.44875002777778,26.754764861111113],[-80.45008325,26.755586805555556],[-80.45088341666667,26.756468805555556],[-80.45123361111112,26.757036944444444],[-80.45150130555555,26.75895113888889],[-80.45103575,26.760461888888887],[-80.45068611111111,26.76086586111111],[-80.44955358333334,26.761479583333333],[-80.44880413888889,26.76192861111111],[-80.44707158333334,26.762123833333334],[-80.44582194444445,26.761900055555557],[-80.4439053888889,26.760779222222222],[-80.44355525,26.760211055555555],[-80.44325422222222,26.758057583333333],[-80.44348677777778,26.75681613888889],[-80.44360333333334,26.7566815],[-80.44420277777778,26.756127888888887],[-80.44488530555556,26.755200333333335]]},"properties":{"style":"solid","thickness":1}},{"type":"Feature","geometry":{"type":"LineString","coordinates":[[-80.43576936111111,26.74808513888889],[-80.43789230555556,26.763279277777777],[-80.43229466666668,26.7639095],[-80.43109516666667,26.7640445],[-80.43006194444445,26.763431666666666],[-80.42927858333334,26.762669194444445],[-80.42921175000001,26.76219063888889],[-80.42887758333333,26.759797833333334],[-80.42896072222223,26.759423916666666],[-80.42922686111112,26.758421805555557],[-80.43039250000001,26.757075416666666],[-80.42895952777778,26.756507583333335],[-80.42824305555555,26.75622363888889],[-80.42749319444445,26.755700444444443],[-80.42694302777778,26.754668666666667],[-80.42650869444445,26.75155802777778],[-80.42679155555555,26.750675555555556],[-80.42762416666667,26.749852722222222],[-80.4282236388889,26.749299166666667],[-80.42883983333334,26.74886525],[-80.43576936111111,26.74808513888889]]},"properties":{"style":"solid","thickness":1}},{"type":"Feature","geometry":{"type":"LineString","coordinates":[[-80.43692269444445,26.75634022222222],[-80.43039250000001,26.757075416666666]]},"properties":{"style":"solid","thickness":1}},{"type":"Feature","geometry":{"type":"LineString","coordinates":[[-80.43503783333334,26.78626730555556],[-80.43117202777778,26.78670238888889],[-80.42890505555556,26.78501316666667],[-80.42853816666667,26.784325333333335],[-80.428188,26.78375713888889],[-80.42798747222223,26.782321472222222],[-80.42837027777779,26.78118472222222],[-80.42901966666668,26.780017972222222],[-80.42975258333334,26.779449416666665],[-80.43023563888889,26.779030499999998],[-80.43125186111112,26.778551555555556],[-80.43365116666666,26.77828152777778],[-80.43476766666667,26.77852038888889],[-80.43565102777778,26.779028555555556],[-80.43643455555556,26.779791],[-80.43696819444445,26.780703083333332],[-80.43721852777779,26.781525555555554],[-80.43738575,26.782721944444443],[-80.43733602777777,26.78333513888889],[-80.43703647222223,26.784097972222224],[-80.43655341666667,26.784516916666668],[-80.43503783333334,26.78626730555556],[-80.43637133333334,26.787089361111114],[-80.4371716388889,26.787971416666668],[-80.43752183333334,26.788539611111112],[-80.43778938888889,26.790453805555558],[-80.43732352777778,26.791964500000002],[-80.43697375,26.792368444444445],[-80.43584083333333,26.79298205555556],[-80.4350911388889,26.793431],[-80.43335808333333,26.793626055555556],[-80.43210811111112,26.793402166666667],[-80.43019119444445,26.79228116666667],[-80.42984100000001,26.791712972222225],[-80.4295401388889,26.789559444444446],[-80.42977291666668,26.788318055555557],[-80.42988952777779,26.78818341666667],[-80.43048919444445,26.787629861111114],[-80.43117202777778,26.78670238888889]]},"properties":{"style":"solid","thickness":1}},{"type":"Feature","geometry":{"type":"LineString","coordinates":[[-80.42218769444445,26.779571388888886],[-80.41697708333334,26.795590166666667],[-80.40792466666667,26.781174916666664]]},"properties":{"style":"solid","thickness":1}},{"type":"Feature","geometry":{"type":"LineString","coordinates":[[-80.42047316666667,26.784746472222224],[-80.41087519444444,26.785825527777778]]},"properties":{"style":"solid","thickness":1}},{"type":"Feature","geometry":{"type":"LineString","coordinates":[[-80.23959591666667,26.552254861111113],[-80.24009038888889,26.55584488888889],[-80.24076977777779,26.55783475],[-80.24116777777778,26.558762444444444],[-80.24166588888889,26.55943597222222],[-80.24346052777778,26.560694055555555],[-80.24513980555555,26.561114472222222],[-80.24567208333333,26.561055166666666],[-80.24718644444445,26.560278888888888],[-80.24845227777777,26.55867975],[-80.2488856111111,26.557902444444444],[-80.24901977777778,26.556915444444446],[-80.2491386111111,26.55483663888889],[-80.24864388888889,26.55124663888889],[-80.24796438888889,26.549256805555558],[-80.24756636111111,26.548329138888892],[-80.24693522222222,26.547670472222222],[-80.24527377777778,26.546397583333334],[-80.24359475,26.545977166666667],[-80.24306252777778,26.546036472222223],[-80.24154833333334,26.546812722222224],[-80.24014947222223,26.54842661111111],[-80.23984919444445,26.549189083333335],[-80.23971491666667,26.550176055555557],[-80.23959591666667,26.552254861111113]]},"properties":{"style":"solid","thickness":1}},{"type":"Feature","geometry":{"type":"LineString","coordinates":[[-80.22719166666667,26.56323475],[-80.23530908333333,26.562331055555557],[-80.23321661111112,26.54713325],[-80.22496716666667,26.54805163888889]]},"properties":{"style":"solid","thickness":1}},{"type":"Feature","geometry":{"type":"LineString","coordinates":[[-80.23425452777778,26.554672333333333],[-80.22640377777778,26.555546333333336]]},"properties":{"style":"solid","thickness":1}}]}
