{"type":"FeatureCollection","features":[{"type":"Feature","geometry":{"type":"LineString","coordinates":[[-80.76888888888888,27.594444444444445],[-80.75951952777778,27.594087166666665]]},"properties":{"style":"solid","thickness":1}},{"type":"Feature","geometry":{"type":"LineString","coordinates":[[-80.75015025,27.59372925],[-80.740781,27.59337072222222]]},"properties":{"style":"solid","thickness":1}},{"type":"Feature","geometry":{"type":"LineString","coordinates":[[-80.73141180555555,27.593011583333332],[-80.72204266666667,27.592651805555555]]},"properties":{"style":"solid","thickness":1}},{"type":"Feature","geometry":{"type":"LineString","coordinates":[[-80.71267358333334,27.592291416666665],[-80.70330455555556,27.591930416666667]]},"properties":{"style":"solid","thickness":1}},{"type":"Feature","geometry":{"type":"LineString","coordinates":[[-80.69393558333334,27.591568805555553],[-80.68456666666667,27.591206555555555]]},"properties":{"style":"solid","thickness":1}},{"type":"Feature","geometry":{"type":"LineString","coordinates":[[-80.67519777777778,27.590843694444445],[-80.66582897222223,27.590480194444442]]},"properties":{"style":"solid","thickness":1}},{"type":"Feature","geometry":{"type":"LineString","coordinates":[[-80.65646022222222,27.59011611111111],[-80.6470915,27.58975136111111]]},"properties":{"style":"solid","thickness":1}},{"type":"Feature","geometry":{"type":"LineString","coordinates":[[-80.63772286111111,27.589386027777778],[-80.62835427777777,27.589020055555554]]},"properties":{"style":"solid","thickness":1}},{"type":"Feature","geometry":{"type":"LineString","coordinates":[[-80.61898658333332,27.588636777777776],[-80.60961944444443,27.588243527777777]]},"properties":{"style":"solid","thickness":1}},{"type":"Feature","geometry":{"type":"LineString","coordinates":[[-80.60025233333333,27.587849666666667],[-80.59088530555555,27.587455166666665]]},"properties":{"style":"solid","thickness":1}},{"type":"Feature","geometry":{"type":"LineString","coordinates":[[-80.58151833333334,27.58706008333333],[-80.57215144444444,27.58666436111111]]},"properties":{"style":"solid","thickness":1}},{"type":"Feature","geometry":{"type":"LineString","coordinates":[[-80.56278458333333,27.586268027777777],[-80.55341780555555,27.585871055555554]]},"properties":{"style":"solid","thickness":1}},{"type":"Feature","geometry":{"type":"LineString","coordinates":[[-80.54405108333333,27.585473472222223],[-80.53468441666666,27.585075277777776]]},"properties":{"style":"solid","thickness":1}},{"type":"Feature","geometry":{"type":"LineString","coordinates":[[-80.52531783333333,27.58467647222222],[-80.51595127777777,27.584277027777777]]},"properties":{"style":"solid","thickness":1}},{"type":"Feature","geometry":{"type":"LineString","coordinates":[[-80.50658480555556,27.58387697222222],[-80.4972183888889,27.583476277777777]]},"properties":{"style":"solid","thickness":1}},{"type":"Feature","geometry":{"type":"LineString","coordinates":[[-80.48785202777778,27.583075],[-80.47848575,27.582673083333333]]},"properties":{"style":"solid","thickness":1}},{"type":"Feature","geometry":{"type":"LineString","coordinates":[[-80.46911952777778,27.582270527777776],[-80.45975336111111,27.581867388888888]]},"properties":{"style":"solid","thickness":1}},{"type":"Feature","geometry":{"type":"LineString","coordinates":[[-80.45038727777778,27.58146361111111],[-80.44222222222223,27.58111111111111],[-80.44116427777779,27.580601972222222]]},"properties":{"style":"solid","thickness":1}},{"type":"Feature","geometry":{"type":"LineString","coordinates":[[-80.43291405555556,27.576631083333332],[-80.42466444444445,27.572659722222223]]},"properties":{"style":"solid","thickness":1}},{"type":"Feature","geometry":{"type":"LineString","coordinates":[[-80.41641541666667,27.568687861111112],[-80.40816694444445,27.564715500000002]]},"properties":{"style":"solid","thickness":1}},{"type":"Feature","geometry":{"type":"LineString","coordinates":[[-80.39991905555556,27.560742666666666],[-80.39167175,27.55676936111111]]},"properties":{"style":"solid","thickness":1}},{"type":"Feature","geometry":{"type":"LineString","coordinates":[[-80.38342505555556,27.55279552777778],[-80.37517891666666,27.548821250000003]]},"properties":{"style":"solid","thickness":1}},{"type":"Feature","geometry":{"type":"LineString","coordinates":[[-80.37392638888888,27.541006666666668],[-80.37365252777776,27.532654722222222]]},"properties":{"style":"solid","thickness":1}},{"type":"Feature","geometry":{"type":"LineString","coordinates":[[-80.37332933333333,27.52279644444444],[-80.37305555555555,27.514444444444443]]},"properties":{"style":"solid","thickness":1}},{"type":"Feature","geometry":{"type":"LineString","coordinates":[[-80.625,27.58888888888889],[-80.62340097222221,27.58700486111111],[-80.62176894444444,27.585143444444444],[-80.62010430555554,27.58330513888889],[-80.61919263888888,27.582330111111112]]},"properties":{"style":"solid","thickness":1}},{"type":"Feature","geometry":{"type":"LineString","coordinates":[[-80.61299213888888,27.57606388888889],[-80.6113065,27.57447561111111],[-80.60945508333333,27.572785194444446],[-80.6075741111111,27.57112088888889],[-80.60640552777777,27.570118944444445]]},"properties":{"style":"solid","thickness":1}},{"type":"Feature","geometry":{"type":"LineString","coordinates":[[-80.59946261111111,27.564505611111112],[-80.59774227777777,27.56320575],[-80.59569391666666,27.561706722222223],[-80.59361941666666,27.560236583333335],[-80.59217802777778,27.559247666666668]]},"properties":{"style":"solid","thickness":1}},{"type":"Feature","geometry":{"type":"LineString","coordinates":[[-80.58457880555555,27.554356722222224],[-80.58287263888889,27.553331500000002],[-80.58065216666667,27.552042],[-80.57840924999999,27.55078375],[-80.57668605555556,27.549850444444445]]},"properties":{"style":"solid","thickness":1}},{"type":"Feature","geometry":{"type":"LineString","coordinates":[[-80.56852472222222,27.54574238888889],[-80.56687761111111,27.54497213888889],[-80.56451186111111,27.543907750000002],[-80.56212766666667,27.54287663888889],[-80.560121,27.542043250000003]]},"properties":{"style":"solid","thickness":1}},{"type":"Feature","geometry":{"type":"LineString","coordinates":[[-80.55149861111111,27.538768944444445],[-80.54995061111111,27.538228722222225],[-80.54746819444445,27.537402305555556],[-80.54497152777778,27.53661075],[-80.5426873888889,27.53592241666667]]},"properties":{"style":"solid","thickness":1}},{"type":"Feature","geometry":{"type":"LineString","coordinates":[[-80.53371063888889,27.533522333333334],[-80.53229622222221,27.533182694444445],[-80.52972713888889,27.532604194444442],[-80.52714816666666,27.532061777777777],[-80.52460025,27.531563416666664]]},"properties":{"style":"solid","thickness":1}},{"type":"Feature","geometry":{"type":"LineString","coordinates":[[-80.51538022222222,27.530067305555555],[-80.51412772222223,27.52989497222222],[-80.511503,27.529571416666666],[-80.50887288888889,27.529284694444442],[-80.50623805555556,27.529034833333334],[-80.50608244444444,27.529022277777777]]},"properties":{"style":"solid","thickness":1}},{"type":"Feature","geometry":{"type":"LineString","coordinates":[[-80.49673336111111,27.528446416666664],[-80.49566452777778,27.528405305555555],[-80.49301586111112,27.528340583333332],[-80.49036636111111,27.528313],[-80.48771669444444,27.528322527777778],[-80.48736302777777,27.52832875]]},"properties":{"style":"solid","thickness":1}},{"type":"Feature","geometry":{"type":"LineString","coordinates":[[-80.47799997222222,27.528679694444442],[-80.47712958333334,27.528731666666665],[-80.47448891666667,27.528926583333334],[-80.47185202777779,27.52915847222222],[-80.46921952777778,27.529427277777778],[-80.46867294444445,27.52949086111111]]},"properties":{"style":"solid","thickness":1}},{"type":"Feature","geometry":{"type":"LineString","coordinates":[[-80.45941097222223,27.53076425],[-80.4587466388889,27.530870138888886],[-80.4561458888889,27.531322305555555],[-80.45355341666667,27.531810888888888],[-80.45096988888889,27.532335694444445],[-80.45024258333333,27.532494222222223]]},"properties":{"style":"solid","thickness":1}},{"type":"Feature","geometry":{"type":"LineString","coordinates":[[-80.44119558333334,27.534674416666668],[-80.44073766666666,27.534794861111113],[-80.43820825,27.535498861111112],[-80.43569152777778,27.536238222222224],[-80.43318816666667,27.537012722222222],[-80.43229919444445,27.537301805555558]]},"properties":{"style":"solid","thickness":1}},{"type":"Feature","geometry":{"type":"LineString","coordinates":[[-80.4235783888889,27.54036202777778],[-80.42332022222223,27.540458500000003],[-80.42089266666667,27.541405805555556],[-80.41848211111112,27.542387],[-80.41608913888889,27.543401833333334],[-80.41506411111112,27.543854305555556]]},"properties":{"style":"solid","thickness":1}},{"type":"Feature","geometry":{"type":"LineString","coordinates":[[-80.4089108888889,27.546701277777778],[-80.40883808333334,27.546735750000003],[-80.40651769444445,27.547876861111114],[-80.40421766666667,27.549050305555557],[-80.40193861111112,27.550255833333335],[-80.40079594444445,27.55088211111111]]},"properties":{"style":"solid","thickness":1}},{"type":"Feature","geometry":{"type":"LineString","coordinates":[[-80.37194444444444,27.481111111111108],[-80.37173547222221,27.472757499999997]]},"properties":{"style":"solid","thickness":1}},{"type":"Feature","geometry":{"type":"LineString","coordinates":[[-80.37152655555555,27.46440388888889],[-80.37131766666666,27.45605025]]},"properties":{"style":"solid","thickness":1}},{"type":"Feature","geometry":{"type":"LineString","coordinates":[[-80.37110880555555,27.447696583333332],[-80.37089997222222,27.439342888888888]]},"properties":{"style":"solid","thickness":1}},{"type":"Feature","geometry":{"type":"LineString","coordinates":[[-80.37069119444443,27.430989166666667],[-80.37048244444443,27.422635444444445]]},"properties":{"style":"solid","thickness":1}},{"type":"Feature","geometry":{"type":"LineString","coordinates":[[-80.37046019444443,27.414444222222222],[-80.37982338888888,27.414432972222222]]},"properties":{"style":"solid","thickness":1}},{"type":"Feature","geometry":{"type":"LineString","coordinates":[[-80.38918655555557,27.41442108333333],[-80.39854972222223,27.41440861111111]]},"properties":{"style":"solid","thickness":1}},{"type":"Feature","geometry":{"type":"LineString","coordinates":[[-80.4079128888889,27.414395499999998],[-80.41727605555556,27.414381749999997]]},"properties":{"style":"solid","thickness":1}},{"type":"Feature","geometry":{"type":"LineString","coordinates":[[-80.42663922222222,27.414367416666664],[-80.43600236111112,27.414352444444443]]},"properties":{"style":"solid","thickness":1}},{"type":"Feature","geometry":{"type":"LineString","coordinates":[[-80.44536550000001,27.41433686111111],[-80.4547286388889,27.414320666666665]]},"properties":{"style":"solid","thickness":1}},{"type":"Feature","geometry":{"type":"LineString","coordinates":[[-80.46409177777778,27.414303861111108],[-80.4734548888889,27.414286416666666]]},"properties":{"style":"solid","thickness":1}},{"type":"Feature","geometry":{"type":"LineString","coordinates":[[-80.48281800000001,27.41426836111111],[-80.49218111111111,27.414249694444443]]},"properties":{"style":"solid","thickness":1}},{"type":"Feature","geometry":{"type":"LineString","coordinates":[[-80.50154422222222,27.414230416666665],[-80.51090730555556,27.4142105]]},"properties":{"style":"solid","thickness":1}},{"type":"Feature","geometry":{"type":"LineString","coordinates":[[-80.52027038888889,27.41418997222222],[-80.52963347222222,27.41416883333333]]},"properties":{"style":"solid","thickness":1}},{"type":"Feature","geometry":{"type":"LineString","coordinates":[[-80.53899655555556,27.414147083333333],[-80.54835961111111,27.414124694444443]]},"properties":{"style":"solid","thickness":1}},{"type":"Feature","geometry":{"type":"LineString","coordinates":[[-80.55772266666666,27.41410172222222],[-80.56708572222222,27.41407811111111]]},"properties":{"style":"solid","thickness":1}},{"type":"Feature","geometry":{"type":"LineString","coordinates":[[-80.57644875,27.41405386111111],[-80.58581177777778,27.414029027777776]]},"properties":{"style":"solid","thickness":1}},{"type":"Feature","geometry":{"type":"LineString","coordinates":[[-80.59517480555554,27.414003555555553],[-80.60453780555555,27.41397747222222]]},"properties":{"style":"solid","thickness":1}},{"type":"Feature","geometry":{"type":"LineString","coordinates":[[-80.61390080555555,27.413950777777778],[-80.62326380555555,27.41392347222222]]},"properties":{"style":"solid","thickness":1}},{"type":"Feature","geometry":{"type":"LineString","coordinates":[[-80.63262677777777,27.413895527777775],[-80.64198975000001,27.41386697222222]]},"properties":{"style":"solid","thickness":1}},{"type":"Feature","geometry":{"type":"LineString","coordinates":[[-80.65135269444445,27.413837805555556],[-80.66071563888889,27.413808027777776]]},"properties":{"style":"solid","thickness":1}},{"type":"Feature","geometry":{"type":"LineString","coordinates":[[-80.67007858333334,27.413777611111108],[-80.67944150000001,27.41374658333333]]},"properties":{"style":"solid","thickness":1}},{"type":"Feature","geometry":{"type":"LineString","coordinates":[[-80.68880441666667,27.413714944444443],[-80.69816733333333,27.413682694444443]]},"properties":{"style":"solid","thickness":1}},{"type":"Feature","geometry":{"type":"LineString","coordinates":[[-80.70897044444445,27.413644694444443],[-80.71833333333333,27.41361111111111]]},"properties":{"style":"solid","thickness":1}},{"type":"Feature","geometry":{"type":"LineString","coordinates":[[-80.39127358333334,27.556586777777778],[-80.39131344444445,27.55656125],[-80.39135330555557,27.556535750000002],[-80.39139319444445,27.556510250000002],[-80.39143308333334,27.556484805555556],[-80.391473,27.556459361111113],[-80.39151294444446,27.556433944444446],[-80.3915528888889,27.55640852777778],[-80.39159286111112,27.556383166666667],[-80.39163283333335,27.556357805555557],[-80.39167283333335,27.556332472222223],[-80.39171286111112,27.55630713888889],[-80.3917528888889,27.556281833333333],[-80.39179294444445,27.556256583333333],[-80.391833,27.556231305555556],[-80.39187308333334,27.556206083333333],[-80.39191319444446,27.556180861111113],[-80.39195330555556,27.55615566666667],[-80.39199344444445,27.556130500000002],[-80.39203358333334,27.55610536111111],[-80.39207375000001,27.556080222222224],[-80.39211394444445,27.55605511111111],[-80.3921541388889,27.55603002777778],[-80.39219433333334,27.556004972222222],[-80.39223458333333,27.55597991666667],[-80.39227483333335,27.55595488888889],[-80.39231508333334,27.55592988888889],[-80.39235536111111,27.555904916666666],[-80.39239566666667,27.555879944444445],[-80.39243597222223,27.555855],[-80.39247630555556,27.555830083333333],[-80.39251663888889,27.555805166666666],[-80.39255700000001,27.555780305555555],[-80.3925973888889,27.555755444444443],[-80.39263777777778,27.555730611111112],[-80.39267819444446,27.555705777777778],[-80.39271861111112,27.555681],[-80.39275905555556,27.555656222222222],[-80.39279950000001,27.555631472222224],[-80.39283997222223,27.55560675],[-80.39288047222223,27.555582027777778],[-80.39292097222223,27.555557333333333],[-80.39296150000001,27.555532666666668],[-80.39300202777778,27.55550802777778],[-80.39304258333334,27.555483388888888],[-80.39308316666667,27.55545877777778],[-80.39312375,27.555434194444445],[-80.39316436111112,27.55540963888889],[-80.39320497222224,27.55538511111111],[-80.39324561111111,27.555360583333336],[-80.39328625,27.555336083333334],[-80.39332691666667,27.55531161111111],[-80.39336761111112,27.55528713888889],[-80.39340830555557,27.555262694444444],[-80.39344902777779,27.55523827777778],[-80.39348975,27.55521388888889],[-80.39353050000001,27.555189527777777],[-80.39357125000001,27.55516516666667],[-80.39361202777778,27.555140833333333],[-80.39365283333333,27.555116527777777],[-80.39369363888889,27.55509225],[-80.39373447222223,27.555067972222222],[-80.39377530555556,27.555043722222223],[-80.39381616666667,27.5550195],[-80.39385705555556,27.554995305555558],[-80.39389794444445,27.55497111111111],[-80.39393883333334,27.554946944444445],[-80.39397975,27.554922805555556],[-80.39402069444445,27.554898694444447],[-80.3940616388889,27.554874583333334],[-80.39410261111112,27.554850527777777],[-80.39414361111112,27.554826472222224],[-80.39418461111111,27.554802416666668],[-80.39422561111111,27.554778416666668],[-80.3942666388889,27.55475441666667],[-80.39430769444445,27.554730444444445],[-80.39434875,27.5547065],[-80.39438983333334,27.554682583333335],[-80.39443091666668,27.55465866666667],[-80.39447202777778,27.55463477777778],[-80.39451316666667,27.554610916666668],[-80.39455430555556,27.554587083333335],[-80.39459544444445,27.55456325],[-80.3946366388889,27.554539472222224],[-80.39467780555556,27.554515694444444],[-80.39471902777778,27.554491916666667],[-80.39476025,27.554468194444446],[-80.39480147222223,27.554444472222222],[-80.39484272222222,27.55442077777778],[-80.39488397222223,27.55439711111111],[-80.39492527777779,27.554373472222224],[-80.39496655555556,27.554349833333333],[-80.39500786111111,27.554326222222222],[-80.39504919444445,27.55430263888889],[-80.39509052777778,27.554279083333334],[-80.3951318888889,27.55425552777778],[-80.3951533888889,27.554243305555556]]},"properties":{"style":"solid","thickness":1}},{"type":"Feature","geometry":{"type":"LineString","coordinates":[[-80.10493308333332,26.678504500000003],[-80.10493308333332,26.679623250000002]]},"properties":{"style":"solid","thickness":1}},{"type":"Feature","geometry":{"type":"LineString","coordinates":[[-80.10462174999999,26.67839263888889],[-80.10462174999999,26.67973513888889]]},"properties":{"style":"solid","thickness":1}},{"type":"Feature","geometry":{"type":"LineString","coordinates":[[-80.10431041666666,26.67839263888889],[-80.10431041666666,26.67973513888889]]},"properties":{"style":"solid","thickness":1}},{"type":"Feature","geometry":{"type":"LineString","coordinates":[[-80.10399908333332,26.678504500000003],[-80.10399908333332,26.679623250000002]]},"properties":{"style":"solid","thickness":1}},{"type":"Feature","geometry":{"type":"LineString","coordinates":[[-80.10368774999999,26.67906388888889],[-80.10369255555555,26.679143194444446],[-80.10370813888888,26.679226111111113],[-80.10373591666666,26.67931102777778],[-80.10377708333333,26.679395972222224],[-80.10383222222222,26.679478500000002],[-80.10390119444443,26.679555944444445],[-80.10398308333333,26.679625555555557],[-80.10407608333333,26.679684916666666],[-80.10417758333332,26.679731972222225],[-80.10428455555555,26.67976552777778],[-80.10439372222221,26.679785111111112],[-80.10450183333333,26.679791055555558],[-80.10460611111111,26.679784472222224],[-80.10470430555554,26.67976688888889],[-80.10479480555556,26.67974013888889],[-80.10487666666666,26.679706222222222],[-80.10495144444444,26.679665805555558],[-80.10502444444444,26.679615694444447],[-80.10509408333333,26.679555111111114],[-80.10515791666666,26.679484055555555],[-80.10521330555555,26.679402972222224],[-80.10525766666666,26.67931313888889],[-80.10528869444444,26.67921638888889],[-80.10530466666665,26.679115222222222],[-80.10530466666665,26.67901252777778],[-80.10528869444444,26.678911361111112],[-80.10525766666666,26.67881461111111],[-80.10521330555555,26.67872477777778],[-80.10515788888888,26.678643722222223],[-80.10509408333333,26.67857263888889],[-80.10502444444444,26.678512083333334],[-80.10495141666667,26.678461972222223],[-80.10487666666666,26.67842152777778],[-80.10479480555556,26.678387611111113],[-80.10470430555554,26.67836088888889],[-80.10460611111111,26.678343305555558],[-80.10450183333333,26.678336694444447],[-80.10439372222221,26.67834266666667],[-80.10428458333332,26.678362222222223],[-80.10417758333332,26.67839577777778],[-80.10407608333333,26.67844286111111],[-80.10398308333333,26.678502194444444],[-80.10390119444443,26.678571833333333],[-80.10383222222222,26.67864925],[-80.10377708333333,26.678731777777777],[-80.10373591666666,26.678816722222223],[-80.10370813888888,26.67890166666667],[-80.10369258333333,26.678984583333335],[-80.10368774999999,26.67906388888889]]},"properties":{"style":"solid","thickness":1}},{"type":"Feature","geometry":{"type":"LineString","coordinates":[[-80.10321366666666,26.685551750000002],[-80.10321366666666,26.6866705]]},"properties":{"style":"solid","thickness":1}},{"type":"Feature","geometry":{"type":"LineString","coordinates":[[-80.10290233333333,26.68543986111111],[-80.10290230555555,26.68678236111111]]},"properties":{"style":"solid","thickness":1}},{"type":"Feature","geometry":{"type":"LineString","coordinates":[[-80.10259097222222,26.68543986111111],[-80.10259094444444,26.68678236111111]]},"properties":{"style":"solid","thickness":1}},{"type":"Feature","geometry":{"type":"LineString","coordinates":[[-80.1022796111111,26.685551722222222],[-80.10227958333333,26.68667047222222]]},"properties":{"style":"solid","thickness":1}},{"type":"Feature","geometry":{"type":"LineString","coordinates":[[-80.10196825,26.68611111111111],[-80.10197308333333,26.686190416666665],[-80.10198863888888,26.686273305555556],[-80.10201644444444,26.68635825],[-80.10205758333333,26.686443194444443],[-80.10211272222222,26.68652572222222],[-80.10218172222221,26.686603166666668],[-80.1022636111111,26.68667277777778],[-80.10235658333333,26.68673213888889],[-80.1024581111111,26.686779194444444],[-80.1025651111111,26.68681275],[-80.10267424999999,26.686832333333335],[-80.10278236111111,26.686838277777778],[-80.10288666666666,26.686831694444443],[-80.10298486111111,26.68681411111111],[-80.10307536111111,26.686787388888888],[-80.10315725,26.686753444444445],[-80.10323199999999,26.686713027777778],[-80.10330502777778,26.686662916666666],[-80.10337466666667,26.68660236111111],[-80.1034385,26.686531277777778],[-80.10349388888888,26.686450222222224],[-80.10353825,26.68636038888889],[-80.10356930555555,26.68626363888889],[-80.10358527777777,26.68616247222222],[-80.10358527777777,26.68605977777778],[-80.10356930555555,26.68595861111111],[-80.10353825,26.68586186111111],[-80.10349388888888,26.685772],[-80.1034385,26.685690944444445],[-80.10337466666667,26.68561988888889],[-80.10330502777778,26.685559305555557],[-80.10323202777778,26.685509194444446],[-80.10315725,26.68546877777778],[-80.10307538888888,26.685434861111112],[-80.10298486111111,26.685408111111112],[-80.10288666666666,26.685390527777777],[-80.10278238888888,26.685383944444446],[-80.10267427777777,26.68538988888889],[-80.1025651111111,26.685409472222222],[-80.10245813888888,26.685443],[-80.1023566111111,26.685490083333335],[-80.10226363888889,26.685549416666667],[-80.10218172222221,26.685619055555556],[-80.10211274999999,26.685696472222222],[-80.1020576111111,26.685779],[-80.10201644444444,26.685863944444446],[-80.10198863888888,26.685948888888888],[-80.10197308333333,26.686031777777778],[-80.10196825,26.68611111111111]]},"properties":{"style":"solid","thickness":1}}]}
