{"type":"FeatureCollection","features":[{"type":"Feature","geometry":{"type":"Point","coordinates":[-120.608056,36.736111]},"properties":{"isLineDefaults":true,"bcg":29,"filters":[29,39],"style":"Solid","thickness":1}},{"type":"Feature","geometry":{"type":"Point","coordinates":[-120.608056,36.736111]},"properties":{"isTextDefaults":true,"bcg":29,"filters":[29,39],"size":0,"underline":false,"opaque":false,"xOffset":2,"yOffset":3}},{"type":"Feature","geometry":{"type":"LineString","coordinates":[[-79.90511527777778,27.431706944444446],[-79.89576519444445,27.431779416666668]]},"properties":{"style":"solid","thickness":1}},{"type":"Feature","geometry":{"type":"LineString","coordinates":[[-80.39106513888889,27.50435325],[-80.37872641666667,27.504264444444445]]},"properties":{"style":"solid","thickness":1}},{"type":"Feature","geometry":{"type":"LineString","coordinates":[[-80.37937613888889,27.497254555555557],[-80.35935136111111,27.497108861111112]]},"properties":{"style":"solid","thickness":1}},{"type":"Feature","geometry":{"type":"LineString","coordinates":[[-80.37192069444444,27.496805166666668],[-80.36163397222222,27.487482305555556]]},"properties":{"style":"solid","thickness":1}},{"type":"Feature","geometry":{"type":"LineString","coordinates":[[-80.22900908333334,27.181661916666666],[-80.21571919444445,27.18640675]]},"properties":{"style":"solid","thickness":1}},{"type":"Feature","geometry":{"type":"LineString","coordinates":[[-80.23140355555556,27.182084222222223],[-80.21458777777778,27.176534611111112]]},"properties":{"style":"solid","thickness":1}},{"type":"Feature","geometry":{"type":"LineString","coordinates":[[-80.22163975000001,27.1885105],[-80.21499247222222,27.17611436111111]]},"properties":{"style":"solid","thickness":1}},{"type":"Feature","geometry":{"type":"LineString","coordinates":[[-80.07827097222221,27.844962083333332],[-80.06993963888888,27.84880261111111]]},"properties":{"style":"solid","thickness":1}},{"type":"Feature","geometry":{"type":"LineString","coordinates":[[-80.02581063888888,27.718512166666667],[-80.01743513888889,27.72225947222222]]},"properties":{"style":"solid","thickness":1}},{"type":"Feature","geometry":{"type":"LineString","coordinates":[[-80.0032816388889,27.666080972222222],[-79.99391194444445,27.666021333333333]]},"properties":{"style":"solid","thickness":1}},{"type":"Feature","geometry":{"type":"LineString","coordinates":[[-80.50013283333334,27.81405277777778],[-80.49023777777778,27.814035583333332]]},"properties":{"style":"solid","thickness":1}},{"type":"Feature","geometry":{"type":"LineString","coordinates":[[-80.50030833333334,27.80868736111111],[-80.49149583333333,27.816498722222224]]},"properties":{"style":"solid","thickness":1}},{"type":"Feature","geometry":{"type":"LineString","coordinates":[[-80.42861866666667,27.65786161111111],[-80.40747333333334,27.65077969444444]]},"properties":{"style":"solid","thickness":1}},{"type":"Feature","geometry":{"type":"LineString","coordinates":[[-80.42665927777779,27.649660833333332],[-80.41758766666668,27.660701777777778]]},"properties":{"style":"solid","thickness":1}},{"type":"Feature","geometry":{"type":"LineString","coordinates":[[-80.41689866666667,27.660384166666667],[-80.40678566666668,27.65694994444444]]},"properties":{"style":"solid","thickness":1}},{"type":"Feature","geometry":{"type":"LineString","coordinates":[[-80.85445,27.829013888888888],[-80.8631361111111,27.832169444444443]]},"properties":{"style":"solid","thickness":1}},{"type":"Feature","geometry":{"type":"LineString","coordinates":[[-80.85535130555554,27.26214475],[-80.84446341666666,27.271866555555555]]},"properties":{"style":"solid","thickness":1}},{"type":"Feature","geometry":{"type":"LineString","coordinates":[[-80.85534983333332,27.269926166666664],[-80.84664425,27.26214186111111]]},"properties":{"style":"solid","thickness":1}},{"type":"Feature","geometry":{"type":"LineString","coordinates":[[-79.85233055555555,27.119325],[-79.82047777777777,27.065730555555557],[-79.78635277777778,27.003583333333335],[-79.77023333333334,26.97343611111111]]},"properties":{"style":"solid","thickness":1}},{"type":"Feature","geometry":{"type":"LineString","coordinates":[[-80.79501111111111,27.594305555555554],[-80.74851111111111,27.094802777777776]]},"properties":{"style":"solid","thickness":1}},{"type":"Feature","geometry":{"type":"LineString","coordinates":[[-80.46346016666666,27.890750694444446],[-80.47473772222223,27.90991136111111]]},"properties":{"style":"solid","thickness":1}},{"type":"Feature","geometry":{"type":"LineString","coordinates":[[-80.47473772222223,27.90991136111111],[-80.48758558333333,27.93211313888889]]},"properties":{"style":"solid","thickness":1}},{"type":"Feature","geometry":{"type":"LineString","coordinates":[[-80.48758558333333,27.93211313888889],[-80.49600808333334,27.94651011111111]]},"properties":{"style":"solid","thickness":1}},{"type":"Feature","geometry":{"type":"LineString","coordinates":[[-80.49600808333334,27.94651011111111],[-80.52170380555556,27.995267805555557]]},"properties":{"style":"solid","thickness":1}},{"type":"Feature","geometry":{"type":"LineString","coordinates":[[-80.52170380555556,27.995267805555557],[-80.53440891666666,28.021127611111112]]},"properties":{"style":"solid","thickness":1}},{"type":"Feature","geometry":{"type":"LineString","coordinates":[[-80.53440891666666,28.021127611111112],[-80.53676025,28.02605586111111]]},"properties":{"style":"solid","thickness":1}},{"type":"Feature","geometry":{"type":"LineString","coordinates":[[-80.37373925,27.71065113888889],[-80.37845013888888,27.72431525]]},"properties":{"style":"solid","thickness":1}},{"type":"Feature","geometry":{"type":"LineString","coordinates":[[-80.37845013888888,27.72431525],[-80.38109108333333,27.734864]]},"properties":{"style":"solid","thickness":1}},{"type":"Feature","geometry":{"type":"LineString","coordinates":[[-80.38109108333333,27.734864],[-80.38658711111111,27.74522111111111]]},"properties":{"style":"solid","thickness":1}},{"type":"Feature","geometry":{"type":"LineString","coordinates":[[-80.38658711111111,27.74522111111111],[-80.39115525000001,27.755005444444443]]},"properties":{"style":"solid","thickness":1}},{"type":"Feature","geometry":{"type":"LineString","coordinates":[[-80.39115525000001,27.755005444444443],[-80.39486683333334,27.76002436111111]]},"properties":{"style":"solid","thickness":1}},{"type":"Feature","geometry":{"type":"LineString","coordinates":[[-80.39486683333334,27.76002436111111],[-80.39893533333334,27.767901638888887]]},"properties":{"style":"solid","thickness":1}},{"type":"Feature","geometry":{"type":"LineString","coordinates":[[-80.39893533333334,27.767901638888887],[-80.41085530555556,27.791212472222224]]},"properties":{"style":"solid","thickness":1}},{"type":"Feature","geometry":{"type":"LineString","coordinates":[[-80.41085530555556,27.791212472222224],[-80.42006294444445,27.807914416666666]]},"properties":{"style":"solid","thickness":1}},{"type":"Feature","geometry":{"type":"LineString","coordinates":[[-80.42006294444445,27.807914416666666],[-80.42670100000001,27.82074077777778]]},"properties":{"style":"solid","thickness":1}},{"type":"Feature","geometry":{"type":"LineString","coordinates":[[-80.42670100000001,27.82074077777778],[-80.44304633333334,27.852101722222223]]},"properties":{"style":"solid","thickness":1}},{"type":"Feature","geometry":{"type":"LineString","coordinates":[[-80.44304633333334,27.852101722222223],[-80.4496843888889,27.866001722222222]]},"properties":{"style":"solid","thickness":1}},{"type":"Feature","geometry":{"type":"LineString","coordinates":[[-80.4496843888889,27.866001722222222],[-80.46346016666666,27.890750694444446]]},"properties":{"style":"solid","thickness":1}},{"type":"Feature","geometry":{"type":"LineString","coordinates":[[-80.3686001111111,27.695968277777776],[-80.37373925,27.71065113888889]]},"properties":{"style":"solid","thickness":1}},{"type":"Feature","geometry":{"type":"LineString","coordinates":[[-80.36510263888889,27.687259305555557],[-80.3686001111111,27.695968277777776]]},"properties":{"style":"solid","thickness":1}},{"type":"Feature","geometry":{"type":"LineString","coordinates":[[-80.36367508333333,27.680266194444446],[-80.36510263888889,27.687259305555557]]},"properties":{"style":"solid","thickness":1}},{"type":"Feature","geometry":{"type":"LineString","coordinates":[[-80.3112843611111,27.52496638888889],[-80.31435358333333,27.534643333333335]]},"properties":{"style":"solid","thickness":1}},{"type":"Feature","geometry":{"type":"LineString","coordinates":[[-80.31435358333333,27.534643333333335],[-80.32127713888889,27.558259083333333]]},"properties":{"style":"solid","thickness":1}},{"type":"Feature","geometry":{"type":"LineString","coordinates":[[-80.32127713888889,27.558259083333333],[-80.32655905555555,27.577542555555556]]},"properties":{"style":"solid","thickness":1}},{"type":"Feature","geometry":{"type":"LineString","coordinates":[[-80.32655905555555,27.577542555555556],[-80.33027063888889,27.594404805555556]]},"properties":{"style":"solid","thickness":1}},{"type":"Feature","geometry":{"type":"LineString","coordinates":[[-80.33027063888889,27.594404805555556],[-80.33226919444444,27.599367555555553]]},"properties":{"style":"solid","thickness":1}},{"type":"Feature","geometry":{"type":"LineString","coordinates":[[-80.33226919444444,27.599367555555553],[-80.33569530555555,27.605538833333334]]},"properties":{"style":"solid","thickness":1}},{"type":"Feature","geometry":{"type":"LineString","coordinates":[[-80.33569530555555,27.605538833333334],[-80.34076308333333,27.61164613888889]]},"properties":{"style":"solid","thickness":1}},{"type":"Feature","geometry":{"type":"LineString","coordinates":[[-80.34076308333333,27.61164613888889],[-80.34597358333333,27.619343416666666]]},"properties":{"style":"solid","thickness":1}},{"type":"Feature","geometry":{"type":"LineString","coordinates":[[-80.34597358333333,27.619343416666666],[-80.34947105555555,27.628312277777777]]},"properties":{"style":"solid","thickness":1}},{"type":"Feature","geometry":{"type":"LineString","coordinates":[[-80.34947105555555,27.628312277777777],[-80.35111275,27.635944777777777]]},"properties":{"style":"solid","thickness":1}},{"type":"Feature","geometry":{"type":"LineString","coordinates":[[-80.35111275,27.635944777777777],[-80.35111275,27.639951611111112]]},"properties":{"style":"solid","thickness":1}},{"type":"Feature","geometry":{"type":"LineString","coordinates":[[-80.35111275,27.639951611111112],[-80.35503847222222,27.652416416666664]]},"properties":{"style":"solid","thickness":1}},{"type":"Feature","geometry":{"type":"LineString","coordinates":[[-80.35503847222222,27.652416416666664],[-80.35860733333332,27.663735222222222]]},"properties":{"style":"solid","thickness":1}},{"type":"Feature","geometry":{"type":"LineString","coordinates":[[-80.35860733333332,27.663735222222222],[-80.35996349999999,27.669139861111113]]},"properties":{"style":"solid","thickness":1}},{"type":"Feature","geometry":{"type":"LineString","coordinates":[[-80.35996349999999,27.669139861111113],[-80.36167652777777,27.674226333333333]]},"properties":{"style":"solid","thickness":1}},{"type":"Feature","geometry":{"type":"LineString","coordinates":[[-80.36167652777777,27.674226333333333],[-80.36367508333333,27.680266194444446]]},"properties":{"style":"solid","thickness":1}},{"type":"Feature","geometry":{"type":"LineString","coordinates":[[-80.30778688888888,27.51681672222222],[-80.3112843611111,27.52496638888889]]},"properties":{"style":"solid","thickness":1}},{"type":"Feature","geometry":{"type":"LineString","coordinates":[[-80.30057780555555,27.50147077777778],[-80.30778688888888,27.51681672222222]]},"properties":{"style":"solid","thickness":1}},{"type":"Feature","geometry":{"type":"LineString","coordinates":[[-80.29800825,27.494338305555555],[-80.30057780555555,27.50147077777778]]},"properties":{"style":"solid","thickness":1}},{"type":"Feature","geometry":{"type":"LineString","coordinates":[[-80.29501041666667,27.483957194444447],[-80.29800825,27.494338305555555]]},"properties":{"style":"solid","thickness":1}},{"type":"Feature","geometry":{"type":"LineString","coordinates":[[-80.29044227777777,27.474275749999997],[-80.29501041666667,27.483957194444447]]},"properties":{"style":"solid","thickness":1}},{"type":"Feature","geometry":{"type":"LineString","coordinates":[[-80.29029952777778,27.47039019444444],[-80.29044227777777,27.474275749999997]]},"properties":{"style":"solid","thickness":1}},{"type":"Feature","geometry":{"type":"LineString","coordinates":[[-80.28166291666666,27.44611822222222],[-80.29101330555555,27.4684155]]},"properties":{"style":"solid","thickness":1}},{"type":"Feature","geometry":{"type":"LineString","coordinates":[[-80.29101330555555,27.4684155],[-80.29029952777778,27.47039019444444]]},"properties":{"style":"solid","thickness":1}},{"type":"Feature","geometry":{"type":"LineString","coordinates":[[-80.27481072222223,27.427639916666667],[-80.28166291666666,27.44611822222222]]},"properties":{"style":"solid","thickness":1}},{"type":"Feature","geometry":{"type":"LineString","coordinates":[[-80.26952880555555,27.415213055555554],[-80.27481072222223,27.427639916666667]]},"properties":{"style":"solid","thickness":1}},{"type":"Feature","geometry":{"type":"LineString","coordinates":[[-80.26517480555556,27.40380461111111],[-80.26952880555555,27.415213055555554]]},"properties":{"style":"solid","thickness":1}},{"type":"Feature","geometry":{"type":"LineString","coordinates":[[-80.25361175,27.378752833333333],[-80.26517480555556,27.40380461111111]]},"properties":{"style":"solid","thickness":1}},{"type":"Feature","geometry":{"type":"LineString","coordinates":[[-80.24233416666667,27.357585055555557],[-80.25361175,27.378752833333333]]},"properties":{"style":"solid","thickness":1}},{"type":"Feature","geometry":{"type":"LineString","coordinates":[[-80.23626711111112,27.34687208333333],[-80.24233416666667,27.357585055555557]]},"properties":{"style":"solid","thickness":1}},{"type":"Feature","geometry":{"type":"LineString","coordinates":[[-80.23496219444445,27.34311744444444],[-80.23626711111112,27.34687208333333]]},"properties":{"style":"solid","thickness":1}},{"type":"Feature","geometry":{"type":"LineString","coordinates":[[-80.15368391666667,27.169254444444444],[-80.15368391666667,27.169254444444444],[-80.15825205555556,27.17947377777778],[-80.16039336111112,27.18879811111111],[-80.16132125,27.19160802777778],[-80.18580358333334,27.235535583333334],[-80.2349428888889,27.34306186111111]]},"properties":{"style":"solid","thickness":1}},{"type":"Feature","geometry":{"type":"LineString","coordinates":[[-80.07635191666667,26.957559166666666],[-80.08047391666666,26.969989666666667],[-80.08259738888889,26.97805194444444],[-80.08509558333333,26.98488202777778],[-80.08784361111111,26.991487777777778],[-80.08921761111111,26.996749694444446],[-80.08921761111111,27.001339694444443],[-80.09209052777777,27.01074297222222],[-80.09583783333333,27.02249597222222],[-80.10070930555555,27.03536686111111],[-80.10070930555555,27.03536686111111],[-80.10807899999999,27.05282413888889],[-80.11382483333333,27.064908333333335],[-80.11607322222221,27.070278666666667],[-80.11907105555555,27.077438694444446],[-80.12231869444443,27.082472833333334],[-80.12694036111111,27.089855805555555],[-80.13256130555556,27.099810833333333],[-80.13793241666667,27.10887027777778],[-80.14217936111112,27.119606416666667],[-80.14530211111112,27.13190697222222],[-80.14792519444445,27.13783311111111],[-80.15254686111112,27.151026027777775],[-80.15554469444444,27.15583322222222],[-80.15766816666667,27.163099499999998]]},"properties":{"style":"solid","thickness":1}},{"type":"Feature","geometry":{"type":"LineString","coordinates":[[-80.07635191666667,26.957559166666666],[-80.07279802777778,26.944761583333335]]},"properties":{"style":"solid","thickness":1}},{"type":"Feature","geometry":{"type":"LineString","coordinates":[[-80.07249591666667,26.943673583333332],[-80.07249591666667,26.943673583333332],[-80.06873241666666,26.930117583333335]]},"properties":{"style":"solid","thickness":1}},{"type":"Feature","geometry":{"type":"LineString","coordinates":[[-80.05686597222223,26.89504975],[-80.06548475,26.921379666666667]]},"properties":{"style":"solid","thickness":1}},{"type":"Feature","geometry":{"type":"LineString","coordinates":[[-80.06548475,26.921379666666667],[-80.06873241666666,26.930117583333335]]},"properties":{"style":"solid","thickness":1}},{"type":"Feature","geometry":{"type":"LineString","coordinates":[[-80.05652555555555,26.893770944444444],[-80.05652555555555,26.893770944444444],[-80.05686597222223,26.89504975]]},"properties":{"style":"solid","thickness":1}},{"type":"Feature","geometry":{"type":"LineString","coordinates":[[-80.79501111111111,27.594305555555554],[-80.86639722222222,27.833852777777775]]},"properties":{"style":"solid","thickness":1}},{"type":"Feature","geometry":{"type":"LineString","coordinates":[[-80.86639722222222,27.833852777777775],[-80.92500000000001,27.933333333333334]]},"properties":{"style":"solid","thickness":1}},{"type":"Feature","geometry":{"type":"LineString","coordinates":[[-80.92500000000001,27.933333333333334],[-80.71333333333334,27.927222222222223]]},"properties":{"style":"solid","thickness":1}},{"type":"Feature","geometry":{"type":"LineString","coordinates":[[-80.71333333333334,27.927222222222223],[-80.38333333333334,27.916666666666668]]},"properties":{"style":"solid","thickness":1}},{"type":"Feature","geometry":{"type":"LineString","coordinates":[[-80.38333333333334,27.916666666666668],[-80.16666666666667,28.016666666666666]]},"properties":{"style":"solid","thickness":1}},{"type":"Feature","geometry":{"type":"LineString","coordinates":[[-80.16666666666667,28.016666666666666],[-80.06726944444443,27.85031111111111]]},"properties":{"style":"solid","thickness":1}},{"type":"Feature","geometry":{"type":"LineString","coordinates":[[-80.06726944444443,27.85031111111111],[-79.93333333333334,27.53111111111111]]},"properties":{"style":"solid","thickness":1}},{"type":"Feature","geometry":{"type":"LineString","coordinates":[[-79.93333333333334,27.53111111111111],[-79.88510833333333,27.415116666666666]]},"properties":{"style":"solid","thickness":1}},{"type":"Feature","geometry":{"type":"LineString","coordinates":[[-79.88510833333333,27.415116666666666],[-79.91956388888889,27.302336111111114]]},"properties":{"style":"solid","thickness":1}},{"type":"Feature","geometry":{"type":"LineString","coordinates":[[-80.50413333333333,27.120755555555554],[-80.50413333333333,27.120755555555554],[-80.50508611111111,27.10406388888889]]},"properties":{"style":"solid","thickness":1}},{"type":"Feature","geometry":{"type":"LineString","coordinates":[[-80.51053333333333,27.007280555555557],[-80.51053333333333,27.007280555555557],[-80.51006944444444,27.015627777777777]]},"properties":{"style":"solid","thickness":1}},{"type":"Feature","geometry":{"type":"LineString","coordinates":[[-80.63385555555556,27.08708611111111],[-80.63385555555556,27.08708611111111],[-80.67203055555557,27.094466666666666]]},"properties":{"style":"solid","thickness":1}},{"type":"Feature","geometry":{"type":"LineString","coordinates":[[-80.5569,27.072144444444444],[-80.5569,27.072144444444444],[-80.59352777777778,27.07925]]},"properties":{"style":"solid","thickness":1}},{"type":"Feature","geometry":{"type":"LineString","coordinates":[[-80.50745555555555,27.06253888888889],[-80.51657777777778,27.064311111111113]]},"properties":{"style":"solid","thickness":1}},{"type":"Feature","geometry":{"type":"LineString","coordinates":[[-80.50745555555555,27.06253888888889],[-80.50698055555556,27.070883333333335]]},"properties":{"style":"solid","thickness":1}},{"type":"Feature","geometry":{"type":"LineString","coordinates":[[-80.50745555555555,27.06253888888889],[-80.49833611111112,27.060758333333332]]},"properties":{"style":"solid","thickness":1}},{"type":"Feature","geometry":{"type":"LineString","coordinates":[[-80.50745555555555,27.06253888888889],[-80.50792222222222,27.054191666666668]]},"properties":{"style":"solid","thickness":1}},{"type":"Feature","geometry":{"type":"LineString","coordinates":[[-80.44226111111111,27.049808333333335],[-80.44226111111111,27.049808333333335],[-80.40490277777778,27.04250277777778]]},"properties":{"style":"solid","thickness":1}},{"type":"Feature","geometry":{"type":"LineString","coordinates":[[-80.28362222222222,27.018766666666664],[-80.28362222222222,27.018766666666664],[-80.24505555555555,27.011183333333335]]},"properties":{"style":"solid","thickness":1}},{"type":"Feature","geometry":{"type":"LineString","coordinates":[[-80.17461666666667,26.99720277777778],[-80.18372777777778,26.99900277777778]]},"properties":{"style":"solid","thickness":1}},{"type":"Feature","geometry":{"type":"LineString","coordinates":[[-80.17461666666667,26.99720277777778],[-80.17723055555555,27.005225]]},"properties":{"style":"solid","thickness":1}},{"type":"Feature","geometry":{"type":"LineString","coordinates":[[-80.17461666666667,26.99720277777778],[-80.16529166666668,26.996975000000003]]},"properties":{"style":"solid","thickness":1}},{"type":"Feature","geometry":{"type":"LineString","coordinates":[[-80.20488055555556,27.090049999999998],[-80.20488055555556,27.090049999999998],[-80.19440555555556,27.05796388888889]]},"properties":{"style":"solid","thickness":1}},{"type":"Feature","geometry":{"type":"LineString","coordinates":[[-80.05758055555555,26.994311111111113],[-80.06690555555555,26.994544444444447]]},"properties":{"style":"solid","thickness":1}},{"type":"Feature","geometry":{"type":"LineString","coordinates":[[-80.05758055555555,26.994311111111113],[-80.04629444444444,26.997397222222222]]},"properties":{"style":"solid","thickness":1}},{"type":"Feature","geometry":{"type":"LineString","coordinates":[[-80.04629444444444,26.997397222222222],[-80.03897777777777,27.00333611111111]]},"properties":{"style":"solid","thickness":1}},{"type":"Feature","geometry":{"type":"LineString","coordinates":[[-80.00076666666666,27.051491666666667],[-79.99535555555556,27.05830277777778]]},"properties":{"style":"solid","thickness":1}},{"type":"Feature","geometry":{"type":"LineString","coordinates":[[-79.89275,27.18725],[-79.90088333333334,27.177041666666668]]},"properties":{"style":"solid","thickness":1}},{"type":"Feature","geometry":{"type":"LineString","coordinates":[[-79.89275,27.18725],[-79.90202222222223,27.18621388888889]]},"properties":{"style":"solid","thickness":1}},{"type":"Feature","geometry":{"type":"LineString","coordinates":[[-80.74851111111111,27.094802777777776],[-80.83451944444444,26.963663888888888]]},"properties":{"style":"solid","thickness":1}},{"type":"Feature","geometry":{"type":"LineString","coordinates":[[-80.22440555555556,27.14974722222222],[-80.21513888888889,27.150805555555554]]},"properties":{"style":"solid","thickness":1}},{"type":"Feature","geometry":{"type":"LineString","coordinates":[[-80.66971944444445,27.103244444444446],[-80.66971944444445,27.103244444444446],[-80.66045000000001,27.104244444444447]]},"properties":{"style":"solid","thickness":1}},{"type":"Feature","geometry":{"type":"LineString","coordinates":[[-80.6136611111111,27.10927777777778],[-80.6136611111111,27.10927777777778],[-80.57657499999999,27.113275]]},"properties":{"style":"solid","thickness":1}},{"type":"Feature","geometry":{"type":"LineString","coordinates":[[-80.54171111111111,27.116905555555554],[-80.54171111111111,27.116905555555554],[-80.53243888888889,27.117905555555556]]},"properties":{"style":"solid","thickness":1}},{"type":"Feature","geometry":{"type":"LineString","coordinates":[[-80.44911666666667,27.126558333333335],[-80.44911666666667,27.126558333333335],[-80.43984444444445,27.127558333333333]]},"properties":{"style":"solid","thickness":1}},{"type":"Feature","geometry":{"type":"LineString","coordinates":[[-80.22440555555556,27.14974722222222],[-80.23368888888889,27.148799999999998]]},"properties":{"style":"solid","thickness":1}},{"type":"Feature","geometry":{"type":"LineString","coordinates":[[-80.38875,27.13290277777778],[-80.385625,27.125027777777778]]},"properties":{"style":"solid","thickness":1}},{"type":"Feature","geometry":{"type":"LineString","coordinates":[[-80.38875,27.13290277777778],[-80.37019166666666,27.13481388888889]]},"properties":{"style":"solid","thickness":1}},{"type":"Feature","geometry":{"type":"LineString","coordinates":[[-80.38875,27.13290277777778],[-80.40730277777779,27.130955555555555]]},"properties":{"style":"solid","thickness":1}},{"type":"Feature","geometry":{"type":"LineString","coordinates":[[-80.41059722222222,27.18456388888889],[-80.41059722222222,27.18456388888889],[-80.41390555555556,27.192380555555555]]},"properties":{"style":"solid","thickness":1}},{"type":"Feature","geometry":{"type":"LineString","coordinates":[[-80.4008388888889,27.16149722222222],[-80.4008388888889,27.16149722222222],[-80.40414444444446,27.169311111111114]]},"properties":{"style":"solid","thickness":1}},{"type":"Feature","geometry":{"type":"LineString","coordinates":[[-80.37438333333333,27.09669722222222],[-80.37438333333333,27.09669722222222],[-80.3712861111111,27.088813888888886]]},"properties":{"style":"solid","thickness":1}},{"type":"Feature","geometry":{"type":"LineString","coordinates":[[-80.35441944444445,27.046344444444447],[-80.35441944444445,27.046344444444447],[-80.34203333333333,27.01481111111111]]},"properties":{"style":"solid","thickness":1}},{"type":"Feature","geometry":{"type":"LineString","coordinates":[[-80.33163055555555,26.988808333333335],[-80.33163055555555,26.988808333333335],[-80.32853333333333,26.980925]]},"properties":{"style":"solid","thickness":1}},{"type":"Feature","geometry":{"type":"LineString","coordinates":[[-80.32349722222222,26.96825833333333],[-80.32349722222222,26.96825833333333],[-80.32039999999999,26.960375]]},"properties":{"style":"solid","thickness":1}},{"type":"Feature","geometry":{"type":"LineString","coordinates":[[-80.22440555555556,27.14974722222222],[-80.22543888888889,27.158052777777776]]},"properties":{"style":"solid","thickness":1}},{"type":"Feature","geometry":{"type":"LineString","coordinates":[[-80.24406666666667,27.307580555555557],[-80.24303055555556,27.299275]]},"properties":{"style":"solid","thickness":1}},{"type":"Feature","geometry":{"type":"LineString","coordinates":[[-80.24406666666667,27.307580555555557],[-80.23471388888889,27.307441666666666]]},"properties":{"style":"solid","thickness":1}},{"type":"Feature","geometry":{"type":"LineString","coordinates":[[-80.23680555555556,27.24935],[-80.23680555555556,27.24935],[-80.23370277777778,27.22443333333333]]},"properties":{"style":"solid","thickness":1}},{"type":"Feature","geometry":{"type":"LineString","coordinates":[[-80.1326611111111,27.305891666666668],[-80.1326611111111,27.305891666666668],[-80.02042222222222,27.304069444444444]]},"properties":{"style":"solid","thickness":1}},{"type":"Feature","geometry":{"type":"LineString","coordinates":[[-79.91956388888889,27.302336111111114],[-79.91574722222222,27.285975]]},"properties":{"style":"solid","thickness":1}},{"type":"Feature","geometry":{"type":"LineString","coordinates":[[-79.91956388888889,27.302336111111114],[-79.93826944444444,27.30266388888889]]},"properties":{"style":"solid","thickness":1}},{"type":"Feature","geometry":{"type":"LineString","coordinates":[[-80.07704722222222,27.16652222222222],[-80.07704722222222,27.16652222222222],[-80.03996666666667,27.17071388888889]]},"properties":{"style":"solid","thickness":1}},{"type":"Feature","geometry":{"type":"LineString","coordinates":[[-79.89275,27.18725],[-79.89655833333335,27.20361388888889]]},"properties":{"style":"solid","thickness":1}},{"type":"Feature","geometry":{"type":"LineString","coordinates":[[-80.74851111111111,27.094802777777776],[-80.72069722222223,27.09778888888889]]},"properties":{"style":"solid","thickness":1}},{"type":"Feature","geometry":{"type":"LineString","coordinates":[[-79.89275,27.18725],[-79.88396666666668,27.172497222222223]]},"properties":{"style":"solid","thickness":1}},{"type":"Feature","geometry":{"type":"LineString","coordinates":[[-79.87524166666665,27.44736388888889],[-79.87524166666665,27.44736388888889],[-79.87277222222221,27.455424999999998]]},"properties":{"style":"solid","thickness":1}},{"type":"Feature","geometry":{"type":"LineString","coordinates":[[-79.84313055555555,27.552155555555558],[-79.84313055555555,27.552155555555558],[-79.84065833333332,27.56021666666667]]},"properties":{"style":"solid","thickness":1}},{"type":"Feature","geometry":{"type":"LineString","coordinates":[[-79.86289444444444,27.487669444444446],[-79.86289444444444,27.487669444444446],[-79.85301388888888,27.519913888888887]]},"properties":{"style":"solid","thickness":1}},{"type":"Feature","geometry":{"type":"LineString","coordinates":[[-80.83451944444444,26.963663888888888],[-80.84784722222221,26.99488611111111]]},"properties":{"style":"solid","thickness":1}},{"type":"Feature","geometry":{"type":"LineString","coordinates":[[-80.86118333333333,27.026108333333333],[-80.86118333333333,27.026108333333333],[-80.86451944444444,27.03391388888889]]},"properties":{"style":"solid","thickness":1}},{"type":"Feature","geometry":{"type":"LineString","coordinates":[[-80.8711861111111,27.049525000000003],[-80.8711861111111,27.049525000000003],[-80.87540277777777,27.059380555555556]]},"properties":{"style":"solid","thickness":1}},{"type":"Feature","geometry":{"type":"LineString","coordinates":[[-80.86639722222222,27.833852777777775],[-80.85865,27.83858611111111]]},"properties":{"style":"solid","thickness":1}},{"type":"Feature","geometry":{"type":"LineString","coordinates":[[-80.82765833333333,27.85751666666667],[-80.82765833333333,27.85751666666667],[-80.79665555555556,27.876438888888888]]},"properties":{"style":"solid","thickness":1}},{"type":"Feature","geometry":{"type":"LineString","coordinates":[[-80.76565277777777,27.895369444444444],[-80.76565277777777,27.895369444444444],[-80.75789722222223,27.90009722222222]]},"properties":{"style":"solid","thickness":1}},{"type":"Feature","geometry":{"type":"LineString","coordinates":[[-80.71333333333334,27.927222222222223],[-80.72885000000001,27.917772222222222]]},"properties":{"style":"solid","thickness":1}},{"type":"Feature","geometry":{"type":"LineString","coordinates":[[-80.38333333333334,27.916666666666668],[-80.374175,27.914755555555555]]},"properties":{"style":"solid","thickness":1}},{"type":"Feature","geometry":{"type":"LineString","coordinates":[[-80.33754722222221,27.907105555555553],[-80.33754722222221,27.907105555555553],[-80.30092777777777,27.899441666666664]]},"properties":{"style":"solid","thickness":1}},{"type":"Feature","geometry":{"type":"LineString","coordinates":[[-80.26430555555555,27.89178888888889],[-80.26430555555555,27.89178888888889],[-80.25515277777778,27.889869444444443]]},"properties":{"style":"solid","thickness":1}},{"type":"Feature","geometry":{"type":"LineString","coordinates":[[-80.21853333333334,27.882219444444445],[-80.21853333333334,27.882219444444445],[-80.18193055555557,27.874519444444445]]},"properties":{"style":"solid","thickness":1}},{"type":"Feature","geometry":{"type":"LineString","coordinates":[[-80.06726944444443,27.85031111111111],[-80.08556388888888,27.854175]]},"properties":{"style":"solid","thickness":1}},{"type":"Feature","geometry":{"type":"LineString","coordinates":[[-80.14531666666667,27.866866666666667],[-80.14531666666667,27.866866666666667],[-80.13618055555557,27.864897222222222]]},"properties":{"style":"solid","thickness":1}},{"type":"Feature","geometry":{"type":"LineString","coordinates":[[-80.92500000000001,27.933333333333334],[-80.95664166666667,27.951430555555554]]},"properties":{"style":"solid","thickness":1}},{"type":"Feature","geometry":{"type":"LineString","coordinates":[[-81.04166666666667,28.0],[-81.04166666666667,28.0],[-81.00999722222222,27.98192222222222]]},"properties":{"style":"solid","thickness":1}},{"type":"Feature","geometry":{"type":"LineString","coordinates":[[-80.16666666666667,28.016666666666666],[-80.16666666666667,28.050091666666667]]},"properties":{"style":"solid","thickness":1}},{"type":"Feature","geometry":{"type":"LineString","coordinates":[[-80.16666666666667,28.083513888888888],[-80.16666666666667,28.083513888888888],[-80.16666666666667,28.116936111111112]]},"properties":{"style":"solid","thickness":1}},{"type":"Feature","geometry":{"type":"LineString","coordinates":[[-80.92335,27.171408333333336],[-80.92335,27.171408333333336],[-80.93674444444444,27.202613888888887]]},"properties":{"style":"solid","thickness":1}},{"type":"Feature","geometry":{"type":"LineString","coordinates":[[-80.94343888888889,27.218219444444443],[-80.94343888888889,27.218219444444443],[-80.94676666666668,27.226030555555553]]},"properties":{"style":"solid","thickness":1}},{"type":"Feature","geometry":{"type":"LineString","coordinates":[[-80.95346111111111,27.241636111111113],[-80.95346111111111,27.241636111111113],[-80.95680833333334,27.24943888888889]]},"properties":{"style":"solid","thickness":1}},{"type":"Feature","geometry":{"type":"LineString","coordinates":[[-80.76510277777778,27.416669444444445],[-80.76510277777778,27.416669444444445],[-80.77401666666667,27.41410833333333]]},"properties":{"style":"solid","thickness":1}},{"type":"Feature","geometry":{"type":"LineString","coordinates":[[-80.22440555555556,27.14974722222222],[-80.22178333333333,27.141725]]},"properties":{"style":"solid","thickness":1}},{"type":"Feature","geometry":{"type":"LineString","coordinates":[[-80.00076666666666,27.051536111111112],[-80.00617222222222,27.044722222222223]]},"properties":{"style":"solid","thickness":1}},{"type":"Feature","geometry":{"type":"LineString","coordinates":[[-79.94538055555556,27.121155555555557],[-79.94538055555556,27.121155555555557],[-79.9345388888889,27.134777777777778]]},"properties":{"style":"solid","thickness":1}},{"type":"Feature","geometry":{"type":"LineString","coordinates":[[-80.76565555555555,27.279502777777775],[-80.78050277777778,27.26933611111111]]},"properties":{"style":"solid","thickness":1}},{"type":"Feature","geometry":{"type":"LineString","coordinates":[[-80.85249999999999,27.22],[-80.83766388888888,27.23017222222222]]},"properties":{"style":"solid","thickness":1}},{"type":"Feature","geometry":{"type":"LineString","coordinates":[[-80.85249999999999,27.22],[-80.86028611111111,27.204805555555556]]},"properties":{"style":"solid","thickness":1}},{"type":"Feature","geometry":{"type":"LineString","coordinates":[[-80.90241111111112,27.122516666666666],[-80.89463611111111,27.13771388888889]]},"properties":{"style":"solid","thickness":1}},{"type":"Feature","geometry":{"type":"LineString","coordinates":[[-80.90241111111112,27.122516666666666],[-80.89558611111111,27.106958333333335]]},"properties":{"style":"solid","thickness":1}},{"type":"Feature","geometry":{"type":"LineString","coordinates":[[-79.83829444444444,27.355772222222225],[-79.85475833333332,27.36372777777778]]},"properties":{"style":"solid","thickness":1}},{"type":"Feature","geometry":{"type":"LineString","coordinates":[[-79.83831944444444,27.355830555555556],[-79.84219999999999,27.33884722222222]]},"properties":{"style":"solid","thickness":1}},{"type":"Feature","geometry":{"type":"LineString","coordinates":[[-79.86718333333333,27.2305],[-79.86152222222222,27.255052777777777]]},"properties":{"style":"solid","thickness":1}},{"type":"Feature","geometry":{"type":"LineString","coordinates":[[-79.89448611111112,27.382911111111113],[-79.89448611111112,27.382911111111113],[-79.87801666666665,27.374961111111112]]},"properties":{"style":"solid","thickness":1}},{"type":"Feature","geometry":{"type":"LineString","coordinates":[[-79.90872222222222,27.25583333333333],[-79.89713611111112,27.248769444444445]]},"properties":{"style":"solid","thickness":1}},{"type":"Feature","geometry":{"type":"LineString","coordinates":[[-79.90872222222222,27.25583333333333],[-79.90300277777779,27.231288888888887]]},"properties":{"style":"solid","thickness":1}},{"type":"Feature","geometry":{"type":"LineString","coordinates":[[-79.86718333333333,27.2305],[-79.87876388888888,27.237566666666666]]},"properties":{"style":"solid","thickness":1}},{"type":"Feature","geometry":{"type":"LineString","coordinates":[[-80.64894722222223,27.925225],[-80.65185000000001,27.908713888888887]]},"properties":{"style":"solid","thickness":1}},{"type":"Feature","geometry":{"type":"LineString","coordinates":[[-80.46019444444445,27.919197222222223],[-80.4558138888889,27.902941666666667]]},"properties":{"style":"solid","thickness":1}},{"type":"Feature","geometry":{"type":"LineString","coordinates":[[-79.86780438888889,27.141503305555556],[-79.87772452777777,27.14042988888889],[-79.87380441666666,27.148658277777777],[-79.86780438888889,27.141503305555556]]},"properties":{"style":"solid","thickness":1}},{"type":"Feature","geometry":{"type":"LineString","coordinates":[[-79.91384466666668,27.43181866666667],[-79.91387105555556,27.43187936111111],[-79.91390688888889,27.43194038888889],[-79.91395291666667,27.432000222222225],[-79.9140093888889,27.432056972222224],[-79.91407616666667,27.432108666666668],[-79.91415233333333,27.432153250000002],[-79.91423641666667,27.432188777777778],[-79.91432625,27.432213750000003],[-79.91441930555555,27.43222725],[-79.91451275,27.432228944444446],[-79.91460394444445,27.432219250000003],[-79.91469044444445,27.432199194444447],[-79.91477033333334,27.432170222222222],[-79.91484236111111,27.432134083333334],[-79.91490572222223,27.432092583333336],[-79.91496027777778,27.432047472222223],[-79.9150073888889,27.43199888888889],[-79.91505036111111,27.431943166666667],[-79.91508772222222,27.431880083333336],[-79.91511752777778,27.431810111111112],[-79.91513786111112,27.431734333333335],[-79.91514705555556,27.431654194444445],[-79.91514380555556,27.43157175],[-79.91512752777778,27.43148927777778],[-79.91509825,27.431409277777778],[-79.9150568888889,27.431334111111113],[-79.91500497222223,27.431265833333335],[-79.91494455555556,27.431205972222223],[-79.914878,27.431155472222223],[-79.91480769444445,27.431114694444446],[-79.91473580555557,27.431083416666667],[-79.91466427777779,27.431061055555556],[-79.91459411111111,27.43104663888889],[-79.91452022222222,27.43103891666667],[-79.91444161111112,27.43103877777778],[-79.91435958333334,27.431047500000002],[-79.91427591666667,27.431066194444444],[-79.91419283333335,27.431095527777778],[-79.91411280555556,27.431135722222223],[-79.91403847222223,27.431186305555556],[-79.91397225,27.431246166666668],[-79.91391622222223,27.43131363888889],[-79.91387186111112,27.431386583333335],[-79.91383980555557,27.43146266666667],[-79.91382008333333,27.431539555555556],[-79.91381202777778,27.43161513888889],[-79.91381444444445,27.43168763888889],[-79.91382586111112,27.43175577777778],[-79.91384466666668,27.43181866666667]]},"properties":{"style":"solid","thickness":1}},{"type":"Feature","geometry":{"type":"LineString","coordinates":[[-79.91498086111112,27.431969944444447],[-79.914662,27.43109838888889]]},"properties":{"style":"solid","thickness":1}},{"type":"Feature","geometry":{"type":"LineString","coordinates":[[-79.91476855555557,27.432128222222225],[-79.91438591666667,27.431082361111113]]},"properties":{"style":"solid","thickness":1}},{"type":"Feature","geometry":{"type":"LineString","coordinates":[[-79.91452436111112,27.432199361111113],[-79.91414175,27.4311535]]},"properties":{"style":"solid","thickness":1}},{"type":"Feature","geometry":{"type":"LineString","coordinates":[[-79.91424827777779,27.432183333333334],[-79.91392944444445,27.43131177777778]]},"properties":{"style":"solid","thickness":1}},{"type":"Feature","geometry":{"type":"LineString","coordinates":[[-79.8870216388889,27.43166666666667],[-79.88699527777779,27.431605972222222],[-79.88695944444446,27.431544944444447],[-79.88691344444445,27.43148511111111],[-79.88685697222223,27.431428333333333],[-79.88679022222223,27.431376611111112],[-79.88671405555556,27.431332055555558],[-79.88663000000001,27.431296500000002],[-79.88654016666668,27.4312715],[-79.88644711111112,27.431258],[-79.88635366666668,27.43125627777778],[-79.88626247222223,27.431265944444444],[-79.88617597222223,27.431286],[-79.88609605555557,27.431314944444445],[-79.88602405555557,27.431351055555556],[-79.88596066666668,27.431392555555558],[-79.88590611111111,27.431437666666667],[-79.88585897222222,27.431486222222222],[-79.885816,27.431541944444447],[-79.88577861111112,27.431605027777778],[-79.88574880555556,27.431674972222222],[-79.88572844444445,27.43175077777778],[-79.88571922222224,27.43183088888889],[-79.88572244444445,27.43191336111111],[-79.88573872222223,27.431995833333335],[-79.88576797222223,27.432075833333336],[-79.88580930555557,27.432151],[-79.88586122222223,27.43221927777778],[-79.88592161111112,27.43227913888889],[-79.88598813888889,27.432329666666668],[-79.88605844444444,27.432370444444445],[-79.88613033333334,27.43240175],[-79.88620186111112,27.43242413888889],[-79.88627202777778,27.432438555555557],[-79.8863458888889,27.432446277777778],[-79.8864245,27.432446444444444],[-79.88650652777778,27.43243772222222],[-79.88659019444445,27.432419055555556],[-79.88667330555556,27.432389750000002],[-79.88675336111112,27.432349583333334],[-79.88682769444445,27.43229902777778],[-79.88689391666668,27.43223916666667],[-79.88694997222223,27.432171694444445],[-79.88699436111112,27.43209875],[-79.88702641666667,27.432022694444445],[-79.88704616666668,27.431945805555557],[-79.88705425,27.431870222222223],[-79.88705186111112,27.431797694444445],[-79.88704044444445,27.431729555555556],[-79.8870216388889,27.43166666666667]]},"properties":{"style":"solid","thickness":1}},{"type":"Feature","geometry":{"type":"LineString","coordinates":[[-79.88588547222223,27.431515194444447],[-79.8862041388889,27.432386805555556]]},"properties":{"style":"solid","thickness":1}},{"type":"Feature","geometry":{"type":"LineString","coordinates":[[-79.88609783333334,27.431356944444445],[-79.88648019444445,27.43240286111111]]},"properties":{"style":"solid","thickness":1}},{"type":"Feature","geometry":{"type":"LineString","coordinates":[[-79.88634202777779,27.431285861111114],[-79.88672441666667,27.432331805555556]]},"properties":{"style":"solid","thickness":1}},{"type":"Feature","geometry":{"type":"LineString","coordinates":[[-79.88661811111112,27.431301944444446],[-79.88693675,27.432173555555558]]},"properties":{"style":"solid","thickness":1}},{"type":"Feature","geometry":{"type":"LineString","coordinates":[[-80.24491111111111,27.352362194444446],[-80.2463921111111,27.349242]]},"properties":{"style":"solid","thickness":1}},{"type":"Feature","geometry":{"type":"LineString","coordinates":[[-80.24699216666667,27.347974583333333],[-80.24842841666667,27.3449055]]},"properties":{"style":"solid","thickness":1}},{"type":"Feature","geometry":{"type":"LineString","coordinates":[[-80.24944558333334,27.35186036111111],[-80.24710538888888,27.349163055555554]]},"properties":{"style":"solid","thickness":1}},{"type":"Feature","geometry":{"type":"LineString","coordinates":[[-80.246177,27.348064805555556],[-80.24389422222222,27.345407305555554]]},"properties":{"style":"solid","thickness":1}},{"type":"Feature","geometry":{"type":"LineString","coordinates":[[-80.25115002777778,27.34811486111111],[-80.24743088888889,27.348526527777775]]},"properties":{"style":"solid","thickness":1}},{"type":"Feature","geometry":{"type":"LineString","coordinates":[[-80.24590244444444,27.348695694444444],[-80.24218327777778,27.34910722222222]]},"properties":{"style":"solid","thickness":1}},{"type":"Feature","geometry":{"type":"LineString","coordinates":[[-80.25117816666666,27.348111666666664],[-80.25114163888888,27.347899583333334],[-80.2510918888889,27.34768683333333],[-80.25102869444444,27.347474388888887],[-80.2509518611111,27.347263249999997],[-80.2508613888889,27.347054416666666],[-80.25075738888889,27.346848944444442],[-80.25064011111111,27.34664786111111],[-80.25050988888889,27.346452194444442],[-80.25036722222222,27.346262888888887],[-80.25021275,27.346080916666665],[-80.25004722222222,27.345907138888887],[-80.24987141666666,27.345742305555554],[-80.24968627777778,27.345587138888888],[-80.24949283333333,27.34544222222222],[-80.24929211111112,27.345308027777776],[-80.24908522222222,27.345184916666664],[-80.24887322222223,27.345073166666666],[-80.24865727777778,27.344972916666666],[-80.24843847222222,27.34488422222222]]},"properties":{"style":"solid","thickness":1}},{"type":"Feature","geometry":{"type":"LineString","coordinates":[[-80.24491044444444,27.352363611111112],[-80.24513558333334,27.352441805555557],[-80.24536805555556,27.35251002777778],[-80.24560705555555,27.352567555555556],[-80.24585166666667,27.35261377777778],[-80.24610088888889,27.35264816666667],[-80.24635366666666,27.352670250000003],[-80.24660883333334,27.352679722222224],[-80.24686522222223,27.352676333333335],[-80.24712161111111,27.35266],[-80.24737675,27.352630694444446],[-80.24762941666667,27.352588611111113],[-80.24787841666667,27.352533972222222],[-80.24812261111111,27.352467166666667],[-80.24836091666667,27.352388694444446],[-80.24859227777777,27.352299138888892],[-80.24881586111111,27.35219916666667],[-80.24903077777778,27.35208952777778],[-80.24923636111112,27.351971055555556],[-80.24943202777777,27.35184452777778]]},"properties":{"style":"solid","thickness":1}},{"type":"Feature","geometry":{"type":"LineString","coordinates":[[-80.24389527777778,27.345408499999998],[-80.24371058333334,27.345542694444443],[-80.24353186111111,27.345687166666664],[-80.24336011111112,27.345841666666665],[-80.24319636111112,27.346005777777776],[-80.24304152777778,27.346179055555556],[-80.24289658333333,27.34636088888889],[-80.24276238888889,27.346550583333332],[-80.24263966666666,27.346747416666666],[-80.24252913888888,27.346950472222222],[-80.24243133333333,27.34715886111111],[-80.24234675,27.347371638888887],[-80.24227569444444,27.347587777777775],[-80.24221838888889,27.347806249999998],[-80.24217486111111,27.348026055555554],[-80.24214511111111,27.34824611111111],[-80.24212894444445,27.348465444444443],[-80.24212605555556,27.348683138888887],[-80.24213608333334,27.34889822222222],[-80.24215847222223,27.349109888888886]]},"properties":{"style":"solid","thickness":1}},{"type":"Feature","geometry":{"type":"LineString","coordinates":[[-80.24591086111111,27.34870136111111],[-80.245942,27.34882725],[-80.24600563888889,27.348956277777777],[-80.24610538888889,27.349078805555553],[-80.24623994444444,27.349183138888886],[-80.24640175,27.349258305555555],[-80.24657802777777,27.349297138888886],[-80.24675380555556,27.34929847222222],[-80.246916,27.349266916666664],[-80.24705597222223,27.34921061111111],[-80.24717130555555,27.349137805555554],[-80.24727458333334,27.349041916666664],[-80.24736105555556,27.348919527777777],[-80.24741941666667,27.348774166666665],[-80.24743983333333,27.34861436111111],[-80.24741736111112,27.34845247222222],[-80.24735386111111,27.348301944444444],[-80.24725752777778,27.348173694444444],[-80.24714019444444,27.34807386111111],[-80.24701383333334,27.348003388888888],[-80.2468821111111,27.347957916666665],[-80.24673097222222,27.347933833333332],[-80.24656505555555,27.34793858333333],[-80.24639494444445,27.347978194444444],[-80.2462346388889,27.348054277777777],[-80.24609827777778,27.348162444444444],[-80.24599630555555,27.34829297222222],[-80.24593308333334,27.348433527777775],[-80.24590666666667,27.348572527777776],[-80.24591086111111,27.34870136111111]]},"properties":{"style":"solid","thickness":1}},{"type":"Feature","geometry":{"type":"LineString","coordinates":[[-80.08614030555555,27.84153647222222],[-80.08619483333332,27.841579916666664],[-80.08625797222221,27.84161986111111],[-80.08632961111111,27.84165461111111],[-80.08640905555555,27.841682416666664],[-80.08649513888888,27.841701555555556],[-80.086586,27.841710527777778],[-80.08667933333332,27.84170825],[-80.08677247222222,27.84169425],[-80.08686258333333,27.841668694444444],[-80.0869471111111,27.84163247222222],[-80.08702377777777,27.841587],[-80.08709097222221,27.841534194444442],[-80.08714775,27.84147611111111],[-80.08719377777777,27.841414805555555],[-80.08722936111111,27.84135222222222],[-80.08725519444444,27.841289944444444],[-80.08727263888889,27.84122761111111],[-80.08728272222221,27.84116058333333],[-80.08728402777777,27.84108925],[-80.08727508333332,27.841014833333332],[-80.08725469444444,27.840939055555555],[-80.08722213888889,27.840863888888887],[-80.08717725,27.840791694444444],[-80.08712066666666,27.84072475],[-80.08705375,27.840665249999997],[-80.08697847222221,27.840614944444443],[-80.08689722222222,27.840575027777778],[-80.08681269444443,27.840546055555553],[-80.08672744444443,27.840527916666666],[-80.08664375,27.840519944444445],[-80.0865635,27.840521083333332],[-80.08648808333332,27.840530027777778],[-80.08641794444443,27.840545527777778],[-80.08634788888888,27.84056847222222],[-80.08627747222222,27.84060008333333],[-80.0862085,27.840640999999998],[-80.08614313888889,27.84069144444444],[-80.08608372222221,27.840751166666667],[-80.08603255555555,27.840819305555556],[-80.08599177777778,27.840894416666664],[-80.08596299999999,27.840974527777778],[-80.08594722222222,27.841057305555555],[-80.08594463888889,27.841140277777775],[-80.08595469444444,27.841221027777777],[-80.08597619444444,27.841297555555553],[-80.08600744444443,27.841368194444442],[-80.08604652777777,27.84143186111111],[-80.08609144444443,27.841488],[-80.08614030555555,27.84153647222222]]},"properties":{"style":"solid","thickness":1}},{"type":"Feature","geometry":{"type":"LineString","coordinates":[[-80.08723416666666,27.841212499999997],[-80.08650505555555,27.84056422222222]]},"properties":{"style":"solid","thickness":1}},{"type":"Feature","geometry":{"type":"LineString","coordinates":[[-80.08712475,27.84143936111111],[-80.08624983333333,27.840661444444443]]},"properties":{"style":"solid","thickness":1}},{"type":"Feature","geometry":{"type":"LineString","coordinates":[[-80.08694244444445,27.841601388888886],[-80.0860675,27.840823472222223]]},"properties":{"style":"solid","thickness":1}},{"type":"Feature","geometry":{"type":"LineString","coordinates":[[-80.08668719444444,27.841698583333333],[-80.08595808333332,27.841050305555555]]},"properties":{"style":"solid","thickness":1}},{"type":"Feature","geometry":{"type":"LineString","coordinates":[[-80.06205663888889,27.85223311111111],[-80.06200213888889,27.85218963888889],[-80.06193897222222,27.852149694444446],[-80.06186736111111,27.852114944444445],[-80.06178788888889,27.852087111111114],[-80.06170180555556,27.852067972222223],[-80.06161094444444,27.852059],[-80.06151761111111,27.852061250000002],[-80.06142447222221,27.852075222222222],[-80.06133433333333,27.85210077777778],[-80.06124980555555,27.852137000000003],[-80.0611731111111,27.852182444444445],[-80.06110588888889,27.852235222222223],[-80.0610491111111,27.852293305555555],[-80.06100305555556,27.852354611111114],[-80.06096744444444,27.852417194444445],[-80.06094158333333,27.852479444444445],[-80.06092413888888,27.85254177777778],[-80.06091402777777,27.85260880555556],[-80.06091269444444,27.85268013888889],[-80.06092163888889,27.852754555555556],[-80.060942,27.852830333333333],[-80.06097455555555,27.852905500000002],[-80.06101941666667,27.852977722222224],[-80.061076,27.85304466666667],[-80.06114291666667,27.853104194444445],[-80.06121819444444,27.853154500000002],[-80.06129941666666,27.853194416666668],[-80.06138397222222,27.85322341666667],[-80.06146922222221,27.853241583333336],[-80.06155294444444,27.853249555555557],[-80.06163319444444,27.85324841666667],[-80.06170863888889,27.8532395],[-80.06177875,27.85322402777778],[-80.06184883333333,27.853201083333335],[-80.06191925,27.853169472222223],[-80.06198825,27.853128583333334],[-80.06205363888888,27.85307813888889],[-80.06211308333333,27.853018444444444],[-80.06216425,27.852950305555556],[-80.06220505555555,27.852875194444447],[-80.06223386111111,27.852795083333334],[-80.06224963888889,27.852712305555556],[-80.06225225,27.852629361111113],[-80.06224219444444,27.852548583333334],[-80.06222072222222,27.852472055555555],[-80.06218947222222,27.85240141666667],[-80.06215038888888,27.852337722222224],[-80.0621055,27.852281583333333],[-80.06205663888889,27.85223311111111]]},"properties":{"style":"solid","thickness":1}},{"type":"Feature","geometry":{"type":"LineString","coordinates":[[-80.06096261111111,27.85255688888889],[-80.06169163888889,27.85320527777778]]},"properties":{"style":"solid","thickness":1}},{"type":"Feature","geometry":{"type":"LineString","coordinates":[[-80.06107208333333,27.85233005555556],[-80.06194691666667,27.85310813888889]]},"properties":{"style":"solid","thickness":1}},{"type":"Feature","geometry":{"type":"LineString","coordinates":[[-80.06125447222222,27.852168055555556],[-80.06212930555556,27.85294613888889]]},"properties":{"style":"solid","thickness":1}},{"type":"Feature","geometry":{"type":"LineString","coordinates":[[-80.06150975,27.85207088888889],[-80.06223877777778,27.852719305555556]]},"properties":{"style":"solid","thickness":1}},{"type":"Feature","geometry":{"type":"LineString","coordinates":[[-80.03371888888888,27.71517461111111],[-80.03377272222222,27.715218666666665],[-80.03383522222222,27.715259305555556],[-80.03390627777777,27.71529486111111],[-80.03398525,27.715323555555553],[-80.03407094444444,27.71534363888889],[-80.03416158333333,27.71535361111111],[-80.03425483333334,27.71535238888889],[-80.03434802777778,27.715339416666666],[-80.03443841666666,27.715314888888887],[-80.03452333333333,27.715279583333334],[-80.03460055555556,27.715235],[-80.03466841666666,27.715182944444443],[-80.03472594444445,27.715125472222223],[-80.03477280555555,27.715064694444443],[-80.03480922222222,27.7150025],[-80.03483591666667,27.714940527777777],[-80.03485419444445,27.714878416666664],[-80.03486522222222,27.714811472222223],[-80.03486752777778,27.714740166666665],[-80.03485966666666,27.714665666666665],[-80.03484036111111,27.71458963888889],[-80.03480888888889,27.714514138888887],[-80.03476508333333,27.714441416666666],[-80.03470952777778,27.71437386111111],[-80.03464352777777,27.71431361111111],[-80.03456902777778,27.714262444444444],[-80.03448847222222,27.714221638888887],[-80.03440444444445,27.71419172222222],[-80.03431955555556,27.71417263888889],[-80.03423605555555,27.71416372222222],[-80.03415588888889,27.71416397222222],[-80.03408044444444,27.71417208333333],[-80.03401016666666,27.714186777777776],[-80.03393988888888,27.714208944444444],[-80.03386911111112,27.714239777777777],[-80.0337996388889,27.714279916666666],[-80.03373363888889,27.714329638888888],[-80.03367344444445,27.714388666666665],[-80.03362138888889,27.714456249999998],[-80.03357958333333,27.714530888888888],[-80.03354972222222,27.714610694444445],[-80.03353277777778,27.714693277777776],[-80.03352902777777,27.71477622222222],[-80.03353794444445,27.71485711111111],[-80.03355833333333,27.714933833333333],[-80.03358855555555,27.71500483333333],[-80.03362669444444,27.715068944444443],[-80.03367075,27.715125583333332],[-80.03371888888888,27.71517461111111]]},"properties":{"style":"solid","thickness":1}},{"type":"Feature","geometry":{"type":"LineString","coordinates":[[-80.03481599999999,27.71486286111111],[-80.03409691666667,27.714206472222223]]},"properties":{"style":"solid","thickness":1}},{"type":"Feature","geometry":{"type":"LineString","coordinates":[[-80.03470349999999,27.7150885],[-80.0338406111111,27.714300805555556]]},"properties":{"style":"solid","thickness":1}},{"type":"Feature","geometry":{"type":"LineString","coordinates":[[-80.03451911111111,27.71524847222222],[-80.03365622222222,27.714460805555554]]},"properties":{"style":"solid","thickness":1}},{"type":"Feature","geometry":{"type":"LineString","coordinates":[[-80.03426280555556,27.71534283333333],[-80.03354374999999,27.714686416666666]]},"properties":{"style":"solid","thickness":1}},{"type":"Feature","geometry":{"type":"LineString","coordinates":[[-80.00951322222222,27.725601777777776],[-80.00945938888889,27.72555772222222],[-80.00939688888889,27.725517083333333],[-80.00932583333334,27.725481499999997],[-80.00924686111111,27.725452805555555],[-80.00916116666667,27.725432694444443],[-80.00907052777778,27.725422694444443],[-80.00897727777777,27.725423916666664],[-80.00888405555555,27.72543686111111],[-80.00879366666666,27.72546138888889],[-80.00870872222222,27.725496666666665],[-80.00863147222222,27.72554125],[-80.00856361111111,27.725593305555552],[-80.00850605555556,27.72565075],[-80.00845919444444,27.7257115],[-80.00842275,27.72577369444444],[-80.00839605555555,27.725835666666665],[-80.00837775,27.725897777777774],[-80.00836669444445,27.725964694444443],[-80.0083643611111,27.726036027777777],[-80.00837222222222,27.726110527777777],[-80.0083915,27.726186555555554],[-80.00842297222222,27.726262055555555],[-80.00846675,27.726334777777776],[-80.00852230555556,27.72640236111111],[-80.00858830555555,27.726462638888886],[-80.00866277777777,27.726513777777775],[-80.00874336111112,27.72655461111111],[-80.00882736111112,27.726584555555554],[-80.00891227777778,27.726603666666666],[-80.00899577777778,27.72661258333333],[-80.00907597222222,27.726612333333332],[-80.00915141666667,27.726604249999998],[-80.00922169444445,27.726589555555552],[-80.009292,27.726567416666665],[-80.00936277777778,27.72653658333333],[-80.00943227777778,27.72649647222222],[-80.00949827777778,27.726446749999997],[-80.0095585,27.72638772222222],[-80.00961058333333,27.726320166666664],[-80.0096523888889,27.726245527777778],[-80.00968227777778,27.72616572222222],[-80.00969925,27.72608313888889],[-80.009703,27.726000222222222],[-80.00969411111112,27.72591933333333],[-80.00967372222222,27.725842583333332],[-80.00964352777778,27.72577158333333],[-80.00960538888889,27.725707472222222],[-80.00956133333334,27.725650805555553],[-80.00951322222222,27.725601777777776]]},"properties":{"style":"solid","thickness":1}},{"type":"Feature","geometry":{"type":"LineString","coordinates":[[-80.00841594444445,27.72591333333333],[-80.00913494444444,27.72656986111111]]},"properties":{"style":"solid","thickness":1}},{"type":"Feature","geometry":{"type":"LineString","coordinates":[[-80.0085285,27.725687722222222],[-80.00939127777778,27.726475555555552]]},"properties":{"style":"solid","thickness":1}},{"type":"Feature","geometry":{"type":"LineString","coordinates":[[-80.00871294444444,27.725527777777778],[-80.00957575,27.726315611111108]]},"properties":{"style":"solid","thickness":1}},{"type":"Feature","geometry":{"type":"LineString","coordinates":[[-80.00896927777778,27.72543347222222],[-80.00968827777778,27.72609]]},"properties":{"style":"solid","thickness":1}},{"type":"Feature","geometry":{"type":"LineString","coordinates":[[-80.01202613888888,27.666316],[-80.0120515,27.666377027777777],[-80.01208633333333,27.666438555555555],[-80.01213136111112,27.666499027777775],[-80.01218694444445,27.666556583333332],[-80.01225291666667,27.666609194444444],[-80.01232847222222,27.666654833333332],[-80.01241208333333,27.666691555555555],[-80.01250163888889,27.666717805555557],[-80.01259463888888,27.666732583333335],[-80.01268825,27.66673561111111],[-80.01277977777778,27.666727194444444],[-80.01286680555556,27.666708361111112],[-80.01294738888889,27.66668055555556],[-80.01302016666666,27.666645444444445],[-80.01308441666667,27.66660483333333],[-80.01313986111111,27.6665605],[-80.01318794444444,27.666512583333333],[-80.01323197222223,27.6664575],[-80.01327052777778,27.66639494444444],[-80.01330163888889,27.666325416666666],[-80.0133233611111,27.666249916666665],[-80.013334,27.666169944444444],[-80.01333222222222,27.666087444444443],[-80.0133173611111,27.666004777777776],[-80.01328947222223,27.665924388888886],[-80.01324933333333,27.66584863888889],[-80.01319852777777,27.66577963888889],[-80.01313908333333,27.665718944444443],[-80.01307330555555,27.665667527777778],[-80.01300358333333,27.66562575],[-80.01293211111111,27.66559347222222],[-80.01286080555556,27.66557011111111],[-80.01279077777778,27.66555469444444],[-80.01271688888889,27.665545944444442],[-80.01263813888889,27.665544694444442],[-80.01255577777778,27.665552249999998],[-80.01247163888888,27.66556975],[-80.01238783333334,27.665597916666666],[-80.01230694444445,27.665636944444444],[-80.01223155555556,27.66568647222222],[-80.01216416666666,27.665745388888887],[-80.01210683333333,27.665812055555556],[-80.01206105555555,27.66588436111111],[-80.01202761111111,27.665959972222222],[-80.01200647222223,27.66603658333333],[-80.01199705555555,27.666112027777775],[-80.01199816666667,27.666184555555553],[-80.01200841666666,27.66625286111111],[-80.01202613888888,27.666316]]},"properties":{"style":"solid","thickness":1}},{"type":"Feature","geometry":{"type":"LineString","coordinates":[[-80.01316188888889,27.666483277777775],[-80.01285788888889,27.665607388888887]]},"properties":{"style":"solid","thickness":1}},{"type":"Feature","geometry":{"type":"LineString","coordinates":[[-80.01294633333333,27.666638527777778],[-80.01258155555556,27.66558747222222]]},"properties":{"style":"solid","thickness":1}},{"type":"Feature","geometry":{"type":"LineString","coordinates":[[-80.01270041666666,27.666706194444444],[-80.01233561111111,27.665655138888887]]},"properties":{"style":"solid","thickness":1}},{"type":"Feature","geometry":{"type":"LineString","coordinates":[[-80.01242408333333,27.666686277777778],[-80.01212008333333,27.665810388888886]]},"properties":{"style":"solid","thickness":1}},{"type":"Feature","geometry":{"type":"LineString","coordinates":[[-79.98515327777778,27.66578511111111],[-79.98512794444444,27.665724055555554],[-79.98509313888889,27.665662527777776],[-79.98504811111111,27.665602055555553],[-79.98499252777778,27.6655445],[-79.98492658333333,27.66549183333333],[-79.98485105555555,27.665446194444442],[-79.98476744444444,27.665409472222223],[-79.9846778888889,27.66538319444444],[-79.98458491666666,27.665368388888886],[-79.98449127777778,27.66536536111111],[-79.98439975,27.665373749999997],[-79.98431272222223,27.665392555555552],[-79.98423213888888,27.66542036111111],[-79.98415936111111,27.66545547222222],[-79.98409511111112,27.665496055555554],[-79.98403963888889,27.66554038888889],[-79.98399155555556,27.665588277777776],[-79.9839475,27.66564336111111],[-79.98390891666666,27.665705916666667],[-79.98387780555555,27.665775416666666],[-79.98385605555556,27.665850916666667],[-79.9838453888889,27.665930888888887],[-79.98384713888889,27.66601338888889],[-79.983862,27.666096055555553],[-79.98388986111111,27.666176472222222],[-79.98392997222223,27.666252194444443],[-79.98398075,27.66632122222222],[-79.98404019444445,27.666381916666666],[-79.98410597222222,27.66643336111111],[-79.98417569444445,27.666475138888888],[-79.98424713888889,27.66650744444444],[-79.98431841666667,27.666530833333333],[-79.98438847222222,27.66654625],[-79.98446236111111,27.666555027777775],[-79.98454111111111,27.666556277777776],[-79.98462344444445,27.66654872222222],[-79.9847076111111,27.66653125],[-79.98479141666667,27.66650311111111],[-79.98487233333333,27.66646408333333],[-79.98494772222222,27.66641458333333],[-79.98501513888888,27.666355666666664],[-79.98507247222223,27.666289027777776],[-79.98511827777777,27.66621672222222],[-79.98515175,27.66614111111111],[-79.98517288888888,27.666064527777777],[-79.98518233333334,27.665989083333333],[-79.98518122222222,27.665916527777778],[-79.985171,27.66584825],[-79.98515327777778,27.66578511111111]]},"properties":{"style":"solid","thickness":1}},{"type":"Feature","geometry":{"type":"LineString","coordinates":[[-79.98401761111111,27.665617583333333],[-79.98432136111111,27.666493527777778]]},"properties":{"style":"solid","thickness":1}},{"type":"Feature","geometry":{"type":"LineString","coordinates":[[-79.98423316666667,27.665462388888887],[-79.98459769444445,27.666513499999997]]},"properties":{"style":"solid","thickness":1}},{"type":"Feature","geometry":{"type":"LineString","coordinates":[[-79.98447911111111,27.665394777777777],[-79.98484363888889,27.666445888888887]]},"properties":{"style":"solid","thickness":1}},{"type":"Feature","geometry":{"type":"LineString","coordinates":[[-79.98475544444445,27.66541475],[-79.98505922222222,27.66629069444444]]},"properties":{"style":"solid","thickness":1}},{"type":"Feature","geometry":{"type":"LineString","coordinates":[[-80.49152625,27.674938166666667],[-80.48701055555556,27.67544430555556],[-80.48552772222223,27.678793527777778],[-80.48827891666667,27.68202861111111],[-80.49213075,27.68159688888889],[-80.49389527777778,27.67785566666667],[-80.49152625,27.674938166666667]]},"properties":{"style":"solid","thickness":1}},{"type":"Feature","geometry":{"type":"LineString","coordinates":[[-80.49152625,27.674938166666667],[-80.49125866666667,27.673046305555555],[-80.48674305555555,27.673552416666666],[-80.48701055555556,27.67544430555556]]},"properties":{"style":"solid","thickness":1}},{"type":"Feature","geometry":{"type":"LineString","coordinates":[[-80.48552772222223,27.678793527777778],[-80.48374391666667,27.680014361111112],[-80.4865531388889,27.683182944444447],[-80.48827891666667,27.68202861111111]]},"properties":{"style":"solid","thickness":1}},{"type":"Feature","geometry":{"type":"LineString","coordinates":[[-80.49213075,27.68159688888889],[-80.49412408333333,27.682334361111113],[-80.49596330555556,27.67864477777778],[-80.49389527777778,27.67785566666667]]},"properties":{"style":"solid","thickness":1}},{"type":"Feature","geometry":{"type":"LineString","coordinates":[[-80.87118102777777,27.835285777777777],[-80.87117908333333,27.835350833333333],[-80.87118575,27.835419444444444],[-80.87120233333333,27.835490472222222],[-80.87122994444444,27.835562305555555],[-80.87126927777777,27.835632999999998],[-80.87132044444444,27.83570033333333],[-80.87138283333333,27.835762083333332],[-80.87145513888888,27.83581608333333],[-80.87153538888889,27.835860583333332],[-80.87162119444444,27.83589436111111],[-80.87170980555555,27.83591686111111],[-80.87179858333333,27.835928166666665],[-80.87188513888889,27.835929],[-80.87196747222221,27.83592047222222],[-80.87204416666665,27.835904055555556],[-80.87211427777777,27.83588122222222],[-80.87217897222222,27.835852666666664],[-80.87224297222221,27.83581611111111],[-80.87230497222221,27.83577077777778],[-80.87236294444443,27.835716555555553],[-80.87241472222222,27.835653666666666],[-80.87245802777777,27.835582944444443],[-80.87249088888888,27.835505777777776],[-80.87251161111111,27.83542411111111],[-80.87251927777777,27.835340249999998],[-80.87251363888888,27.835256666666666],[-80.87249525,27.835175805555554],[-80.87246536111111,27.835099805555554],[-80.87242569444444,27.835030305555556],[-80.87237833333333,27.834968444444442],[-80.87232536111111,27.834914833333332],[-80.87226886111111,27.834869555555553],[-80.87221019444443,27.834832083333332],[-80.87214516666666,27.8347995],[-80.87207244444444,27.834772277777777],[-80.87199272222222,27.834752055555555],[-80.87190716666666,27.834740444444442],[-80.87181749999999,27.83473886111111],[-80.87172597222222,27.834748333333334],[-80.87163516666666,27.83476936111111],[-80.87154786111111,27.83480175],[-80.87146669444444,27.834844666666665],[-80.87139391666666,27.83489663888889],[-80.87133119444444,27.834955777777775],[-80.87127955555555,27.835019888888887],[-80.87123924999999,27.835086805555555],[-80.87120997222222,27.835154499999998],[-80.87119091666666,27.835221277777777],[-80.87118102777777,27.835285777777777]]},"properties":{"style":"solid","thickness":1}},{"type":"Feature","geometry":{"type":"LineString","coordinates":[[-80.87216702777778,27.835816833333332],[-80.87225055555555,27.834903194444443]]},"properties":{"style":"solid","thickness":1}},{"type":"Feature","geometry":{"type":"LineString","coordinates":[[-80.87190172222222,27.835889638888887],[-80.87200197222222,27.834793277777777]]},"properties":{"style":"solid","thickness":1}},{"type":"Feature","geometry":{"type":"LineString","coordinates":[[-80.87164477777777,27.83587108333333],[-80.87174502777778,27.834774694444445]]},"properties":{"style":"solid","thickness":1}},{"type":"Feature","geometry":{"type":"LineString","coordinates":[[-80.87139619444444,27.835761138888888],[-80.87147972222222,27.8348475]]},"properties":{"style":"solid","thickness":1}},{"type":"Feature","geometry":{"type":"LineString","coordinates":[[-80.84641916666666,27.825901388888887],[-80.84642113888889,27.82583633333333],[-80.84641447222222,27.825767694444444],[-80.84639791666666,27.825696666666666],[-80.84637030555555,27.825624833333332],[-80.84633099999999,27.82555413888889],[-80.8462798611111,27.825486777777776],[-80.8462175,27.82542502777778],[-80.84614519444445,27.825371027777777],[-80.84606494444444,27.8253265],[-80.84597919444444,27.825292722222223],[-80.84589058333333,27.825270194444442],[-80.84580180555555,27.82525886111111],[-80.84571527777777,27.825258027777778],[-80.84563291666666,27.825266527777778],[-80.84555625,27.825282944444446],[-80.84548613888889,27.82530575],[-80.84542141666667,27.825334277777777],[-80.84535741666666,27.82537086111111],[-80.84529541666666,27.82541613888889],[-80.84523744444444,27.82547038888889],[-80.84518566666667,27.82553325],[-80.84514233333333,27.825603972222222],[-80.84510947222222,27.82568113888889],[-80.84508872222221,27.825762805555556],[-80.84508102777777,27.825846666666667],[-80.84508663888889,27.825930222222222],[-80.84510499999999,27.82601111111111],[-80.84513488888888,27.82608711111111],[-80.84517452777777,27.82615663888889],[-80.84522188888889,27.8262185],[-80.84527483333333,27.82627211111111],[-80.84533130555555,27.826317416666665],[-80.84538997222222,27.82635488888889],[-80.845455,27.826387472222223],[-80.84552769444444,27.82641472222222],[-80.84560738888888,27.826434944444443],[-80.84569294444444,27.826446583333333],[-80.8457826111111,27.826448166666665],[-80.84587413888889,27.82643872222222],[-80.84596494444445,27.82641772222222],[-80.84605225,27.826385333333334],[-80.84613341666666,27.826342444444442],[-80.84620619444443,27.826290472222222],[-80.84626891666666,27.826231361111113],[-80.84632058333332,27.82616725],[-80.84636091666667,27.826100333333333],[-80.84639019444444,27.82603263888889],[-80.84640925,27.82596586111111],[-80.84641916666666,27.825901388888887]]},"properties":{"style":"solid","thickness":1}},{"type":"Feature","geometry":{"type":"LineString","coordinates":[[-80.8454333611111,27.82537013888889],[-80.84534963888889,27.826283749999998]]},"properties":{"style":"solid","thickness":1}},{"type":"Feature","geometry":{"type":"LineString","coordinates":[[-80.84569866666666,27.825297388888888],[-80.84559816666666,27.82639372222222]]},"properties":{"style":"solid","thickness":1}},{"type":"Feature","geometry":{"type":"LineString","coordinates":[[-80.84595558333334,27.825316],[-80.84585508333333,27.826412333333334]]},"properties":{"style":"solid","thickness":1}},{"type":"Feature","geometry":{"type":"LineString","coordinates":[[-80.8462041111111,27.825425972222224],[-80.84612038888888,27.826339583333333]]},"properties":{"style":"solid","thickness":1}},{"type":"Feature","geometry":{"type":"LineString","coordinates":[[-80.84854833333333,27.368791444444444],[-80.84524444444445,27.37628888888889],[-80.83992149999999,27.36978277777778]]},"properties":{"style":"solid","thickness":1}},{"type":"Feature","geometry":{"type":"LineString","coordinates":[[-80.39804866666667,27.114456833333335],[-80.39472222222223,27.121944444444445],[-80.389437,27.11542080555556]]},"properties":{"style":"solid","thickness":1}},{"type":"Feature","geometry":{"type":"LineString","coordinates":[[-80.39221575,27.11501252777778],[-80.3888888888889,27.1225],[-80.38360397222223,27.11597613888889]]},"properties":{"style":"solid","thickness":1}},{"type":"Feature","geometry":{"type":"LineString","coordinates":[[-80.18163508333333,27.018070027777778],[-80.17829722222223,27.025552777777776],[-80.17302883333333,27.019020916666665]]},"properties":{"style":"solid","thickness":1}},{"type":"Feature","geometry":{"type":"LineString","coordinates":[[-80.11806447222222,27.025296527777776],[-80.11472222222221,27.032777777777778],[-80.10945713888889,27.026243555555556]]},"properties":{"style":"solid","thickness":1}},{"type":"Feature","geometry":{"type":"LineString","coordinates":[[-80.60555902777777,27.0950065],[-80.60356319444443,27.092289333333333],[-80.59992905555555,27.092221055555555],[-80.60218713888888,27.089682055555553],[-80.60114044444444,27.086556777777776],[-80.60452883333333,27.08773425],[-80.60748172222222,27.085837166666664],[-80.60733952777777,27.08909733333333],[-80.61023408333332,27.09105163888889],[-80.60673399999999,27.0919295],[-80.60555902777777,27.0950065]]},"properties":{"style":"solid","thickness":1}},{"type":"Feature","geometry":{"type":"LineString","coordinates":[[-80.78239075,27.411890749999998],[-80.78243619444444,27.411941638888887],[-80.78249080555555,27.41199036111111],[-80.78255469444444,27.412035222222222],[-80.78262755555555,27.412074388888886],[-80.78270855555556,27.41210597222222],[-80.78279613888888,27.412128222222222],[-80.78288825,27.412139777777778],[-80.78298233333334,27.41213972222222],[-80.78307561111112,27.412127833333333],[-80.78316538888889,27.41210458333333],[-80.78324916666666,27.41207108333333],[-80.783325,27.412028916666664],[-80.78339158333333,27.41198],[-80.78344822222222,27.41192636111111],[-80.78349483333334,27.411869888888887],[-80.78353180555555,27.411812305555554],[-80.78356055555555,27.411753416666667],[-80.78358294444445,27.411688777777776],[-80.7835975,27.41161863888889],[-80.78360258333333,27.411543944444443],[-80.78359666666667,27.411466166666663],[-80.78357866666667,27.411387249999997],[-80.78354802777777,27.41130938888889],[-80.78350491666666,27.411235027777778],[-80.78345025,27.411166444444444],[-80.78338566666666,27.41110572222222],[-80.78331330555555,27.41105436111111],[-80.78323566666667,27.411013305555553],[-80.78315530555555,27.410982805555555],[-80.78307455555556,27.410962583333333],[-80.7829955,27.41095186111111],[-80.78291977777778,27.410949555555554],[-80.782848,27.410954444444442],[-80.78277491666667,27.41096675],[-80.78269986111111,27.410987527777777],[-80.78262447222222,27.411017666666666],[-80.78255088888889,27.411057777777778],[-80.78248138888888,27.41110788888889],[-80.78241844444445,27.411167527777778],[-80.7823643888889,27.411235583333333],[-80.78232122222222,27.411310333333333],[-80.78229030555555,27.41138963888889],[-80.78227230555555,27.411471083333332],[-80.78226716666667,27.41155222222222],[-80.78227402777777,27.41163086111111],[-80.78229158333333,27.411705138888887],[-80.78231811111111,27.41177372222222],[-80.78235177777778,27.41183572222222],[-80.78239075,27.411890749999998]]},"properties":{"style":"solid","thickness":1}},{"type":"Feature","geometry":{"type":"LineString","coordinates":[[-80.78352558333333,27.411732833333332],[-80.78293008333333,27.410985777777775]]},"properties":{"style":"solid","thickness":1}},{"type":"Feature","geometry":{"type":"LineString","coordinates":[[-80.78337586111111,27.411940388888887],[-80.78266125,27.411043944444444]]},"properties":{"style":"solid","thickness":1}},{"type":"Feature","geometry":{"type":"LineString","coordinates":[[-80.78316658333333,27.41207325],[-80.78245199999999,27.411176805555556]]},"properties":{"style":"solid","thickness":1}},{"type":"Feature","geometry":{"type":"LineString","coordinates":[[-80.78289775,27.412131416666664],[-80.78230227777777,27.41138436111111]]},"properties":{"style":"solid","thickness":1}},{"type":"Feature","geometry":{"type":"LineString","coordinates":[[-80.7567415,27.41888213888889],[-80.75669605555555,27.418831222222224],[-80.75664147222223,27.418782500000002],[-80.75657758333334,27.41873763888889],[-80.75650469444444,27.418698472222225],[-80.75642372222222,27.418666861111113],[-80.75633613888888,27.418644583333336],[-80.75624402777778,27.41863302777778],[-80.75614994444445,27.418633055555556],[-80.7560566388889,27.41864491666667],[-80.7559668611111,27.418668166666667],[-80.75588305555556,27.41870163888889],[-80.75580719444444,27.418743777777777],[-80.75574061111111,27.41879266666667],[-80.75568394444444,27.418846305555558],[-80.75563733333334,27.418902777777777],[-80.75560033333333,27.41896036111111],[-80.75557158333334,27.41901925],[-80.75554916666667,27.419083861111112],[-80.75553458333333,27.41915402777778],[-80.7555295,27.419228722222222],[-80.75553538888889,27.419306472222225],[-80.75555336111111,27.419385416666668],[-80.755584,27.41946325],[-80.75562708333334,27.41953763888889],[-80.75568172222222,27.419606222222225],[-80.75574630555556,27.419666972222224],[-80.75581866666667,27.419718361111112],[-80.75589630555555,27.41975941666667],[-80.75597666666667,27.41978991666667],[-80.75605741666666,27.419810166666668],[-80.75613647222222,27.41982091666667],[-80.75621222222222,27.419823222222224],[-80.756284,27.419818333333335],[-80.75635708333333,27.419806055555558],[-80.75643216666667,27.419785305555557],[-80.75650752777777,27.41975516666667],[-80.75658116666666,27.419715083333333],[-80.75665066666667,27.419664972222222],[-80.75671363888888,27.419605333333333],[-80.75676769444445,27.419537305555558],[-80.7568108888889,27.41946255555556],[-80.75684183333334,27.419383250000003],[-80.75685983333334,27.419301833333336],[-80.75686502777778,27.419220666666668],[-80.75685816666666,27.419142055555557],[-80.75684063888889,27.41906775],[-80.75681411111111,27.41899916666667],[-80.75678047222222,27.41893716666667],[-80.7567415,27.41888213888889]]},"properties":{"style":"solid","thickness":1}},{"type":"Feature","geometry":{"type":"LineString","coordinates":[[-80.75560655555556,27.419039833333336],[-80.75620191666667,27.419787]]},"properties":{"style":"solid","thickness":1}},{"type":"Feature","geometry":{"type":"LineString","coordinates":[[-80.75575633333334,27.418832305555558],[-80.75647075,27.41972888888889]]},"properties":{"style":"solid","thickness":1}},{"type":"Feature","geometry":{"type":"LineString","coordinates":[[-80.75596566666667,27.418699472222222],[-80.75668008333334,27.419596083333335]]},"properties":{"style":"solid","thickness":1}},{"type":"Feature","geometry":{"type":"LineString","coordinates":[[-80.7562345,27.41864138888889],[-80.75682986111111,27.41938852777778]]},"properties":{"style":"solid","thickness":1}},{"type":"Feature","geometry":{"type":"LineString","coordinates":[[-80.66291605555556,27.79956902777778],[-80.66090622222222,27.796853333333335],[-80.65724930555557,27.796786722222222],[-80.65952008333333,27.79424725],[-80.65846508333334,27.791123138888892],[-80.66187533333334,27.792298805555557],[-80.66484558333335,27.790400833333337],[-80.66470436111112,27.79366036111111],[-80.6676181388889,27.79561291666667],[-80.66409663888889,27.796492166666667],[-80.66291605555556,27.79956902777778]]},"properties":{"style":"solid","thickness":1}},{"type":"Feature","geometry":{"type":"LineString","coordinates":[[-80.34575783333332,27.791042888888892],[-80.34375583333333,27.78832263888889],[-80.34009933333333,27.788247833333337],[-80.34237713888888,27.785713416666667],[-80.34133108333333,27.782586888888886],[-80.34473777777777,27.783770222222223],[-80.34771322222221,27.78187886111111],[-80.34756277777777,27.785138111111113],[-80.35047080555555,27.787097222222222],[-80.34694705555555,27.78796861111111],[-80.34575783333332,27.791042888888892]]},"properties":{"style":"solid","thickness":1}},{"type":"Feature","geometry":{"type":"LineString","coordinates":[[-80.01438166666667,27.80297861111111],[-80.02435877777778,27.80189525],[-80.02042619444444,27.810125972222224],[-80.01438166666667,27.80297861111111]]},"properties":{"style":"solid","thickness":1}},{"type":"Feature","geometry":{"type":"LineString","coordinates":[[-80.73847108333334,27.225958416666664],[-80.73646977777778,27.22324325],[-80.73283141666667,27.223178416666666],[-80.73508905555556,27.220637388888886],[-80.7340375,27.21751325],[-80.7374311388889,27.21868744444444],[-80.74038516666667,27.216787666666665],[-80.74024666666666,27.220047833333332],[-80.74314683333334,27.221999305555553],[-80.73964377777777,27.222880444444442],[-80.73847108333334,27.225958416666664]]},"properties":{"style":"solid","thickness":1}},{"type":"Feature","geometry":{"type":"LineString","coordinates":[[-80.47790516666667,27.345681805555554],[-80.47590794444444,27.342963055555554],[-80.47226583333334,27.342891555555553],[-80.47453172222222,27.340354694444443],[-80.47348619444445,27.337228694444445],[-80.47688077777778,27.33840908333333],[-80.47984227777778,27.33651475],[-80.47969619444444,27.339774583333334],[-80.48259497222223,27.341731333333332],[-80.47908616666666,27.342606055555553],[-80.47790516666667,27.345681805555554]]},"properties":{"style":"solid","thickness":1}},{"type":"Feature","geometry":{"type":"LineString","coordinates":[[-80.1490196388889,27.472786027777776],[-80.14702805555557,27.470062694444444],[-80.14338202777779,27.469982777777776],[-80.14565783333335,27.46745125],[-80.14462022222223,27.464322944444444],[-80.14801519444445,27.465511166666666],[-80.15098558333334,27.46362372222222],[-80.15082983333333,27.46688313888889],[-80.15372622222223,27.468846499999998],[-80.15021088888889,27.469713083333332],[-80.1490196388889,27.472786027777776]]},"properties":{"style":"solid","thickness":1}},{"type":"Feature","geometry":{"type":"LineString","coordinates":[[-80.1035225,26.686196527777778],[-80.10268269444444,26.685442138888888]]},"properties":{"style":"solid","thickness":1}},{"type":"Feature","geometry":{"type":"LineString","coordinates":[[-80.10340575,26.686480694444445],[-80.10236633333332,26.685547]]},"properties":{"style":"solid","thickness":1}},{"type":"Feature","geometry":{"type":"LineString","coordinates":[[-80.10318922222221,26.686675222222224],[-80.10214980555556,26.68574152777778]]},"properties":{"style":"solid","thickness":1}},{"type":"Feature","geometry":{"type":"LineString","coordinates":[[-80.10287286111111,26.686780083333332],[-80.10203305555555,26.686025694444446]]},"properties":{"style":"solid","thickness":1}},{"type":"Feature","geometry":{"type":"LineString","coordinates":[[-80.10221474999999,26.686616861111112],[-80.10232433333333,26.686699027777777],[-80.10244847222222,26.686762333333334],[-80.10258322222222,26.686804666666667],[-80.10272422222222,26.686824722222223],[-80.10286691666666,26.68682186111111],[-80.10300677777778,26.68679613888889],[-80.10313925,26.68674838888889],[-80.10326011111111,26.686680166666665],[-80.1033655,26.686593666666667],[-80.10345197222222,26.68649163888889],[-80.10351677777777,26.68637738888889],[-80.10355783333333,26.686254583333334],[-80.10357380555556,26.686127166666665],[-80.10356419444444,26.68599922222222],[-80.10352933333333,26.68587488888889],[-80.10347027777777,26.68575813888889],[-80.10338899999999,26.685652722222223],[-80.10328805555555,26.685562055555557],[-80.10317072222222,26.685489027777777],[-80.10304074999999,26.685436],[-80.10290233333333,26.685404666666667],[-80.10275991666666,26.685396055555557],[-80.10261805555555,26.685410416666667],[-80.10248133333333,26.68544727777778],[-80.10235416666666,26.6855055],[-80.10224058333333,26.685583166666667],[-80.10214427777777,26.685677833333333],[-80.10206833333332,26.68578638888889],[-80.10201519444443,26.685905416666667],[-80.10198655555556,26.686031027777776],[-80.10198333333332,26.686159222222223],[-80.10200566666666,26.686285861111113],[-80.10205283333333,26.686406916666666],[-80.10212327777778,26.686518416666665],[-80.10221474999999,26.686616861111112]]},"properties":{"style":"solid","thickness":1}}]}