{"type":"FeatureCollection","features":[{"type":"Feature","geometry":{"type":"LineString","coordinates":[[-80.31975841666666,27.621228972222223],[-80.30835288888889,27.617381916666666]]},"properties":{"style":"solid","thickness":1}},{"type":"Feature","geometry":{"type":"LineString","coordinates":[[-80.31621494444444,27.61422588888889],[-80.31189597222222,27.624385194444447]]},"properties":{"style":"solid","thickness":1}},{"type":"Feature","geometry":{"type":"LineString","coordinates":[[-80.10493308333332,26.678504500000003],[-80.10493308333332,26.679623250000002]]},"properties":{"style":"solid","thickness":1}},{"type":"Feature","geometry":{"type":"LineString","coordinates":[[-80.10462174999999,26.67839263888889],[-80.10462174999999,26.67973513888889]]},"properties":{"style":"solid","thickness":1}},{"type":"Feature","geometry":{"type":"LineString","coordinates":[[-80.10431041666666,26.67839263888889],[-80.10431041666666,26.67973513888889]]},"properties":{"style":"solid","thickness":1}},{"type":"Feature","geometry":{"type":"LineString","coordinates":[[-80.10399908333332,26.678504500000003],[-80.10399908333332,26.679623250000002]]},"properties":{"style":"solid","thickness":1}},{"type":"Feature","geometry":{"type":"LineString","coordinates":[[-80.10368774999999,26.67906388888889],[-80.10369255555555,26.679143194444446],[-80.10370813888888,26.679226111111113],[-80.10373591666666,26.67931102777778],[-80.10377708333333,26.679395972222224],[-80.10383222222222,26.679478500000002],[-80.10390119444443,26.679555944444445],[-80.10398308333333,26.679625555555557],[-80.10407608333333,26.679684916666666],[-80.10417758333332,26.679731972222225],[-80.10428455555555,26.67976552777778],[-80.10439372222221,26.679785111111112],[-80.10450183333333,26.679791055555558],[-80.10460611111111,26.679784472222224],[-80.10470430555554,26.67976688888889],[-80.10479480555556,26.67974013888889],[-80.10487666666666,26.679706222222222],[-80.10495144444444,26.679665805555558],[-80.10502444444444,26.679615694444447],[-80.10509408333333,26.679555111111114],[-80.10515791666666,26.679484055555555],[-80.10521330555555,26.679402972222224],[-80.10525766666666,26.67931313888889],[-80.10528869444444,26.67921638888889],[-80.10530466666665,26.679115222222222],[-80.10530466666665,26.67901252777778],[-80.10528869444444,26.678911361111112],[-80.10525766666666,26.67881461111111],[-80.10521330555555,26.67872477777778],[-80.10515788888888,26.678643722222223],[-80.10509408333333,26.67857263888889],[-80.10502444444444,26.678512083333334],[-80.10495141666667,26.678461972222223],[-80.10487666666666,26.67842152777778],[-80.10479480555556,26.678387611111113],[-80.10470430555554,26.67836088888889],[-80.10460611111111,26.678343305555558],[-80.10450183333333,26.678336694444447],[-80.10439372222221,26.67834266666667],[-80.10428458333332,26.678362222222223],[-80.10417758333332,26.67839577777778],[-80.10407608333333,26.67844286111111],[-80.10398308333333,26.678502194444444],[-80.10390119444443,26.678571833333333],[-80.10383222222222,26.67864925],[-80.10377708333333,26.678731777777777],[-80.10373591666666,26.678816722222223],[-80.10370813888888,26.67890166666667],[-80.10369258333333,26.678984583333335],[-80.10368774999999,26.67906388888889]]},"properties":{"style":"solid","thickness":1}},{"type":"Feature","geometry":{"type":"LineString","coordinates":[[-80.10321366666666,26.685551750000002],[-80.10321366666666,26.6866705]]},"properties":{"style":"solid","thickness":1}},{"type":"Feature","geometry":{"type":"LineString","coordinates":[[-80.10290233333333,26.68543986111111],[-80.10290230555555,26.68678236111111]]},"properties":{"style":"solid","thickness":1}},{"type":"Feature","geometry":{"type":"LineString","coordinates":[[-80.10259097222222,26.68543986111111],[-80.10259094444444,26.68678236111111]]},"properties":{"style":"solid","thickness":1}},{"type":"Feature","geometry":{"type":"LineString","coordinates":[[-80.1022796111111,26.685551722222222],[-80.10227958333333,26.68667047222222]]},"properties":{"style":"solid","thickness":1}},{"type":"Feature","geometry":{"type":"LineString","coordinates":[[-80.10196825,26.68611111111111],[-80.10197308333333,26.686190416666665],[-80.10198863888888,26.686273305555556],[-80.10201644444444,26.68635825],[-80.10205758333333,26.686443194444443],[-80.10211272222222,26.68652572222222],[-80.10218172222221,26.686603166666668],[-80.1022636111111,26.68667277777778],[-80.10235658333333,26.68673213888889],[-80.1024581111111,26.686779194444444],[-80.1025651111111,26.68681275],[-80.10267424999999,26.686832333333335],[-80.10278236111111,26.686838277777778],[-80.10288666666666,26.686831694444443],[-80.10298486111111,26.68681411111111],[-80.10307536111111,26.686787388888888],[-80.10315725,26.686753444444445],[-80.10323199999999,26.686713027777778],[-80.10330502777778,26.686662916666666],[-80.10337466666667,26.68660236111111],[-80.1034385,26.686531277777778],[-80.10349388888888,26.686450222222224],[-80.10353825,26.68636038888889],[-80.10356930555555,26.68626363888889],[-80.10358527777777,26.68616247222222],[-80.10358527777777,26.68605977777778],[-80.10356930555555,26.68595861111111],[-80.10353825,26.68586186111111],[-80.10349388888888,26.685772],[-80.1034385,26.685690944444445],[-80.10337466666667,26.68561988888889],[-80.10330502777778,26.685559305555557],[-80.10323202777778,26.685509194444446],[-80.10315725,26.68546877777778],[-80.10307538888888,26.685434861111112],[-80.10298486111111,26.685408111111112],[-80.10288666666666,26.685390527777777],[-80.10278238888888,26.685383944444446],[-80.10267427777777,26.68538988888889],[-80.1025651111111,26.685409472222222],[-80.10245813888888,26.685443],[-80.1023566111111,26.685490083333335],[-80.10226363888889,26.685549416666667],[-80.10218172222221,26.685619055555556],[-80.10211274999999,26.685696472222222],[-80.1020576111111,26.685779],[-80.10201644444444,26.685863944444446],[-80.10198863888888,26.685948888888888],[-80.10197308333333,26.686031777777778],[-80.10196825,26.68611111111111]]},"properties":{"style":"solid","thickness":1}},{"type":"Feature","geometry":{"type":"LineString","coordinates":[[-80.59196013888888,27.415376833333333],[-80.59203027777777,27.415693444444443],[-80.59215905555556,27.416019833333333],[-80.59235358333333,27.416344055555555],[-80.59261691666666,27.416651055555555],[-80.59294644444444,27.416924194444444],[-80.59333283333333,27.417147361111113],[-80.5937605,27.417307611111113],[-80.59420958333332,27.41739752777778],[-80.59465883333333,27.417416222222222],[-80.59508883333334,27.417369],[-80.59548441666666,27.41726591666667],[-80.59583572222222,27.41711941666667],[-80.59613813888889,27.416942416666668],[-80.59641030555555,27.416729916666668],[-80.59666263888889,27.416467166666664],[-80.59688,27.41615472222222],[-80.59704627777778,27.415797694444443],[-80.59714655555555,27.415406444444443],[-80.59716991666666,27.414996277777778],[-80.59711158333333,27.41458561111111],[-80.59697430555555,27.41419361111111],[-80.59676780555554,27.41383708333333],[-80.59650699999999,27.413528333333332],[-80.59620916666667,27.413274166666664],[-80.5958913611111,27.413075916666664],[-80.59556838888888,27.412930694444444],[-80.59522608333333,27.41282661111111],[-80.59484494444445,27.41276297222222],[-80.59443308333333,27.412751194444443],[-80.59400347222221,27.41280122222222],[-80.59357366666666,27.412919305555555],[-80.59316394444444,27.41310633333333],[-80.59279458333333,27.413356722222222],[-80.59248280555555,27.413658833333333],[-80.59224002777778,27.413996694444442],[-80.59207083333332,27.41435261111111],[-80.59197308333333,27.414709888888886],[-80.59193958333333,27.41505461111111],[-80.59196013888888,27.415376833333333]]},"properties":{"style":"solid","thickness":1}},{"type":"Feature","geometry":{"type":"LineString","coordinates":[[-80.59531763888889,27.42044952777778],[-80.59529591666666,27.419893666666667],[-80.59533797222221,27.41931977777778],[-80.59544925,27.41873627777778],[-80.59563338888888,27.41815302777778],[-80.59589169444445,27.41758066666667],[-80.59622280555556,27.41703038888889],[-80.5966226111111,27.416513],[-80.59708427777777,27.416038416666666],[-80.59759883333332,27.415615],[-80.59815544444444,27.415249],[-80.59874244444444,27.41494433333333],[-80.59934783333333,27.41470261111111],[-80.59996008333333,27.414523083333332],[-80.60056869444443,27.414403166666666]]},"properties":{"style":"solid","thickness":1}},{"type":"Feature","geometry":{"type":"LineString","coordinates":[[-80.59531763888889,27.42044952777778],[-80.59518324999999,27.41990638888889],[-80.59498211111111,27.41936],[-80.59471124999999,27.41881975],[-80.5943698611111,27.41829591666667],[-80.59395975,27.41779916666667],[-80.59348527777777,27.417339972222223],[-80.59295347222222,27.416927944444446],[-80.59237372222222,27.416571166666664],[-80.59175708333333,27.416275666666664],[-80.59111575,27.416045138888887],[-80.59046213888888,27.415880777777776],[-80.58980833333332,27.415781444444445],[-80.58916525,27.415743888888887],[-80.58854233333332,27.415763249999998]]},"properties":{"style":"solid","thickness":1}},{"type":"Feature","geometry":{"type":"LineString","coordinates":[[-80.58854233333332,27.415763249999998],[-80.58915097222221,27.41564338888889],[-80.58976324999999,27.415463916666667],[-80.59036866666666,27.415222194444443],[-80.59095566666666,27.41491758333333],[-80.59151230555555,27.41455161111111],[-80.59202686111111,27.414128194444444],[-80.59248855555555,27.41365363888889],[-80.59288836111111,27.413136277777777],[-80.59321947222222,27.41258597222222],[-80.59347777777778,27.412013638888887],[-80.59366191666666,27.41143036111111],[-80.59377322222221,27.410846888888887],[-80.59381524999999,27.410273],[-80.59379355555555,27.40971711111111]]},"properties":{"style":"solid","thickness":1}},{"type":"Feature","geometry":{"type":"LineString","coordinates":[[-80.59379355555555,27.40971711111111],[-80.59392791666666,27.41026025],[-80.59412902777777,27.410806638888886],[-80.59439988888889,27.411346916666666],[-80.59474122222221,27.41187075],[-80.59515133333333,27.4123675],[-80.59562580555556,27.412826694444444],[-80.59615758333332,27.41323869444444],[-80.59673733333332,27.41359547222222],[-80.59735394444444,27.413890944444443],[-80.59799530555556,27.414121444444444],[-80.59864888888889,27.414285777777778],[-80.59930272222222,27.414385055555552],[-80.59994580555555,27.414422555555554],[-80.60056869444443,27.414403166666666]]},"properties":{"style":"solid","thickness":1}},{"type":"Feature","geometry":{"type":"LineString","coordinates":[[-80.41782466666668,27.244651416666667],[-80.41789422222223,27.24496813888889],[-80.41802230555557,27.245294694444446],[-80.41821605555556,27.245619194444444],[-80.41847852777778,27.24592652777778],[-80.41880711111112,27.24620011111111],[-80.41919258333334,27.24642375],[-80.41961936111112,27.246584527777777],[-80.42006761111112,27.246675],[-80.42051616666667,27.24669425],[-80.42094561111112,27.246647583333335],[-80.42134077777779,27.246544972222225],[-80.42169177777778,27.24639888888889],[-80.421994,27.246222250000002],[-80.42226608333334,27.246010055555555],[-80.42251847222222,27.245747611111113],[-80.42273597222223,27.245435416666666],[-80.42290255555557,27.245078583333335],[-80.42300327777778,27.244687444444445],[-80.42302725,27.24427727777778],[-80.42296963888889,27.24386652777778],[-80.42283316666668,27.243474305555555],[-80.42262752777778,27.2431175],[-80.42236758333334,27.242808444444446],[-80.42207061111111,27.24255388888889],[-80.42175358333334,27.242355222222223],[-80.42143133333335,27.24220961111111],[-80.42108969444445,27.242105111111112],[-80.42070922222223,27.242040972222224],[-80.42029797222223,27.242028694444446],[-80.41986894444445,27.24207816666667],[-80.41943958333334,27.24219575],[-80.41903019444445,27.242382305555555],[-80.418661,27.24263225],[-80.41834922222223,27.24293397222222],[-80.41810630555555,27.243271555555555],[-80.41793680555556,27.24362727777778],[-80.4178386388889,27.243984444444447],[-80.4178046388889,27.244329166666667],[-80.41782466666668,27.244651416666667]]},"properties":{"style":"solid","thickness":1}},{"type":"Feature","geometry":{"type":"LineString","coordinates":[[-80.42116930555557,27.249728555555556],[-80.42114847222223,27.249172611111113],[-80.42119133333334,27.24859875],[-80.42130336111111,27.24801538888889],[-80.42148813888889,27.247432305555556],[-80.42174694444445,27.246860222222224],[-80.42207841666666,27.246310333333334],[-80.42247838888889,27.245793416666668],[-80.42294013888889,27.24531938888889],[-80.42345455555557,27.244896555555556],[-80.42401091666667,27.244531222222225],[-80.4245975,27.244227277777778],[-80.42520233333333,27.24398627777778],[-80.42581394444444,27.243807500000003],[-80.42642186111111,27.243688305555555]]},"properties":{"style":"solid","thickness":1}},{"type":"Feature","geometry":{"type":"LineString","coordinates":[[-80.42116930555557,27.249728555555556],[-80.42103597222223,27.249185222222224],[-80.42083597222222,27.248638555555555],[-80.42056633333334,27.248097944444446],[-80.42022630555556,27.24757363888889],[-80.41981755555555,27.247076361111112],[-80.41934450000001,27.246616555555555],[-80.41881413888889,27.246203861111113],[-80.41823580555555,27.245846333333333],[-80.41762055555556,27.245550055555558],[-80.41698052777778,27.245318722222223],[-80.41632816666667,27.245153555555557],[-80.41567547222223,27.245053416666668],[-80.41503341666667,27.245015055555555],[-80.41441141666667,27.245033666666668]]},"properties":{"style":"solid","thickness":1}},{"type":"Feature","geometry":{"type":"LineString","coordinates":[[-80.41441141666667,27.245033666666668],[-80.41501933333333,27.24491452777778],[-80.41563094444444,27.24473577777778],[-80.41623583333335,27.244494833333334],[-80.41682241666668,27.244190916666668],[-80.41737880555556,27.243825583333333],[-80.41789325,27.243402805555558],[-80.41835497222223,27.242928777777777],[-80.41875497222223,27.24241188888889],[-80.41908644444445,27.241861972222225],[-80.41934525,27.241289916666666],[-80.41953002777778,27.240706833333334],[-80.41964205555556,27.240123472222223],[-80.41968491666667,27.239549583333336],[-80.41966411111112,27.23899363888889]]},"properties":{"style":"solid","thickness":1}},{"type":"Feature","geometry":{"type":"LineString","coordinates":[[-80.41966411111112,27.23899363888889],[-80.41979741666667,27.239537000000002],[-80.41999738888889,27.240083666666667],[-80.42026700000001,27.24062427777778],[-80.42060702777778,27.241148583333334],[-80.42101575000001,27.241645861111113],[-80.42148880555555,27.242105666666667],[-80.4220191388889,27.242518361111113],[-80.42259747222222,27.242875861111113],[-80.42321272222223,27.24317211111111],[-80.42385275000001,27.243403416666666],[-80.42450511111112,27.243568555555555],[-80.42515780555556,27.24366863888889],[-80.42579986111112,27.243706944444444],[-80.42642186111111,27.243688305555555]]},"properties":{"style":"solid","thickness":1}},{"type":"Feature","geometry":{"type":"LineString","coordinates":[[-80.61023094444444,27.719682749999997],[-80.61030133333333,27.719999305555554],[-80.61043052777777,27.720325638888887],[-80.61062563888888,27.720649805555553],[-80.61088975,27.72095675],[-80.61122022222222,27.721229805555552],[-80.61160766666666,27.721452888888887],[-80.61203652777778,27.721613055555554],[-80.61248683333332,27.72170288888889],[-80.61293730555555,27.721721527777778],[-80.61336847222222,27.72167425],[-80.6137651111111,27.72157111111111],[-80.6141173611111,27.72142458333333],[-80.61442055555555,27.721247555555554],[-80.61469341666665,27.721035027777777],[-80.61494638888888,27.720772277777776],[-80.61516427777777,27.720459833333333],[-80.61533091666666,27.720102805555555],[-80.61543141666667,27.719711583333332],[-80.61545475,27.719301444444444],[-80.61539619444444,27.718890833333333],[-80.61525844444444,27.718498888888888],[-80.61505133333333,27.718142416666666],[-80.61478977777777,27.717833749999997],[-80.61449108333333,27.717579666666666],[-80.61417238888889,27.717381472222222],[-80.61384852777778,27.717236333333332],[-80.61350524999999,27.717132305555555],[-80.61312308333332,27.717068694444443],[-80.61271008333333,27.717056999999997],[-80.61227933333333,27.71710708333333],[-80.61184838888889,27.717225222222222],[-80.61143758333333,27.717412305555555],[-80.61106727777778,27.717662722222222],[-80.61075469444444,27.717964833333333],[-80.61051136111111,27.718302694444443],[-80.61034174999999,27.71865861111111],[-80.61024377777777,27.71901586111111],[-80.61021027777777,27.719360555555554],[-80.61023094444444,27.719682749999997]]},"properties":{"style":"solid","thickness":1}},{"type":"Feature","geometry":{"type":"LineString","coordinates":[[-80.61359847222222,27.724754444444443],[-80.61357658333333,27.72419861111111],[-80.61361863888888,27.723624777777776],[-80.61373011111111,27.72304136111111],[-80.61391463888889,27.72245811111111],[-80.61417355555555,27.721885777777775],[-80.61450544444443,27.7213355],[-80.61490622222222,27.72081811111111],[-80.61536908333333,27.7203435],[-80.61588494444445,27.719920055555555],[-80.61644299999999,27.719554],[-80.61703152777777,27.719249277777777],[-80.6176385,27.7190075],[-80.6182523611111,27.71882788888889],[-80.6188626111111,27.718707888888886]]},"properties":{"style":"solid","thickness":1}},{"type":"Feature","geometry":{"type":"LineString","coordinates":[[-80.61359847222222,27.724754444444443],[-80.61346363888889,27.72421136111111],[-80.61326183333333,27.72366508333333],[-80.61299013888889,27.723124916666666],[-80.61264775,27.722601166666664],[-80.61223641666666,27.722104527777777],[-80.61176055555555,27.72164547222222],[-80.61122727777777,27.721233555555553],[-80.61064588888888,27.72087688888889],[-80.61002752777777,27.720581499999998],[-80.60938438888888,27.72035108333333],[-80.608729,27.72018686111111],[-80.60807338888888,27.720087638888888],[-80.60742855555554,27.720050194444443],[-80.60680397222221,27.720069638888887]]},"properties":{"style":"solid","thickness":1}},{"type":"Feature","geometry":{"type":"LineString","coordinates":[[-80.60680397222221,27.720069638888887],[-80.60741424999999,27.719949666666665],[-80.60802813888888,27.719770138888887],[-80.60863513888889,27.71952836111111],[-80.60922366666667,27.719223694444445],[-80.60978175,27.718857666666665],[-80.61029761111111,27.71843422222222],[-80.61076047222221,27.71795963888889],[-80.61116127777777,27.717442277777778],[-80.61149316666666,27.71689197222222],[-80.61175208333333,27.716319666666667],[-80.6119366111111,27.715736416666665],[-80.61204808333333,27.71515297222222],[-80.61209013888889,27.714579138888887],[-80.61206827777777,27.714023305555553]]},"properties":{"style":"solid","thickness":1}},{"type":"Feature","geometry":{"type":"LineString","coordinates":[[-80.61206827777777,27.714023305555553],[-80.61220308333333,27.714566388888887],[-80.6124048611111,27.715112694444443],[-80.61267652777777,27.71565286111111],[-80.61301891666666,27.71617661111111],[-80.61343022222222,27.71667325],[-80.61390605555555,27.717132305555555],[-80.61443933333332,27.717544194444443],[-80.61502072222221,27.717900861111108],[-80.61563908333333,27.718196222222222],[-80.61628222222221,27.71842661111111],[-80.6169376111111,27.718590805555554],[-80.61759322222221,27.718689972222222],[-80.61823802777778,27.718727388888887],[-80.6188626111111,27.718707888888886]]},"properties":{"style":"solid","thickness":1}},{"type":"Feature","geometry":{"type":"LineString","coordinates":[[-80.20462166666667,27.582187833333332],[-80.21227988888889,27.581344194444444],[-80.20927141666667,27.587680027777775],[-80.20462166666667,27.582187833333332]]},"properties":{"style":"solid","thickness":1}},{"type":"Feature","geometry":{"type":"LineString","coordinates":[[-80.29279116666666,27.471773666666664],[-80.30044122222222,27.470925249999997],[-80.29744063888889,27.477263138888887],[-80.29279116666666,27.471773666666664]]},"properties":{"style":"solid","thickness":1}},{"type":"Feature","geometry":{"type":"LineString","coordinates":[[-80.49110530555555,27.675720722222223],[-80.48763166666667,27.676110055555558],[-80.48649105555556,27.67868638888889],[-80.48860736111111,27.681174916666667],[-80.49157030555556,27.680842833333333],[-80.49292763888889,27.677964972222224],[-80.49110530555555,27.675720722222223]]},"properties":{"style":"solid","thickness":1}},{"type":"Feature","geometry":{"type":"LineString","coordinates":[[-80.49110530555555,27.675720722222223],[-80.4908995,27.674265444444444],[-80.4874258888889,27.67465477777778],[-80.48763166666667,27.676110055555558]]},"properties":{"style":"solid","thickness":1}},{"type":"Feature","geometry":{"type":"LineString","coordinates":[[-80.48649105555556,27.67868638888889],[-80.48511891666666,27.67962552777778],[-80.4872798611111,27.682062861111113],[-80.48860736111111,27.681174916666667]]},"properties":{"style":"solid","thickness":1}},{"type":"Feature","geometry":{"type":"LineString","coordinates":[[-80.49157030555556,27.680842833333333],[-80.49310361111111,27.681410111111113],[-80.49451841666666,27.678572000000003],[-80.49292763888889,27.677964972222224]]},"properties":{"style":"solid","thickness":1}}]}
