{"type":"FeatureCollection","features":[{"type":"Feature","geometry":{"type":"LineString","coordinates":[[-79.94296822222222,26.805398083333333],[-79.90133961111111,26.809919722222222]]},"properties":{"style":"solid","thickness":1}},{"type":"Feature","geometry":{"type":"LineString","coordinates":[[-79.94114941666668,26.792859916666668],[-79.89952527777778,26.797381055555558]]},"properties":{"style":"solid","thickness":1}},{"type":"Feature","geometry":{"type":"LineString","coordinates":[[-80.08879291666666,26.559526472222224],[-80.04725872222222,26.564090972222225]]},"properties":{"style":"solid","thickness":1}},{"type":"Feature","geometry":{"type":"LineString","coordinates":[[-80.08682058333333,26.545030111111114],[-80.0452915,26.54959402777778]]},"properties":{"style":"solid","thickness":1}},{"type":"Feature","geometry":{"type":"LineString","coordinates":[[-80.05485575,26.589541777777775],[-79.97945766666668,26.583980166666667]]},"properties":{"style":"solid","thickness":1}},{"type":"Feature","geometry":{"type":"LineString","coordinates":[[-79.97016111111111,26.58349158333333],[-79.96376463888889,26.583904583333332],[-79.95747308333334,26.58502136111111],[-79.95138186111112,26.58682497222222],[-79.94558327777779,26.589288027777776],[-79.94016527777778,26.59237322222222],[-79.93521002777779,26.596033777777777],[-79.93079275000001,26.600214194444447],[-79.92698047222223,26.604851055555557],[-79.92383108333334,26.609874055555558],[-79.92139244444445,26.615206972222225],[-79.9197016388889,26.620768916666666],[-79.91878447222223,26.626475527777778],[-79.91865491666667,26.632240194444446],[-79.91931511111112,26.637975416666666],[-79.92075511111112,26.643594166666666],[-79.92295316666667,26.64901108333333],[-79.92587605555556,26.654144],[-79.92947944444445,26.658914916666664],[-79.93370869444445,26.663251416666665],[-79.9384996388889,26.667087583333334],[-79.94377955555557,26.670365166666667],[-79.94946825000001,26.67303438888889],[-79.95547933333333,26.675054694444444],[-79.96172147222222,26.676395361111112],[-79.96809986111111,26.677036027777778]]},"properties":{"style":"solid","thickness":1}},{"type":"Feature","geometry":{"type":"LineString","coordinates":[[-79.95175455555555,26.797785722222223],[-79.940611,26.742531111111113]]},"properties":{"style":"solid","thickness":1}},{"type":"Feature","geometry":{"type":"LineString","coordinates":[[-79.99726675,26.678332055555558],[-79.9901055,26.67842827777778],[-79.98301683333334,26.679347055555557],[-79.97611730555556,26.681073333333334],[-79.96952033333334,26.683578722222222],[-79.96333444444444,26.686822],[-79.9576613888889,26.690749833333335],[-79.9525945,26.695297611111112],[-79.94821722222223,26.700390583333334],[-79.94460166666667,26.705944944444443],[-79.94180738888889,26.711869305555556],[-79.9398805,26.718066194444443],[-79.93885288888889,26.72443361111111],[-79.93874158333334,26.730866777777777]]},"properties":{"style":"solid","thickness":1}},{"type":"Feature","geometry":{"type":"LineString","coordinates":[[-80.10321366666666,26.685551750000002],[-80.10321366666666,26.6866705]]},"properties":{"style":"solid","thickness":1}},{"type":"Feature","geometry":{"type":"LineString","coordinates":[[-80.10290233333333,26.68543986111111],[-80.10290230555555,26.68678236111111]]},"properties":{"style":"solid","thickness":1}},{"type":"Feature","geometry":{"type":"LineString","coordinates":[[-80.10259097222222,26.68543986111111],[-80.10259094444444,26.68678236111111]]},"properties":{"style":"solid","thickness":1}},{"type":"Feature","geometry":{"type":"LineString","coordinates":[[-80.1022796111111,26.685551722222222],[-80.10227958333333,26.68667047222222]]},"properties":{"style":"solid","thickness":1}},{"type":"Feature","geometry":{"type":"LineString","coordinates":[[-80.10196825,26.68611111111111],[-80.10197308333333,26.686190416666665],[-80.10198863888888,26.686273305555556],[-80.10201644444444,26.68635825],[-80.10205758333333,26.686443194444443],[-80.10211272222222,26.68652572222222],[-80.10218172222221,26.686603166666668],[-80.1022636111111,26.68667277777778],[-80.10235658333333,26.68673213888889],[-80.1024581111111,26.686779194444444],[-80.1025651111111,26.68681275],[-80.10267424999999,26.686832333333335],[-80.10278236111111,26.686838277777778],[-80.10288666666666,26.686831694444443],[-80.10298486111111,26.68681411111111],[-80.10307536111111,26.686787388888888],[-80.10315725,26.686753444444445],[-80.10323199999999,26.686713027777778],[-80.10330502777778,26.686662916666666],[-80.10337466666667,26.68660236111111],[-80.1034385,26.686531277777778],[-80.10349388888888,26.686450222222224],[-80.10353825,26.68636038888889],[-80.10356930555555,26.68626363888889],[-80.10358527777777,26.68616247222222],[-80.10358527777777,26.68605977777778],[-80.10356930555555,26.68595861111111],[-80.10353825,26.68586186111111],[-80.10349388888888,26.685772],[-80.1034385,26.685690944444445],[-80.10337466666667,26.68561988888889],[-80.10330502777778,26.685559305555557],[-80.10323202777778,26.685509194444446],[-80.10315725,26.68546877777778],[-80.10307538888888,26.685434861111112],[-80.10298486111111,26.685408111111112],[-80.10288666666666,26.685390527777777],[-80.10278238888888,26.685383944444446],[-80.10267427777777,26.68538988888889],[-80.1025651111111,26.685409472222222],[-80.10245813888888,26.685443],[-80.1023566111111,26.685490083333335],[-80.10226363888889,26.685549416666667],[-80.10218172222221,26.685619055555556],[-80.10211274999999,26.685696472222222],[-80.1020576111111,26.685779],[-80.10201644444444,26.685863944444446],[-80.10198863888888,26.685948888888888],[-80.10197308333333,26.686031777777778],[-80.10196825,26.68611111111111]]},"properties":{"style":"solid","thickness":1}},{"type":"Feature","geometry":{"type":"LineString","coordinates":[[-79.94759244444445,26.81850372222222],[-79.94635936111112,26.809401166666667]]},"properties":{"style":"solid","thickness":1}},{"type":"Feature","geometry":{"type":"LineString","coordinates":[[-79.94060816666666,26.81002827777778],[-79.94184080555556,26.81913088888889]]},"properties":{"style":"solid","thickness":1}},{"type":"Feature","geometry":{"type":"LineString","coordinates":[[-79.94122933333334,26.81461541666667],[-79.94698072222222,26.813988277777778]]},"properties":{"style":"solid","thickness":1}},{"type":"Feature","geometry":{"type":"LineString","coordinates":[[-79.93787430555555,26.81498113888889],[-79.93372044444445,26.815433833333334]]},"properties":{"style":"solid","thickness":1}},{"type":"Feature","geometry":{"type":"LineString","coordinates":[[-79.93265405555556,26.82013211111111],[-79.93848566666666,26.81949663888889],[-79.93725330555556,26.810393972222222],[-79.93102275000001,26.811072944444444]]},"properties":{"style":"solid","thickness":1}},{"type":"Feature","geometry":{"type":"LineString","coordinates":[[-79.92937875,26.820488944444445],[-79.92274816666666,26.821211055555555]]},"properties":{"style":"solid","thickness":1}},{"type":"Feature","geometry":{"type":"LineString","coordinates":[[-79.92602352777779,26.82085438888889],[-79.92479213888889,26.81175163888889]]},"properties":{"style":"solid","thickness":1}},{"type":"Feature","geometry":{"type":"LineString","coordinates":[[-79.91824191666667,26.812464833333333],[-79.91947280555556,26.82156763888889],[-79.91440761111112,26.812882194444445],[-79.91196333333333,26.822384916666667],[-79.91073302777778,26.813282055555558]]},"properties":{"style":"solid","thickness":1}},{"type":"Feature","geometry":{"type":"LineString","coordinates":[[-79.90573197222223,26.82306277777778],[-79.90493308333333,26.823149666666666],[-79.90350719444444,26.82279561111111],[-79.9020256388889,26.821429388888888],[-79.90146402777778,26.819672222222223],[-79.90124136111112,26.818023666666665],[-79.9013188888889,26.816197],[-79.90247361111112,26.81454411111111],[-79.90370333333334,26.81404675],[-79.90450216666667,26.813959861111112],[-79.90574883333333,26.81418791666667],[-79.90731022222222,26.815545416666666],[-79.90787188888889,26.817302555555557],[-79.9080946388889,26.81895111111111],[-79.90802691666667,26.820849444444445],[-79.90687222222223,26.82250238888889],[-79.90573197222223,26.82306277777778]]},"properties":{"style":"solid","thickness":1}},{"type":"Feature","geometry":{"type":"LineString","coordinates":[[-79.94944186111111,26.803333055555555],[-79.94953025000001,26.803745111111112],[-79.94969438888889,26.804170250000002],[-79.94994352777778,26.804592944444444],[-79.95028180555556,26.804993666666668],[-79.95070586111112,26.805350722222222],[-79.95120383333334,26.80564313888889],[-79.95175566666667,26.805854],[-79.95233566666667,26.805973555555557],[-79.95291644444444,26.806000472222223],[-79.95347280555556,26.80594163888889],[-79.95398508333334,26.805809916666668],[-79.95444041666667,26.8056215],[-79.95483272222222,26.80539313888889],[-79.95518619444445,26.805118416666666],[-79.95551441666667,26.80477827777778],[-79.95579777777778,26.804373305555558],[-79.95601536111111,26.803910055555555],[-79.95614788888889,26.803401972222222],[-79.95618108333333,26.80286877777778],[-79.95610869444445,26.802334527777777],[-79.95593402777779,26.80182402777778],[-79.95566963888889,26.80135925],[-79.95533466666667,26.800956305555555],[-79.95495141666667,26.800624083333336],[-79.95454194444444,26.800364444444444],[-79.9541253888889,26.80017375],[-79.95368355555556,26.800036416666668],[-79.95319119444444,26.79995141666667],[-79.95265869444445,26.799933694444444],[-79.95210286111111,26.799996222222223],[-79.95154622222222,26.800147250000002],[-79.95101505555556,26.800388027777778],[-79.95053566666667,26.80071141666667],[-79.95013027777777,26.801102361111113],[-79.94981391666667,26.801540222222222],[-79.94959252777778,26.802002],[-79.94946350000001,26.802465944444446],[-79.94941766666668,26.802914],[-79.94944186111111,26.803333055555555]]},"properties":{"style":"solid","thickness":1}},{"type":"Feature","geometry":{"type":"LineString","coordinates":[[-79.95374611111112,26.809948305555555],[-79.95372208333333,26.80922538888889],[-79.95378066666667,26.808479472222224],[-79.95392883333334,26.8077215],[-79.95417119444444,26.806964194444443],[-79.9545093888889,26.806221555555556],[-79.95494155555556,26.805508],[-79.95546230555556,26.80483763888889],[-79.95606275,26.804223305555556],[-79.95673116666667,26.80367577777778],[-79.95745358333333,26.80320313888889],[-79.95821480555556,26.802810472222223],[-79.95899936111111,26.802499722222223],[-79.95979233333334,26.80226988888889],[-79.96058019444445,26.802117527777778]]},"properties":{"style":"solid","thickness":1}},{"type":"Feature","geometry":{"type":"LineString","coordinates":[[-79.95374611111112,26.809948305555555],[-79.95357633333333,26.809241305555556],[-79.95332025,26.80852972222222],[-79.95297394444445,26.807825694444446],[-79.95253636111111,26.807142583333334],[-79.95200969444444,26.806494305555557],[-79.95139955555555,26.805894472222224],[-79.95071494444444,26.80535563888889],[-79.94996791666667,26.804888333333334],[-79.94917275,26.8045005],[-79.94834516666667,26.804197000000002],[-79.94750122222223,26.803979472222224],[-79.94665655555556,26.803846500000002],[-79.94582530555556,26.80379388888889],[-79.94501969444445,26.80381538888889]]},"properties":{"style":"solid","thickness":1}},{"type":"Feature","geometry":{"type":"LineString","coordinates":[[-79.94501969444445,26.80381538888889],[-79.94580758333333,26.803663111111113],[-79.94660058333334,26.80343336111111],[-79.94738516666668,26.80312263888889],[-79.94814644444445,26.802730027777777],[-79.9488688888889,26.802257444444447],[-79.94953730555557,26.801709944444447],[-79.95013777777778,26.80109563888889],[-79.95065852777778,26.800425305555557],[-79.95109069444445,26.79971177777778],[-79.9514288888889,26.798969111111113],[-79.95167127777778,26.798211833333333],[-79.95181944444445,26.797453833333336],[-79.95187800000001,26.79670791666667],[-79.95185402777778,26.79598502777778]]},"properties":{"style":"solid","thickness":1}},{"type":"Feature","geometry":{"type":"LineString","coordinates":[[-79.95185402777778,26.79598502777778],[-79.95202375000001,26.79669202777778],[-79.95227980555556,26.79740361111111],[-79.95262605555556,26.79810763888889],[-79.95306361111112,26.798790750000002],[-79.95359025,26.79943902777778],[-79.95420038888889,26.800038833333335],[-79.95488497222223,26.80057766666667],[-79.95563200000001,26.801044944444445],[-79.95642716666667,26.801432722222224],[-79.95725475,26.801736194444445],[-79.95809866666667,26.801953666666666],[-79.95894336111111,26.802086583333335],[-79.95977461111111,26.802139111111114],[-79.96058019444445,26.802117527777778]]},"properties":{"style":"solid","thickness":1}},{"type":"Feature","geometry":{"type":"LineString","coordinates":[[-80.05600119444445,26.59024113888889],[-80.05608980555556,26.59065313888889],[-80.05625402777777,26.591078166666666],[-80.05650308333333,26.591500694444445],[-80.05684111111111,26.591901194444443],[-80.05726472222221,26.592257944444444],[-80.05776205555556,26.59255],[-80.05831305555556,26.59276047222222],[-80.0588921111111,26.592879583333332],[-80.05947180555555,26.592906083333332],[-80.06002711111111,26.592846805555553],[-80.06053830555555,26.592714694444442],[-80.0609926111111,26.592525944444443],[-80.061384,26.592297277777778],[-80.06173655555556,26.592022277777776],[-80.06206386111111,26.59168188888889],[-80.06234630555555,26.591276694444442],[-80.06256305555556,26.59081325],[-80.06269488888888,26.590305027777777],[-80.06272752777778,26.589771805555554],[-80.06265475,26.589237583333333],[-80.06247997222222,26.588727166666665],[-80.06221563888889,26.588262583333332],[-80.06188088888888,26.587859888888886],[-80.06149805555555,26.587527916666666],[-80.06108908333333,26.587268583333334],[-80.06067313888889,26.587078194444445],[-80.06023197222223,26.586941194444442],[-80.05974044444444,26.586856555555553],[-80.05920891666666,26.58683922222222],[-80.05865416666667,26.586902166666665],[-80.05809872222223,26.58705361111111],[-80.05756875,26.587294805555555],[-80.05709052777777,26.587618555555554],[-80.05668627777777,26.58800983333333],[-80.05637088888889,26.588447944444443],[-80.05615033333333,26.588909916666665],[-80.05602197222223,26.58937397222222],[-80.0559766388889,26.58982208333333],[-80.05600119444445,26.59024113888889]]},"properties":{"style":"solid","thickness":1}},{"type":"Feature","geometry":{"type":"LineString","coordinates":[[-80.06030361111111,26.596853416666665],[-80.06027897222222,26.596130527777778],[-80.06033674999999,26.595384527777778],[-80.06048391666667,26.594626388888887],[-80.06072513888888,26.59386888888889],[-80.06106202777778,26.593125944444445],[-80.06149275,26.592412055555556],[-80.06201188888889,26.591741277777775],[-80.06261066666666,26.59112647222222],[-80.06327733333333,26.590578416666666],[-80.063998,26.59010522222222],[-80.06475744444444,26.589711972222222],[-80.06554025,26.58940061111111],[-80.06633155555555,26.589170194444442],[-80.06711780555555,26.58901722222222]]},"properties":{"style":"solid","thickness":1}},{"type":"Feature","geometry":{"type":"LineString","coordinates":[[-80.06030361111111,26.596853416666665],[-80.06013349999999,26.596146527777776],[-80.05987722222221,26.59543511111111],[-80.05953091666666,26.594731305555555],[-80.0590935,26.5940485],[-80.05856719444444,26.59340058333333],[-80.0579576111111,26.592801194444444],[-80.05727380555555,26.59226286111111],[-80.05652769444444,26.591796083333332],[-80.05573363888888,26.591408833333332],[-80.05490730555556,26.591105944444443],[-80.05406475,26.590889055555554],[-80.05322149999999,26.590756666666664],[-80.05239172222223,26.590704694444444],[-80.05158763888889,26.590726805555555]]},"properties":{"style":"solid","thickness":1}},{"type":"Feature","geometry":{"type":"LineString","coordinates":[[-80.05158763888889,26.590726805555555],[-80.05237391666667,26.590573916666667],[-80.05316524999999,26.590343555555556],[-80.05394808333332,26.59003225],[-80.05470758333333,26.589639055555555],[-80.05542824999999,26.589165916666666],[-80.05609494444444,26.588617888888887],[-80.05669375,26.58800311111111],[-80.05721291666666,26.58733236111111],[-80.0576436111111,26.58661847222222],[-80.0579805,26.585875527777777],[-80.05822172222221,26.585118027777778],[-80.05836891666667,26.584359916666667],[-80.05842669444444,26.583613916666664],[-80.05840205555555,26.582891]]},"properties":{"style":"solid","thickness":1}},{"type":"Feature","geometry":{"type":"LineString","coordinates":[[-80.05840205555555,26.582891],[-80.05857213888889,26.58359788888889],[-80.05882838888888,26.584309333333334],[-80.05917466666666,26.585013138888886],[-80.05961202777777,26.585695944444442],[-80.06013830555555,26.58634386111111],[-80.06074786111111,26.58694322222222],[-80.06143166666666,26.587481555555556],[-80.06217775,26.587948305555553],[-80.06297180555555,26.5883355],[-80.06379816666666,26.58863836111111],[-80.06464072222222,26.58885519444444],[-80.06548397222222,26.588987499999998],[-80.06631372222222,26.589039416666665],[-80.06711780555555,26.58901722222222]]},"properties":{"style":"solid","thickness":1}},{"type":"Feature","geometry":{"type":"LineString","coordinates":[[-80.08613955555555,26.573769305555555],[-80.08762011111111,26.575133666666666],[-80.08893447222222,26.575279666666667],[-80.08981122222222,26.575182944444443],[-80.09096766666666,26.574764388888887],[-80.09211725,26.57310988888889],[-80.09216225,26.571068055555557],[-80.09201555555555,26.569993027777777],[-80.09191775,26.56927636111111],[-80.09175005555555,26.568640138888888],[-80.0913545,26.567519861111112],[-80.08980405555555,26.566235972222223],[-80.08856947222222,26.566081194444447],[-80.08785219444444,26.566160305555556],[-80.08653644444443,26.566596416666666],[-80.08537705555555,26.568179222222224]]},"properties":{"style":"solid","thickness":1}},{"type":"Feature","geometry":{"type":"LineString","coordinates":[[-80.08024666666667,26.57623772222222],[-80.0794496111111,26.576325583333333],[-80.07802622222222,26.575973277777777],[-80.07654575,26.574608805555556],[-80.07598269444443,26.57285222222222],[-80.075758,26.571203861111112],[-80.07583258333332,26.569377027777776],[-80.07698233333333,26.56772263888889],[-80.07820866666667,26.567223722222224],[-80.07900566666666,26.56713586111111],[-80.08024999999999,26.567362416666665],[-80.08181011111111,26.568718055555554],[-80.08237324999999,26.570474583333333],[-80.08259802777778,26.572122944444445],[-80.08253333333333,26.57402147222222],[-80.08138361111111,26.575675888888888],[-80.08024666666667,26.57623772222222]]},"properties":{"style":"solid","thickness":1}},{"type":"Feature","geometry":{"type":"LineString","coordinates":[[-80.07323255555555,26.577010805555556],[-80.06661686111111,26.57773963888889]]},"properties":{"style":"solid","thickness":1}},{"type":"Feature","geometry":{"type":"LineString","coordinates":[[-80.0698848611111,26.57737963888889],[-80.06864466666666,26.568277722222224]]},"properties":{"style":"solid","thickness":1}},{"type":"Feature","geometry":{"type":"LineString","coordinates":[[-80.06273386111111,26.57358438888889],[-80.05858919444444,26.574040749999998]]},"properties":{"style":"solid","thickness":1}},{"type":"Feature","geometry":{"type":"LineString","coordinates":[[-80.0575301388889,26.578740194444443],[-80.06334886111111,26.578099555555557],[-80.06210916666666,26.568997555555555],[-80.05589238888889,26.569682027777777]]},"properties":{"style":"solid","thickness":1}},{"type":"Feature","geometry":{"type":"LineString","coordinates":[[-80.04915291666667,26.575443],[-80.04839316666667,26.5763995],[-80.04814091666667,26.57751838888889],[-80.04818966666666,26.57787675],[-80.04875402777778,26.579051305555556],[-80.0501968611111,26.57954725],[-80.05426205555555,26.579099888888887],[-80.05302308333333,26.569997833333332],[-80.04847997222222,26.57049775],[-80.04729247222222,26.571283083333334],[-80.04698002777778,26.572554083333333],[-80.04712630555555,26.57362913888889],[-80.04775080555555,26.574651583333335],[-80.04915291666667,26.575443],[-80.05369619444444,26.574943055555554]]},"properties":{"style":"solid","thickness":1}},{"type":"Feature","geometry":{"type":"LineString","coordinates":[[-79.93396466666667,26.79845741666667],[-79.93971530555557,26.797830555555556],[-79.93976380555556,26.798188944444448],[-79.93604780555556,26.80426713888889],[-79.93548866666667,26.804328083333335],[-79.93425669444444,26.79522538888889]]},"properties":{"style":"solid","thickness":1}},{"type":"Feature","geometry":{"type":"LineString","coordinates":[[-79.92853958333333,26.805085277777778],[-79.92774080555556,26.805172305555555],[-79.92631505555556,26.804818472222223],[-79.92483347222223,26.803452500000002],[-79.92427161111111,26.801695416666668],[-79.92404863888889,26.800046861111113],[-79.92412577777779,26.798220194444447],[-79.92528,26.796567111111113],[-79.92650944444445,26.796069527777778],[-79.92730813888889,26.79598252777778],[-79.9285546388889,26.79621038888889],[-79.93011605555556,26.79756763888889],[-79.930678,26.799324694444447],[-79.93090105555557,26.800973222222222],[-79.93083372222223,26.802871583333335],[-79.9296795,26.804524694444446],[-79.92853958333333,26.805085277777778]]},"properties":{"style":"solid","thickness":1}},{"type":"Feature","geometry":{"type":"LineString","coordinates":[[-79.91863494444445,26.806163944444446],[-79.91783616666667,26.80625088888889],[-79.91641044444445,26.80589697222222],[-79.91492894444445,26.80453088888889],[-79.91436722222222,26.80277377777778],[-79.91414441666667,26.801125222222222],[-79.91422172222222,26.79929852777778],[-79.91537608333334,26.797645527777778],[-79.91660558333334,26.797148055555557],[-79.91740427777778,26.797061083333336],[-79.91865077777778,26.79728902777778],[-79.92021211111111,26.79864638888889],[-79.92077388888889,26.8004035],[-79.92099680555556,26.80205202777778],[-79.92092930555556,26.80395038888889],[-79.91977494444446,26.805603444444444],[-79.91863494444445,26.806163944444446]]},"properties":{"style":"solid","thickness":1}},{"type":"Feature","geometry":{"type":"LineString","coordinates":[[-79.9087301388889,26.80724188888889],[-79.90793133333334,26.807328805555557],[-79.90650563888889,26.80697477777778],[-79.90502425000001,26.80560861111111],[-79.90446266666667,26.803851444444444],[-79.90424,26.802202861111112],[-79.90431744444444,26.800376194444446],[-79.90547197222223,26.79872327777778],[-79.90670152777778,26.798225861111113],[-79.90750025000001,26.798138972222223],[-79.90874675,26.798367000000002],[-79.91030794444445,26.799724472222223],[-79.91086958333334,26.80148161111111],[-79.91109236111112,26.803130166666666],[-79.91102469444445,26.80502852777778],[-79.90987019444445,26.806681472222223],[-79.9087301388889,26.80724188888889]]},"properties":{"style":"solid","thickness":1}},{"type":"Feature","geometry":{"type":"LineString","coordinates":[[-80.0799505,26.556937083333334],[-80.08054741666666,26.557162222222225],[-80.08155258333333,26.55741513888889],[-80.08250888888888,26.55730966666667],[-80.08373511111111,26.556810722222224],[-80.08488461111111,26.55515627777778],[-80.08500791666667,26.55368775],[-80.08479288888888,26.552111055555557],[-80.08444783333333,26.550766944444444],[-80.08356602777778,26.54904555555556],[-80.08258197222221,26.54835388888889],[-80.08126791666666,26.548207805555556],[-80.07924491666667,26.548794611111113],[-80.07854574999999,26.549599166666667],[-80.07821416666667,26.55072691666667],[-80.078372,26.55129147222222],[-80.07888766666666,26.552107555555555],[-80.07989127777778,26.552942583333333],[-80.08112569444444,26.553097472222223],[-80.08201205555555,26.553072472222222],[-80.08323822222222,26.5525735],[-80.08391783333333,26.551625611111113],[-80.08412080555556,26.550148305555556]]},"properties":{"style":"solid","thickness":1}},{"type":"Feature","geometry":{"type":"LineString","coordinates":[[-80.07302544444444,26.55835516666667],[-80.0722285,26.558443],[-80.07080536111111,26.558090611111112],[-80.06932519444445,26.556726055555558],[-80.06876233333332,26.554969444444446],[-80.06853777777778,26.553321055555557],[-80.06861247222221,26.551494222222225],[-80.06976213888889,26.54983988888889],[-80.07098833333333,26.54934105555556],[-80.07178519444444,26.549253222222223],[-80.07302933333332,26.549479833333336],[-80.07458911111111,26.550835555555555],[-80.07515205555555,26.55259213888889],[-80.07537669444444,26.554240500000002],[-80.07531188888889,26.55613902777778],[-80.07416225,26.55779338888889],[-80.07302544444444,26.55835516666667]]},"properties":{"style":"solid","thickness":1}},{"type":"Feature","geometry":{"type":"LineString","coordinates":[[-80.06314333333333,26.559443916666666],[-80.06234638888888,26.55953166666667],[-80.06092325,26.559179194444447],[-80.05944322222221,26.557814555555556],[-80.0588805,26.556057916666667],[-80.05865608333333,26.554409500000002],[-80.05873091666666,26.552582666666666],[-80.05988074999999,26.550928416666668],[-80.06110697222222,26.550429666666666],[-80.0619038611111,26.55034188888889],[-80.063148,26.550568583333334],[-80.06470766666666,26.55192441666667],[-80.06527047222222,26.553681027777778],[-80.06549497222223,26.555329416666666],[-80.06542999999999,26.557227944444445],[-80.06428019444444,26.558882222222223],[-80.06314333333333,26.559443916666666]]},"properties":{"style":"solid","thickness":1}},{"type":"Feature","geometry":{"type":"LineString","coordinates":[[-80.05326105555555,26.560531972222222],[-80.05246408333333,26.560619694444444],[-80.05104097222222,26.560267111111113],[-80.04956102777777,26.558902361111112],[-80.04899844444444,26.557145666666667],[-80.04877416666666,26.555497250000002],[-80.04884916666667,26.553670416666666],[-80.0499991388889,26.55201625],[-80.05122544444444,26.551517583333332],[-80.05202233333333,26.55142986111111],[-80.05326647222222,26.55165663888889],[-80.05482605555555,26.553012583333334],[-80.05538869444445,26.55476925],[-80.05561305555555,26.556417638888888],[-80.05554791666667,26.558316166666668],[-80.05439797222222,26.559970361111112],[-80.05326105555555,26.560531972222222]]},"properties":{"style":"solid","thickness":1}},{"type":"Feature","geometry":{"type":"LineString","coordinates":[[-79.97160944444444,26.584014138888886],[-79.97169775,26.58442622222222],[-79.9718616388889,26.584851333333333],[-79.9721103888889,26.585274],[-79.97244808333333,26.585674694444442],[-79.97287144444445,26.58603172222222],[-79.97336852777778,26.586324055555554],[-79.97391933333334,26.58653486111111],[-79.97449827777778,26.586654305555555],[-79.97507791666666,26.58668113888889],[-79.97563322222223,26.58662222222222],[-79.9761445,26.586490416666667],[-79.97659891666667,26.586301916666667],[-79.97699044444444,26.58607347222222],[-79.97734319444444,26.585798694444442],[-79.97767072222223,26.58545847222222],[-79.97795344444445,26.585053444444444],[-79.97817052777778,26.58459013888889],[-79.97830272222222,26.584082],[-79.97833575,26.583548805555555],[-79.97826338888889,26.583014527777777],[-79.97808897222222,26.582504027777777],[-79.97782497222222,26.582039277777778],[-79.97749055555556,26.581636361111112],[-79.97710797222223,26.581304194444446],[-79.97669922222222,26.58104461111111],[-79.97628344444445,26.580853972222222],[-79.97584238888889,26.58071672222222],[-79.97535097222223,26.58063177777778],[-79.97481947222222,26.58061413888889],[-79.97426469444444,26.58067675],[-79.97370916666667,26.580827888888887],[-79.97317905555556,26.58106875],[-79.9727006388889,26.58139222222222],[-79.9722961111111,26.581783277777777],[-79.97198041666667,26.582221194444443],[-79.97175952777778,26.582683027777776],[-79.97163086111111,26.583147],[-79.97158519444444,26.583595083333332],[-79.97160944444444,26.584014138888886]]},"properties":{"style":"solid","thickness":1}},{"type":"Feature","geometry":{"type":"LineString","coordinates":[[-79.97590677777778,26.590629],[-79.97588266666666,26.589906083333332],[-79.975941,26.58916011111111],[-79.97608872222223,26.588402055555555],[-79.9763305,26.587644694444442],[-79.9766678888889,26.586901972222222],[-79.97709911111112,26.586188305555556],[-79.97761872222222,26.58551783333333],[-79.97821791666667,26.584903388888886],[-79.97888494444445,26.58435575],[-79.9796058888889,26.58388297222222],[-79.98036561111111,26.583490166666664],[-79.98114858333334,26.583179277777777],[-79.98194000000001,26.582949305555555],[-79.98272633333333,26.582796805555557]]},"properties":{"style":"solid","thickness":1}},{"type":"Feature","geometry":{"type":"LineString","coordinates":[[-79.97590677777778,26.590629],[-79.97573719444445,26.589921999999998],[-79.97548144444444,26.589210416666667],[-79.97513569444445,26.588506416666664],[-79.97469880555556,26.58782336111111],[-79.97417300000001,26.58717511111111],[-79.97356388888889,26.58657538888889],[-79.9728805,26.58603661111111],[-79.97213477777778,26.585569416666665],[-79.97134105555556,26.585181694444444],[-79.97051497222222,26.584878333333332],[-79.96967261111111,26.584660916666664],[-79.96882952777779,26.584528055555555],[-79.96799983333334,26.584475583333333],[-79.96719577777777,26.584497222222222]]},"properties":{"style":"solid","thickness":1}},{"type":"Feature","geometry":{"type":"LineString","coordinates":[[-79.96719577777777,26.584497222222222],[-79.96798213888889,26.584344805555553],[-79.96877358333333,26.584114916666664],[-79.96955661111112,26.583804083333334],[-79.97031633333333,26.583411305555554],[-79.97103733333334,26.58293861111111],[-79.9717043888889,26.58239097222222],[-79.97230358333333,26.581776555555557],[-79.97282322222222,26.58110611111111],[-79.97325441666666,26.580392472222222],[-79.97359183333333,26.57964972222222],[-79.97383358333333,26.578892361111112],[-79.97398133333334,26.578134333333335],[-79.9740396388889,26.57738836111111],[-79.97401555555555,26.576665444444444]]},"properties":{"style":"solid","thickness":1}},{"type":"Feature","geometry":{"type":"LineString","coordinates":[[-79.97401555555555,26.576665444444444],[-79.97418511111111,26.577372444444443],[-79.97444080555556,26.578084027777777],[-79.97478655555555,26.578788027777776],[-79.97522338888889,26.579471083333335],[-79.97574916666667,26.580119305555556],[-79.97635825,26.580719055555555],[-79.97704163888889,26.58125777777778],[-79.97778733333334,26.581724972222222],[-79.97858105555555,26.582112638888887],[-79.97940713888889,26.582415972222222],[-79.9802495,26.582633333333334],[-79.98109261111111,26.582766111111113],[-79.98192227777778,26.58281852777778],[-79.98272633333333,26.582796805555557]]},"properties":{"style":"solid","thickness":1}},{"type":"Feature","geometry":{"type":"LineString","coordinates":[[-79.93621041666667,26.737716083333336],[-79.93629869444445,26.73812813888889],[-79.93646269444444,26.738553305555556],[-79.9367116388889,26.738976027777777],[-79.93704966666667,26.739376777777778],[-79.93747347222222,26.73973388888889],[-79.93797111111111,26.740026361111113],[-79.93852261111111,26.74023727777778],[-79.93910227777778,26.74035688888889],[-79.93968269444444,26.740383861111113],[-79.94023875,26.740325083333335],[-79.94075075,26.74019338888889],[-79.94120583333334,26.74000502777778],[-79.94159794444445,26.739776694444444],[-79.94195125,26.739502],[-79.94227933333333,26.73916188888889],[-79.94256255555555,26.738756944444447],[-79.94278008333333,26.738293694444444],[-79.94291261111111,26.73778561111111],[-79.94294583333334,26.737252416666667],[-79.94287352777778,26.73671813888889],[-79.94269902777778,26.736207611111112],[-79.94243486111111,26.735742805555557],[-79.94210011111112,26.735339833333335],[-79.94171713888889,26.735007583333335],[-79.94130788888889,26.734747916666667],[-79.9408916388889,26.73455716666667],[-79.94045002777779,26.734419805555557],[-79.93995797222223,26.734334750000002],[-79.93942580555556,26.734316972222224],[-79.93887025000001,26.734379444444446],[-79.93831394444445,26.73453041666667],[-79.93778305555556,26.73477116666667],[-79.93730386111112,26.735094500000002],[-79.93689869444445,26.735485444444446],[-79.93658244444445,26.735923250000003],[-79.93636111111111,26.73638502777778],[-79.93623211111111,26.736848972222223],[-79.93618625,26.737297],[-79.93621041666667,26.737716083333336]]},"properties":{"style":"solid","thickness":1}},{"type":"Feature","geometry":{"type":"LineString","coordinates":[[-79.94051144444445,26.744331805555557],[-79.94048752777778,26.74360888888889],[-79.94054613888889,26.742862972222223],[-79.94069430555555,26.742105000000002],[-79.9409366388889,26.741347694444446],[-79.94127472222223,26.740605083333335],[-79.94170672222222,26.739891555555555],[-79.94222722222223,26.739221222222223],[-79.94282741666667,26.738606944444445],[-79.9434955,26.738059472222222],[-79.94421758333334,26.737586916666668],[-79.94497841666667,26.737194305555555],[-79.94576255555556,26.73688361111111],[-79.94655508333334,26.73665386111111],[-79.9473425,26.736501555555556]]},"properties":{"style":"solid","thickness":1}},{"type":"Feature","geometry":{"type":"LineString","coordinates":[[-79.94051144444445,26.744331805555557],[-79.94034183333333,26.74362477777778],[-79.94008597222222,26.742913166666668],[-79.93973997222223,26.742209083333336],[-79.93930272222222,26.741525944444444],[-79.93877641666667,26.740877611111113],[-79.93816666666667,26.740277722222224],[-79.93748252777777,26.739738805555557],[-79.93673597222222,26.739271444444444],[-79.93594130555556,26.73888352777778],[-79.93511422222223,26.738579944444446],[-79.93427080555556,26.738362333333335],[-79.93342661111112,26.73822927777778],[-79.93259586111111,26.738176583333335],[-79.93179072222223,26.738198027777777]]},"properties":{"style":"solid","thickness":1}},{"type":"Feature","geometry":{"type":"LineString","coordinates":[[-79.93179072222223,26.738198027777777],[-79.93257816666667,26.738045805555558],[-79.93337075000001,26.737816111111112],[-79.93415491666667,26.7375055],[-79.93491577777777,26.737112944444444],[-79.93563786111112,26.736640416666667],[-79.936306,26.736092972222224],[-79.93690619444445,26.735478722222222],[-79.93742672222223,26.734808416666667],[-79.93785872222223,26.734094916666667],[-79.93819680555556,26.73335227777778],[-79.93843911111111,26.732595],[-79.93858727777778,26.731837027777775],[-79.93864591666667,26.731091083333332],[-79.93862202777778,26.73036819444444]]},"properties":{"style":"solid","thickness":1}},{"type":"Feature","geometry":{"type":"LineString","coordinates":[[-79.93862202777778,26.73036819444444],[-79.93879158333334,26.731075194444443],[-79.93904741666667,26.73178683333333],[-79.93939338888889,26.732490888888886],[-79.93983058333333,26.733174055555555],[-79.94035686111111,26.73382238888889],[-79.94096658333333,26.734422277777778],[-79.94165072222222,26.734961166666668],[-79.94239725,26.7354285],[-79.94319191666668,26.73581638888889],[-79.94401902777778,26.736119916666667],[-79.94486241666667,26.736337472222225],[-79.94570661111112,26.736470472222223],[-79.9465373888889,26.736523055555555],[-79.9473425,26.736501555555556]]},"properties":{"style":"solid","thickness":1}},{"type":"Feature","geometry":{"type":"LineString","coordinates":[[-79.92507880555556,26.741342500000002],[-79.92410019444445,26.734103194444444],[-79.92441444444445,26.732832499999997],[-79.92584391666666,26.73202211111111],[-79.926722,26.731926416666663],[-79.92856536111111,26.732380055555552],[-79.92911952777779,26.733483361111112],[-79.92927461111111,26.734630194444446]]},"properties":{"style":"solid","thickness":1}},{"type":"Feature","geometry":{"type":"LineString","coordinates":[[-79.92119538888889,26.737183555555557],[-79.91704430555556,26.737635750000003]]},"properties":{"style":"solid","thickness":1}},{"type":"Feature","geometry":{"type":"LineString","coordinates":[[-79.91597794444445,26.742334],[-79.92180569444444,26.741699166666667],[-79.92057547222223,26.732596249999997],[-79.91434902777779,26.733274499999997]]},"properties":{"style":"solid","thickness":1}},{"type":"Feature","geometry":{"type":"LineString","coordinates":[[-79.90811302777779,26.738681055555556],[-79.90516891666667,26.734274]]},"properties":{"style":"solid","thickness":1}},{"type":"Feature","geometry":{"type":"LineString","coordinates":[[-79.91147527777778,26.733587444444446],[-79.91270480555556,26.742690444444445],[-79.90863330555555,26.743133722222222],[-79.90738738888889,26.742905694444445],[-79.90615600000001,26.741585111111114],[-79.90603986111111,26.740724972222225],[-79.90680427777778,26.739187166666667],[-79.90803319444446,26.738689722222222],[-79.91210452777779,26.738246472222222]]},"properties":{"style":"solid","thickness":1}},{"type":"Feature","geometry":{"type":"LineString","coordinates":[[-79.90189597222223,26.734630194444446],[-79.90312475,26.74373327777778],[-79.89806419444444,26.73504711111111],[-79.89562025000001,26.744549722222224],[-79.89439205555556,26.735446583333335]]},"properties":{"style":"solid","thickness":1}},{"type":"Feature","geometry":{"type":"LineString","coordinates":[[-79.88550152777779,26.738595166666666],[-79.89053094444445,26.73804836111111]]},"properties":{"style":"solid","thickness":1}},{"type":"Feature","geometry":{"type":"LineString","coordinates":[[-79.89103919444445,26.735811194444445],[-79.888914,26.745278944444447],[-79.88441327777778,26.73653155555556]]},"properties":{"style":"solid","thickness":1}},{"type":"Feature","geometry":{"type":"LineString","coordinates":[[-80.01921030555556,26.567766972222223],[-80.01506566666667,26.568222083333332]]},"properties":{"style":"solid","thickness":1}},{"type":"Feature","geometry":{"type":"LineString","coordinates":[[-80.01399516666666,26.572849527777777],[-80.01981383333333,26.57221063888889],[-80.01857763888889,26.56310827777778]]},"properties":{"style":"solid","thickness":1}},{"type":"Feature","geometry":{"type":"LineString","coordinates":[[-80.01011422222223,26.56869286111111],[-80.00596952777778,26.569147666666666]]},"properties":{"style":"solid","thickness":1}},{"type":"Feature","geometry":{"type":"LineString","coordinates":[[-80.0049083888889,26.57384672222222],[-80.01072713888888,26.57320822222222],[-80.00949163888889,26.56410577777778],[-80.00327483333334,26.564787972222224]]},"properties":{"style":"solid","thickness":1}},{"type":"Feature","geometry":{"type":"LineString","coordinates":[[-80.0004055,26.565102722222225],[-80.00164027777778,26.57420525],[-79.99410886111112,26.565793222222222],[-79.99534316666667,26.574895805555556]]},"properties":{"style":"solid","thickness":1}},{"type":"Feature","geometry":{"type":"LineString","coordinates":[[-79.99146280555556,26.570738638888887],[-79.98731797222223,26.571192916666668]]},"properties":{"style":"solid","thickness":1}},{"type":"Feature","geometry":{"type":"LineString","coordinates":[[-79.98625605555556,26.575891833333333],[-79.992075,26.575254083333334],[-79.99084097222223,26.5661515],[-79.98462391666666,26.56683286111111]]},"properties":{"style":"solid","thickness":1}},{"type":"Feature","geometry":{"type":"LineString","coordinates":[[-79.98298783333334,26.576249916666665],[-79.97932102777779,26.576651583333334],[-79.97787852777778,26.576154916666667],[-79.97678811111112,26.574674083333335],[-79.97610802777778,26.572639166666665],[-79.97623680555556,26.57000647222222],[-79.97690002777777,26.56833361111111],[-79.97808797222223,26.56754886111111],[-79.98175450000001,26.56714722222222],[-79.98298783333334,26.576249916666665]]},"properties":{"style":"solid","thickness":1}}]}
