{"type":"FeatureCollection","features":[{"type":"Feature","geometry":{"type":"LineString","coordinates":[[-80.36409369444443,26.940245055555557],[-80.37089122222221,26.931001000000002],[-80.37698999999999,26.921373583333335],[-80.38236338888888,26.911405138888888],[-80.386988,26.9011395],[-80.39084366666667,26.890621777777778],[-80.39391369444445,26.87989813888889],[-80.39618477777779,26.86901575],[-80.39764722222223,26.858022333333334],[-80.39829483333334,26.846966166666665],[-80.39812500000001,26.835895777777775],[-80.39713866666668,26.824859749999998],[-80.39534044444446,26.813906444444445],[-80.39273841666667,26.80308391666667],[-80.38934425000001,26.792439611111114],[-80.38517300000001,26.782020166666666],[-80.38024316666666,26.77187122222222],[-80.37457652777778,26.76203727777778],[-80.36819808333333,26.752561333333333],[-80.36113591666665,26.74348488888889],[-80.35342113888888,26.734847722222224],[-80.34508758333332,26.726687555555554],[-80.34443488888888,26.726092416666663]]},"properties":{"style":"solid","thickness":1}},{"type":"Feature","geometry":{"type":"LineString","coordinates":[[-80.54208738888889,26.897309027777776],[-80.54461975,26.882629027777778],[-80.54634044444444,26.86785477777778],[-80.54724558333334,26.85302227777778],[-80.54733325,26.838167777777777],[-80.54660358333334,26.823327444444445],[-80.54505869444445,26.808537444444447],[-80.54270261111111,26.793833805555558],[-80.53954138888889,26.77925236111111],[-80.53558305555555,26.764828555555557],[-80.53083752777778,26.750597527777778],[-80.52759694444444,26.742115333333334]]},"properties":{"style":"solid","thickness":1}},{"type":"Feature","geometry":{"type":"LineString","coordinates":[[-80.36250488888888,26.73155411111111],[-80.34818341666666,26.742232972222222]]},"properties":{"style":"solid","thickness":1}},{"type":"Feature","geometry":{"type":"LineString","coordinates":[[-80.38095436111111,26.932200694444447],[-80.36485188888888,26.923771972222223]]},"properties":{"style":"solid","thickness":1}},{"type":"Feature","geometry":{"type":"LineString","coordinates":[[-80.38841197222223,26.83064263888889],[-80.40697972222223,26.82926511111111]]},"properties":{"style":"solid","thickness":1}},{"type":"Feature","geometry":{"type":"LineString","coordinates":[[-80.536941,26.81955486111111],[-80.55550502777777,26.818158027777777]]},"properties":{"style":"solid","thickness":1}},{"type":"Feature","geometry":{"type":"LineString","coordinates":[[-80.33781941666666,26.73197122222222],[-80.35104972222221,26.720213277777777]]},"properties":{"style":"solid","thickness":1}},{"type":"Feature","geometry":{"type":"LineString","coordinates":[[-80.35648272222221,26.935417083333334],[-80.37170527777778,26.945072583333335]]},"properties":{"style":"solid","thickness":1}},{"type":"Feature","geometry":{"type":"LineString","coordinates":[[-80.52728288888889,26.76930986111111],[-80.54528680555555,26.765043194444445]]},"properties":{"style":"solid","thickness":1}},{"type":"Feature","geometry":{"type":"LineString","coordinates":[[-80.51883783333334,26.744944],[-80.53635563888889,26.739286111111113]]},"properties":{"style":"solid","thickness":1}},{"type":"Feature","geometry":{"type":"LineString","coordinates":[[-80.53673233333333,26.870541083333332],[-80.55529316666666,26.87205775]]},"properties":{"style":"solid","thickness":1}},{"type":"Feature","geometry":{"type":"LineString","coordinates":[[-80.53291408333334,26.895827694444446],[-80.55126094444444,26.89878977777778]]},"properties":{"style":"solid","thickness":1}},{"type":"Feature","geometry":{"type":"LineString","coordinates":[[-80.21082494444445,26.83065275],[-80.21152658333334,26.83172586111111],[-80.21218152777779,26.832835888888887],[-80.2127865,26.833980444444443],[-80.21333847222222,26.835156916666666],[-80.21383452777778,26.836362305555554],[-80.21427211111111,26.837593444444444],[-80.21464894444445,26.838846888888888],[-80.21496308333333,26.840118999999998],[-80.21521297222222,26.841406],[-80.21539741666668,26.842703888888888],[-80.21551561111112,26.844008666666664],[-80.21556719444445,26.84531625],[-80.21555222222223,26.846622527777775],[-80.21547113888889,26.847923444444444],[-80.21532483333334,26.849215027777777],[-80.21511452777779,26.85049338888889],[-80.21484183333334,26.851754805555558],[-80.21450877777778,26.852995777777778],[-80.21411761111112,26.854212944444445],[-80.21367088888888,26.855403250000002],[-80.21317141666667,26.856563861111113]]},"properties":{"style":"solid","thickness":1}},{"type":"Feature","geometry":{"type":"LineString","coordinates":[[-80.21082494444445,26.83065275],[-80.21032591666668,26.8318135],[-80.20987955555556,26.83300386111111],[-80.20948872222222,26.834221055555556],[-80.20915591666667,26.835462027777776],[-80.20888344444445,26.836723416666665],[-80.20867330555556,26.83800175],[-80.20852708333334,26.839293249999997],[-80.20844605555556,26.84059411111111],[-80.20843108333334,26.841900305555555],[-80.2084826388889,26.843207805555554],[-80.20860075,26.8445125],[-80.20878505555555,26.845810333333333],[-80.20903477777777,26.847097249999997],[-80.20934875,26.848369305555554],[-80.20972541666667,26.849622749999998],[-80.21016277777778,26.85085388888889],[-80.21065863888889,26.852059305555557],[-80.21121038888889,26.853235805555556],[-80.21181519444444,26.854380472222225],[-80.21246994444445,26.85549061111111],[-80.21317141666667,26.856563861111113]]},"properties":{"style":"solid","thickness":1}},{"type":"Feature","geometry":{"type":"LineString","coordinates":[[-80.58939847222221,26.817278444444444],[-80.58553222222221,26.817717722222223],[-80.58326238888888,26.816030972222222],[-80.5828945,26.815343527777777],[-80.58254347222221,26.814775722222222],[-80.58234094444444,26.813340305555556],[-80.58272233333334,26.81220313888889],[-80.58337030555555,26.811035722222222],[-80.58410266666667,26.81046636111111],[-80.58458527777778,26.810046944444444],[-80.5856011111111,26.809566916666668],[-80.58800069444445,26.809294277777777],[-80.58911780555555,26.809531944444444],[-80.59000208333333,26.81003913888889],[-80.59078683333333,26.810800722222222],[-80.59132183333332,26.811712222222223],[-80.5915733611111,26.81253438888889],[-80.59174222222222,26.813730583333335],[-80.59169333333332,26.814343833333336],[-80.59139469444445,26.815106972222225],[-80.59091208333332,26.815526444444444],[-80.58939847222221,26.817278444444444],[-80.59073341666667,26.818099027777777],[-80.5915351111111,26.818980222222223],[-80.59188619444444,26.819548],[-80.59215638888888,26.821461888888887],[-80.59169241666666,26.822973083333334],[-80.5913431111111,26.82337738888889],[-80.59021072222222,26.823992222222223],[-80.58946141666667,26.82444197222222],[-80.58772816666666,26.824638888888888],[-80.58647758333333,26.824416361111112],[-80.58455863888888,26.823297444444446],[-80.58420758333332,26.822729638888887],[-80.58390377777778,26.8205765],[-80.58413494444444,26.81933488888889],[-80.58425138888889,26.819200111111112],[-80.58485047222221,26.818645916666668],[-80.58553222222221,26.817717722222223]]},"properties":{"style":"solid","thickness":1}},{"type":"Feature","geometry":{"type":"LineString","coordinates":[[-80.56737772222222,26.826341805555554],[-80.56824516666666,26.82672952777778],[-80.56921222222222,26.82686286111111],[-80.57241219444444,26.826499694444443],[-80.57357844444444,26.826124222222223],[-80.57396155555556,26.82595922222222],[-80.57580966666666,26.824655583333332],[-80.57684088888888,26.823323166666665],[-80.57707216666667,26.822081555555556],[-80.57770172222222,26.819822416666668],[-80.57731366666667,26.817071166666665],[-80.57686144444445,26.81578561111111],[-80.57630966666666,26.814754444444446],[-80.57560769444444,26.81361877777778],[-80.57408897222221,26.812454333333335],[-80.5713873611111,26.81154563888889],[-80.56960366666667,26.8113835],[-80.56813722222222,26.811549916666667],[-80.56632138888888,26.812120583333336],[-80.56570538888889,26.812555083333333],[-80.56520583333334,26.812854833333333]]},"properties":{"style":"solid","thickness":1}},{"type":"Feature","geometry":{"type":"LineString","coordinates":[[-80.18657955555555,26.881270194444443],[-80.18721219444444,26.881929111111113],[-80.18851208333334,26.88251413888889],[-80.18934572222223,26.882664805555557],[-80.19166377777778,26.88277261111111],[-80.19246447222223,26.882683944444445],[-80.1940328888889,26.88226727777778],[-80.1953178888889,26.881760472222222],[-80.19556830555555,26.88161125],[-80.19642,26.880909444444445],[-80.19725522222222,26.880087972222224],[-80.19857627777778,26.87787627777778],[-80.19897969444445,26.87588775],[-80.19861702777779,26.87325511111111],[-80.19815233333334,26.87184872222222],[-80.19747022222222,26.870830861111113],[-80.19653775,26.86996225],[-80.19575522222223,26.8691985],[-80.19453944444444,26.86823975],[-80.19340608333334,26.867879333333335],[-80.19227272222223,26.86751891666667],[-80.19130575,26.867383027777777],[-80.18890400000001,26.867648972222224],[-80.18760263888889,26.868036055555557],[-80.18660108333334,26.868632916666666],[-80.18548252777778,26.869364194444444],[-80.18476427777779,26.87005113888889],[-80.18362758333333,26.87163486111111],[-80.18297516666667,26.872800472222224],[-80.18280711111112,26.873548],[-80.18307063888889,26.875462666666667],[-80.18867511111111,26.874842222222224]]},"properties":{"style":"solid","thickness":1}},{"type":"Feature","geometry":{"type":"LineString","coordinates":[[-80.17870269444445,26.884085777777777],[-80.17662822222222,26.86900775]]},"properties":{"style":"solid","thickness":1}},{"type":"Feature","geometry":{"type":"LineString","coordinates":[[-80.16735919444444,26.88534038888889],[-80.16528619444445,26.870262194444447]]},"properties":{"style":"solid","thickness":1}},{"type":"Feature","geometry":{"type":"LineString","coordinates":[[-80.17773125000001,26.877025444444445],[-80.16638844444445,26.878279972222224]]},"properties":{"style":"solid","thickness":1}},{"type":"Feature","geometry":{"type":"LineString","coordinates":[[-80.15242852777779,26.887111805555556],[-80.15483077777779,26.886846444444444],[-80.15601544444445,26.886594083333332],[-80.15826966666667,26.88525163888889],[-80.16025880555556,26.882966583333335],[-80.16084569444445,26.88132238888889],[-80.1609828888889,26.879363444444444],[-80.16076908333334,26.87780775],[-80.16030483333334,26.876401222222224],[-80.15942383333334,26.874919277777778],[-80.15769286111112,26.87316677777778],[-80.1570768888889,26.872627416666667],[-80.15591072222223,26.872027333333335],[-80.15354361111112,26.871559944444446],[-80.15074136111112,26.8718695],[-80.14943980555556,26.872256222222223],[-80.1481711388889,26.872882277777776],[-80.14741977777778,26.873329722222223],[-80.14621677777778,26.874434444444447],[-80.14521294444445,26.87600311111111],[-80.14494405555556,26.877004666666668],[-80.1447901388889,26.878843916666668],[-80.14518447222223,26.881716027777777],[-80.14677994444445,26.884455499999998],[-80.14771213888889,26.885324444444443],[-80.1487613888889,26.886058972222223],[-80.14977777777779,26.886554166666667],[-80.15006111111111,26.88664436111111],[-80.15242852777779,26.887111805555556]]},"properties":{"style":"solid","thickness":1}},{"type":"Feature","geometry":{"type":"LineString","coordinates":[[-80.37989069444444,26.96268611111111],[-80.38039133333332,26.966275333333332],[-80.38107563888889,26.96826436111111],[-80.38147619444443,26.969191555555554],[-80.38197691666666,26.969864527777776],[-80.38377952777779,26.97112072222222],[-80.38546530555556,26.971539444444442],[-80.38599941666668,26.97147958333333],[-80.38751822222223,26.970701888888886],[-80.38878661111112,26.969101638888887],[-80.38922050000001,26.968323944444442],[-80.38935397222222,26.967336916666664],[-80.3894706388889,26.965258166666665],[-80.38896969444446,26.96166897222222],[-80.38828533333334,26.95968],[-80.38788472222222,26.958752805555555],[-80.38725052777778,26.958094805555554],[-80.38558158333333,26.956823694444445],[-80.38389602777778,26.95640497222222],[-80.383362,26.956464805555555],[-80.38184333333332,26.957242472222223],[-80.38044147222222,26.958857638888887],[-80.38014105555555,26.959620333333334],[-80.38000752777778,26.960607361111112],[-80.37989069444444,26.96268611111111]]},"properties":{"style":"solid","thickness":1}},{"type":"Feature","geometry":{"type":"LineString","coordinates":[[-80.37361577777777,26.957556333333333],[-80.36839038888888,26.973572805555555],[-80.35932988888888,26.959155027777776]]},"properties":{"style":"solid","thickness":1}},{"type":"Feature","geometry":{"type":"LineString","coordinates":[[-80.37189641666666,26.962730666666666],[-80.36228305555555,26.96380647222222]]},"properties":{"style":"solid","thickness":1}},{"type":"Feature","geometry":{"type":"LineString","coordinates":[[-80.40615797222223,26.94094488888889],[-80.40665936111111,26.944534],[-80.40734397222222,26.946522916666666],[-80.40774466666667,26.947450055555557],[-80.40824544444445,26.948122944444446],[-80.410048,26.949378805555554],[-80.41173355555556,26.949797194444443],[-80.41226755555556,26.94973727777778],[-80.4137858888889,26.948959277777778],[-80.41505366666667,26.94735877777778],[-80.41548730555556,26.94658102777778],[-80.41562052777779,26.945593944444443],[-80.41573669444445,26.943515166666668],[-80.41523502777778,26.939926055555556],[-80.41455033333334,26.937937194444444],[-80.41414961111111,26.937010083333334],[-80.41351536111112,26.936352194444446],[-80.41184647222222,26.93508138888889],[-80.41016111111112,26.934662972222224],[-80.40962719444445,26.93472291666667],[-80.40810900000001,26.935500861111112],[-80.40670777777778,26.93711627777778],[-80.40640761111112,26.93787902777778],[-80.40627433333334,26.93886611111111],[-80.40615797222223,26.94094488888889]]},"properties":{"style":"solid","thickness":1}},{"type":"Feature","geometry":{"type":"LineString","coordinates":[[-80.39974961111112,26.935831194444443],[-80.40187138888889,26.951025277777777],[-80.3962643888889,26.95165408333333],[-80.39506286111111,26.951788805555555],[-80.3940281388889,26.95117575],[-80.39324375000001,26.95041311111111],[-80.39317694444445,26.949934555555554],[-80.39284294444445,26.94754177777778],[-80.39292636111112,26.947167888888888],[-80.39319325000001,26.946165861111112],[-80.39436119444446,26.944819805555557],[-80.39292605555556,26.94425163888889],[-80.39220850000001,26.943967555555556],[-80.39145755555556,26.943444166666666],[-80.39090680555556,26.942412305555557],[-80.39047269444445,26.939301666666665],[-80.39075630555556,26.938419305555556],[-80.39159052777778,26.93759672222222],[-80.39219116666668,26.937043333333335],[-80.3928085,26.936609583333333],[-80.39974961111112,26.935831194444443]]},"properties":{"style":"solid","thickness":1}},{"type":"Feature","geometry":{"type":"LineString","coordinates":[[-80.40090233333333,26.944086277777778],[-80.39436119444446,26.944819805555557]]},"properties":{"style":"solid","thickness":1}},{"type":"Feature","geometry":{"type":"LineString","coordinates":[[-80.43565016666668,26.82716072222222],[-80.43615194444445,26.830749833333332],[-80.43683638888889,26.832738638888888],[-80.43723691666668,26.83366572222222],[-80.43773736111112,26.834338527777778],[-80.43953844444445,26.835594055555553],[-80.44122244444445,26.83601211111111],[-80.44175588888889,26.835952083333332],[-80.44327252777778,26.83517375],[-80.44453863888889,26.83357297222222],[-80.44497163888889,26.83279511111111],[-80.44510447222223,26.831807972222222],[-80.44522002777778,26.82972911111111],[-80.44471794444445,26.82614002777778],[-80.44403341666667,26.82415125],[-80.44363286111111,26.823224194444443],[-80.44299908333333,26.822566444444444],[-80.44133152777778,26.821295916666667],[-80.43964775,26.82087786111111],[-80.4391143888889,26.82093788888889],[-80.43759788888889,26.821716166666665],[-80.43619847222223,26.823331916666667],[-80.43589877777778,26.82409475],[-80.4357658888889,26.825081861111112],[-80.43565016666668,26.82716072222222]]},"properties":{"style":"solid","thickness":1}},{"type":"Feature","geometry":{"type":"LineString","coordinates":[[-80.42020083333334,26.83776911111111],[-80.4210678888889,26.838157694444444],[-80.42203486111111,26.838292027777776],[-80.42523563888889,26.837932166666665],[-80.42640247222222,26.837557916666665],[-80.42678586111111,26.837393305555555],[-80.42863583333333,26.83609158333333],[-80.4296688888889,26.834760194444442],[-80.42990175,26.833518833333333],[-80.43053427777778,26.831260333333333],[-80.43014972222223,26.828508666666668],[-80.42969908333333,26.827222638888887],[-80.42914855555556,26.826190916666665],[-80.42844797222223,26.825054527777777],[-80.42693061111112,26.823888472222222],[-80.42422983333334,26.822977027777778],[-80.42244619444445,26.822813027777777],[-80.42097936111112,26.822977944444442],[-80.41916261111112,26.82354675],[-80.41854597222223,26.82398061111111],[-80.418046,26.824279861111112]]},"properties":{"style":"solid","thickness":1}},{"type":"Feature","geometry":{"type":"LineString","coordinates":[[-80.3880893888889,26.713510777777778],[-80.38858916666668,26.717100166666665],[-80.38927211111111,26.71908925],[-80.38967186111111,26.7200165],[-80.39017152777778,26.72068947222222],[-80.39197030555556,26.721945638888887],[-80.39365244444446,26.722364277777775],[-80.3941853888889,26.722304416666667],[-80.39570086111112,26.721526583333333],[-80.39696641666667,26.719926194444444],[-80.39739930555557,26.719148444444443],[-80.39753241666668,26.71816136111111],[-80.39764872222223,26.7160825],[-80.39714866666667,26.712493138888888],[-80.3964656388889,26.710504083333333],[-80.39606586111111,26.70957686111111],[-80.39543297222222,26.708918861111112],[-80.39376758333334,26.70764775],[-80.39208566666667,26.70722911111111],[-80.39155277777779,26.707288972222223],[-80.39003747222223,26.708066777777777],[-80.38863875000001,26.709682055555554],[-80.38833902777779,26.710444833333334],[-80.38820586111112,26.711431916666665],[-80.3880893888889,26.713510777777778]]},"properties":{"style":"solid","thickness":1}},{"type":"Feature","geometry":{"type":"LineString","coordinates":[[-80.38169455555555,26.708396],[-80.38380961111112,26.72359111111111],[-80.3779471111111,26.72424908333333],[-80.37631491666666,26.724189194444442],[-80.37559877777777,26.723905],[-80.37441633333333,26.723187083333332],[-80.37263438888888,26.722050305555555],[-80.37135211111111,26.72061447222222],[-80.37091922222221,26.719447888888887],[-80.37037005555555,26.7154995],[-80.37048675,26.71439277777778],[-80.37108641666666,26.71286733333333],[-80.37190252777778,26.711925166666667],[-80.37268530555555,26.710743722222222],[-80.37390105555555,26.70975672222222],[-80.37544977777777,26.70921838888889],[-80.37636569444444,26.708994083333334],[-80.38169455555555,26.708396]]},"properties":{"style":"solid","thickness":1}},{"type":"Feature","geometry":{"type":"LineString","coordinates":[[-80.56302633333333,26.72186186111111],[-80.55916319444444,26.722300416666666],[-80.5568956111111,26.72061322222222],[-80.55652819444444,26.71992569444444],[-80.55617758333334,26.719357805555553],[-80.55597558333334,26.717922305555554],[-80.55635688888889,26.716785194444444],[-80.55700461111111,26.71561786111111],[-80.55773649999999,26.715048666666664],[-80.55821883333333,26.714629305555555],[-80.55923394444444,26.71414947222222],[-80.56163158333334,26.713877277777776],[-80.56274772222221,26.714115166666666],[-80.56363113888888,26.714622527777777],[-80.56441505555556,26.715384277777776],[-80.56494941666666,26.716295888888887],[-80.56520052777778,26.71711813888889],[-80.56536897222222,26.71831438888889],[-80.56531997222221,26.718927638888886],[-80.56502141666667,26.719690749999998],[-80.5645391111111,26.720110138888888],[-80.56302633333333,26.72186186111111],[-80.56435997222222,26.72268272222222],[-80.56516080555555,26.72356411111111],[-80.56551144444444,26.72413197222222],[-80.56578097222221,26.726045944444444],[-80.56531702777778,26.727557055555554],[-80.56496791666666,26.727961305555553],[-80.56383633333333,26.728575944444444],[-80.56308752777778,26.729025555555555],[-80.56135566666666,26.729222166666666],[-80.56010616666667,26.728999388888887],[-80.55818908333333,26.727880083333332],[-80.55783847222222,26.727312194444444],[-80.55753538888888,26.72515894444444],[-80.55776666666667,26.72391736111111],[-80.55788305555555,26.72378261111111],[-80.55848177777777,26.723228499999998],[-80.55916319444444,26.722300416666666]]},"properties":{"style":"solid","thickness":1}},{"type":"Feature","geometry":{"type":"LineString","coordinates":[[-80.54405355555555,26.73130669444444],[-80.55218022222222,26.73038497222222],[-80.55004283333334,26.7151925],[-80.54178402777778,26.716129194444445]]},"properties":{"style":"solid","thickness":1}},{"type":"Feature","geometry":{"type":"LineString","coordinates":[[-80.55110305555556,26.722728916666664],[-80.54324336111111,26.723620388888886]]},"properties":{"style":"solid","thickness":1}},{"type":"Feature","geometry":{"type":"LineString","coordinates":[[-80.5783353611111,26.757838805555554],[-80.57447108333334,26.758277777777778],[-80.57220258333334,26.756590833333334],[-80.57183494444445,26.755903361111113],[-80.57148416666666,26.7553355],[-80.57128188888889,26.753900027777778],[-80.57166316666667,26.752762916666665],[-80.57231094444444,26.7515955],[-80.57304297222223,26.751026222222222],[-80.57352538888888,26.750606805555556],[-80.57454075,26.75012686111111],[-80.5769391111111,26.74985441666667],[-80.57805563888888,26.750092194444445],[-80.57893938888888,26.750599472222223],[-80.57972366666667,26.751361111111112],[-80.58025830555555,26.752272666666666],[-80.58050961111111,26.753094861111112],[-80.58067824999999,26.75429108333333],[-80.58062933333333,26.754904333333332],[-80.58033077777777,26.75566747222222],[-80.57984838888889,26.756086916666668],[-80.5783353611111,26.757838805555554],[-80.57966955555555,26.758659527777777],[-80.58047072222222,26.75954077777778],[-80.58082155555554,26.76010861111111],[-80.58109144444444,26.762022555555557],[-80.58062755555555,26.763533694444444],[-80.58027838888889,26.763937972222223],[-80.57914652777778,26.764552722222223],[-80.57839755555555,26.76500241666667],[-80.57666519444444,26.765199222222222],[-80.57541527777778,26.764976583333333],[-80.57349744444444,26.7638575],[-80.57314661111111,26.763289666666665],[-80.57284316666666,26.761136472222223],[-80.57307433333332,26.759894833333334],[-80.57319075,26.759760083333333],[-80.57378958333332,26.759205916666666],[-80.57447108333334,26.758277777777778]]},"properties":{"style":"solid","thickness":1}},{"type":"Feature","geometry":{"type":"LineString","coordinates":[[-80.56534691666667,26.75117088888889],[-80.56748702777777,26.766363],[-80.56162344444444,26.767028555555555],[-80.55999058333333,26.766970777777775],[-80.55927375,26.7666875],[-80.55808972222222,26.765971083333334],[-80.55630530555555,26.764836666666667],[-80.55502027777777,26.7634025],[-80.55458536111111,26.762236472222224],[-80.55402966666666,26.75828886111111],[-80.55414463888889,26.757182027777777],[-80.55474208333332,26.755655833333332],[-80.55555697222222,26.75471263888889],[-80.55633816666666,26.753530194444444],[-80.55755277777777,26.75254163888889],[-80.55910122222222,26.752001333333332],[-80.56001708333334,26.75177586111111],[-80.56534691666667,26.75117088888889]]},"properties":{"style":"solid","thickness":1}},{"type":"Feature","geometry":{"type":"LineString","coordinates":[[-80.59051216666666,26.871861055555556],[-80.58664408333333,26.87230036111111],[-80.58437313888888,26.870613666666667],[-80.58400505555555,26.86992625],[-80.5836538611111,26.869358444444444],[-80.58345122222222,26.867923027777778],[-80.58383275,26.866785888888888],[-80.58448102777777,26.865618472222224],[-80.58521375,26.865049111111112],[-80.58569658333333,26.864629694444446],[-80.58671288888888,26.86414966666667],[-80.5891136111111,26.863877000000002],[-80.59023125,26.86411463888889],[-80.59111597222221,26.864621833333334],[-80.59190108333333,26.86538338888889],[-80.59243636111111,26.86629488888889],[-80.592688,26.867117027777777],[-80.59285697222222,26.868313222222223],[-80.59280805555555,26.868926444444444],[-80.59250930555555,26.869689611111113],[-80.59202647222222,26.870109055555556],[-80.59051216666666,26.871861055555556],[-80.59184775,26.872681611111112],[-80.59264983333333,26.873562805555554],[-80.59300108333333,26.874130583333333],[-80.59327144444444,26.876044444444446],[-80.59280727777778,26.877555611111113],[-80.59245780555555,26.87795991666667],[-80.59132488888888,26.878574750000002],[-80.59057525,26.8790245],[-80.58884116666667,26.879221444444443],[-80.58758997222222,26.878998916666667],[-80.5856701111111,26.877880055555558],[-80.58531888888888,26.87731225],[-80.58501488888888,26.87515913888889],[-80.58524616666666,26.873917527777778],[-80.58536263888888,26.87378275],[-80.585962,26.873228555555556],[-80.58664408333333,26.87230036111111]]},"properties":{"style":"solid","thickness":1}},{"type":"Feature","geometry":{"type":"LineString","coordinates":[[-80.57751005555555,26.8651945],[-80.57965402777778,26.880386055555554],[-80.5740515,26.881021833333335],[-80.57285094444444,26.881158055555556],[-80.57181591666667,26.88054627777778],[-80.57103083333332,26.879784611111113],[-80.57096333333332,26.879306111111113],[-80.57062583333332,26.87691375],[-80.5707086111111,26.87653975],[-80.57097377777778,26.87553738888889],[-80.57213891666666,26.874189861111113],[-80.57070380555555,26.873623472222224],[-80.56998625,26.87334027777778],[-80.56923497222222,26.872817833333333],[-80.56868297222222,26.87178666666667],[-80.56824433333333,26.868676555555556],[-80.56852638888888,26.867793805555557],[-80.56935880555555,26.866970194444445],[-80.56995822222221,26.866416055555558],[-80.57057449999999,26.86598152777778],[-80.57751005555555,26.8651945]]},"properties":{"style":"solid","thickness":1}},{"type":"Feature","geometry":{"type":"LineString","coordinates":[[-80.57867483333332,26.873448194444446],[-80.57213891666666,26.874189861111113]]},"properties":{"style":"solid","thickness":1}},{"type":"Feature","geometry":{"type":"LineString","coordinates":[[-80.58681130555556,26.90911263888889],[-80.58294197222222,26.909551861111108],[-80.58067033333333,26.907865138888887],[-80.58030213888888,26.907177722222222],[-80.5799508611111,26.906609916666664],[-80.57974819444443,26.905174499999998],[-80.58012988888889,26.904037388888888],[-80.58077841666666,26.90286997222222],[-80.58151136111111,26.902300666666665],[-80.58199436111111,26.901881222222222],[-80.58301102777777,26.90140125],[-80.58541252777778,26.90112863888889],[-80.58653055555556,26.901366305555555],[-80.58741552777778,26.901873499999997],[-80.58820088888888,26.902635083333333],[-80.58873630555556,26.903546555555554],[-80.588988,26.90436872222222],[-80.589157,26.905564888888886],[-80.58910805555556,26.906178138888887],[-80.58880916666666,26.906941277777776],[-80.58832616666666,26.907360722222222],[-80.58681130555556,26.90911263888889],[-80.58814733333332,26.909933249999998],[-80.58894963888888,26.910814444444444],[-80.58930097222222,26.911382222222223],[-80.58957136111111,26.913296083333332],[-80.589107,26.914807222222223],[-80.58875741666667,26.915211499999998],[-80.58762411111111,26.915826305555555],[-80.58687419444443,26.916276055555553],[-80.58513955555556,26.916472944444443],[-80.58388797222221,26.916250416666664],[-80.58196749999999,26.915131499999998],[-80.58161619444444,26.914563694444443],[-80.58131213888889,26.912410583333333],[-80.58154352777777,26.911168999999997],[-80.58166008333333,26.91103422222222],[-80.58225963888889,26.910480055555553],[-80.58294197222222,26.909551861111108]]},"properties":{"style":"solid","thickness":1}},{"type":"Feature","geometry":{"type":"LineString","coordinates":[[-80.5739386111111,26.90243072222222],[-80.56874375,26.918454555555556],[-80.55966252777777,26.90404947222222]]},"properties":{"style":"solid","thickness":1}},{"type":"Feature","geometry":{"type":"LineString","coordinates":[[-80.57222911111111,26.90760747222222],[-80.56262238888888,26.908696777777777]]},"properties":{"style":"solid","thickness":1}},{"type":"Feature","geometry":{"type":"LineString","coordinates":[[-80.35565697222222,26.694583916666666],[-80.35615566666667,26.698173444444446],[-80.35683791666666,26.700162694444444],[-80.35723733333333,26.701090027777777],[-80.35773675,26.70176313888889],[-80.3595348611111,26.703019722222223],[-80.3612166111111,26.70343875],[-80.36174949999999,26.703378999999998],[-80.36326494444444,26.7026015],[-80.36453072222221,26.701001388888887],[-80.36496377777777,26.70022375],[-80.36509713888888,26.699236666666668],[-80.36521402777777,26.697157833333332],[-80.36471505555555,26.69356836111111],[-80.36403269444443,26.69157913888889],[-80.36363324999999,26.690651805555557],[-80.36300066666666,26.689993666666666],[-80.36133591666666,26.68872216666667],[-80.35965436111111,26.688303138888887],[-80.35912155555555,26.68836288888889],[-80.35760627777778,26.689140333333334],[-80.35620730555554,26.690755333333332],[-80.35590744444444,26.69151802777778],[-80.355774,26.692505083333334],[-80.35565697222222,26.694583916666666]]},"properties":{"style":"solid","thickness":1}},{"type":"Feature","geometry":{"type":"LineString","coordinates":[[-80.34324852777777,26.70557361111111],[-80.35137502777778,26.704663305555556],[-80.34926461111111,26.689467666666665],[-80.34100597222222,26.69039275]]},"properties":{"style":"solid","thickness":1}},{"type":"Feature","geometry":{"type":"LineString","coordinates":[[-80.35031144444444,26.697005666666666],[-80.34245188888889,26.697886083333334]]},"properties":{"style":"solid","thickness":1}}]}
