{"type":"FeatureCollection","features":[{"type":"Feature","geometry":{"type":"LineString","coordinates":[[-80.10321366666666,26.685551750000002],[-80.10321366666666,26.6866705]]},"properties":{"style":"solid","thickness":1}},{"type":"Feature","geometry":{"type":"LineString","coordinates":[[-80.10290233333333,26.68543986111111],[-80.10290230555555,26.68678236111111]]},"properties":{"style":"solid","thickness":1}},{"type":"Feature","geometry":{"type":"LineString","coordinates":[[-80.10259097222222,26.68543986111111],[-80.10259094444444,26.68678236111111]]},"properties":{"style":"solid","thickness":1}},{"type":"Feature","geometry":{"type":"LineString","coordinates":[[-80.1022796111111,26.685551722222222],[-80.10227958333333,26.68667047222222]]},"properties":{"style":"solid","thickness":1}},{"type":"Feature","geometry":{"type":"LineString","coordinates":[[-80.10196825,26.68611111111111],[-80.10197308333333,26.686190416666665],[-80.10198863888888,26.686273305555556],[-80.10201644444444,26.68635825],[-80.10205758333333,26.686443194444443],[-80.10211272222222,26.68652572222222],[-80.10218172222221,26.686603166666668],[-80.1022636111111,26.68667277777778],[-80.10235658333333,26.68673213888889],[-80.1024581111111,26.686779194444444],[-80.1025651111111,26.68681275],[-80.10267424999999,26.686832333333335],[-80.10278236111111,26.686838277777778],[-80.10288666666666,26.686831694444443],[-80.10298486111111,26.68681411111111],[-80.10307536111111,26.686787388888888],[-80.10315725,26.686753444444445],[-80.10323199999999,26.686713027777778],[-80.10330502777778,26.686662916666666],[-80.10337466666667,26.68660236111111],[-80.1034385,26.686531277777778],[-80.10349388888888,26.686450222222224],[-80.10353825,26.68636038888889],[-80.10356930555555,26.68626363888889],[-80.10358527777777,26.68616247222222],[-80.10358527777777,26.68605977777778],[-80.10356930555555,26.68595861111111],[-80.10353825,26.68586186111111],[-80.10349388888888,26.685772],[-80.1034385,26.685690944444445],[-80.10337466666667,26.68561988888889],[-80.10330502777778,26.685559305555557],[-80.10323202777778,26.685509194444446],[-80.10315725,26.68546877777778],[-80.10307538888888,26.685434861111112],[-80.10298486111111,26.685408111111112],[-80.10288666666666,26.685390527777777],[-80.10278238888888,26.685383944444446],[-80.10267427777777,26.68538988888889],[-80.1025651111111,26.685409472222222],[-80.10245813888888,26.685443],[-80.1023566111111,26.685490083333335],[-80.10226363888889,26.685549416666667],[-80.10218172222221,26.685619055555556],[-80.10211274999999,26.685696472222222],[-80.1020576111111,26.685779],[-80.10201644444444,26.685863944444446],[-80.10198863888888,26.685948888888888],[-80.10197308333333,26.686031777777778],[-80.10196825,26.68611111111111]]},"properties":{"style":"solid","thickness":1}},{"type":"Feature","geometry":{"type":"LineString","coordinates":[[-79.85219875,27.029249916666664],[-79.86210930555555,27.02817752777778],[-79.85819194444444,27.036405722222224],[-79.85219875,27.029249916666664]]},"properties":{"style":"solid","thickness":1}},{"type":"Feature","geometry":{"type":"LineString","coordinates":[[-80.0257166388889,27.175617555555558],[-80.03563830555555,27.174533111111113],[-80.03172841666667,27.182765805555558],[-80.0257166388889,27.175617555555558]]},"properties":{"style":"solid","thickness":1}},{"type":"Feature","geometry":{"type":"LineString","coordinates":[[-80.1233241111111,27.216315666666667],[-80.13324838888889,27.215224444444445],[-80.12934416666666,27.22345972222222],[-80.1233241111111,27.216315666666667]]},"properties":{"style":"solid","thickness":1}},{"type":"Feature","geometry":{"type":"LineString","coordinates":[[-80.28529608333334,27.16048836111111],[-80.29521391666667,27.15938583333333],[-80.29132333333334,27.16762563888889],[-80.28529608333334,27.16048836111111]]},"properties":{"style":"solid","thickness":1}},{"type":"Feature","geometry":{"type":"LineString","coordinates":[[-80.37032302777777,27.146408194444444],[-80.38023877777778,27.145299722222223],[-80.37635486111111,27.15354188888889],[-80.37032302777777,27.146408194444444]]},"properties":{"style":"solid","thickness":1}},{"type":"Feature","geometry":{"type":"LineString","coordinates":[[-80.48920433333333,27.263968305555554],[-80.49912913888889,27.262851527777777],[-80.49524988888889,27.271096666666665],[-80.48920433333333,27.263968305555554]]},"properties":{"style":"solid","thickness":1}},{"type":"Feature","geometry":{"type":"LineString","coordinates":[[-80.35842852777778,27.270768944444445],[-80.36835525,27.269661305555555],[-80.36446624999999,27.27790288888889],[-80.35842852777778,27.270768944444445]]},"properties":{"style":"solid","thickness":1}},{"type":"Feature","geometry":{"type":"LineString","coordinates":[[-79.44648380555556,27.03084597222222],[-79.45639802777778,27.02980186111111],[-79.45245150000001,27.03801866666667],[-79.44648380555556,27.03084597222222]]},"properties":{"style":"solid","thickness":1}}]}
