{"type":"FeatureCollection","features":[{"type":"Feature","geometry":{"type":"LineString","coordinates":[[-80.59118149999999,27.41546486111111],[-80.59127269444444,27.415876444444443],[-80.59144011111111,27.416300777777778],[-80.59169297222222,27.416722250000003],[-80.59203533333333,27.41712138888889],[-80.59246369444443,27.417476444444446],[-80.59296599999999,27.417766555555556],[-80.59352197222222,27.41797488888889],[-80.59410577777777,27.41809177777778],[-80.59468980555555,27.418116083333334],[-80.59524883333333,27.418054722222223],[-80.59576308333332,27.417920694444447],[-80.59621977777778,27.41773025],[-80.59661291666666,27.41750013888889],[-80.59696672222222,27.41722386111111],[-80.59729477777778,27.416882305555557],[-80.5975773611111,27.41647613888889],[-80.5977935,27.416011972222222],[-80.59792386111111,27.415503388888887],[-80.59795422222221,27.414970138888886],[-80.59787838888889,27.414436305555554],[-80.59769991666666,27.413926666666665],[-80.59743147222221,27.413463194444443],[-80.59709241666665,27.41306183333333],[-80.59670525,27.412731416666666],[-80.59629208333332,27.412473694444444],[-80.59587225,27.412284916666664],[-80.59542725,27.41214961111111],[-80.59493177777777,27.41206686111111],[-80.59439633333332,27.412051555555554],[-80.59383786111111,27.412116583333333],[-80.5932791111111,27.41227011111111],[-80.59274644444444,27.41251325],[-80.59226630555555,27.41283875],[-80.59186097222222,27.413231472222222],[-80.59154538888889,27.413670666666665],[-80.59132541666666,27.41413338888889],[-80.59119833333332,27.414597833333332],[-80.59115477777777,27.415046],[-80.59118149999999,27.41546486111111]]},"properties":{"style":"solid","thickness":1}},{"type":"Feature","geometry":{"type":"LineString","coordinates":[[-80.59554627777777,27.42205938888889],[-80.59551802777777,27.421336750000002],[-80.59557269444444,27.420590694444446],[-80.59571736111111,27.41983216666667],[-80.59595675,27.41907391666667],[-80.59629255555555,27.41832986111111],[-80.596723,27.417614472222223],[-80.59724272222222,27.41694188888889],[-80.59784291666666,27.416324944444444],[-80.59851180555555,27.41577447222222],[-80.59923541666666,27.415298666666665],[-80.5999985,27.41490261111111],[-80.6007855,27.41458836111111],[-80.60158141666666,27.41435497222222],[-80.60237263888888,27.414199055555553]]},"properties":{"style":"solid","thickness":1}},{"type":"Feature","geometry":{"type":"LineString","coordinates":[[-80.59554627777777,27.42205938888889],[-80.59537158333333,27.421353305555556],[-80.59511008333332,27.420643000000002],[-80.59475794444444,27.41994066666667],[-80.59431416666666,27.41925966666667],[-80.59378099999999,27.41861391666667],[-80.59316416666667,27.418016972222222],[-80.5924728611111,27.417481333333335],[-80.59171916666666,27.4170175],[-80.59091755555555,27.416633333333333],[-80.59008380555555,27.416333638888887],[-80.58923411111111,27.41612],[-80.58838413888888,27.41599086111111],[-80.58754813888888,27.415942027777778],[-80.5867383611111,27.415967194444445]]},"properties":{"style":"solid","thickness":1}},{"type":"Feature","geometry":{"type":"LineString","coordinates":[[-80.5867383611111,27.415967194444445],[-80.58752958333334,27.41581136111111],[-80.58832555555556,27.415578055555553],[-80.58911258333333,27.41526383333333],[-80.58987569444444,27.414867833333332],[-80.59059933333333,27.414392083333333],[-80.59126827777777,27.413841638888886],[-80.59186847222222,27.41322472222222],[-80.59238822222221,27.412552138888888],[-80.59281866666666,27.411836777777776],[-80.59315447222222,27.41109272222222],[-80.59339386111111,27.41033447222222],[-80.59353852777777,27.409575944444445],[-80.59359319444444,27.40882988888889],[-80.59356497222221,27.408107249999997]]},"properties":{"style":"solid","thickness":1}},{"type":"Feature","geometry":{"type":"LineString","coordinates":[[-80.59356497222221,27.408107249999997],[-80.5937396111111,27.40881333333333],[-80.59400108333332,27.40952363888889],[-80.59435316666666,27.41022597222222],[-80.59479691666667,27.41090697222222],[-80.59533008333332,27.41155275],[-80.5959468611111,27.412149694444444],[-80.59663816666666,27.412685305555556],[-80.59739183333333,27.41314911111111],[-80.59819347222222,27.41353322222222],[-80.59902722222222,27.41383286111111],[-80.59987688888889,27.41404647222222],[-80.6007268611111,27.414175555555556],[-80.6015628611111,27.414224277777777],[-80.60237263888888,27.414199055555553]]},"properties":{"style":"solid","thickness":1}},{"type":"Feature","geometry":{"type":"LineString","coordinates":[[-80.60945022222222,27.71977088888889],[-80.60954172222222,27.720182416666663],[-80.60970969444443,27.720606666666665],[-80.60996333333333,27.72102808333333],[-80.61030666666666,27.721427111111108],[-80.61073624999999,27.72178208333333],[-80.61123997222222,27.72207208333333],[-80.6117975,27.722280305555554],[-80.61238288888889,27.72239711111111],[-80.6129685,27.722421305555553],[-80.61352902777777,27.72235986111111],[-80.61404466666666,27.722225777777776],[-80.61450255555555,27.722035305555554],[-80.61489672222221,27.721805166666666],[-80.61525144444444,27.72152886111111],[-80.61558030555555,27.721187277777776],[-80.61586358333332,27.720781083333332],[-80.61608019444444,27.72031697222222],[-80.61621083333333,27.719808388888886],[-80.61624116666665,27.719275194444442],[-80.61616502777777,27.718741416666663],[-80.61598599999999,27.718231888888887],[-80.61571672222222,27.71776847222222],[-80.61537669444444,27.717367222222222],[-80.61498838888889,27.717036888888888],[-80.61457408333332,27.71677925],[-80.61415305555555,27.716590555555555],[-80.61370683333332,27.716455333333332],[-80.61321,27.716372666666665],[-80.6126731111111,27.716357444444444],[-80.61211313888889,27.716422527777777],[-80.61155291666667,27.71657613888889],[-80.6110188611111,27.71681933333333],[-80.61053747222222,27.71714486111111],[-80.6101311111111,27.71753761111111],[-80.60981475,27.71797683333333],[-80.60959427777777,27.7184395],[-80.60946694444443,27.718903916666665],[-80.60942336111111,27.719352055555554],[-80.60945022222222,27.71977088888889]]},"properties":{"style":"solid","thickness":1}},{"type":"Feature","geometry":{"type":"LineString","coordinates":[[-80.61382802777777,27.72636411111111],[-80.61379958333333,27.725641527777775],[-80.61385424999999,27.724895555555555],[-80.61399916666666,27.724137083333332],[-80.61423905555554,27.723378861111108],[-80.6145756111111,27.72263483333333],[-80.61500711111111,27.721919472222222],[-80.6155281111111,27.72124686111111],[-80.61612983333333,27.720629888888887],[-80.61680041666666,27.720079388888887],[-80.61752591666666,27.719603499999998],[-80.61829097222221,27.719207388888886],[-80.61908005555554,27.718893027777778],[-80.61987808333333,27.718659555555554],[-80.62067138888888,27.718503555555554]]},"properties":{"style":"solid","thickness":1}},{"type":"Feature","geometry":{"type":"LineString","coordinates":[[-80.61382802777777,27.72636411111111],[-80.61365275,27.72565811111111],[-80.61339038888889,27.724947916666665],[-80.61303719444444,27.72424572222222],[-80.61259205555555,27.72356486111111],[-80.61205733333333,27.72291922222222],[-80.61143872222222,27.722322444444444],[-80.61074544444443,27.721786944444442],[-80.60998963888888,27.721323277777778],[-80.60918577777777,27.720939277777777],[-80.60834969444444,27.720639749999997],[-80.60749769444443,27.72042622222222],[-80.60664538888888,27.72029722222222],[-80.6058071111111,27.720248527777777],[-80.60499513888888,27.720273805555554]]},"properties":{"style":"solid","thickness":1}},{"type":"Feature","geometry":{"type":"LineString","coordinates":[[-80.60499513888888,27.720273805555554],[-80.60578849999999,27.72011786111111],[-80.60658655555555,27.71988447222222],[-80.60737566666666,27.719570194444444],[-80.60814077777778,27.71917411111111],[-80.60886630555555,27.718698277777776],[-80.60953691666666,27.718147805555553],[-80.61013863888888,27.717530861111108],[-80.61065966666666,27.716858277777778],[-80.61109113888888,27.716142916666666],[-80.61142772222222,27.71539888888889],[-80.6116676111111,27.714640666666664],[-80.61181252777777,27.71388222222222],[-80.61186719444444,27.71313622222222],[-80.61183877777778,27.712413638888886]]},"properties":{"style":"solid","thickness":1}},{"type":"Feature","geometry":{"type":"LineString","coordinates":[[-80.61183877777778,27.712413638888886],[-80.61201402777778,27.713119638888887],[-80.61227633333333,27.71382983333333],[-80.6126295,27.714532055555555],[-80.61307458333333,27.715212916666665],[-80.61360927777777,27.715858555555556],[-80.6142278611111,27.716455333333332],[-80.61492113888889,27.716990805555554],[-80.61567694444444,27.717454444444442],[-80.61648080555555,27.717838388888886],[-80.6173168611111,27.718137888888887],[-80.61816888888889,27.71835136111111],[-80.61902116666666,27.718480277777775],[-80.61985944444444,27.718528888888887],[-80.62067138888888,27.718503555555554]]},"properties":{"style":"solid","thickness":1}},{"type":"Feature","geometry":{"type":"LineString","coordinates":[[-80.5390118611111,27.508880305555557],[-80.53910294444444,27.509291916666665],[-80.53927030555555,27.509716277777777],[-80.53952319444444,27.510137833333335],[-80.53986563888888,27.510537083333332],[-80.54029419444444,27.510892305555554],[-80.54079677777777,27.511182583333333],[-80.54135313888888,27.51139111111111],[-80.54193736111111,27.511508194444446],[-80.54252186111111,27.51153272222222],[-80.5430813888889,27.511471555555556],[-80.54359613888889,27.511337722222223],[-80.54405330555555,27.511147444444443],[-80.54444686111111,27.5109175],[-80.54480108333333,27.510641361111112],[-80.54512958333333,27.510299916666668],[-80.54541255555556,27.50989386111111],[-80.54562908333334,27.509429805555556],[-80.54575980555555,27.50892125],[-80.54579041666666,27.508388027777777],[-80.54571477777777,27.507854194444445],[-80.54553638888889,27.50734452777778],[-80.54526794444445,27.506880944444443],[-80.54492877777777,27.50647947222222],[-80.54454144444445,27.506148916666668],[-80.54412805555556,27.505891055555555],[-80.54370794444445,27.50570213888889],[-80.54326263888889,27.505566666666667],[-80.54276677777777,27.505483722222223],[-80.54223091666667,27.50546825],[-80.54167194444445,27.505533055555556],[-80.54111266666666,27.50568638888889],[-80.54057944444445,27.505929333333334],[-80.54009875,27.50625463888889],[-80.53969291666667,27.506647222222224],[-80.53937686111111,27.507086277777777],[-80.5391565,27.507548916666668],[-80.53902908333333,27.508013305555554],[-80.53898530555556,27.508461444444446],[-80.5390118611111,27.508880305555557]]},"properties":{"style":"solid","thickness":1}},{"type":"Feature","geometry":{"type":"LineString","coordinates":[[-80.54337724999999,27.51547625],[-80.54334930555555,27.51475361111111],[-80.54340436111112,27.514007583333335],[-80.5435495,27.513249138888888],[-80.54378941666667,27.512491],[-80.54412583333333,27.511747083333333],[-80.54455697222222,27.51103186111111],[-80.54507744444444,27.510359472222223],[-80.54567841666666,27.509742777777777],[-80.54634811111112,27.509192555555554],[-80.54707255555556,27.508717027777777],[-80.54783644444444,27.50832125],[-80.54862422222222,27.50800727777778],[-80.54942091666666,27.507774194444444],[-80.5502128611111,27.507618583333333]]},"properties":{"style":"solid","thickness":1}},{"type":"Feature","geometry":{"type":"LineString","coordinates":[[-80.54337724999999,27.51547625],[-80.54320274999999,27.514770111111112],[-80.5429413611111,27.51405972222222],[-80.54258924999999,27.513357305555555],[-80.54214538888888,27.51267613888889],[-80.54161208333333,27.512030194444446],[-80.540995,27.511433055555557],[-80.54030336111111,27.510897166666666],[-80.53954927777778,27.510433083333332],[-80.5387471388889,27.51004863888889],[-80.53791283333334,27.509748666666667],[-80.53706255555555,27.509534694444444],[-80.53621194444445,27.50940525],[-80.53537527777777,27.50935613888889],[-80.53456480555555,27.509381]]},"properties":{"style":"solid","thickness":1}},{"type":"Feature","geometry":{"type":"LineString","coordinates":[[-80.53456480555555,27.509381],[-80.53535674999999,27.509225444444443],[-80.53615347222222,27.508992444444445],[-80.53694130555556,27.50867852777778],[-80.53770525,27.508282833333332],[-80.53842972222222,27.507807333333332],[-80.53909944444445,27.50725713888889],[-80.53970041666666,27.506640472222223],[-80.54022091666667,27.505968083333332],[-80.54065202777778,27.50525288888889],[-80.54098844444444,27.504509],[-80.54122838888888,27.503750833333335],[-80.54137352777778,27.502992388888888],[-80.54142858333333,27.50224638888889],[-80.54140066666666,27.501523722222224]]},"properties":{"style":"solid","thickness":1}},{"type":"Feature","geometry":{"type":"LineString","coordinates":[[-80.54140066666666,27.501523722222224],[-80.54157513888889,27.50222986111111],[-80.54183647222222,27.50294025],[-80.54218855555555,27.503642694444444],[-80.5426323611111,27.504323833333334],[-80.54316566666667,27.504969805555554],[-80.54378269444445,27.505566944444446],[-80.54447433333333,27.506102805555557],[-80.54522841666666,27.50656686111111],[-80.54603052777777,27.50695125],[-80.54686483333333,27.507251194444443],[-80.5477151111111,27.50746511111111],[-80.54856572222222,27.507594472222223],[-80.54940241666667,27.507643527777777],[-80.5502128611111,27.507618583333333]]},"properties":{"style":"solid","thickness":1}},{"type":"Feature","geometry":{"type":"LineString","coordinates":[[-80.41704708333334,27.2447385],[-80.41713750000001,27.24515022222222],[-80.417304,27.24557477777778],[-80.41755586111111,27.245996583333334],[-80.41789705555556,27.246396166666667],[-80.41832425,27.246751777777778],[-80.41882533333334,27.24704252777778],[-80.41938016666667,27.247251555555557],[-80.41996291666668,27.24736916666667],[-80.42054602777779,27.247394194444446],[-80.42110430555556,27.24733352777778],[-80.42161800000001,27.24720013888889],[-80.42207430555555,27.247010222222222],[-80.42246722222222,27.246780611111113],[-80.42282091666667,27.24650475],[-80.42314900000001,27.246163583333335],[-80.42343177777778,27.245757722222223],[-80.42364830555556,27.245293805555555],[-80.42377927777778,27.244785333333333],[-80.42381041666667,27.244252111111113],[-80.42373552777778,27.24371813888889],[-80.42355811111112,27.24320827777778],[-80.42329077777778,27.242744416666667],[-80.42295286111111,27.24234263888889],[-80.42256677777779,27.242011694444447],[-80.4221546388889,27.24175347222222],[-80.42173572222222,27.241564166666667],[-80.42129158333334,27.241428305555555],[-80.42079697222222,27.241344916666666],[-80.42026236111111,27.241328972222224],[-80.41970463888889,27.241393305555558],[-80.41914647222222,27.24154613888889],[-80.41861425,27.241788638888888],[-80.41813430555555,27.242113583333335],[-80.41772900000001,27.242505833333333],[-80.41741319444445,27.242944666666666],[-80.41719283333333,27.24340711111111],[-80.41706522222222,27.243871444444444],[-80.41702105555557,27.244319583333333],[-80.41704708333334,27.2447385]]},"properties":{"style":"solid","thickness":1}},{"type":"Feature","geometry":{"type":"LineString","coordinates":[[-80.42139511111111,27.251338805555555],[-80.42136802777779,27.250616055555554],[-80.42142375,27.249870027777778],[-80.4215693888889,27.249111666666668],[-80.42180958333334,27.24835363888889],[-80.42214602777779,27.24760997222222],[-80.42257694444444,27.246895083333335],[-80.42309694444445,27.246223083333334],[-80.42369719444444,27.245606861111114],[-80.42436591666667,27.245057194444446],[-80.42508919444445,27.244582222222224],[-80.42585175,27.244187111111113],[-80.42663805555556,27.24387377777778],[-80.42743313888889,27.243641361111113],[-80.4282233888889,27.243486416666666]]},"properties":{"style":"solid","thickness":1}},{"type":"Feature","geometry":{"type":"LineString","coordinates":[[-80.42139511111111,27.251338805555555],[-80.42122177777779,27.250632444444445],[-80.42096177777778,27.24992177777778],[-80.42061125000001,27.249218972222224],[-80.42016916666667,27.24853738888889],[-80.41963780555557,27.247890916666666],[-80.41902283333334,27.247293194444445],[-80.4183333888889,27.246756666666666],[-80.41758152777778,27.24629188888889],[-80.41678172222223,27.245906722222223],[-80.41594966666668,27.245605972222222],[-80.41510161111111,27.245391277777777],[-80.41425311111112,27.245261083333336],[-80.41341841666667,27.245211222222224],[-80.41260980555556,27.245235361111114]]},"properties":{"style":"solid","thickness":1}},{"type":"Feature","geometry":{"type":"LineString","coordinates":[[-80.41260980555556,27.245235361111114],[-80.41340011111112,27.2450805],[-80.41419522222223,27.244848166666667],[-80.41498155555556,27.244534916666666],[-80.41574416666667,27.244139833333335],[-80.41646744444445,27.243664916666667],[-80.41713622222223,27.243115305555555],[-80.4177365,27.242499083333335],[-80.4182565,27.24182711111111],[-80.41868741666667,27.241112222222224],[-80.41902383333334,27.240368555555555],[-80.41926405555556,27.239610555555558],[-80.41940966666667,27.238852166666668],[-80.41946541666667,27.238106138888888],[-80.41943836111112,27.237383416666667]]},"properties":{"style":"solid","thickness":1}},{"type":"Feature","geometry":{"type":"LineString","coordinates":[[-80.41943836111112,27.237383416666667],[-80.4196116388889,27.23808975],[-80.41987161111112,27.238800416666667],[-80.42022211111112,27.239503222222222],[-80.4206641388889,27.240184805555558],[-80.42119547222222,27.24083127777778],[-80.42181044444445,27.24142902777778],[-80.42249986111112,27.24196552777778],[-80.42325169444445,27.24243027777778],[-80.42405152777778,27.242815416666666],[-80.42488355555557,27.243116083333334],[-80.42573163888889,27.243330750000002],[-80.4265801388889,27.24346088888889],[-80.42741480555556,27.24351066666667],[-80.4282233888889,27.243486416666666]]},"properties":{"style":"solid","thickness":1}},{"type":"Feature","geometry":{"type":"LineString","coordinates":[[-80.29802997222222,27.802263444444446],[-80.29812041666666,27.802675166666667],[-80.29828730555555,27.803099777777778],[-80.29853994444444,27.80352172222222],[-80.29888244444444,27.8039215],[-80.29931138888888,27.804277416666668],[-80.29981466666666,27.80456852777778],[-80.30037202777777,27.804777972222222],[-80.30095752777777,27.804896055555556],[-80.30154352777778,27.804921555555556],[-80.30210463888889,27.804861333333335],[-80.30262102777777,27.80472838888889],[-80.30307980555556,27.80453891666667],[-80.30347488888889,27.80430963888889],[-80.30383063888888,27.80403413888889],[-80.30416069444445,27.80369327777778],[-80.30444530555555,27.803287722222223],[-80.30466338888888,27.802824083333334],[-80.30479552777777,27.802315805555555],[-80.30482736111111,27.801782694444444],[-80.30475266666666,27.80124875],[-80.30457488888888,27.800738833333334],[-80.30430672222222,27.800274833333333],[-80.30396752777777,27.799872861111112],[-80.3035798611111,27.79954166666667],[-80.30316597222222,27.799283111111112],[-80.30274516666667,27.7990935],[-80.30229897222222,27.798957305555557],[-80.301802,27.79887352777778],[-80.30126475,27.79885713888889],[-80.30070416666666,27.798921],[-80.30014308333332,27.799073361111112],[-80.29960797222222,27.79931538888889],[-80.29912530555555,27.799639861111114],[-80.29871758333333,27.800031722222222],[-80.29839975,27.800470222222224],[-80.29817783333333,27.80093241666667],[-80.29804911111111,27.80139652777778],[-80.29800424999999,27.801844555555558],[-80.29802997222222,27.802263444444446]]},"properties":{"style":"solid","thickness":1}},{"type":"Feature","geometry":{"type":"LineString","coordinates":[[-80.30239272222222,27.808866166666668],[-80.30236627777778,27.80814352777778],[-80.30242305555555,27.807397694444447],[-80.30257019444444,27.806639555555556],[-80.30281236111111,27.80588188888889],[-80.30315125,27.80513861111111],[-80.30358502777777,27.804424194444444],[-80.30410830555556,27.80375275],[-80.30471216666666,27.803137111111113],[-80.30538480555555,27.802588083333333],[-80.30611213888889,27.802113805555557],[-80.30687888888889,27.80171938888889],[-80.30766941666667,27.80140677777778],[-80.30846869444444,27.801175055555557],[-80.30926305555555,27.80102077777778]]},"properties":{"style":"solid","thickness":1}},{"type":"Feature","geometry":{"type":"LineString","coordinates":[[-80.30239272222222,27.808866166666668],[-80.30221927777778,27.808159805555555],[-80.30195872222222,27.807449055555555],[-80.30160716666667,27.806746083333334],[-80.30116361111111,27.806064250000002],[-80.30063027777777,27.805417444444444],[-80.30001286111111,27.804819305555558],[-80.29932055555555,27.804282305555557],[-80.29856547222222,27.803817000000002],[-80.29776208333332,27.803431222222223],[-80.29692622222223,27.803129861111113],[-80.29607416666667,27.802914472222223],[-80.29522158333333,27.802783611111114],[-80.29438280555556,27.802733083333333],[-80.29357016666667,27.802756555555558]]},"properties":{"style":"solid","thickness":1}},{"type":"Feature","geometry":{"type":"LineString","coordinates":[[-80.29357016666667,27.802756555555558],[-80.29436455555556,27.802602361111113],[-80.2951638611111,27.80237072222222],[-80.29595441666666,27.802058194444445],[-80.29672119444444,27.801663805555556],[-80.29744858333333,27.801189583333333],[-80.29812122222222,27.800640583333333],[-80.29872511111111,27.80002497222222],[-80.29924838888888,27.79935355555556],[-80.29968219444444,27.79863913888889],[-80.30002108333333,27.797895888888892],[-80.30026325,27.797138194444447],[-80.30041038888889,27.796380083333336],[-80.30046716666666,27.795634222222223],[-80.30044072222222,27.794911583333334]]},"properties":{"style":"solid","thickness":1}},{"type":"Feature","geometry":{"type":"LineString","coordinates":[[-80.30044072222222,27.794911583333334],[-80.30061416666666,27.795617972222225],[-80.30087466666666,27.796328722222224],[-80.30122616666667,27.797031694444446],[-80.30166969444444,27.79771352777778],[-80.30220299999999,27.798360333333335],[-80.30282038888889,27.798958444444445],[-80.30351269444444,27.79949541666667],[-80.30426777777778,27.799960722222224],[-80.30507116666666,27.800346444444447],[-80.30590702777778,27.80064777777778],[-80.30675908333333,27.800863083333333],[-80.30761163888889,27.80099388888889],[-80.30845041666666,27.801044361111114],[-80.30926305555555,27.80102077777778]]},"properties":{"style":"solid","thickness":1}},{"type":"Feature","geometry":{"type":"LineString","coordinates":[[-80.22061944444445,27.58951161111111],[-80.22070944444445,27.589923416666664],[-80.22087572222222,27.59034813888889],[-80.22112761111111,27.590770277777775],[-80.22146916666667,27.591170277777778],[-80.22189705555556,27.591526444444444],[-80.22239916666666,27.591817833333334],[-80.22295533333333,27.59202761111111],[-80.2235396388889,27.592146027777776],[-80.2241245,27.59217183333333],[-80.22468461111112,27.592111944444444],[-80.2252001111111,27.591979277777778],[-80.22565813888889,27.591790027777776],[-80.22605263888889,27.591560972222222],[-80.22640791666667,27.59128561111111],[-80.22673758333333,27.590944916666665],[-80.22702191666667,27.5905395],[-80.22723991666666,27.590075944444443],[-80.22737216666667,27.589567694444444],[-80.22740430555555,27.589034555555553],[-80.22733011111112,27.588500555555555],[-80.22715305555556,27.5879905],[-80.22688569444445,27.587526305555553],[-80.22654744444445,27.58712411111111],[-80.22616075,27.586792666666664],[-80.22574780555556,27.586533888888887],[-80.22532791666667,27.586344027777777],[-80.22488266666667,27.586207583333334],[-80.22438669444445,27.586123527777776],[-80.22385047222222,27.586106833333332],[-80.22329091666667,27.58617038888889],[-80.22273077777778,27.586322444444445],[-80.22219652777778,27.586564194444442],[-80.22171455555555,27.586888444444444],[-80.22130730555556,27.587280083333333],[-80.22098977777777,27.587718444444445],[-80.22076794444445,27.588180555555553],[-80.22063913888888,27.588644638888887],[-80.22059405555555,27.589092694444442],[-80.22061944444445,27.58951161111111]]},"properties":{"style":"solid","thickness":1}},{"type":"Feature","geometry":{"type":"LineString","coordinates":[[-80.2249693611111,27.596117222222222],[-80.22494344444445,27.595394527777778],[-80.22500063888889,27.594648638888888],[-80.22514802777778,27.593890555555554],[-80.22539027777778,27.59313294444444],[-80.22572902777777,27.592389805555555],[-80.2261625,27.59167558333333],[-80.22668525,27.59100436111111],[-80.2272883888889,27.59038902777778],[-80.22796013888889,27.58984033333333],[-80.22868644444445,27.589366416666664],[-80.229452,27.588972388888887],[-80.23024125,27.588660166666667],[-80.23103916666666,27.58842888888889],[-80.23183211111112,27.588275027777776]]},"properties":{"style":"solid","thickness":1}},{"type":"Feature","geometry":{"type":"LineString","coordinates":[[-80.2249693611111,27.596117222222222],[-80.22479672222222,27.595410722222223],[-80.22453716666666,27.59469975],[-80.22418677777777,27.593996527777776],[-80.22374452777778,27.593314416666665],[-80.2232126388889,27.592667277777778],[-80.22259683333334,27.59206875],[-80.22190619444444,27.591531333333332],[-80.22115286111111,27.591065555555556],[-80.22035125000001,27.59067933333333],[-80.21951719444445,27.5903775],[-80.21866688888889,27.59016161111111],[-80.21781602777779,27.590030277777778],[-80.21697888888889,27.589979277777775],[-80.21616775,27.590002305555554]]},"properties":{"style":"solid","thickness":1}},{"type":"Feature","geometry":{"type":"LineString","coordinates":[[-80.21616775,27.590002305555554],[-80.21696072222223,27.589848555555555],[-80.21775869444444,27.589617333333333],[-80.21854797222223,27.589305194444442],[-80.21931358333333,27.588911194444442],[-80.22003991666666,27.58843733333333],[-80.22071166666667,27.587888694444445],[-80.22131483333334,27.58727336111111],[-80.22183758333334,27.586602166666665],[-80.22227105555555,27.585887944444444],[-80.22260983333334,27.585144805555554],[-80.22285205555556,27.584387222222222],[-80.22299944444444,27.58362911111111],[-80.22305663888889,27.58288322222222],[-80.22303075,27.582160527777777]]},"properties":{"style":"solid","thickness":1}},{"type":"Feature","geometry":{"type":"LineString","coordinates":[[-80.22303075,27.582160527777777],[-80.22320336111112,27.582867055555557],[-80.22346288888889,27.583578],[-80.22381325,27.58428122222222],[-80.22425544444445,27.58496336111111],[-80.22478730555555,27.585610499999998],[-80.2254031111111,27.586209],[-80.22609372222223,27.586746416666667],[-80.22684702777778,27.587212138888887],[-80.2276486388889,27.587598333333332],[-80.22848272222222,27.587900138888887],[-80.229333,27.588115944444443],[-80.23018386111112,27.588247222222222],[-80.231021,27.588298166666664],[-80.23183211111112,27.588275027777776]]},"properties":{"style":"solid","thickness":1}},{"type":"Feature","geometry":{"type":"LineString","coordinates":[[-80.02088297222222,27.113895805555558],[-80.02097183333333,27.11430777777778],[-80.02113669444444,27.11473280555556],[-80.02138677777778,27.115155361111114],[-80.02172619444444,27.115555888888892],[-80.02215166666666,27.115912722222223],[-80.02265116666666,27.11620486111111],[-80.02320461111111,27.116415444444446],[-80.02378627777777,27.116534694444447],[-80.02436863888889,27.116561333333333],[-80.02492649999999,27.116502194444447],[-80.02544008333334,27.116370250000003],[-80.02589652777777,27.116181611111113],[-80.02628975,27.115953083333334],[-80.02664402777778,27.115678194444445],[-80.02697291666667,27.115337916666668],[-80.02725677777778,27.114932833333334],[-80.02747469444445,27.114469500000002],[-80.02760727777778,27.11396138888889],[-80.02764022222222,27.113428222222225],[-80.02756727777778,27.11289402777778],[-80.02739183333333,27.11238363888889],[-80.02712644444445,27.11191902777778],[-80.02679030555555,27.111516277777778],[-80.02640580555556,27.11118427777778],[-80.02599505555555,27.110924861111112],[-80.02557727777777,27.11073438888889],[-80.02513413888889,27.110597305555558],[-80.02464038888888,27.110512555555555],[-80.02410644444444,27.110495083333333],[-80.02354911111111,27.11055788888889],[-80.02299108333334,27.11070916666667],[-80.0224586111111,27.110950194444445],[-80.02197811111111,27.111273805555555],[-80.02157186111111,27.111664944444446],[-80.02125491666666,27.112102916666668],[-80.02103319444444,27.11256477777778],[-80.02090411111111,27.11302875],[-80.02085841666667,27.11347677777778],[-80.02088297222222,27.113895805555558]]},"properties":{"style":"solid","thickness":1}},{"type":"Feature","geometry":{"type":"LineString","coordinates":[[-80.025203,27.120508444444447],[-80.02517847222222,27.119785611111112],[-80.02523675,27.119039694444446],[-80.02538483333333,27.118281694444445],[-80.02562741666667,27.117524333333336],[-80.02596605555556,27.116781583333335],[-80.02639897222222,27.116067861111112],[-80.02692069444444,27.11539727777778],[-80.02752241666667,27.114782694444447],[-80.02819230555555,27.11423488888889],[-80.02891638888889,27.113761916666668],[-80.02967944444444,27.11336891666667],[-80.03046591666667,27.11305777777778],[-80.03126091666667,27.11282755555556],[-80.03205080555556,27.112674805555557]]},"properties":{"style":"solid","thickness":1}},{"type":"Feature","geometry":{"type":"LineString","coordinates":[[-80.025203,27.120508444444447],[-80.02503233333333,27.119801583333334],[-80.02477511111111,27.119090166666666],[-80.02442744444444,27.11838636111111],[-80.02398825,27.117703527777778],[-80.02345972222223,27.117055555555556],[-80.02284755555556,27.116456083333336],[-80.02216075,27.11591761111111],[-80.02141141666667,27.115450722222224],[-80.02061383333333,27.115063305555555],[-80.01978380555555,27.11476025],[-80.01893744444445,27.114543166666667],[-80.0180903888889,27.114410583333335],[-80.01725683333333,27.11435841666667],[-80.01644908333333,27.114380305555557]]},"properties":{"style":"solid","thickness":1}},{"type":"Feature","geometry":{"type":"LineString","coordinates":[[-80.01644908333333,27.114380305555557],[-80.017239,27.11422763888889],[-80.01803402777777,27.1139975],[-80.01882052777778,27.113686444444447],[-80.01958363888889,27.113293472222225],[-80.02030775,27.112820555555558],[-80.02097766666667,27.11227277777778],[-80.02157938888888,27.111658222222225],[-80.02210113888889,27.110987666666666],[-80.02253402777778,27.110273972222224],[-80.02287269444444,27.109531194444447],[-80.02311525,27.108773833333334],[-80.0232633611111,27.108015833333333],[-80.02332163888889,27.107269916666667],[-80.0232971111111,27.106547111111112]]},"properties":{"style":"solid","thickness":1}},{"type":"Feature","geometry":{"type":"LineString","coordinates":[[-80.0232971111111,27.106547111111112],[-80.02346775,27.107253944444444],[-80.02372494444444,27.10796538888889],[-80.02407258333334,27.108669194444445],[-80.02451172222221,27.109352027777778],[-80.02504022222222,27.110000000000003],[-80.02565238888889,27.110599472222223],[-80.02633916666666,27.111137916666667],[-80.0270885,27.111604777777778],[-80.02788605555556,27.11199213888889],[-80.02871611111111,27.11229516666667],[-80.02956244444444,27.112512194444445],[-80.03040952777778,27.112644694444445],[-80.03124305555555,27.112696805555558],[-80.03205080555556,27.112674805555557]]},"properties":{"style":"solid","thickness":1}},{"type":"Feature","geometry":{"type":"LineString","coordinates":[[-80.10312866666666,26.685518083333335],[-80.10327797222222,26.68661025]]},"properties":{"style":"solid","thickness":1}},{"type":"Feature","geometry":{"type":"LineString","coordinates":[[-80.10280977777778,26.685442388888887],[-80.10298891666666,26.686753]]},"properties":{"style":"solid","thickness":1}},{"type":"Feature","geometry":{"type":"LineString","coordinates":[[-80.10250583333332,26.685475916666668],[-80.10268497222222,26.686786527777777]]},"properties":{"style":"solid","thickness":1}},{"type":"Feature","geometry":{"type":"LineString","coordinates":[[-80.10221680555556,26.685618666666667],[-80.10236608333332,26.686710833333333]]},"properties":{"style":"solid","thickness":1}},{"type":"Feature","geometry":{"type":"LineString","coordinates":[[-80.10198747222222,26.686198277777777],[-80.10200277777777,26.686275194444445],[-80.10202902777777,26.686354444444444],[-80.10206749999999,26.68643436111111],[-80.10211902777777,26.68651286111111],[-80.1021838611111,26.6865875],[-80.10226152777777,26.686655666666667],[-80.10235077777777,26.686714805555557],[-80.10244947222222,26.686762722222223],[-80.1025548611111,26.68679775],[-80.10266380555555,26.686819],[-80.10277294444444,26.686826333333332],[-80.10287930555555,26.68682052777778],[-80.10298022222221,26.686802833333335],[-80.10307375,26.68677511111111],[-80.10315855555555,26.68673927777778],[-80.10323394444444,26.686697333333335],[-80.10330155555555,26.686649805555557],[-80.10336613888889,26.68659302777778],[-80.10342602777777,26.68652638888889],[-80.1034788611111,26.68645013888889],[-80.10352213888888,26.686365055555555],[-80.10355344444444,26.686272555555554],[-80.10357083333332,26.68617477777778],[-80.10357294444444,26.686074277777777],[-80.10355924999999,26.685974027777778],[-80.10353013888889,26.685877],[-80.10348691666665,26.68578588888889],[-80.10343163888888,26.685702944444444],[-80.10336672222222,26.685629777777777],[-80.10329494444444,26.68556727777778],[-80.1032188611111,26.68551563888889],[-80.10314088888889,26.685474583333335],[-80.10306252777777,26.685443166666666],[-80.10297805555555,26.68541886111111],[-80.10288613888888,26.68540252777778],[-80.10278791666666,26.685395916666668],[-80.10268525,26.685400722222223],[-80.10258047222221,26.68541816666667],[-80.10247652777777,26.68544902777778],[-80.10237658333332,26.685493305555557],[-80.10228375,26.685550194444446],[-80.10220088888889,26.685618138888888],[-80.10213022222221,26.685694916666666],[-80.10207319444444,26.685777944444446],[-80.10203038888888,26.685864444444444],[-80.10200155555555,26.685951805555554],[-80.10198575,26.686037722222224],[-80.1019816111111,26.686120333333335],[-80.10198747222222,26.686198277777777]]},"properties":{"style":"solid","thickness":1}},{"type":"Feature","geometry":{"type":"LineString","coordinates":[[-80.10484808333332,26.678470861111112],[-80.10499738888889,26.679563027777778]]},"properties":{"style":"solid","thickness":1}},{"type":"Feature","geometry":{"type":"LineString","coordinates":[[-80.10452922222221,26.678395166666668],[-80.10470836111111,26.67970577777778]]},"properties":{"style":"solid","thickness":1}},{"type":"Feature","geometry":{"type":"LineString","coordinates":[[-80.10422527777777,26.678428694444445],[-80.10440441666667,26.679739305555557]]},"properties":{"style":"solid","thickness":1}},{"type":"Feature","geometry":{"type":"LineString","coordinates":[[-80.10393627777778,26.678571444444447],[-80.10408555555556,26.679663611111113]]},"properties":{"style":"solid","thickness":1}},{"type":"Feature","geometry":{"type":"LineString","coordinates":[[-80.10370697222221,26.679151055555558],[-80.10372227777778,26.679227972222222],[-80.10374852777777,26.679307222222224],[-80.103787,26.67938713888889],[-80.1038385,26.67946563888889],[-80.10390333333332,26.67954027777778],[-80.10398102777778,26.679608444444444],[-80.10407024999999,26.679667583333334],[-80.10416894444444,26.6797155],[-80.10427433333332,26.679750527777777],[-80.10438325,26.67977175],[-80.10449241666666,26.679779111111113],[-80.10459875,26.67977327777778],[-80.10469966666666,26.679755611111112],[-80.10479319444444,26.67972786111111],[-80.10487797222221,26.67969202777778],[-80.10495338888889,26.679650111111112],[-80.10502097222222,26.679602583333335],[-80.10508555555555,26.679545805555556],[-80.10514544444443,26.679479166666667],[-80.10519827777777,26.679402916666668],[-80.10524152777778,26.679317805555556],[-80.1052728611111,26.679225333333335],[-80.10529025,26.67912752777778],[-80.10529233333332,26.679027055555558],[-80.10527863888888,26.678926805555555],[-80.10524952777777,26.678829750000002],[-80.10520633333333,26.67873863888889],[-80.10515102777777,26.678655722222224],[-80.10508613888888,26.678582555555558],[-80.10501433333333,26.678520055555556],[-80.10493827777778,26.678468416666668],[-80.10486030555555,26.678427361111112],[-80.10478194444444,26.678395944444446],[-80.1046975,26.67837163888889],[-80.10460555555555,26.678355305555556],[-80.1045073611111,26.678348694444445],[-80.10440466666667,26.6783535],[-80.10429991666666,26.678370944444445],[-80.10419599999999,26.678401805555556],[-80.10409602777777,26.678446083333334],[-80.10400322222222,26.678502972222223],[-80.10392036111111,26.67857091666667],[-80.10384969444443,26.678647694444447],[-80.10379269444444,26.678730722222223],[-80.10374988888888,26.678817222222225],[-80.10372102777777,26.678904583333335],[-80.10370524999999,26.6789905],[-80.1037011111111,26.679073111111112],[-80.10370697222221,26.679151055555558]]},"properties":{"style":"solid","thickness":1}}]}
