{"type":"FeatureCollection","features":[{"type":"Feature","geometry":{"type":"LineString","coordinates":[[-80.55890277777777,27.266880555555556],[-80.55890277777777,27.266880555555556],[-80.57661944444445,27.26152777777778]]},"properties":{"style":"solid","thickness":1}},{"type":"Feature","geometry":{"type":"LineString","coordinates":[[-80.55890277777777,27.266880555555556],[-80.55890277777777,27.266880555555556],[-80.55449722222222,27.25063611111111]]},"properties":{"style":"solid","thickness":1}},{"type":"Feature","geometry":{"type":"LineString","coordinates":[[-80.821625,27.187202777777777],[-80.821625,27.187202777777777],[-80.80393055555555,27.19258888888889]]},"properties":{"style":"solid","thickness":1}},{"type":"Feature","geometry":{"type":"LineString","coordinates":[[-80.821625,27.187202777777777],[-80.821625,27.187202777777777],[-80.81638611111111,27.171158333333334]]},"properties":{"style":"solid","thickness":1}},{"type":"Feature","geometry":{"type":"LineString","coordinates":[[-80.54001666666666,27.197194444444445],[-80.54001666666666,27.197194444444445],[-80.53341944444445,27.17282777777778]]},"properties":{"style":"solid","thickness":1}},{"type":"Feature","geometry":{"type":"LineString","coordinates":[[-80.8007361111111,27.12318611111111],[-80.8007361111111,27.12318611111111],[-80.79288888888888,27.099119444444444]]},"properties":{"style":"solid","thickness":1}},{"type":"Feature","geometry":{"type":"LineString","coordinates":[[-80.6584388888889,27.236808333333336],[-80.6584388888889,27.236808333333336],[-80.64072777777778,27.242175]]},"properties":{"style":"solid","thickness":1}},{"type":"Feature","geometry":{"type":"LineString","coordinates":[[-80.74004166666667,27.21201111111111],[-80.74004166666667,27.21201111111111],[-80.72234166666667,27.217388888888888]]},"properties":{"style":"solid","thickness":1}},{"type":"Feature","geometry":{"type":"LineString","coordinates":[[-80.28033888888889,27.383216666666666],[-80.28033888888889,27.383216666666666],[-80.26161666666667,27.383225]]},"properties":{"style":"solid","thickness":1}},{"type":"Feature","geometry":{"type":"LineString","coordinates":[[-80.28033888888889,27.383216666666666],[-80.28033888888889,27.383216666666666],[-80.27296666666666,27.367852777777777]]},"properties":{"style":"solid","thickness":1}},{"type":"Feature","geometry":{"type":"LineString","coordinates":[[-80.26405,27.34926388888889],[-80.26405,27.34926388888889],[-80.253,27.326216666666667]]},"properties":{"style":"solid","thickness":1}},{"type":"Feature","geometry":{"type":"LineString","coordinates":[[-80.15190000000001,27.38323888888889],[-80.15190000000001,27.38323888888889],[-80.13317777777777,27.38322777777778]]},"properties":{"style":"solid","thickness":1}},{"type":"Feature","geometry":{"type":"LineString","coordinates":[[-80.00819166666666,27.383125],[-80.00819166666666,27.383125],[-79.98946944444444,27.383097222222222]]},"properties":{"style":"solid","thickness":1}},{"type":"Feature","geometry":{"type":"LineString","coordinates":[[-80.10312866666666,26.685518083333335],[-80.10327797222222,26.68661025]]},"properties":{"style":"solid","thickness":1}},{"type":"Feature","geometry":{"type":"LineString","coordinates":[[-80.10280977777778,26.685442388888887],[-80.10298891666666,26.686753]]},"properties":{"style":"solid","thickness":1}},{"type":"Feature","geometry":{"type":"LineString","coordinates":[[-80.10250583333332,26.685475916666668],[-80.10268497222222,26.686786527777777]]},"properties":{"style":"solid","thickness":1}},{"type":"Feature","geometry":{"type":"LineString","coordinates":[[-80.10221680555556,26.685618666666667],[-80.10236608333332,26.686710833333333]]},"properties":{"style":"solid","thickness":1}},{"type":"Feature","geometry":{"type":"LineString","coordinates":[[-80.10198747222222,26.686198277777777],[-80.10200277777777,26.686275194444445],[-80.10202902777777,26.686354444444444],[-80.10206749999999,26.68643436111111],[-80.10211902777777,26.68651286111111],[-80.1021838611111,26.6865875],[-80.10226152777777,26.686655666666667],[-80.10235077777777,26.686714805555557],[-80.10244947222222,26.686762722222223],[-80.1025548611111,26.68679775],[-80.10266380555555,26.686819],[-80.10277294444444,26.686826333333332],[-80.10287930555555,26.68682052777778],[-80.10298022222221,26.686802833333335],[-80.10307375,26.68677511111111],[-80.10315855555555,26.68673927777778],[-80.10323394444444,26.686697333333335],[-80.10330155555555,26.686649805555557],[-80.10336613888889,26.68659302777778],[-80.10342602777777,26.68652638888889],[-80.1034788611111,26.68645013888889],[-80.10352213888888,26.686365055555555],[-80.10355344444444,26.686272555555554],[-80.10357083333332,26.68617477777778],[-80.10357294444444,26.686074277777777],[-80.10355924999999,26.685974027777778],[-80.10353013888889,26.685877],[-80.10348691666665,26.68578588888889],[-80.10343163888888,26.685702944444444],[-80.10336672222222,26.685629777777777],[-80.10329494444444,26.68556727777778],[-80.1032188611111,26.68551563888889],[-80.10314088888889,26.685474583333335],[-80.10306252777777,26.685443166666666],[-80.10297805555555,26.68541886111111],[-80.10288613888888,26.68540252777778],[-80.10278791666666,26.685395916666668],[-80.10268525,26.685400722222223],[-80.10258047222221,26.68541816666667],[-80.10247652777777,26.68544902777778],[-80.10237658333332,26.685493305555557],[-80.10228375,26.685550194444446],[-80.10220088888889,26.685618138888888],[-80.10213022222221,26.685694916666666],[-80.10207319444444,26.685777944444446],[-80.10203038888888,26.685864444444444],[-80.10200155555555,26.685951805555554],[-80.10198575,26.686037722222224],[-80.1019816111111,26.686120333333335],[-80.10198747222222,26.686198277777777]]},"properties":{"style":"solid","thickness":1}}]}
