{"type":"FeatureCollection","features":[{"type":"Feature","geometry":{"type":"LineString","coordinates":[[-80.0966111111111,26.845869444444443],[-80.0966111111111,26.845869444444443],[-80.09644444444444,26.83751388888889]]},"properties":{"style":"solid","thickness":1}},{"type":"Feature","geometry":{"type":"LineString","coordinates":[[-80.0966111111111,26.845869444444443],[-80.0966111111111,26.845869444444443],[-80.10591388888888,26.846327777777777]]},"properties":{"style":"solid","thickness":1}},{"type":"Feature","geometry":{"type":"LineString","coordinates":[[-80.09264166666667,26.644794444444443],[-80.09264166666667,26.644794444444443],[-80.09288611111111,26.657327777777777]]},"properties":{"style":"solid","thickness":1}},{"type":"Feature","geometry":{"type":"LineString","coordinates":[[-80.16705,26.849316666666667],[-80.16705,26.849316666666667],[-80.17253333333333,26.84256111111111]]},"properties":{"style":"solid","thickness":1}},{"type":"Feature","geometry":{"type":"LineString","coordinates":[[-80.16705,26.849316666666667],[-80.16705,26.849316666666667],[-80.17635,26.84981388888889]]},"properties":{"style":"solid","thickness":1}},{"type":"Feature","geometry":{"type":"LineString","coordinates":[[-80.19340833333334,26.81683888888889],[-80.19340833333334,26.81683888888889],[-80.187925,26.823594444444446]]},"properties":{"style":"solid","thickness":1}},{"type":"Feature","geometry":{"type":"LineString","coordinates":[[-80.19340833333334,26.81683888888889],[-80.19340833333334,26.81683888888889],[-80.20260555555556,26.81551388888889]]},"properties":{"style":"solid","thickness":1}},{"type":"Feature","geometry":{"type":"LineString","coordinates":[[-80.29964444444444,26.737955555555555],[-80.29964444444444,26.737955555555555],[-80.29254166666666,26.713708333333333]]},"properties":{"style":"solid","thickness":1}},{"type":"Feature","geometry":{"type":"LineString","coordinates":[[-80.30803611111111,26.76658611111111],[-80.30803611111111,26.76658611111111],[-80.31509166666666,26.772038888888886]]},"properties":{"style":"solid","thickness":1}},{"type":"Feature","geometry":{"type":"LineString","coordinates":[[-80.29082777777778,26.805341666666667],[-80.29082777777778,26.805341666666667],[-80.26302222222222,26.807808333333334]]},"properties":{"style":"solid","thickness":1}},{"type":"Feature","geometry":{"type":"LineString","coordinates":[[-80.35125555555555,26.799972222222223],[-80.35125555555555,26.799972222222223],[-80.34198888888888,26.800797222222222]]},"properties":{"style":"solid","thickness":1}},{"type":"Feature","geometry":{"type":"LineString","coordinates":[[-80.35125555555555,26.799972222222223],[-80.35125555555555,26.799972222222223],[-80.35842222222222,26.805311111111113]]},"properties":{"style":"solid","thickness":1}},{"type":"Feature","geometry":{"type":"LineString","coordinates":[[-80.35125555555555,26.799972222222223],[-80.35125555555555,26.799972222222223],[-80.36056666666666,26.799747222222223]]},"properties":{"style":"solid","thickness":1}},{"type":"Feature","geometry":{"type":"LineString","coordinates":[[-80.35125555555555,26.799972222222223],[-80.35125555555555,26.799972222222223],[-80.34419722222222,26.794522222222223]]},"properties":{"style":"solid","thickness":1}},{"type":"Feature","geometry":{"type":"LineString","coordinates":[[-80.50701666666667,26.796108333333336],[-80.50701666666667,26.796108333333336],[-80.4790888888889,26.79681388888889]]},"properties":{"style":"solid","thickness":1}},{"type":"Feature","geometry":{"type":"LineString","coordinates":[[-80.590125,26.79397777777778],[-80.590125,26.79397777777778],[-80.58081666666666,26.794219444444447]]},"properties":{"style":"solid","thickness":1}},{"type":"Feature","geometry":{"type":"LineString","coordinates":[[-80.590125,26.79397777777778],[-80.590125,26.79397777777778],[-80.58959444444444,26.802322222222223]]},"properties":{"style":"solid","thickness":1}},{"type":"Feature","geometry":{"type":"LineString","coordinates":[[-80.58516666666667,26.87171388888889],[-80.58516666666667,26.87171388888889],[-80.58569999999999,26.863372222222225]]},"properties":{"style":"solid","thickness":1}},{"type":"Feature","geometry":{"type":"LineString","coordinates":[[-80.58516666666667,26.87171388888889],[-80.58516666666667,26.87171388888889],[-80.59446666666666,26.872241666666667]]},"properties":{"style":"solid","thickness":1}},{"type":"Feature","geometry":{"type":"LineString","coordinates":[[-80.58516666666667,26.87171388888889],[-80.58516666666667,26.87171388888889],[-80.57586666666667,26.871205555555555]]},"properties":{"style":"solid","thickness":1}},{"type":"Feature","geometry":{"type":"LineString","coordinates":[[-80.31582777777777,26.857200000000002],[-80.31582777777777,26.857200000000002],[-80.28792222222222,26.855736111111113]]},"properties":{"style":"solid","thickness":1}},{"type":"Feature","geometry":{"type":"LineString","coordinates":[[-80.43657222222222,26.863483333333335],[-80.43657222222222,26.863483333333335],[-80.42726944444445,26.86300277777778]]},"properties":{"style":"solid","thickness":1}},{"type":"Feature","geometry":{"type":"LineString","coordinates":[[-80.43657222222222,26.863483333333335],[-80.43657222222222,26.863483333333335],[-80.42698055555556,26.856350000000003]]},"properties":{"style":"solid","thickness":1}},{"type":"Feature","geometry":{"type":"LineString","coordinates":[[-80.43657222222222,26.863483333333335],[-80.43657222222222,26.863483333333335],[-80.44582777777778,26.864002777777777]]},"properties":{"style":"solid","thickness":1}},{"type":"Feature","geometry":{"type":"LineString","coordinates":[[-80.53086944444445,26.868733333333335],[-80.53086944444445,26.868733333333335],[-80.50296666666667,26.86718611111111]]},"properties":{"style":"solid","thickness":1}},{"type":"Feature","geometry":{"type":"LineString","coordinates":[[-80.79511111111111,26.883466666666667],[-80.79511111111111,26.883466666666667],[-80.78580833333334,26.882952777777778]]},"properties":{"style":"solid","thickness":1}},{"type":"Feature","geometry":{"type":"LineString","coordinates":[[-80.69055833333334,26.87765277777778],[-80.69055833333334,26.87765277777778],[-80.66265277777778,26.876094444444444]]},"properties":{"style":"solid","thickness":1}},{"type":"Feature","geometry":{"type":"LineString","coordinates":[[-80.13051944444443,26.567083333333333],[-80.13051944444443,26.567083333333333],[-80.12679166666666,26.574738888888888]]},"properties":{"style":"solid","thickness":1}},{"type":"Feature","geometry":{"type":"LineString","coordinates":[[-80.13051944444443,26.567083333333333],[-80.13051944444443,26.567083333333333],[-80.13980555555557,26.56744722222222]]},"properties":{"style":"solid","thickness":1}},{"type":"Feature","geometry":{"type":"LineString","coordinates":[[-80.0947861111111,26.753697222222222],[-80.0947861111111,26.753697222222222],[-80.09528333333333,26.77876388888889]]},"properties":{"style":"solid","thickness":1}},{"type":"Feature","geometry":{"type":"LineString","coordinates":[[-80.09264166666667,26.644794444444443],[-80.09264166666667,26.644794444444443],[-80.09824166666667,26.633311111111112]]},"properties":{"style":"solid","thickness":1}},{"type":"Feature","geometry":{"type":"LineString","coordinates":[[-80.590125,26.79397777777778],[-80.590125,26.79397777777778],[-80.58839444444445,26.785766666666667]]},"properties":{"style":"solid","thickness":1}},{"type":"Feature","geometry":{"type":"LineString","coordinates":[[-80.56828055555555,26.716675],[-80.56828055555555,26.716675],[-80.57349166666667,26.732722222222222]]},"properties":{"style":"solid","thickness":1}},{"type":"Feature","geometry":{"type":"LineString","coordinates":[[-80.54287222222221,26.654586111111108],[-80.54287222222221,26.654586111111108],[-80.54625,26.66237222222222]]},"properties":{"style":"solid","thickness":1}},{"type":"Feature","geometry":{"type":"LineString","coordinates":[[-80.54287222222221,26.654586111111108],[-80.54287222222221,26.654586111111108],[-80.53735,26.647861111111112]]},"properties":{"style":"solid","thickness":1}},{"type":"Feature","geometry":{"type":"LineString","coordinates":[[-80.4839361111111,26.582763888888888],[-80.4839361111111,26.582763888888888],[-80.48945,26.589491666666664]]},"properties":{"style":"solid","thickness":1}},{"type":"Feature","geometry":{"type":"LineString","coordinates":[[-80.10321366666666,26.685551750000002],[-80.10321366666666,26.6866705]]},"properties":{"style":"solid","thickness":1}},{"type":"Feature","geometry":{"type":"LineString","coordinates":[[-80.10290233333333,26.68543986111111],[-80.10290230555555,26.68678236111111]]},"properties":{"style":"solid","thickness":1}},{"type":"Feature","geometry":{"type":"LineString","coordinates":[[-80.10259097222222,26.68543986111111],[-80.10259094444444,26.68678236111111]]},"properties":{"style":"solid","thickness":1}},{"type":"Feature","geometry":{"type":"LineString","coordinates":[[-80.1022796111111,26.685551722222222],[-80.10227958333333,26.68667047222222]]},"properties":{"style":"solid","thickness":1}},{"type":"Feature","geometry":{"type":"LineString","coordinates":[[-80.10196825,26.68611111111111],[-80.10197308333333,26.686190416666665],[-80.10198863888888,26.686273305555556],[-80.10201644444444,26.68635825],[-80.10205758333333,26.686443194444443],[-80.10211272222222,26.68652572222222],[-80.10218172222221,26.686603166666668],[-80.1022636111111,26.68667277777778],[-80.10235658333333,26.68673213888889],[-80.1024581111111,26.686779194444444],[-80.1025651111111,26.68681275],[-80.10267424999999,26.686832333333335],[-80.10278236111111,26.686838277777778],[-80.10288666666666,26.686831694444443],[-80.10298486111111,26.68681411111111],[-80.10307536111111,26.686787388888888],[-80.10315725,26.686753444444445],[-80.10323199999999,26.686713027777778],[-80.10330502777778,26.686662916666666],[-80.10337466666667,26.68660236111111],[-80.1034385,26.686531277777778],[-80.10349388888888,26.686450222222224],[-80.10353825,26.68636038888889],[-80.10356930555555,26.68626363888889],[-80.10358527777777,26.68616247222222],[-80.10358527777777,26.68605977777778],[-80.10356930555555,26.68595861111111],[-80.10353825,26.68586186111111],[-80.10349388888888,26.685772],[-80.1034385,26.685690944444445],[-80.10337466666667,26.68561988888889],[-80.10330502777778,26.685559305555557],[-80.10323202777778,26.685509194444446],[-80.10315725,26.68546877777778],[-80.10307538888888,26.685434861111112],[-80.10298486111111,26.685408111111112],[-80.10288666666666,26.685390527777777],[-80.10278238888888,26.685383944444446],[-80.10267427777777,26.68538988888889],[-80.1025651111111,26.685409472222222],[-80.10245813888888,26.685443],[-80.1023566111111,26.685490083333335],[-80.10226363888889,26.685549416666667],[-80.10218172222221,26.685619055555556],[-80.10211274999999,26.685696472222222],[-80.1020576111111,26.685779],[-80.10201644444444,26.685863944444446],[-80.10198863888888,26.685948888888888],[-80.10197308333333,26.686031777777778],[-80.10196825,26.68611111111111]]},"properties":{"style":"solid","thickness":1}}]}
