{"type":"FeatureCollection","features":[{"type":"Feature","geometry":{"type":"Point","coordinates":[-120.608056,36.736111]},"properties":{"isLineDefaults":true,"bcg":29,"filters":[29,39],"style":"Solid","thickness":1}},{"type":"Feature","geometry":{"type":"Point","coordinates":[-120.608056,36.736111]},"properties":{"isTextDefaults":true,"bcg":29,"filters":[29,39],"size":0,"underline":false,"opaque":false,"xOffset":2,"yOffset":3}},{"type":"Feature","geometry":{"type":"LineString","coordinates":[[-80.35914944444444,26.394736138888888],[-80.35400647222221,26.378674916666668]]},"properties":{"style":"solid","thickness":1}},{"type":"Feature","geometry":{"type":"LineString","coordinates":[[-80.36549394444444,26.384389249999998],[-80.34766125,26.389021305555556]]},"properties":{"style":"solid","thickness":1}},{"type":"Feature","geometry":{"type":"LineString","coordinates":[[-79.83695794444444,26.900526083333332],[-79.82581477777778,26.88712675]]},"properties":{"style":"solid","thickness":1}},{"type":"Feature","geometry":{"type":"LineString","coordinates":[[-79.8337213611111,26.88574747222222],[-79.82909344444444,26.90193847222222]]},"properties":{"style":"solid","thickness":1}},{"type":"Feature","geometry":{"type":"LineString","coordinates":[[-80.72448055555556,26.40160058333333],[-80.73361725,26.416151]]},"properties":{"style":"solid","thickness":1}},{"type":"Feature","geometry":{"type":"LineString","coordinates":[[-80.7205613888889,26.412421694444443],[-80.73734530555555,26.40528147222222]]},"properties":{"style":"solid","thickness":1}},{"type":"Feature","geometry":{"type":"LineString","coordinates":[[-79.57573055555555,26.915052777777777],[-79.55090555555556,26.926597222222224]]},"properties":{"style":"solid","thickness":1}},{"type":"Feature","geometry":{"type":"LineString","coordinates":[[-79.48735555555555,26.95611111111111],[-79.47493333333334,26.961875]]},"properties":{"style":"solid","thickness":1}},{"type":"Feature","geometry":{"type":"LineString","coordinates":[[-79.47493333333334,26.961875],[-79.46538333333334,26.952716666666667]]},"properties":{"style":"solid","thickness":1}},{"type":"Feature","geometry":{"type":"LineString","coordinates":[[-79.43584722222222,26.924377777777778],[-79.41675555555555,26.90605833333333]]},"properties":{"style":"solid","thickness":1}},{"type":"Feature","geometry":{"type":"LineString","coordinates":[[-80.25060552777778,26.39153286111111],[-80.25060555555555,26.383492416666666]]},"properties":{"style":"solid","thickness":1}},{"type":"Feature","geometry":{"type":"LineString","coordinates":[[-80.79511111111111,26.883466666666667],[-80.79511111111111,26.883466666666667],[-80.76916388888888,26.815772222222222]]},"properties":{"style":"solid","thickness":1}},{"type":"Feature","geometry":{"type":"LineString","coordinates":[[-80.83451944444444,26.963663888888888],[-80.74851111111111,27.094802777777776]]},"properties":{"style":"solid","thickness":1}},{"type":"Feature","geometry":{"type":"LineString","coordinates":[[-80.54171111111111,27.116905555555554],[-80.54171111111111,27.116905555555554],[-80.53243888888889,27.117905555555556]]},"properties":{"style":"solid","thickness":1}},{"type":"Feature","geometry":{"type":"LineString","coordinates":[[-80.66971944444445,27.103244444444446],[-80.66971944444445,27.103244444444446],[-80.66045000000001,27.104244444444447]]},"properties":{"style":"solid","thickness":1}},{"type":"Feature","geometry":{"type":"LineString","coordinates":[[-80.44911666666667,27.126558333333335],[-80.44911666666667,27.126558333333335],[-80.43984444444445,27.127558333333333]]},"properties":{"style":"solid","thickness":1}},{"type":"Feature","geometry":{"type":"LineString","coordinates":[[-80.74851111111111,27.094802777777776],[-80.72069444444445,27.09776944444444]]},"properties":{"style":"solid","thickness":1}},{"type":"Feature","geometry":{"type":"LineString","coordinates":[[-80.6136611111111,27.10927777777778],[-80.6136611111111,27.10927777777778],[-80.57657499999999,27.113275]]},"properties":{"style":"solid","thickness":1}},{"type":"Feature","geometry":{"type":"LineString","coordinates":[[-80.38875,27.13290277777778],[-80.37019166666666,27.13481388888889]]},"properties":{"style":"solid","thickness":1}},{"type":"Feature","geometry":{"type":"LineString","coordinates":[[-80.38875,27.13290277777778],[-80.40730277777779,27.130955555555555]]},"properties":{"style":"solid","thickness":1}},{"type":"Feature","geometry":{"type":"LineString","coordinates":[[-80.6125,26.383333333333333],[-80.65570000000001,26.513786111111113]]},"properties":{"style":"solid","thickness":1}},{"type":"Feature","geometry":{"type":"LineString","coordinates":[[-80.65570000000001,26.513786111111113],[-80.66580277777778,26.544333333333334]]},"properties":{"style":"solid","thickness":1}},{"type":"Feature","geometry":{"type":"LineString","coordinates":[[-80.66580277777778,26.544333333333334],[-80.68310000000001,26.590633333333333]]},"properties":{"style":"solid","thickness":1}},{"type":"Feature","geometry":{"type":"LineString","coordinates":[[-80.68310000000001,26.590633333333333],[-80.75516944444445,26.779230555555554]]},"properties":{"style":"solid","thickness":1}},{"type":"Feature","geometry":{"type":"LineString","coordinates":[[-80.20598333333334,26.66113611111111],[-80.20598333333334,26.66113611111111],[-80.20386666666667,26.653]]},"properties":{"style":"solid","thickness":1}},{"type":"Feature","geometry":{"type":"LineString","coordinates":[[-80.38875,27.13290277777778],[-80.38565000000001,27.125019444444444]]},"properties":{"style":"solid","thickness":1}},{"type":"Feature","geometry":{"type":"LineString","coordinates":[[-80.37438333333333,27.09669722222222],[-80.37438333333333,27.09669722222222],[-80.3712861111111,27.088813888888886]]},"properties":{"style":"solid","thickness":1}},{"type":"Feature","geometry":{"type":"LineString","coordinates":[[-80.35441944444445,27.046344444444447],[-80.35441944444445,27.046344444444447],[-80.34203333333333,27.01481111111111]]},"properties":{"style":"solid","thickness":1}},{"type":"Feature","geometry":{"type":"LineString","coordinates":[[-80.33163055555555,26.988808333333335],[-80.33163055555555,26.988808333333335],[-80.32853333333333,26.980925]]},"properties":{"style":"solid","thickness":1}},{"type":"Feature","geometry":{"type":"LineString","coordinates":[[-80.32349722222222,26.96825833333333],[-80.32349722222222,26.96825833333333],[-80.32039999999999,26.960375]]},"properties":{"style":"solid","thickness":1}},{"type":"Feature","geometry":{"type":"LineString","coordinates":[[-80.19961944444445,26.636725],[-80.19961944444445,26.636725],[-80.19749722222222,26.62858888888889]]},"properties":{"style":"solid","thickness":1}},{"type":"Feature","geometry":{"type":"LineString","coordinates":[[-80.16991944444445,26.500469444444445],[-80.16991944444445,26.500469444444445],[-80.16847222222222,26.49221388888889]]},"properties":{"style":"solid","thickness":1}},{"type":"Feature","geometry":{"type":"LineString","coordinates":[[-80.17324722222223,26.51940833333333],[-80.17324722222223,26.51940833333333],[-80.17179722222222,26.511152777777777]]},"properties":{"style":"solid","thickness":1}},{"type":"Feature","geometry":{"type":"LineString","coordinates":[[-80.18071111111112,26.38337222222222],[-80.20063055555556,26.411583333333333]]},"properties":{"style":"solid","thickness":1}},{"type":"Feature","geometry":{"type":"LineString","coordinates":[[-80.27279444444444,26.5139],[-80.26285277777778,26.499702777777777]]},"properties":{"style":"solid","thickness":1}},{"type":"Feature","geometry":{"type":"LineString","coordinates":[[-80.23206944444445,26.456080555555555],[-80.23206944444445,26.456080555555555],[-80.22708333333334,26.44902777777778]]},"properties":{"style":"solid","thickness":1}},{"type":"Feature","geometry":{"type":"LineString","coordinates":[[-80.27279444444444,26.5139],[-80.29132222222222,26.513902777777776]]},"properties":{"style":"solid","thickness":1}},{"type":"Feature","geometry":{"type":"LineString","coordinates":[[-80.32897222222222,26.5139],[-80.32938055555555,26.52225]]},"properties":{"style":"solid","thickness":1}},{"type":"Feature","geometry":{"type":"LineString","coordinates":[[-80.32897222222222,26.5139],[-80.32856388888888,26.50555]]},"properties":{"style":"solid","thickness":1}},{"type":"Feature","geometry":{"type":"LineString","coordinates":[[-80.32897222222222,26.5139],[-80.31968333333333,26.513897222222223]]},"properties":{"style":"solid","thickness":1}},{"type":"Feature","geometry":{"type":"LineString","coordinates":[[-80.32897222222222,26.5139],[-80.33826111111111,26.513908333333333]]},"properties":{"style":"solid","thickness":1}},{"type":"Feature","geometry":{"type":"LineString","coordinates":[[-80.46377222222222,26.513972222222222],[-80.46377222222222,26.513972222222222],[-80.45448055555556,26.513972222222222]]},"properties":{"style":"solid","thickness":1}},{"type":"Feature","geometry":{"type":"LineString","coordinates":[[-80.536975,26.51391388888889],[-80.536975,26.51391388888889],[-80.49981666666666,26.513933333333334]]},"properties":{"style":"solid","thickness":1}},{"type":"Feature","geometry":{"type":"LineString","coordinates":[[-80.58249722222222,26.513875],[-80.58249722222222,26.513875],[-80.57320555555555,26.513883333333332]]},"properties":{"style":"solid","thickness":1}},{"type":"Feature","geometry":{"type":"LineString","coordinates":[[-80.65570000000001,26.513786111111113],[-80.61854166666666,26.51383611111111]]},"properties":{"style":"solid","thickness":1}},{"type":"Feature","geometry":{"type":"LineString","coordinates":[[-80.3226111111111,26.383580555555554],[-80.32423888888889,26.416980555555558]]},"properties":{"style":"solid","thickness":1}},{"type":"Feature","geometry":{"type":"LineString","coordinates":[[-80.32625277777777,26.458225],[-80.32625277777777,26.458225],[-80.32585,26.449963888888888]]},"properties":{"style":"solid","thickness":1}},{"type":"Feature","geometry":{"type":"LineString","coordinates":[[-80.22440555555556,27.14974722222222],[-80.21513888888889,27.150805555555554]]},"properties":{"style":"solid","thickness":1}},{"type":"Feature","geometry":{"type":"LineString","coordinates":[[-80.22440555555556,27.14974722222222],[-80.22178333333333,27.141725]]},"properties":{"style":"solid","thickness":1}},{"type":"Feature","geometry":{"type":"LineString","coordinates":[[-80.22440555555556,27.14974722222222],[-80.23368888888889,27.148799999999998]]},"properties":{"style":"solid","thickness":1}},{"type":"Feature","geometry":{"type":"LineString","coordinates":[[-80.22440555555556,27.14974722222222],[-80.22543888888889,27.158052777777776]]},"properties":{"style":"solid","thickness":1}},{"type":"Feature","geometry":{"type":"LineString","coordinates":[[-80.23680555555556,27.24935],[-80.23680555555556,27.24935],[-80.23370277777778,27.22443333333333]]},"properties":{"style":"solid","thickness":1}},{"type":"Feature","geometry":{"type":"LineString","coordinates":[[-79.91956388888889,27.302336111111114],[-79.93826944444444,27.30266388888889]]},"properties":{"style":"solid","thickness":1}},{"type":"Feature","geometry":{"type":"LineString","coordinates":[[-80.24406666666667,27.307580555555557],[-80.24303055555556,27.299275]]},"properties":{"style":"solid","thickness":1}},{"type":"Feature","geometry":{"type":"LineString","coordinates":[[-80.24406666666667,27.307580555555557],[-80.23471388888889,27.307441666666666]]},"properties":{"style":"solid","thickness":1}},{"type":"Feature","geometry":{"type":"LineString","coordinates":[[-79.91956388888889,27.302336111111114],[-79.91466111111112,27.3184]]},"properties":{"style":"solid","thickness":1}},{"type":"Feature","geometry":{"type":"LineString","coordinates":[[-79.91956388888889,27.302336111111114],[-79.91574722222222,27.285975]]},"properties":{"style":"solid","thickness":1}},{"type":"Feature","geometry":{"type":"LineString","coordinates":[[-79.89275,27.18725],[-79.89655833333335,27.20361388888889]]},"properties":{"style":"solid","thickness":1}},{"type":"Feature","geometry":{"type":"LineString","coordinates":[[-79.89275,27.18725],[-79.88396666666668,27.172497222222223]]},"properties":{"style":"solid","thickness":1}},{"type":"Feature","geometry":{"type":"LineString","coordinates":[[-80.1326611111111,27.305891666666668],[-80.1326611111111,27.305891666666668],[-80.02042222222222,27.304069444444444]]},"properties":{"style":"solid","thickness":1}},{"type":"Feature","geometry":{"type":"LineString","coordinates":[[-79.78635277777778,27.003583333333335],[-79.539,26.89948611111111]]},"properties":{"style":"solid","thickness":1}},{"type":"Feature","geometry":{"type":"LineString","coordinates":[[-79.38194444444444,26.833055555555557],[-79.39807777777779,26.805222222222223]]},"properties":{"style":"solid","thickness":1}},{"type":"Feature","geometry":{"type":"LineString","coordinates":[[-79.44928611111112,26.717488888888887],[-79.51966388888889,26.596552777777777]]},"properties":{"style":"solid","thickness":1}},{"type":"Feature","geometry":{"type":"LineString","coordinates":[[-79.51966388888889,26.596552777777777],[-79.60602777777777,26.43309166666667]]},"properties":{"style":"solid","thickness":1}},{"type":"Feature","geometry":{"type":"LineString","coordinates":[[-79.60602777777777,26.43309166666667],[-79.61403055555554,26.428858333333334]]},"properties":{"style":"solid","thickness":1}},{"type":"Feature","geometry":{"type":"LineString","coordinates":[[-79.7,26.383333333333333],[-79.86566944444444,26.383444444444443]]},"properties":{"style":"solid","thickness":1}},{"type":"Feature","geometry":{"type":"LineString","coordinates":[[-79.86566944444444,26.383444444444443],[-79.97044166666667,26.383541666666666]]},"properties":{"style":"solid","thickness":1}},{"type":"Feature","geometry":{"type":"LineString","coordinates":[[-79.97044166666667,26.383541666666666],[-80.05221388888889,26.38353888888889]]},"properties":{"style":"solid","thickness":1}},{"type":"Feature","geometry":{"type":"LineString","coordinates":[[-79.48092777777778,26.87495277777778],[-79.48092777777778,26.87495277777778],[-79.38194444444444,26.833055555555557]]},"properties":{"style":"solid","thickness":1}},{"type":"Feature","geometry":{"type":"LineString","coordinates":[[-79.42146944444445,26.765133333333335],[-79.42146944444445,26.765133333333335],[-79.44928611111112,26.717488888888887]]},"properties":{"style":"solid","thickness":1}},{"type":"Feature","geometry":{"type":"LineString","coordinates":[[-79.64571944444445,26.41208888888889],[-79.64571944444445,26.41208888888889],[-79.7,26.383333333333333]]},"properties":{"style":"solid","thickness":1}},{"type":"Feature","geometry":{"type":"LineString","coordinates":[[-80.05221388888889,26.38353888888889],[-80.05036388888888,26.373275]]},"properties":{"style":"solid","thickness":1}},{"type":"Feature","geometry":{"type":"LineString","coordinates":[[-80.05036388888888,26.373275],[-80.05195555555555,26.35905]]},"properties":{"style":"solid","thickness":1}},{"type":"Feature","geometry":{"type":"LineString","coordinates":[[-80.05195555555555,26.35905],[-80.05996388888889,26.342719444444445]]},"properties":{"style":"solid","thickness":1}},{"type":"Feature","geometry":{"type":"LineString","coordinates":[[-80.05996388888889,26.342719444444445],[-80.07291666666666,26.33036388888889]]},"properties":{"style":"solid","thickness":1}},{"type":"Feature","geometry":{"type":"LineString","coordinates":[[-80.07291666666666,26.33036388888889],[-80.08497777777777,26.324047222222223]]},"properties":{"style":"solid","thickness":1}},{"type":"Feature","geometry":{"type":"LineString","coordinates":[[-80.08497777777777,26.324047222222223],[-80.09886388888889,26.320466666666665]]},"properties":{"style":"solid","thickness":1}},{"type":"Feature","geometry":{"type":"LineString","coordinates":[[-80.09886388888889,26.320466666666665],[-80.10634166666667,26.319869444444443]]},"properties":{"style":"solid","thickness":1}},{"type":"Feature","geometry":{"type":"LineString","coordinates":[[-80.10634166666667,26.319869444444443],[-80.12315,26.321769444444445]]},"properties":{"style":"solid","thickness":1}},{"type":"Feature","geometry":{"type":"LineString","coordinates":[[-80.12315,26.321769444444445],[-80.13775833333334,26.32751111111111]]},"properties":{"style":"solid","thickness":1}},{"type":"Feature","geometry":{"type":"LineString","coordinates":[[-80.13775833333334,26.32751111111111],[-80.15136111111111,26.337983333333334]]},"properties":{"style":"solid","thickness":1}},{"type":"Feature","geometry":{"type":"LineString","coordinates":[[-80.15136111111111,26.337983333333334],[-80.15989444444445,26.350066666666667]]},"properties":{"style":"solid","thickness":1}},{"type":"Feature","geometry":{"type":"LineString","coordinates":[[-80.15989444444445,26.350066666666667],[-80.16438333333333,26.36378888888889]]},"properties":{"style":"solid","thickness":1}},{"type":"Feature","geometry":{"type":"LineString","coordinates":[[-80.16438333333333,26.36378888888889],[-80.16388888888889,26.383333333333333]]},"properties":{"style":"solid","thickness":1}},{"type":"Feature","geometry":{"type":"LineString","coordinates":[[-80.16388888888889,26.383333333333333],[-80.18071111111112,26.38337222222222]]},"properties":{"style":"solid","thickness":1}},{"type":"Feature","geometry":{"type":"LineString","coordinates":[[-80.18071111111112,26.38337222222222],[-80.3226111111111,26.383580555555554]]},"properties":{"style":"solid","thickness":1}},{"type":"Feature","geometry":{"type":"LineString","coordinates":[[-79.63941666666668,26.941827777777778],[-79.6618388888889,26.915113888888886]]},"properties":{"style":"solid","thickness":1}},{"type":"Feature","geometry":{"type":"LineString","coordinates":[[-79.70900277777778,26.858869444444444],[-79.70340555555556,26.865550000000002]]},"properties":{"style":"solid","thickness":1}},{"type":"Feature","geometry":{"type":"LineString","coordinates":[[-79.70900277777778,26.858869444444444],[-79.71241111111111,26.85109166666667]]},"properties":{"style":"solid","thickness":1}},{"type":"Feature","geometry":{"type":"LineString","coordinates":[[-79.70900277777778,26.858869444444444],[-79.72510555555556,26.889016666666667]]},"properties":{"style":"solid","thickness":1}},{"type":"Feature","geometry":{"type":"LineString","coordinates":[[-79.74968333333334,26.934997222222222],[-79.74968333333334,26.934997222222222],[-79.74565555555556,26.92746111111111]]},"properties":{"style":"solid","thickness":1}},{"type":"Feature","geometry":{"type":"LineString","coordinates":[[-79.746025,26.775108333333332],[-79.74256111111112,26.782866666666667]]},"properties":{"style":"solid","thickness":1}},{"type":"Feature","geometry":{"type":"LineString","coordinates":[[-79.746025,26.775108333333332],[-79.7536361111111,26.770291666666665]]},"properties":{"style":"solid","thickness":1}},{"type":"Feature","geometry":{"type":"LineString","coordinates":[[-79.82964722222222,26.722155555555553],[-79.82034166666666,26.722052777777776]]},"properties":{"style":"solid","thickness":1}},{"type":"Feature","geometry":{"type":"LineString","coordinates":[[-79.82964722222222,26.722155555555553],[-79.82204444444444,26.726975]]},"properties":{"style":"solid","thickness":1}},{"type":"Feature","geometry":{"type":"LineString","coordinates":[[-79.82964722222222,26.722155555555553],[-79.83531111111111,26.715525]]},"properties":{"style":"solid","thickness":1}},{"type":"Feature","geometry":{"type":"LineString","coordinates":[[-79.84130833333333,26.704169444444442],[-79.84130833333333,26.704169444444442],[-79.84397777777777,26.69616388888889]]},"properties":{"style":"solid","thickness":1}},{"type":"Feature","geometry":{"type":"LineString","coordinates":[[-79.79611944444444,26.7434],[-79.79611944444444,26.7434],[-79.7885111111111,26.748216666666668]]},"properties":{"style":"solid","thickness":1}},{"type":"Feature","geometry":{"type":"LineString","coordinates":[[-79.78569722222223,26.721669444444444],[-79.78569722222223,26.721669444444444],[-79.74847222222222,26.721244444444444]]},"properties":{"style":"solid","thickness":1}},{"type":"Feature","geometry":{"type":"LineString","coordinates":[[-79.69548888888889,26.720627777777775],[-79.69548888888889,26.720627777777775],[-79.68618333333333,26.720516666666665]]},"properties":{"style":"solid","thickness":1}},{"type":"Feature","geometry":{"type":"LineString","coordinates":[[-79.63731944444446,26.719925],[-79.63731944444446,26.719925],[-79.60292777777777,26.71949722222222]]},"properties":{"style":"solid","thickness":1}},{"type":"Feature","geometry":{"type":"LineString","coordinates":[[-79.55735555555555,26.718919444444442],[-79.55735555555555,26.718919444444442],[-79.54718333333334,26.718788888888888]]},"properties":{"style":"solid","thickness":1}},{"type":"Feature","geometry":{"type":"LineString","coordinates":[[-79.44928611111112,26.717488888888887],[-79.48615833333334,26.71798611111111]]},"properties":{"style":"solid","thickness":1}},{"type":"Feature","geometry":{"type":"LineString","coordinates":[[-79.87908888888889,26.592666666666666],[-79.86979444444444,26.592777777777776]]},"properties":{"style":"solid","thickness":1}},{"type":"Feature","geometry":{"type":"LineString","coordinates":[[-79.87908888888889,26.592666666666666],[-79.88244999999999,26.584875]]},"properties":{"style":"solid","thickness":1}},{"type":"Feature","geometry":{"type":"LineString","coordinates":[[-79.81923333333333,26.593377777777775],[-79.81923333333333,26.593377777777775],[-79.78245833333334,26.593799999999998]]},"properties":{"style":"solid","thickness":1}},{"type":"Feature","geometry":{"type":"LineString","coordinates":[[-79.71451666666667,26.59455833333333],[-79.71451666666667,26.59455833333333],[-79.70261944444445,26.59468888888889]]},"properties":{"style":"solid","thickness":1}},{"type":"Feature","geometry":{"type":"LineString","coordinates":[[-79.64903333333334,26.595258333333334],[-79.64903333333334,26.595258333333334],[-79.61075833333332,26.595652777777776]]},"properties":{"style":"solid","thickness":1}},{"type":"Feature","geometry":{"type":"LineString","coordinates":[[-79.51966388888889,26.596552777777777],[-79.55685,26.596191666666666]]},"properties":{"style":"solid","thickness":1}},{"type":"Feature","geometry":{"type":"LineString","coordinates":[[-79.72794166666667,26.815644444444445],[-79.72794166666667,26.815644444444445],[-79.72450277777779,26.82341111111111]]},"properties":{"style":"solid","thickness":1}},{"type":"Feature","geometry":{"type":"LineString","coordinates":[[-80.67194444444445,26.383333333333333],[-80.65802500000001,26.38333611111111]]},"properties":{"style":"solid","thickness":1}},{"type":"Feature","geometry":{"type":"LineString","coordinates":[[-80.67194444444445,26.383333333333333],[-80.69135555555556,26.365361111111113]]},"properties":{"style":"solid","thickness":1}},{"type":"Feature","geometry":{"type":"LineString","coordinates":[[-80.6125,26.383333333333333],[-80.62641944444444,26.38333611111111]]},"properties":{"style":"solid","thickness":1}},{"type":"Feature","geometry":{"type":"LineString","coordinates":[[-80.70529444444445,26.383322222222223],[-80.68673611111112,26.38332777777778]]},"properties":{"style":"solid","thickness":1}},{"type":"Feature","geometry":{"type":"LineString","coordinates":[[-80.70529444444445,26.383322222222223],[-80.71035,26.399405555555553]]},"properties":{"style":"solid","thickness":1}},{"type":"Feature","geometry":{"type":"LineString","coordinates":[[-80.72524722222222,26.33396388888889],[-80.72524722222222,26.33396388888889],[-80.73171388888889,26.327972222222222]]},"properties":{"style":"solid","thickness":1}},{"type":"Feature","geometry":{"type":"LineString","coordinates":[[-80.76033055555556,26.30142222222222],[-80.76033055555556,26.30142222222222],[-80.78615833333333,26.277427777777778]]},"properties":{"style":"solid","thickness":1}},{"type":"Feature","geometry":{"type":"LineString","coordinates":[[-79.7,26.383333333333333],[-79.66881388888889,26.36520555555556]]},"properties":{"style":"solid","thickness":1}},{"type":"Feature","geometry":{"type":"LineString","coordinates":[[-79.64839444444445,26.35333055555556],[-79.64839444444445,26.35333055555556],[-79.64060277777779,26.34879722222222]]},"properties":{"style":"solid","thickness":1}},{"type":"Feature","geometry":{"type":"LineString","coordinates":[[-79.62675555555555,26.340741666666666],[-79.62675555555555,26.340741666666666],[-79.59559166666666,26.3226]]},"properties":{"style":"solid","thickness":1}},{"type":"Feature","geometry":{"type":"LineString","coordinates":[[-79.69152222222223,26.365719444444444],[-79.69152222222223,26.365719444444444],[-79.68783333333333,26.358050000000002]]},"properties":{"style":"solid","thickness":1}},{"type":"Feature","geometry":{"type":"LineString","coordinates":[[-79.67571111111111,26.33284722222222],[-79.67571111111111,26.33284722222222],[-79.67202222222222,26.32517777777778]]},"properties":{"style":"solid","thickness":1}},{"type":"Feature","geometry":{"type":"LineString","coordinates":[[-79.89085277777778,26.565372222222223],[-79.89085277777778,26.565372222222223],[-79.89422777777779,26.557583333333334]]},"properties":{"style":"solid","thickness":1}},{"type":"Feature","geometry":{"type":"LineString","coordinates":[[-79.91853333333334,26.50201388888889],[-79.91853333333334,26.50201388888889],[-79.93285,26.469319444444444]]},"properties":{"style":"solid","thickness":1}},{"type":"Feature","geometry":{"type":"LineString","coordinates":[[-79.95244166666667,26.424555555555557],[-79.9490388888889,26.432333333333336]]},"properties":{"style":"solid","thickness":1}},{"type":"Feature","geometry":{"type":"LineString","coordinates":[[-79.95244166666667,26.424555555555557],[-79.94321388888889,26.424580555555558]]},"properties":{"style":"solid","thickness":1}},{"type":"Feature","geometry":{"type":"LineString","coordinates":[[-79.95244166666667,26.424555555555557],[-79.95587777777779,26.416730555555556]]},"properties":{"style":"solid","thickness":1}},{"type":"Feature","geometry":{"type":"LineString","coordinates":[[-79.90798333333333,26.424672222222224],[-79.90798333333333,26.424672222222224],[-79.89870277777779,26.424694444444444]]},"properties":{"style":"solid","thickness":1}},{"type":"Feature","geometry":{"type":"LineString","coordinates":[[-79.84731111111111,26.424805555555558],[-79.85659444444444,26.42478611111111]]},"properties":{"style":"solid","thickness":1}},{"type":"Feature","geometry":{"type":"LineString","coordinates":[[-79.84731111111111,26.424805555555558],[-79.85075555555555,26.417044444444446]]},"properties":{"style":"solid","thickness":1}},{"type":"Feature","geometry":{"type":"LineString","coordinates":[[-79.86566944444444,26.383444444444443],[-79.862225,26.391205555555555]]},"properties":{"style":"solid","thickness":1}},{"type":"Feature","geometry":{"type":"LineString","coordinates":[[-79.97044166666667,26.383541666666666],[-79.96703055555555,26.391313888888888]]},"properties":{"style":"solid","thickness":1}},{"type":"Feature","geometry":{"type":"LineString","coordinates":[[-79.38194444444444,26.833055555555557],[-79.3709111111111,26.87001111111111]]},"properties":{"style":"solid","thickness":1}},{"type":"Feature","geometry":{"type":"LineString","coordinates":[[-79.3570111111111,26.91623611111111],[-79.3570111111111,26.91623611111111],[-79.35462222222222,26.92431388888889]]},"properties":{"style":"solid","thickness":1}},{"type":"Feature","geometry":{"type":"LineString","coordinates":[[-79.349775,26.940505555555557],[-79.349775,26.940505555555557],[-79.34740555555555,26.948508333333333]]},"properties":{"style":"solid","thickness":1}},{"type":"Feature","geometry":{"type":"LineString","coordinates":[[-79.90684444444445,27.34397222222222],[-79.90684444444445,27.34397222222222],[-79.90438055555556,27.352033333333335]]},"properties":{"style":"solid","thickness":1}},{"type":"Feature","geometry":{"type":"LineString","coordinates":[[-79.89860833333334,27.370922222222223],[-79.89860833333334,27.370922222222223],[-79.89614444444445,27.37898611111111]]},"properties":{"style":"solid","thickness":1}},{"type":"Feature","geometry":{"type":"LineString","coordinates":[[-80.83451944444444,26.963663888888888],[-80.84784722222221,26.99488611111111]]},"properties":{"style":"solid","thickness":1}},{"type":"Feature","geometry":{"type":"LineString","coordinates":[[-80.86125,27.02608611111111],[-80.86125,27.02608611111111],[-80.86458611111111,27.03389166666667]]},"properties":{"style":"solid","thickness":1}},{"type":"Feature","geometry":{"type":"LineString","coordinates":[[-80.87128888888888,27.04948888888889],[-80.87128888888888,27.04948888888889],[-80.874625,27.057294444444445]]},"properties":{"style":"solid","thickness":1}},{"type":"Feature","geometry":{"type":"LineString","coordinates":[[-80.74851111111111,27.094802777777776],[-80.7516,27.128116666666667]]},"properties":{"style":"solid","thickness":1}},{"type":"Feature","geometry":{"type":"LineString","coordinates":[[-80.75733333333334,27.189922222222222],[-80.75733333333334,27.189922222222222],[-80.75810555555556,27.19825]]},"properties":{"style":"solid","thickness":1}},{"type":"Feature","geometry":{"type":"LineString","coordinates":[[-80.75967222222222,27.215125],[-80.75967222222222,27.215125],[-80.76044722222223,27.223452777777776]]},"properties":{"style":"solid","thickness":1}},{"type":"Feature","geometry":{"type":"LineString","coordinates":[[-80.4008388888889,27.16149722222222],[-80.4008388888889,27.16149722222222],[-80.40414444444446,27.169311111111114]]},"properties":{"style":"solid","thickness":1}},{"type":"Feature","geometry":{"type":"LineString","coordinates":[[-80.41059722222222,27.18456388888889],[-80.41059722222222,27.18456388888889],[-80.41390555555556,27.192380555555555]]},"properties":{"style":"solid","thickness":1}},{"type":"Feature","geometry":{"type":"LineString","coordinates":[[-79.85204999999999,26.67194166666667],[-79.85204999999999,26.67194166666667],[-79.84937777777778,26.679958333333335]]},"properties":{"style":"solid","thickness":1}},{"type":"Feature","geometry":{"type":"LineString","coordinates":[[-79.87336388888889,26.672752777777777],[-79.87336388888889,26.672752777777777],[-79.85478333333333,26.67191111111111]]},"properties":{"style":"solid","thickness":1}},{"type":"Feature","geometry":{"type":"LineString","coordinates":[[-80.05919444444444,26.681044444444446],[-80.05919444444444,26.681044444444446],[-80.04060833333334,26.68022777777778]]},"properties":{"style":"solid","thickness":1}},{"type":"Feature","geometry":{"type":"LineString","coordinates":[[-79.94769166666667,26.6761],[-79.94769166666667,26.6761],[-79.92911111111111,26.67526666666667]]},"properties":{"style":"solid","thickness":1}},{"type":"Feature","geometry":{"type":"LineString","coordinates":[[-80.07704722222222,27.16652222222222],[-80.07704722222222,27.16652222222222],[-80.03996666666667,27.17071388888889]]},"properties":{"style":"solid","thickness":1}},{"type":"Feature","geometry":{"type":"LineString","coordinates":[[-80.332,26.5759],[-80.33155833333333,26.566866666666666]]},"properties":{"style":"solid","thickness":1}},{"type":"Feature","geometry":{"type":"LineString","coordinates":[[-80.29765277777777,26.574355555555556],[-80.29765277777777,26.574355555555556],[-80.27908611111111,26.573522222222223]]},"properties":{"style":"solid","thickness":1}},{"type":"Feature","geometry":{"type":"LineString","coordinates":[[-80.332,26.5759],[-80.34184444444443,26.576338888888888]]},"properties":{"style":"solid","thickness":1}},{"type":"Feature","geometry":{"type":"LineString","coordinates":[[-80.18197777777779,26.569091666666665],[-80.1841,26.57722777777778]]},"properties":{"style":"solid","thickness":1}},{"type":"Feature","geometry":{"type":"LineString","coordinates":[[-80.18197777777779,26.569091666666665],[-80.19126111111112,26.569516666666665]]},"properties":{"style":"solid","thickness":1}},{"type":"Feature","geometry":{"type":"LineString","coordinates":[[-80.38378333333334,26.68493888888889],[-80.38378333333334,26.68493888888889],[-80.38399166666667,26.693294444444444]]},"properties":{"style":"solid","thickness":1}},{"type":"Feature","geometry":{"type":"LineString","coordinates":[[-80.34998888888889,26.693497222222224],[-80.34998888888889,26.693497222222224],[-80.36857777777777,26.69427222222222]]},"properties":{"style":"solid","thickness":1}},{"type":"Feature","geometry":{"type":"LineString","coordinates":[[-80.3813,26.578094444444446],[-80.38151111111111,26.58718611111111]]},"properties":{"style":"solid","thickness":1}},{"type":"Feature","geometry":{"type":"LineString","coordinates":[[-80.38303611111111,26.652852777777778],[-80.38303611111111,26.652852777777778],[-80.38225833333333,26.619430555555557]]},"properties":{"style":"solid","thickness":1}},{"type":"Feature","geometry":{"type":"LineString","coordinates":[[-80.68310000000001,26.590633333333333],[-80.67381388888889,26.59027222222222]]},"properties":{"style":"solid","thickness":1}},{"type":"Feature","geometry":{"type":"LineString","coordinates":[[-80.59715555555555,26.58727222222222],[-80.59715555555555,26.58727222222222],[-80.56000833333333,26.585802777777776]]},"properties":{"style":"solid","thickness":1}},{"type":"Feature","geometry":{"type":"LineString","coordinates":[[-80.4839361111111,26.582763888888888],[-80.4839361111111,26.582763888888888],[-80.49322222222223,26.58313611111111]]},"properties":{"style":"solid","thickness":1}},{"type":"Feature","geometry":{"type":"LineString","coordinates":[[-80.43474722222223,26.580536111111112],[-80.43474722222223,26.580536111111112],[-80.42489722222223,26.58008611111111]]},"properties":{"style":"solid","thickness":1}},{"type":"Feature","geometry":{"type":"LineString","coordinates":[[-80.3813,26.578094444444446],[-80.37201388888889,26.577683333333333]]},"properties":{"style":"solid","thickness":1}},{"type":"Feature","geometry":{"type":"LineString","coordinates":[[-80.3813,26.578094444444446],[-80.39058333333334,26.578519444444446]]},"properties":{"style":"solid","thickness":1}},{"type":"Feature","geometry":{"type":"LineString","coordinates":[[-80.3226111111111,26.383580555555554],[-80.33188888888888,26.383594444444444]]},"properties":{"style":"solid","thickness":1}},{"type":"Feature","geometry":{"type":"LineString","coordinates":[[-80.25705,26.689583333333335],[-80.25705,26.689583333333335],[-80.23846388888889,26.688791666666667]]},"properties":{"style":"solid","thickness":1}},{"type":"Feature","geometry":{"type":"LineString","coordinates":[[-80.50413333333333,27.120755555555554],[-80.50413333333333,27.120755555555554],[-80.50508611111111,27.10406388888889]]},"properties":{"style":"solid","thickness":1}},{"type":"Feature","geometry":{"type":"LineString","coordinates":[[-80.51053333333333,27.007280555555557],[-80.51053333333333,27.007280555555557],[-80.51006944444444,27.015627777777777]]},"properties":{"style":"solid","thickness":1}},{"type":"Feature","geometry":{"type":"LineString","coordinates":[[-80.63385555555556,27.08708611111111],[-80.63385555555556,27.08708611111111],[-80.67203055555557,27.094466666666666]]},"properties":{"style":"solid","thickness":1}},{"type":"Feature","geometry":{"type":"LineString","coordinates":[[-80.5569,27.072144444444444],[-80.5569,27.072144444444444],[-80.59352777777778,27.07925]]},"properties":{"style":"solid","thickness":1}},{"type":"Feature","geometry":{"type":"LineString","coordinates":[[-80.44226111111111,27.049808333333335],[-80.44226111111111,27.049808333333335],[-80.40490277777778,27.04250277777778]]},"properties":{"style":"solid","thickness":1}},{"type":"Feature","geometry":{"type":"LineString","coordinates":[[-80.28362222222222,27.018766666666664],[-80.28362222222222,27.018766666666664],[-80.24505555555555,27.011183333333335]]},"properties":{"style":"solid","thickness":1}},{"type":"Feature","geometry":{"type":"LineString","coordinates":[[-80.20488055555556,27.090049999999998],[-80.20488055555556,27.090049999999998],[-80.19440555555556,27.05796388888889]]},"properties":{"style":"solid","thickness":1}},{"type":"Feature","geometry":{"type":"LineString","coordinates":[[-80.50745555555555,27.06253888888889],[-80.50698055555556,27.070883333333335]]},"properties":{"style":"solid","thickness":1}},{"type":"Feature","geometry":{"type":"LineString","coordinates":[[-80.50745555555555,27.06253888888889],[-80.49833611111112,27.060758333333332]]},"properties":{"style":"solid","thickness":1}},{"type":"Feature","geometry":{"type":"LineString","coordinates":[[-80.50745555555555,27.06253888888889],[-80.50792222222222,27.054191666666668]]},"properties":{"style":"solid","thickness":1}},{"type":"Feature","geometry":{"type":"LineString","coordinates":[[-80.50745555555555,27.06253888888889],[-80.51657777777778,27.064311111111113]]},"properties":{"style":"solid","thickness":1}},{"type":"Feature","geometry":{"type":"LineString","coordinates":[[-80.17461666666667,26.99720277777778],[-80.17723055555555,27.005225]]},"properties":{"style":"solid","thickness":1}},{"type":"Feature","geometry":{"type":"LineString","coordinates":[[-80.17461666666667,26.99720277777778],[-80.16529166666668,26.996975000000003]]},"properties":{"style":"solid","thickness":1}},{"type":"Feature","geometry":{"type":"LineString","coordinates":[[-80.17461666666667,26.99720277777778],[-80.18372777777778,26.99900277777778]]},"properties":{"style":"solid","thickness":1}},{"type":"Feature","geometry":{"type":"LineString","coordinates":[[-80.05758055555555,26.994311111111113],[-80.06690555555555,26.994544444444447]]},"properties":{"style":"solid","thickness":1}},{"type":"Feature","geometry":{"type":"LineString","coordinates":[[-80.05758055555555,26.994311111111113],[-80.04629444444444,26.997397222222222]]},"properties":{"style":"solid","thickness":1}},{"type":"Feature","geometry":{"type":"LineString","coordinates":[[-80.04629444444444,26.997397222222222],[-80.03897777777777,27.00333611111111]]},"properties":{"style":"solid","thickness":1}},{"type":"Feature","geometry":{"type":"LineString","coordinates":[[-79.89275,27.18725],[-79.90088333333334,27.177041666666668]]},"properties":{"style":"solid","thickness":1}},{"type":"Feature","geometry":{"type":"LineString","coordinates":[[-79.89275,27.18725],[-79.90202222222223,27.18621388888889]]},"properties":{"style":"solid","thickness":1}},{"type":"Feature","geometry":{"type":"LineString","coordinates":[[-80.00076666666666,27.051491666666667],[-79.99535833333333,27.0583]]},"properties":{"style":"solid","thickness":1}},{"type":"Feature","geometry":{"type":"LineString","coordinates":[[-80.00076666666666,27.051491666666667],[-80.006175,27.04468055555556]]},"properties":{"style":"solid","thickness":1}},{"type":"Feature","geometry":{"type":"LineString","coordinates":[[-79.94538055555556,27.121155555555557],[-79.94538055555556,27.121155555555557],[-79.9345388888889,27.134777777777778]]},"properties":{"style":"solid","thickness":1}},{"type":"Feature","geometry":{"type":"LineString","coordinates":[[-80.93408333333333,26.92260277777778],[-80.9154388888889,26.92289166666667]]},"properties":{"style":"solid","thickness":1}},{"type":"Feature","geometry":{"type":"LineString","coordinates":[[-80.93408333333333,26.92260277777778],[-80.93374444444444,26.905891666666665]]},"properties":{"style":"solid","thickness":1}},{"type":"Feature","geometry":{"type":"LineString","coordinates":[[-80.9303888888889,26.740566666666666],[-80.93072777777778,26.757277777777777]]},"properties":{"style":"solid","thickness":1}},{"type":"Feature","geometry":{"type":"LineString","coordinates":[[-80.9303888888889,26.740566666666666],[-80.91185277777778,26.739030555555555]]},"properties":{"style":"solid","thickness":1}},{"type":"Feature","geometry":{"type":"LineString","coordinates":[[-80.85086666666666,26.733955555555557],[-80.85086666666666,26.733955555555557],[-80.81379722222222,26.73085833333333]]},"properties":{"style":"solid","thickness":1}},{"type":"Feature","geometry":{"type":"LineString","coordinates":[[-80.88411944444445,26.923369444444447],[-80.88411944444445,26.923369444444447],[-80.84683055555556,26.923925]]},"properties":{"style":"solid","thickness":1}},{"type":"Feature","geometry":{"type":"LineString","coordinates":[[-80.93189444444445,26.814766666666667],[-80.93189444444445,26.814766666666667],[-80.93257222222223,26.848191666666665]]},"properties":{"style":"solid","thickness":1}},{"type":"Feature","geometry":{"type":"LineString","coordinates":[[-80.73418611111111,26.724177777777776],[-80.75271944444444,26.72573611111111]]},"properties":{"style":"solid","thickness":1}},{"type":"Feature","geometry":{"type":"LineString","coordinates":[[-79.51631111111111,26.38232777777778],[-79.516225,26.399044444444446]]},"properties":{"style":"solid","thickness":1}},{"type":"Feature","geometry":{"type":"LineString","coordinates":[[-79.51631111111111,26.38232777777778],[-79.53486944444444,26.38244166666667]]},"properties":{"style":"solid","thickness":1}},{"type":"Feature","geometry":{"type":"LineString","coordinates":[[-79.58961666666666,26.382758333333335],[-79.58961666666666,26.382758333333335],[-79.62673333333332,26.382963888888888]]},"properties":{"style":"solid","thickness":1}},{"type":"Feature","geometry":{"type":"LineString","coordinates":[[-79.51545277777778,26.551969444444445],[-79.53400833333333,26.551827777777778]]},"properties":{"style":"solid","thickness":1}},{"type":"Feature","geometry":{"type":"LineString","coordinates":[[-79.51579722222222,26.483855555555557],[-79.51579722222222,26.483855555555557],[-79.51596666666667,26.450425]]},"properties":{"style":"solid","thickness":1}},{"type":"Feature","geometry":{"type":"LineString","coordinates":[[-79.51545277777778,26.551969444444445],[-79.51553611111112,26.53525555555556]]},"properties":{"style":"solid","thickness":1}},{"type":"Feature","geometry":{"type":"LineString","coordinates":[[-80.74635277777777,26.513825],[-80.72777222222223,26.5138]]},"properties":{"style":"solid","thickness":1}},{"type":"Feature","geometry":{"type":"LineString","coordinates":[[-80.74635277777777,26.513825],[-80.74128888888889,26.497741666666666]]},"properties":{"style":"solid","thickness":1}},{"type":"Feature","geometry":{"type":"LineString","coordinates":[[-80.65570000000001,26.513786111111113],[-80.67428055555555,26.513702777777777]]},"properties":{"style":"solid","thickness":1}},{"type":"Feature","geometry":{"type":"LineString","coordinates":[[-79.76175833333333,27.166091666666667],[-79.77042777777778,27.15128611111111]]},"properties":{"style":"solid","thickness":1}},{"type":"Feature","geometry":{"type":"LineString","coordinates":[[-79.76175833333333,27.166091666666667],[-79.77718333333333,27.175525]]},"properties":{"style":"solid","thickness":1}},{"type":"Feature","geometry":{"type":"LineString","coordinates":[[-79.90872222222222,27.25583333333333],[-79.893275,27.24641388888889]]},"properties":{"style":"solid","thickness":1}},{"type":"Feature","geometry":{"type":"LineString","coordinates":[[-79.82047777777777,27.065730555555557],[-79.81182222222222,27.08053888888889]]},"properties":{"style":"solid","thickness":1}},{"type":"Feature","geometry":{"type":"LineString","coordinates":[[-79.81786388888888,27.20038611111111],[-79.81786388888888,27.20038611111111],[-79.79470833333333,27.186252777777778]]},"properties":{"style":"solid","thickness":1}},{"type":"Feature","geometry":{"type":"LineString","coordinates":[[-79.78680833333333,27.123302777777777],[-79.78680833333333,27.123302777777777],[-79.79547222222222,27.108494444444446]]},"properties":{"style":"solid","thickness":1}},{"type":"Feature","geometry":{"type":"LineString","coordinates":[[-80.73090833333333,26.464772222222223],[-80.73090833333333,26.464772222222223],[-80.72078888888889,26.432608333333334]]},"properties":{"style":"solid","thickness":1}},{"type":"Feature","geometry":{"type":"LineString","coordinates":[[-79.90872222222222,27.25583333333333],[-79.90300277777779,27.231288888888887]]},"properties":{"style":"solid","thickness":1}},{"type":"Feature","geometry":{"type":"LineString","coordinates":[[-79.87504999999999,27.235300000000002],[-79.87504999999999,27.235300000000002],[-79.85188888888888,27.22116388888889]]},"properties":{"style":"solid","thickness":1}},{"type":"Feature","geometry":{"type":"LineString","coordinates":[[-79.62161388888889,26.853783333333336],[-79.60405833333333,26.848177777777778]]},"properties":{"style":"solid","thickness":1}},{"type":"Feature","geometry":{"type":"LineString","coordinates":[[-79.6041861111111,26.854086111111112],[-79.62148611111111,26.847875]]},"properties":{"style":"solid","thickness":1}},{"type":"Feature","geometry":{"type":"LineString","coordinates":[[-79.7,26.383333333333333],[-79.66312066666667,26.38318786111111]]},"properties":{"style":"solid","thickness":1}},{"type":"Feature","geometry":{"type":"LineString","coordinates":[[-79.85233055555555,27.119325],[-79.82047777777777,27.065730555555557],[-79.78635277777778,27.003583333333335],[-79.77023333333334,26.97343611111111]]},"properties":{"style":"solid","thickness":1}},{"type":"Feature","geometry":{"type":"LineString","coordinates":[[-80.08805713888889,26.23497438888889],[-80.08643769444444,26.243602444444445],[-80.08368966666666,26.25374511111111],[-80.08181602777778,26.25701311111111],[-80.08044199999999,26.25791461111111],[-80.07994236111111,26.26073175],[-80.07894308333333,26.2771825],[-80.07781891666666,26.289012055555556],[-80.07656980555555,26.303431222222223],[-80.07406302777777,26.318031555555557]]},"properties":{"style":"solid","thickness":1}},{"type":"Feature","geometry":{"type":"LineString","coordinates":[[-80.11729038888888,25.98997152777778],[-80.11729038888888,25.98997152777778],[-80.11391783333333,26.03198086111111],[-80.11067016666667,26.067202777777776],[-80.10917124999999,26.084132583333332],[-80.10879652777777,26.089888166666665],[-80.10504925,26.09237086111111],[-80.1041748611111,26.093725055555556],[-80.10404997222221,26.106363305555558],[-80.10367522222222,26.121595083333332],[-80.10242613888889,26.134455916666667],[-80.10205141666665,26.144833805555557],[-80.09842902777777,26.162316138888887],[-80.095681,26.18408077777778],[-80.09130916666666,26.211929027777778]]},"properties":{"style":"solid","thickness":1}},{"type":"Feature","geometry":{"type":"LineString","coordinates":[[-80.07171355555555,26.333276027777778],[-80.07171355555555,26.333276027777778],[-80.07406302777777,26.318031555555557]]},"properties":{"style":"solid","thickness":1}},{"type":"Feature","geometry":{"type":"LineString","coordinates":[[-80.08805713888889,26.23497438888889],[-80.09130916666666,26.211929027777778]]},"properties":{"style":"solid","thickness":1}},{"type":"Feature","geometry":{"type":"LineString","coordinates":[[-80.07249591666667,26.943673583333332],[-80.06873241666666,26.930117583333335]]},"properties":{"style":"solid","thickness":1}},{"type":"Feature","geometry":{"type":"LineString","coordinates":[[-80.07502222222222,26.944708333333335],[-80.07502222222222,26.944708333333335],[-80.06724444444444,26.944894444444444]]},"properties":{"style":"solid","thickness":1}},{"type":"Feature","geometry":{"type":"LineString","coordinates":[[-80.07521388888888,26.943608333333334],[-80.07521388888888,26.943608333333334],[-80.06734166666666,26.943797222222223]]},"properties":{"style":"solid","thickness":1}},{"type":"Feature","geometry":{"type":"LineString","coordinates":[[-80.035725,26.773680555555554],[-80.035725,26.773680555555554],[-80.02783611111111,26.773752777777776]]},"properties":{"style":"solid","thickness":1}},{"type":"Feature","geometry":{"type":"LineString","coordinates":[[-80.03516266666666,26.771431333333332],[-80.03118055555555,26.771475]]},"properties":{"style":"solid","thickness":1}},{"type":"Feature","geometry":{"type":"LineString","coordinates":[[-80.04618333333333,26.54561388888889],[-80.04618333333333,26.54561388888889],[-80.0383138888889,26.545708333333334]]},"properties":{"style":"solid","thickness":1}},{"type":"Feature","geometry":{"type":"LineString","coordinates":[[-80.046175,26.54507777777778],[-80.046175,26.54507777777778],[-80.0383138888889,26.545161111111113]]},"properties":{"style":"solid","thickness":1}},{"type":"Feature","geometry":{"type":"LineString","coordinates":[[-80.0743611111111,26.336180555555554],[-80.06671966666666,26.33627563888889]]},"properties":{"style":"solid","thickness":1}},{"type":"Feature","geometry":{"type":"LineString","coordinates":[[-80.07635191666667,26.957559166666666],[-80.08047391666666,26.969989666666667],[-80.08259738888889,26.97805194444444],[-80.08509558333333,26.98488202777778],[-80.08784361111111,26.991487777777778],[-80.08921761111111,26.996749694444446],[-80.08921761111111,27.001339694444443],[-80.09209052777777,27.01074297222222],[-80.09583783333333,27.02249597222222],[-80.10070930555555,27.03536686111111],[-80.10070930555555,27.03536686111111],[-80.10807899999999,27.05282413888889],[-80.11382483333333,27.064908333333335],[-80.11607322222221,27.070278666666667],[-80.11907105555555,27.077438694444446],[-80.12231869444443,27.082472833333334],[-80.12694036111111,27.089855805555555],[-80.13256130555556,27.099810833333333],[-80.13793241666667,27.10887027777778],[-80.14217936111112,27.119606416666667],[-80.14530211111112,27.13190697222222],[-80.14792519444445,27.13783311111111],[-80.1504233888889,27.145324194444445],[-80.15254686111112,27.151026027777775],[-80.15554469444444,27.15583322222222],[-80.15704361111112,27.160528416666665],[-80.15766816666667,27.163099499999998]]},"properties":{"style":"solid","thickness":1}},{"type":"Feature","geometry":{"type":"LineString","coordinates":[[-80.15368391666667,27.169254444444444],[-80.15482594444445,27.171937111111113],[-80.15825205555556,27.17947377777778],[-80.15975097222223,27.18343352777778],[-80.16039336111112,27.18879811111111],[-80.16132125,27.19160802777778],[-80.1701006388889,27.207699805555556],[-80.18580358333334,27.235535583333334],[-80.19508258333333,27.253216583333334],[-80.20264855555556,27.269363166666665],[-80.21742358333333,27.30133025],[-80.227345,27.32282783333333],[-80.2314135,27.33290538888889],[-80.2349428888889,27.34306186111111]]},"properties":{"style":"solid","thickness":1}},{"type":"Feature","geometry":{"type":"LineString","coordinates":[[-80.07635191666667,26.957559166666666],[-80.07279802777778,26.944761583333335]]},"properties":{"style":"solid","thickness":1}},{"type":"Feature","geometry":{"type":"LineString","coordinates":[[-80.03902222222221,26.77138888888889],[-80.03902222222221,26.77138888888889],[-80.03516266666666,26.771431333333332]]},"properties":{"style":"solid","thickness":1}},{"type":"Feature","geometry":{"type":"LineString","coordinates":[[-80.03247569444444,26.77371036111111],[-80.03197769444445,26.77413272222222],[-80.03197769444445,26.77413272222222],[-80.03219630555556,26.791406555555557],[-80.03307066666666,26.806519],[-80.03638077777778,26.81691986111111],[-80.04025297222222,26.833178055555557],[-80.04412519444445,26.84719186111111],[-80.04662338888889,26.862548972222225],[-80.05099522222221,26.874765888888888],[-80.05486741666667,26.887541777777777],[-80.05686597222223,26.89504975],[-80.06548475,26.921379666666667],[-80.06873241666666,26.930117583333335]]},"properties":{"style":"solid","thickness":1}},{"type":"Feature","geometry":{"type":"LineString","coordinates":[[-80.04167419444444,26.545668055555556],[-80.04115858333333,26.546774472222225],[-80.04050280555555,26.562903083333335],[-80.03678672222222,26.57863611111111],[-80.03700533333333,26.61284788888889],[-80.03722391666666,26.632308583333334],[-80.03656813888888,26.659037027777778],[-80.03569377777778,26.681633333333334],[-80.03307066666666,26.692242222222223],[-80.0335078611111,26.71051072222222],[-80.03416363888888,26.730151],[-80.0374425,26.762942583333334],[-80.03591236111112,26.770795444444442],[-80.03516266666666,26.771431333333332]]},"properties":{"style":"solid","thickness":1}},{"type":"Feature","geometry":{"type":"LineString","coordinates":[[-80.06938202777778,26.348548777777776],[-80.06938202777778,26.348548777777776],[-80.06848258333333,26.354628861111113],[-80.06651525,26.387529222222224],[-80.06061327777778,26.43971688888889],[-80.05471127777777,26.484795694444447],[-80.04815352777777,26.524938194444445],[-80.04400027777777,26.540676472222223],[-80.04192827777777,26.545122861111114]]},"properties":{"style":"solid","thickness":1}},{"type":"Feature","geometry":{"type":"LineString","coordinates":[[-80.15758038888889,27.169159083333334],[-80.15758038888889,27.169159083333334],[-80.14978744444446,27.169349694444445]]},"properties":{"style":"solid","thickness":1}},{"type":"Feature","geometry":{"type":"LineString","coordinates":[[-80.16156441666668,27.163004027777777],[-80.16156441666668,27.163004027777777],[-80.1537718888889,27.16319486111111]]},"properties":{"style":"solid","thickness":1}},{"type":"Feature","geometry":{"type":"LineString","coordinates":[[-80.85534972222221,27.26992611111111],[-80.84664416666666,27.262141944444444]]},"properties":{"style":"solid","thickness":1}},{"type":"Feature","geometry":{"type":"LineString","coordinates":[[-80.85535083333333,27.262145],[-80.84446194444443,27.271865277777778]]},"properties":{"style":"solid","thickness":1}},{"type":"Feature","geometry":{"type":"LineString","coordinates":[[-80.83451944444444,26.963663888888888],[-80.81948055555556,26.933072222222222]]},"properties":{"style":"solid","thickness":1}},{"type":"Feature","geometry":{"type":"LineString","coordinates":[[-80.55984069444445,26.383430444444443],[-80.37851388888888,26.383616666666665]]},"properties":{"style":"solid","thickness":1}},{"type":"Feature","geometry":{"type":"LineString","coordinates":[[-80.6125,26.383333333333333],[-80.596734,26.383364444444442]]},"properties":{"style":"solid","thickness":1}},{"type":"Feature","geometry":{"type":"LineString","coordinates":[[-80.23140322222223,27.18208416666667],[-80.21458725000001,27.176534583333336]]},"properties":{"style":"solid","thickness":1}},{"type":"Feature","geometry":{"type":"LineString","coordinates":[[-80.22163933333333,27.18851052777778],[-80.21498772222222,27.17611088888889]]},"properties":{"style":"solid","thickness":1}},{"type":"Feature","geometry":{"type":"LineString","coordinates":[[-80.22900947222223,27.181662222222222],[-80.21571825000001,27.186406777777776]]},"properties":{"style":"solid","thickness":1}},{"type":"Feature","geometry":{"type":"LineString","coordinates":[[-80.33915777777777,26.908150277777775],[-80.31767027777778,26.908155833333332]]},"properties":{"style":"solid","thickness":1}},{"type":"Feature","geometry":{"type":"LineString","coordinates":[[-80.22686127777779,26.84252597222222],[-80.213719,26.843484472222222]]},"properties":{"style":"solid","thickness":1}},{"type":"Feature","geometry":{"type":"LineString","coordinates":[[-80.22700363888889,26.849920305555553],[-80.21773633333333,26.84150722222222]]},"properties":{"style":"solid","thickness":1}},{"type":"Feature","geometry":{"type":"LineString","coordinates":[[-80.23032566666667,26.849176805555555],[-80.21907891666667,26.84999222222222]]},"properties":{"style":"solid","thickness":1}},{"type":"Feature","geometry":{"type":"LineString","coordinates":[[-80.10836933333333,26.68320813888889],[-80.07778158333333,26.68187327777778]]},"properties":{"style":"solid","thickness":1}},{"type":"Feature","geometry":{"type":"LineString","coordinates":[[-80.10628933333332,26.681189444444446],[-80.0964583611111,26.680759083333335]]},"properties":{"style":"solid","thickness":1}},{"type":"Feature","geometry":{"type":"LineString","coordinates":[[-80.10402277777777,26.69183222222222],[-80.08906166666667,26.67830916666667]]},"properties":{"style":"solid","thickness":1}},{"type":"Feature","geometry":{"type":"LineString","coordinates":[[-80.08931838888888,26.590117944444444],[-80.08404238888889,26.59771636111111]]},"properties":{"style":"solid","thickness":1}},{"type":"Feature","geometry":{"type":"LineString","coordinates":[[-80.09097436111111,26.59131486111111],[-80.0803053611111,26.590986166666667]]},"properties":{"style":"solid","thickness":1}},{"type":"Feature","geometry":{"type":"LineString","coordinates":[[-80.08539980555555,26.598302916666665],[-80.08048027777778,26.589995138888888]]},"properties":{"style":"solid","thickness":1}},{"type":"Feature","geometry":{"type":"LineString","coordinates":[[-80.11439572222221,26.37231152777778],[-80.10099777777778,26.384658722222223]]},"properties":{"style":"solid","thickness":1}},{"type":"Feature","geometry":{"type":"LineString","coordinates":[[-80.69405933333334,26.790660944444447],[-80.69264955555556,26.77940877777778]]},"properties":{"style":"solid","thickness":1}},{"type":"Feature","geometry":{"type":"LineString","coordinates":[[-80.11654808333333,26.24396988888889],[-80.10684408333333,26.250645333333335]]},"properties":{"style":"solid","thickness":1}},{"type":"Feature","geometry":{"type":"LineString","coordinates":[[-80.11661505555556,26.245939833333335],[-80.10602675,26.24465925]]},"properties":{"style":"solid","thickness":1}},{"type":"Feature","geometry":{"type":"LineString","coordinates":[[-80.11528194444443,26.254350444444444],[-80.10617941666666,26.243595305555555]]},"properties":{"style":"solid","thickness":1}},{"type":"Feature","geometry":{"type":"LineString","coordinates":[[-80.17386783333333,26.19894325],[-80.16436072222223,26.192048694444445]]},"properties":{"style":"solid","thickness":1}},{"type":"Feature","geometry":{"type":"LineString","coordinates":[[-80.18086547222222,26.197574555555555],[-80.16266983333334,26.19936338888889]]},"properties":{"style":"solid","thickness":1}},{"type":"Feature","geometry":{"type":"LineString","coordinates":[[-80.16653836111112,26.076949055555556],[-80.13912083333334,26.07679186111111]]},"properties":{"style":"solid","thickness":1}},{"type":"Feature","geometry":{"type":"LineString","coordinates":[[-80.1583488888889,26.06588663888889],[-80.133983,26.065742166666666]]},"properties":{"style":"solid","thickness":1}},{"type":"Feature","geometry":{"type":"LineString","coordinates":[[-80.19569138888889,26.952354444444445],[-80.20201458333334,26.968078805555553]]},"properties":{"style":"solid","thickness":1}},{"type":"Feature","geometry":{"type":"LineString","coordinates":[[-80.2076263888889,26.957383305555556],[-80.19007872222222,26.96304947222222]]},"properties":{"style":"solid","thickness":1}},{"type":"Feature","geometry":{"type":"LineString","coordinates":[[-79.37264016666666,26.86422141666667],[-79.36325,26.855211111111114]]},"properties":{"style":"solid","thickness":1}},{"type":"Feature","geometry":{"type":"LineString","coordinates":[[-79.34750555555556,26.8401],[-79.33796666666666,26.830938888888888]]},"properties":{"style":"solid","thickness":1}},{"type":"Feature","geometry":{"type":"LineString","coordinates":[[-79.33796666666666,26.830938888888888],[-79.34432777777778,26.819777777777777]]},"properties":{"style":"solid","thickness":1}},{"type":"Feature","geometry":{"type":"LineString","coordinates":[[-79.38546944444445,26.747552777777777],[-79.37911388888888,26.75871666666667]]},"properties":{"style":"solid","thickness":1}},{"type":"Feature","geometry":{"type":"LineString","coordinates":[[-79.38546944444445,26.747552777777777],[-79.39942500000001,26.747152777777778]]},"properties":{"style":"solid","thickness":1}},{"type":"Feature","geometry":{"type":"LineString","coordinates":[[-79.43253055555556,26.746191666666668],[-79.418575,26.746597222222224]]},"properties":{"style":"solid","thickness":1}},{"type":"Feature","geometry":{"type":"LineString","coordinates":[[-80.14553180555556,26.68480611111111],[-80.12694633333332,26.68400147222222]]},"properties":{"style":"solid","thickness":1}},{"type":"Feature","geometry":{"type":"LineString","coordinates":[[-80.38109166666666,26.513997222222223],[-80.39038141666667,26.514000916666667]]},"properties":{"style":"solid","thickness":1}},{"type":"Feature","geometry":{"type":"LineString","coordinates":[[-80.76306577777778,26.802000500000002],[-80.76107144444444,26.799285333333334],[-80.75744652777777,26.799221000000003],[-80.75969536111111,26.796679416666667],[-80.75864716666666,26.793555111111115],[-80.76202844444444,26.794728944444447],[-80.76497116666667,26.792828583333336],[-80.76483375,26.796089083333335],[-80.7677235,26.798040333333336],[-80.76423358333334,26.798922055555558],[-80.76306577777778,26.802000500000002]]},"properties":{"style":"solid","thickness":1}},{"type":"Feature","geometry":{"type":"LineString","coordinates":[[-80.24529275,26.56770963888889],[-80.24197222222222,26.575194444444445],[-80.2367208888889,26.5686645]]},"properties":{"style":"solid","thickness":1}},{"type":"Feature","geometry":{"type":"LineString","coordinates":[[-80.21137869444445,26.581404888888887],[-80.20805555555556,26.58888888888889],[-80.2028055,26.582357694444443]]},"properties":{"style":"solid","thickness":1}},{"type":"Feature","geometry":{"type":"LineString","coordinates":[[-80.21520066666668,26.58174925],[-80.21187777777779,26.589233333333333],[-80.2066275,26.582702277777777]]},"properties":{"style":"solid","thickness":1}},{"type":"Feature","geometry":{"type":"LineString","coordinates":[[-80.18163491666667,27.018070138888888],[-80.17829722222223,27.025552777777776],[-80.17302883333333,27.019021111111112]]},"properties":{"style":"solid","thickness":1}},{"type":"Feature","geometry":{"type":"LineString","coordinates":[[-80.11806427777778,27.02529663888889],[-80.11472222222221,27.032777777777778],[-80.10945713888889,27.02624375]]},"properties":{"style":"solid","thickness":1}},{"type":"Feature","geometry":{"type":"LineString","coordinates":[[-80.39221555555557,27.11501263888889],[-80.3888888888889,27.1225],[-80.38360397222223,27.115976333333336]]},"properties":{"style":"solid","thickness":1}},{"type":"Feature","geometry":{"type":"LineString","coordinates":[[-80.39804847222223,27.114456944444445],[-80.39472222222223,27.121944444444445],[-80.389437,27.115421]]},"properties":{"style":"solid","thickness":1}},{"type":"Feature","geometry":{"type":"LineString","coordinates":[[-80.24491111111111,27.352362194444446],[-80.2463921111111,27.349242]]},"properties":{"style":"solid","thickness":1}},{"type":"Feature","geometry":{"type":"LineString","coordinates":[[-80.24699216666667,27.347974583333333],[-80.24842841666667,27.3449055]]},"properties":{"style":"solid","thickness":1}},{"type":"Feature","geometry":{"type":"LineString","coordinates":[[-80.24944558333334,27.35186036111111],[-80.24710538888888,27.349163055555554]]},"properties":{"style":"solid","thickness":1}},{"type":"Feature","geometry":{"type":"LineString","coordinates":[[-80.246177,27.348064805555556],[-80.24389422222222,27.345407305555554]]},"properties":{"style":"solid","thickness":1}},{"type":"Feature","geometry":{"type":"LineString","coordinates":[[-80.25115002777778,27.34811486111111],[-80.24743088888889,27.348526527777775]]},"properties":{"style":"solid","thickness":1}},{"type":"Feature","geometry":{"type":"LineString","coordinates":[[-80.24590244444444,27.348695694444444],[-80.24218327777778,27.34910722222222]]},"properties":{"style":"solid","thickness":1}},{"type":"Feature","geometry":{"type":"LineString","coordinates":[[-80.25117816666666,27.348111666666664],[-80.25114163888888,27.347899583333334],[-80.2510918888889,27.34768683333333],[-80.25102869444444,27.347474388888887],[-80.2509518611111,27.347263249999997],[-80.2508613888889,27.347054416666666],[-80.25075738888889,27.346848944444442],[-80.25064011111111,27.34664786111111],[-80.25050988888889,27.346452194444442],[-80.25036722222222,27.346262888888887],[-80.25021275,27.346080916666665],[-80.25004722222222,27.345907138888887],[-80.24987141666666,27.345742305555554],[-80.24968627777778,27.345587138888888],[-80.24949283333333,27.34544222222222],[-80.24929211111112,27.345308027777776],[-80.24908522222222,27.345184916666664],[-80.24887322222223,27.345073166666666],[-80.24865727777778,27.344972916666666],[-80.24843847222222,27.34488422222222]]},"properties":{"style":"solid","thickness":1}},{"type":"Feature","geometry":{"type":"LineString","coordinates":[[-80.24491044444444,27.352363611111112],[-80.24513558333334,27.352441805555557],[-80.24536805555556,27.35251002777778],[-80.24560705555555,27.352567555555556],[-80.24585166666667,27.35261377777778],[-80.24610088888889,27.35264816666667],[-80.24635366666666,27.352670250000003],[-80.24660883333334,27.352679722222224],[-80.24686522222223,27.352676333333335],[-80.24712161111111,27.35266],[-80.24737675,27.352630694444446],[-80.24762941666667,27.352588611111113],[-80.24787841666667,27.352533972222222],[-80.24812261111111,27.352467166666667],[-80.24836091666667,27.352388694444446],[-80.24859227777777,27.352299138888892],[-80.24881586111111,27.35219916666667],[-80.24903077777778,27.35208952777778],[-80.24923636111112,27.351971055555556],[-80.24943202777777,27.35184452777778]]},"properties":{"style":"solid","thickness":1}},{"type":"Feature","geometry":{"type":"LineString","coordinates":[[-80.24389527777778,27.345408499999998],[-80.24371058333334,27.345542694444443],[-80.24353186111111,27.345687166666664],[-80.24336011111112,27.345841666666665],[-80.24319636111112,27.346005777777776],[-80.24304152777778,27.346179055555556],[-80.24289658333333,27.34636088888889],[-80.24276238888889,27.346550583333332],[-80.24263966666666,27.346747416666666],[-80.24252913888888,27.346950472222222],[-80.24243133333333,27.34715886111111],[-80.24234675,27.347371638888887],[-80.24227569444444,27.347587777777775],[-80.24221838888889,27.347806249999998],[-80.24217486111111,27.348026055555554],[-80.24214511111111,27.34824611111111],[-80.24212894444445,27.348465444444443],[-80.24212605555556,27.348683138888887],[-80.24213608333334,27.34889822222222],[-80.24215847222223,27.349109888888886]]},"properties":{"style":"solid","thickness":1}},{"type":"Feature","geometry":{"type":"LineString","coordinates":[[-80.24591086111111,27.34870136111111],[-80.245942,27.34882725],[-80.24600563888889,27.348956277777777],[-80.24610538888889,27.349078805555553],[-80.24623994444444,27.349183138888886],[-80.24640175,27.349258305555555],[-80.24657802777777,27.349297138888886],[-80.24675380555556,27.34929847222222],[-80.246916,27.349266916666664],[-80.24705597222223,27.34921061111111],[-80.24717130555555,27.349137805555554],[-80.24727458333334,27.349041916666664],[-80.24736105555556,27.348919527777777],[-80.24741941666667,27.348774166666665],[-80.24743983333333,27.34861436111111],[-80.24741736111112,27.34845247222222],[-80.24735386111111,27.348301944444444],[-80.24725752777778,27.348173694444444],[-80.24714019444444,27.34807386111111],[-80.24701383333334,27.348003388888888],[-80.2468821111111,27.347957916666665],[-80.24673097222222,27.347933833333332],[-80.24656505555555,27.34793858333333],[-80.24639494444445,27.347978194444444],[-80.2462346388889,27.348054277777777],[-80.24609827777778,27.348162444444444],[-80.24599630555555,27.34829297222222],[-80.24593308333334,27.348433527777775],[-80.24590666666667,27.348572527777776],[-80.24591086111111,27.34870136111111]]},"properties":{"style":"solid","thickness":1}},{"type":"Feature","geometry":{"type":"LineString","coordinates":[[-80.06574527777778,26.759599277777777],[-80.05773552777778,26.760479805555555],[-80.05675497222222,26.753289444444444],[-80.06476422222222,26.752409],[-80.06574527777778,26.759599277777777]]},"properties":{"style":"solid","thickness":1}},{"type":"Feature","geometry":{"type":"LineString","coordinates":[[-80.60555902777777,27.0950065],[-80.60356319444443,27.092289333333333],[-80.59992905555555,27.092221055555555],[-80.60218713888888,27.089682055555553],[-80.60114044444444,27.086556777777776],[-80.60452883333333,27.08773425],[-80.60748172222222,27.085837166666664],[-80.60733952777777,27.08909733333333],[-80.61023408333332,27.09105163888889],[-80.60673399999999,27.0919295],[-80.60555902777777,27.0950065]]},"properties":{"style":"solid","thickness":1}},{"type":"Feature","geometry":{"type":"LineString","coordinates":[[-80.63239294444443,26.57170136111111],[-80.63040569444443,26.568984222222223],[-80.62678805555555,26.5689165],[-80.62903536111111,26.566376861111113],[-80.62799286111111,26.563251416666667],[-80.63136605555555,26.56442847222222],[-80.63430511111112,26.56253075],[-80.63416422222222,26.565791277777777],[-80.63704597222223,26.567745333333335],[-80.63356197222222,26.56862386111111],[-80.63239294444443,26.57170136111111]]},"properties":{"style":"solid","thickness":1}},{"type":"Feature","geometry":{"type":"LineString","coordinates":[[-80.13230652777777,27.261214166666665],[-80.13031908333333,27.25849047222222],[-80.12667988888889,27.25841011111111],[-80.12895183333333,27.255878694444444],[-80.1279166111111,27.252750055555556],[-80.13130508333333,27.25393875],[-80.13427016666667,27.252051555555557],[-80.13411425000001,27.25531113888889],[-80.13700491666667,27.257274972222223],[-80.13349602777778,27.258141194444445],[-80.13230652777777,27.261214166666665]]},"properties":{"style":"solid","thickness":1}},{"type":"Feature","geometry":{"type":"LineString","coordinates":[[-79.98307897222223,26.957084694444443],[-79.98110038888889,26.954358694444444],[-79.97747100000001,26.954274527777777],[-79.97974016666667,26.95174527777778],[-79.97871180555556,26.948615333333333],[-79.98208969444444,26.94980766666667],[-79.98504936111111,26.94792341666667],[-79.98488958333333,26.951183083333333],[-79.98776997222222,26.95315011111111],[-79.98426933333333,26.95401272222222],[-79.98307897222223,26.957084694444443]]},"properties":{"style":"solid","thickness":1}},{"type":"Feature","geometry":{"type":"LineString","coordinates":[[-80.03399747222223,26.897965055555556],[-80.03201869444445,26.89523975],[-80.0283911111111,26.89515686111111],[-80.030658,26.892626805555555],[-80.02962877777777,26.889497166666665],[-80.03300544444444,26.890688305555557],[-80.03596275,26.888802972222223],[-80.0358045,26.89206275],[-80.03868430555555,26.89402875],[-80.03518583333333,26.894892638888887],[-80.03399747222223,26.897965055555556]]},"properties":{"style":"solid","thickness":1}},{"type":"Feature","geometry":{"type":"LineString","coordinates":[[-80.07432025,26.851109416666667],[-80.07234133333333,26.84838461111111],[-80.06871522222222,26.848302777777775],[-80.07098027777778,26.845772027777777],[-80.06995036111111,26.842642666666666],[-80.07332608333333,26.84383286111111],[-80.0762815,26.841946666666665],[-80.07612447222222,26.845206527777776],[-80.07900377777777,26.847171749999998],[-80.07550705555555,26.84803661111111],[-80.07432025,26.851109416666667]]},"properties":{"style":"solid","thickness":1}},{"type":"Feature","geometry":{"type":"LineString","coordinates":[[-80.08827227777778,26.616395694444446],[-80.08629702777777,26.613670944444447],[-80.08267830555555,26.613589472222223],[-80.08493844444445,26.61105838888889],[-80.08391024999999,26.607928972222222],[-80.08727922222222,26.60911888888889],[-80.09022838888889,26.607232333333336],[-80.09007208333333,26.610492333333333],[-80.09294577777777,26.61245736111111],[-80.08945627777777,26.613322611111112],[-80.08827227777778,26.616395694444446]]},"properties":{"style":"solid","thickness":1}},{"type":"Feature","geometry":{"type":"LineString","coordinates":[[-79.82993688888888,27.214501777777777],[-79.82795752777777,27.211773805555556],[-79.82432005555555,27.21168572222222],[-79.82659777777778,27.20915913888889],[-79.82557133333333,27.206028277777776],[-79.82895522222222,27.207224166666666],[-79.8319241111111,27.20534327777778],[-79.83175955555555,27.208602555555554],[-79.83464380555554,27.210572555555554],[-79.83113408333332,27.211431305555553],[-79.82993688888888,27.214501777777777]]},"properties":{"style":"solid","thickness":1}},{"type":"Feature","geometry":{"type":"LineString","coordinates":[[-79.60910380555555,26.417309055555556],[-79.60714325,26.414577694444443],[-79.60353116666666,26.41448411111111],[-79.60579783333333,26.411960583333332],[-79.60478433333333,26.408827694444444],[-79.60814252777777,26.41002886111111],[-79.6110943611111,26.408152166666664],[-79.6109248611111,26.411411666666666],[-79.61378544444445,26.41338633333333],[-79.61029844444444,26.414239916666666],[-79.60910380555555,26.417309055555556]]},"properties":{"style":"solid","thickness":1}},{"type":"Feature","geometry":{"type":"LineString","coordinates":[[-80.02341277777778,27.371878444444445],[-80.021426,27.369153305555557],[-80.01778330555555,27.369070166666667],[-80.02005991666667,27.366540583333336],[-80.01902669444445,27.363411250000002],[-80.02241733333334,27.3646025],[-80.02538713888889,27.362717638888892],[-80.02522791666667,27.365977],[-80.02811952777778,27.367943],[-80.02460638888888,27.36880647222222],[-80.02341277777778,27.371878444444445]]},"properties":{"style":"solid","thickness":1}},{"type":"Feature","geometry":{"type":"LineString","coordinates":[[-80.01678172222222,26.42680888888889],[-80.026639,26.425724833333334],[-80.02275394444445,26.433958583333332],[-80.01678172222222,26.42680888888889]]},"properties":{"style":"solid","thickness":1}},{"type":"Feature","geometry":{"type":"LineString","coordinates":[[-80.03194002777778,26.299139972222225],[-80.04178633333333,26.298054861111112],[-80.03790663888888,26.306289166666666],[-80.03194002777778,26.299139972222225]]},"properties":{"style":"solid","thickness":1}},{"type":"Feature","geometry":{"type":"LineString","coordinates":[[-79.86780438888889,27.141503305555556],[-79.87772452777777,27.14042988888889],[-79.87380441666666,27.148658277777777],[-79.86780438888889,27.141503305555556]]},"properties":{"style":"solid","thickness":1}},{"type":"Feature","geometry":{"type":"LineString","coordinates":[[-79.74143916666667,26.67759016666667],[-79.75132033333334,26.67652525],[-79.74740716666666,26.684751055555555],[-79.74143916666667,26.67759016666667]]},"properties":{"style":"solid","thickness":1}},{"type":"Feature","geometry":{"type":"LineString","coordinates":[[-79.7666608888889,26.5058],[-79.76469513888888,26.503070805555556],[-79.76108013888889,26.502981194444445],[-79.76334511111111,26.500455166666665],[-79.7623266111111,26.497323416666667],[-79.76568902777778,26.49852088888889],[-79.76864058333334,26.496640972222224],[-79.76847538888889,26.49990063888889],[-79.77134083333333,26.50187213888889],[-79.76785227777778,26.502729555555554],[-79.7666608888889,26.5058]]},"properties":{"style":"solid","thickness":1}},{"type":"Feature","geometry":{"type":"LineString","coordinates":[[-80.69131069444445,26.785271194444444],[-80.69042391666667,26.78537263888889]]},"properties":{"style":"solid","thickness":1}},{"type":"Feature","geometry":{"type":"LineString","coordinates":[[-80.69362458333333,26.786878333333334],[-80.69373761111112,26.787674222222225]]},"properties":{"style":"solid","thickness":1}},{"type":"Feature","geometry":{"type":"LineString","coordinates":[[-80.69310136111112,26.783194527777777],[-80.69298833333333,26.78239863888889]]},"properties":{"style":"solid","thickness":1}},{"type":"Feature","geometry":{"type":"LineString","coordinates":[[-80.69541522222222,26.78480163888889],[-80.696302,26.784700166666667]]},"properties":{"style":"solid","thickness":1}},{"type":"Feature","geometry":{"type":"LineString","coordinates":[[-80.69447427777779,26.786592805555557],[-80.69465777777778,26.78647438888889],[-80.69483511111112,26.78633027777778],[-80.6950005,26.786159750000003],[-80.6951475,26.78596336111111],[-80.69526947222222,26.78574327777778],[-80.69536013888889,26.785503444444448],[-80.69541433333333,26.78524938888889],[-80.69542861111111,26.78498805555556],[-80.69540172222223,26.784727055555557],[-80.6953348888889,26.78447413888889],[-80.69523158333334,26.784236250000003],[-80.69509702777778,26.784019055555557],[-80.69493766666668,26.783826555555557],[-80.69476033333333,26.783660944444446],[-80.69457166666668,26.783522750000003],[-80.6943776388889,26.78341113888889],[-80.69417780555555,26.78332222222222],[-80.69395713888889,26.783250027777775],[-80.69371608333334,26.78319872222222],[-80.69345780555555,26.78317308333333],[-80.69318725000001,26.78317747222222],[-80.69291077777778,26.783215277777778],[-80.69263608333334,26.78328833333333],[-80.69237155555555,26.783396583333335],[-80.69212533333334,26.783537805555557],[-80.69190477777778,26.783707833333334],[-80.69171555555556,26.78390088888889],[-80.69156122222222,26.784110194444445],[-80.69144313888889,26.784328722222224],[-80.69136058333333,26.784549861111113],[-80.69131122222223,26.78476777777778],[-80.69129155555557,26.784977833333336],[-80.69129755555556,26.78517791666667],[-80.69132891666668,26.785382833333333],[-80.69138944444445,26.78559455555556],[-80.69148244444445,26.78580855555556],[-80.69161016666666,26.786019194444446],[-80.69177327777778,26.78622],[-80.69197041666666,26.786404055555558],[-80.69219811111111,26.786564722222224],[-80.69245075,26.786696222222226],[-80.69272102777778,26.786794333333336],[-80.69300066666668,26.78685688888889],[-80.69328130555556,26.78688375],[-80.69355505555556,26.786876833333334],[-80.69381536111112,26.786839555555556],[-80.69405727777779,26.786776472222225],[-80.69427747222223,26.78669252777778],[-80.69447427777779,26.786592805555557]]},"properties":{"style":"solid","thickness":1}},{"type":"Feature","geometry":{"type":"LineString","coordinates":[[-80.97322633333333,26.937788083333334],[-80.97122466666667,26.93507602777778],[-80.96759541666667,26.935017083333335],[-80.96984216666667,26.93247227777778],[-80.96878697222222,26.929349694444447],[-80.97217436111112,26.930518444444445],[-80.975117,26.928613805555557],[-80.97498544444444,26.931874333333333],[-80.97788216666667,26.933821194444445],[-80.97438983333333,26.934708055555557],[-80.97322633333333,26.937788083333334]]},"properties":{"style":"solid","thickness":1}},{"type":"Feature","geometry":{"type":"LineString","coordinates":[[-80.81232697222222,26.800041888888888],[-80.8103315,26.79732741666667],[-80.80670663888888,26.797264333333334],[-80.80895433333333,26.794721972222224],[-80.80790483333332,26.79159802777778],[-80.81128652777778,26.792770722222222],[-80.81422838888889,26.790869333333337],[-80.81409236111111,26.79412988888889],[-80.81698288888889,26.79608013888889],[-80.81349344444445,26.79696305555556],[-80.81232697222222,26.800041888888888]]},"properties":{"style":"solid","thickness":1}},{"type":"Feature","geometry":{"type":"LineString","coordinates":[[-80.41292230555555,26.518844166666664],[-80.41094111111111,26.51612391666667],[-80.40732522222223,26.51605063888889],[-80.40957636111112,26.513514416666666],[-80.40854025,26.510387305555554],[-80.41190969444445,26.511569583333333],[-80.41485105555556,26.509676333333335],[-80.41470402777779,26.51293672222222],[-80.41758077777779,26.514895222222222],[-80.41409666666667,26.51576838888889],[-80.41292230555555,26.518844166666664]]},"properties":{"style":"solid","thickness":1}},{"type":"Feature","geometry":{"type":"LineString","coordinates":[[-80.31087355555556,26.513997444444446],[-80.30889483333333,26.51127577777778],[-80.30527916666666,26.51119988888889],[-80.30753244444445,26.508665277777776],[-80.30649913888888,26.505537416666666],[-80.30986741666666,26.50672211111111],[-80.31281033333333,26.504830944444443],[-80.31266041666666,26.50809125],[-80.31553533333333,26.510051805555555],[-80.31205058333333,26.5109225],[-80.31087355555556,26.513997444444446]]},"properties":{"style":"solid","thickness":1}},{"type":"Feature","geometry":{"type":"LineString","coordinates":[[-80.10323713888889,26.686644527777776],[-80.10323713888889,26.685577694444444]]},"properties":{"style":"solid","thickness":1}},{"type":"Feature","geometry":{"type":"LineString","coordinates":[[-80.10293088888888,26.686771333333333],[-80.10293088888888,26.68545088888889]]},"properties":{"style":"solid","thickness":1}},{"type":"Feature","geometry":{"type":"LineString","coordinates":[[-80.10262463888888,26.686771333333333],[-80.10262466666666,26.68545088888889]]},"properties":{"style":"solid","thickness":1}},{"type":"Feature","geometry":{"type":"LineString","coordinates":[[-80.10231841666666,26.686644527777776],[-80.10231841666666,26.685577694444444]]},"properties":{"style":"solid","thickness":1}},{"type":"Feature","geometry":{"type":"LineString","coordinates":[[-80.10198155555555,26.68611111111111],[-80.10199433333332,26.686238805555554],[-80.10203230555555,26.686362416666668],[-80.10209425,26.686477944444444],[-80.10217813888889,26.686581694444445],[-80.10228133333332,26.686670305555555],[-80.10240047222221,26.686740944444445],[-80.10253172222221,26.686791333333332],[-80.10267088888888,26.686819888888888],[-80.1028135,26.686825638888887],[-80.10295494444443,26.68680841666667],[-80.10309072222222,26.686768805555555],[-80.10321641666665,26.68670802777778],[-80.10332802777778,26.686628083333332],[-80.10342194444443,26.686531527777777],[-80.10349516666666,26.686421444444445],[-80.10354530555556,26.68630138888889],[-80.10357080555555,26.68617522222222],[-80.10357080555555,26.686047],[-80.10354530555556,26.685920833333334],[-80.10349513888889,26.68580077777778],[-80.10342194444443,26.685690694444446],[-80.10332802777778,26.685594138888888],[-80.10321641666665,26.685514194444444],[-80.10309072222222,26.685453416666668],[-80.10295494444443,26.685413805555555],[-80.1028135,26.685396583333333],[-80.10267088888888,26.685402333333332],[-80.10253172222221,26.68543086111111],[-80.10240047222221,26.68548127777778],[-80.10228133333332,26.685551916666668],[-80.10217816666666,26.685640527777778],[-80.10209425,26.68574425],[-80.10203230555555,26.68585977777778],[-80.10199433333332,26.68598338888889],[-80.10198155555555,26.68611111111111]]},"properties":{"style":"solid","thickness":1}},{"type":"Feature","geometry":{"type":"LineString","coordinates":[[-79.82781713888889,26.499988583333334],[-79.82585002777778,26.497260222222224],[-79.82223513888889,26.49717213888889],[-79.82449869444444,26.494645138888888],[-79.82347855555555,26.491513833333336],[-79.82684144444444,26.49270988888889],[-79.82979188888889,26.49082866666667],[-79.82962838888888,26.494088444444447],[-79.83249475,26.496058722222223],[-79.82900683333332,26.49691763888889],[-79.82781713888889,26.499988583333334]]},"properties":{"style":"solid","thickness":1}}]}