{"type":"FeatureCollection","features":[{"type":"Feature","geometry":{"type":"LineString","coordinates":[[-81.35066680555555,26.314765555555557],[-81.27366844444444,26.560541361111113]]},"properties":{"style":"solid","thickness":1}},{"type":"Feature","geometry":{"type":"LineString","coordinates":[[-80.97554522222222,26.41950466666667],[-81.24292436111111,26.572168944444446]]},"properties":{"style":"solid","thickness":1}},{"type":"Feature","geometry":{"type":"LineString","coordinates":[[-81.35736091666666,26.660572194444445],[-81.34373838888888,26.671999694444445]]},"properties":{"style":"solid","thickness":1}},{"type":"Feature","geometry":{"type":"LineString","coordinates":[[-81.27271866666666,26.57954011111111],[-81.25909733333333,26.590959555555553]]},"properties":{"style":"solid","thickness":1}},{"type":"Feature","geometry":{"type":"LineString","coordinates":[[-81.26590833333333,26.58525],[-81.27862922222222,26.5974395]]},"properties":{"style":"solid","thickness":1}},{"type":"Feature","geometry":{"type":"LineString","coordinates":[[-81.29135280555555,26.609627833333334],[-81.30407908333333,26.621815055555555]]},"properties":{"style":"solid","thickness":1}},{"type":"Feature","geometry":{"type":"LineString","coordinates":[[-81.31680802777777,26.634001138888888],[-81.32953963888889,26.646186055555557]]},"properties":{"style":"solid","thickness":1}},{"type":"Feature","geometry":{"type":"LineString","coordinates":[[-81.34227394444444,26.65836983333333],[-81.35055,26.66628611111111]]},"properties":{"style":"solid","thickness":1}},{"type":"Feature","geometry":{"type":"LineString","coordinates":[[-81.38358880555556,26.813027277777778],[-81.37574130555555,26.797869111111112]]},"properties":{"style":"solid","thickness":1}},{"type":"Feature","geometry":{"type":"LineString","coordinates":[[-81.36789588888888,26.782710444444444],[-81.3600525,26.767551305555553]]},"properties":{"style":"solid","thickness":1}},{"type":"Feature","geometry":{"type":"LineString","coordinates":[[-81.35221116666666,26.75239172222222],[-81.34437191666666,26.73723163888889]]},"properties":{"style":"solid","thickness":1}},{"type":"Feature","geometry":{"type":"LineString","coordinates":[[-81.33653466666667,26.72207111111111],[-81.3286995,26.70691011111111]]},"properties":{"style":"solid","thickness":1}},{"type":"Feature","geometry":{"type":"LineString","coordinates":[[-81.3208663611111,26.691748666666665],[-81.31303527777777,26.676586722222222]]},"properties":{"style":"solid","thickness":1}},{"type":"Feature","geometry":{"type":"LineString","coordinates":[[-81.30520622222222,26.661424333333333],[-81.29737922222222,26.646261499999998]]},"properties":{"style":"solid","thickness":1}},{"type":"Feature","geometry":{"type":"LineString","coordinates":[[-81.28955427777778,26.631098194444444],[-81.28173133333333,26.61593441666667]]},"properties":{"style":"solid","thickness":1}},{"type":"Feature","geometry":{"type":"LineString","coordinates":[[-81.38280972222222,26.851161861111112],[-81.38214755555555,26.842283027777775],[-81.37832866666666,26.84251213888889]]},"properties":{"style":"solid","thickness":1}},{"type":"Feature","geometry":{"type":"LineString","coordinates":[[-81.37513324999999,26.84270375],[-81.37579488888888,26.851582611111112],[-81.37252127777776,26.85177886111111],[-81.37181977777777,26.85182088888889],[-81.37124294444443,26.85143411111111],[-81.37081677777778,26.850968083333335],[-81.37079594444444,26.850688444444447],[-81.37069180555555,26.849290194444443],[-81.37075411111111,26.849075777777777],[-81.37094627777778,26.848502472222222],[-81.37167363888888,26.84775663888889],[-81.37086297222221,26.84738386111111],[-81.37045766666667,26.84719747222222],[-81.37004191666666,26.846871277777776],[-81.36976125,26.846256083333333],[-81.36962588888888,26.844438333333333],[-81.36982325,26.84393494444444],[-81.37033758333332,26.843482777777776],[-81.37070644444444,26.843179777777777],[-81.37108052777778,26.842946694444443],[-81.37513324999999,26.84270375]]},"properties":{"style":"solid","thickness":1}},{"type":"Feature","geometry":{"type":"LineString","coordinates":[[-81.37549272222222,26.847527694444445],[-81.37167363888888,26.84775663888889]]},"properties":{"style":"solid","thickness":1}},{"type":"Feature","geometry":{"type":"LineString","coordinates":[[-81.36690933333333,26.852115083333334],[-81.3625073611111,26.843460194444443],[-81.35958258333332,26.852553722222222]]},"properties":{"style":"solid","thickness":1}},{"type":"Feature","geometry":{"type":"LineString","coordinates":[[-80.95587875,26.41867002777778],[-80.95261091666667,26.409939805555553],[-80.949976,26.419007944444445],[-80.94663094444445,26.410282027777775],[-80.9443838888889,26.419327861111114]]},"properties":{"style":"solid","thickness":1}},{"type":"Feature","geometry":{"type":"LineString","coordinates":[[-80.94049561111112,26.410632916666664],[-80.94112183333334,26.41951438888889]]},"properties":{"style":"solid","thickness":1}},{"type":"Feature","geometry":{"type":"LineString","coordinates":[[-80.93645716666667,26.41086372222222],[-80.93708305555556,26.419745194444445],[-80.92768122222223,26.41136486111111],[-80.92830644444444,26.42024638888889]]},"properties":{"style":"solid","thickness":1}},{"type":"Feature","geometry":{"type":"LineString","coordinates":[[-80.91864588888889,26.420376166666667],[-80.91913158333334,26.420629333333334],[-80.91968511111112,26.420738194444446],[-80.92154919444445,26.42063188888889],[-80.9222383888889,26.420452166666667],[-80.92246647222223,26.420368944444444],[-80.92358722222222,26.419673083333336],[-80.92423705555557,26.41893388888889],[-80.92442083333334,26.418221250000002],[-80.92487594444445,26.416931444444444],[-80.92476275,26.41532297222222],[-80.92455327777779,26.414562583333332],[-80.924276,26.41394647222222],[-80.9239161388889,26.41326486111111],[-80.92308536111112,26.412539888888887],[-80.92156055555556,26.41192472222222],[-80.92053616666666,26.411772499999998],[-80.91968186111112,26.41182122222222],[-80.91860930555556,26.412093],[-80.91823575000001,26.412324944444443],[-80.91793491666667,26.412482527777776]]},"properties":{"style":"solid","thickness":1}},{"type":"Feature","geometry":{"type":"LineString","coordinates":[[-80.90982100000001,26.42130025],[-80.91121905555556,26.421220611111114],[-80.91191316666668,26.421110861111114],[-80.91326702777778,26.420401833333333],[-80.91450386111111,26.419137722222224],[-80.91490597222223,26.418202055555557],[-80.91506033333334,26.417069833333336],[-80.91499641666667,26.416160694444443],[-80.91478211111112,26.415330333333333],[-80.9143298888889,26.41444333333333],[-80.91339694444444,26.413373083333333],[-80.91306169444445,26.41304111111111],[-80.9124108888889,26.412656888888886],[-80.91106111111111,26.4123125],[-80.90943016666667,26.41240538888889],[-80.90866333333334,26.4125895],[-80.90790633333334,26.412913444444442],[-80.90745508333333,26.413149777777775],[-80.90671769444445,26.413753472222222],[-80.90607763888889,26.41463247222222],[-80.90588391666667,26.415205194444443],[-80.90572455555557,26.41626747222222],[-80.9058423888889,26.41794588888889],[-80.90665925,26.419584500000003],[-80.90716455555557,26.420117444444447],[-80.90774261111112,26.42057602777778],[-80.90831086111112,26.420894722222222],[-80.90847111111111,26.420955833333334],[-80.90982100000001,26.42130025]]},"properties":{"style":"solid","thickness":1}},{"type":"Feature","geometry":{"type":"LineString","coordinates":[[-81.40912166666668,26.296655222222224],[-81.40470030555556,26.296922694444447]]},"properties":{"style":"solid","thickness":1}},{"type":"Feature","geometry":{"type":"LineString","coordinates":[[-81.40480069444445,26.301411472222224],[-81.40945497222222,26.301129916666667],[-81.4087936388889,26.292250444444445]]},"properties":{"style":"solid","thickness":1}},{"type":"Feature","geometry":{"type":"LineString","coordinates":[[-81.39634541666668,26.301922583333333],[-81.39774169444445,26.301838222222223],[-81.3984346388889,26.301726111111112],[-81.39978411111112,26.301012472222222],[-81.4010143888889,26.299744166666667],[-81.40141216666667,26.298807111111113],[-81.4015616388889,26.297674361111113],[-81.401494,26.29676541666667],[-81.40127641666668,26.29593580555556],[-81.40082094444445,26.295050305555556],[-81.39988450000001,26.293983222222224],[-81.39954822222222,26.29365238888889],[-81.39889647222223,26.29327038888889],[-81.39754666666667,26.292930583333334],[-81.39591777777778,26.293029],[-81.39515252777778,26.293215694444445],[-81.39439763888889,26.293542222222225],[-81.39394783333334,26.29378011111111],[-81.39321375,26.29438630555556],[-81.39257802777779,26.295267472222225],[-81.39238691666667,26.295840861111113],[-81.39223216666667,26.296903694444445],[-81.3923568888889,26.298581722222224],[-81.39317977777779,26.300217583333335],[-81.39368677777779,26.300748805555557],[-81.39426616666667,26.30120541666667],[-81.39483516666667,26.30152222222222],[-81.39499550000001,26.30158275],[-81.39634541666668,26.301922583333333]]},"properties":{"style":"solid","thickness":1}},{"type":"Feature","geometry":{"type":"LineString","coordinates":[[-81.3863165,26.298033361111113],[-81.38249880555554,26.293839166666668]]},"properties":{"style":"solid","thickness":1}},{"type":"Feature","geometry":{"type":"LineString","coordinates":[[-81.38878169444445,26.293460000000003],[-81.3894415,26.302339555555555],[-81.3855628888889,26.302573666666667],[-81.38524219444444,26.302452527777778],[-81.38452327777779,26.302215],[-81.38377322222223,26.301557944444443],[-81.38341100000001,26.300877472222222],[-81.38334869444445,26.300038472222223],[-81.38360705555556,26.299320555555557],[-81.38425327777779,26.298579250000003],[-81.38493061111112,26.298257472222225],[-81.38523052777778,26.298098916666667],[-81.389109,26.29786480555556]]},"properties":{"style":"solid","thickness":1}},{"type":"Feature","geometry":{"type":"LineString","coordinates":[[-81.37997763888889,26.302910583333333],[-81.3743923611111,26.30324727777778]]},"properties":{"style":"solid","thickness":1}},{"type":"Feature","geometry":{"type":"LineString","coordinates":[[-81.37726258333333,26.303074277777778],[-81.37660369444444,26.29419466666667]]},"properties":{"style":"solid","thickness":1}},{"type":"Feature","geometry":{"type":"LineString","coordinates":[[-81.37113427777777,26.303443583333333],[-81.3704758611111,26.294563944444445],[-81.36667502777777,26.294792861111112]]},"properties":{"style":"solid","thickness":1}},{"type":"Feature","geometry":{"type":"LineString","coordinates":[[-81.28499741666667,26.55000175],[-81.27366844444444,26.560541361111113],[-81.26983875,26.54629266666667]]},"properties":{"style":"solid","thickness":1}},{"type":"Feature","geometry":{"type":"LineString","coordinates":[[-81.34471283333333,26.30539338888889],[-81.35998224999999,26.305438055555555],[-81.35230458333332,26.31734325],[-81.34471283333333,26.30539338888889]]},"properties":{"style":"solid","thickness":1}},{"type":"Feature","geometry":{"type":"LineString","coordinates":[[-80.96419102777779,26.413373083333333],[-80.9794745,26.413458555555554],[-80.97175047222223,26.425343055555558],[-80.96419102777779,26.413373083333333]]},"properties":{"style":"solid","thickness":1}},{"type":"Feature","geometry":{"type":"LineString","coordinates":[[-81.3945358888889,26.822926416666668],[-81.38760180555556,26.823343027777778],[-81.38500625,26.828369527777777],[-81.38887625000001,26.833559138888887],[-81.39479116666668,26.83320377777778],[-81.39785527777778,26.827597527777776],[-81.3945358888889,26.822926416666668]]},"properties":{"style":"solid","thickness":1}},{"type":"Feature","geometry":{"type":"LineString","coordinates":[[-81.3945358888889,26.822926416666668],[-81.39431730555556,26.819998805555556],[-81.38738336111112,26.82041538888889],[-81.38760180555556,26.823343027777778]]},"properties":{"style":"solid","thickness":1}},{"type":"Feature","geometry":{"type":"LineString","coordinates":[[-81.38500625,26.828369527777777],[-81.38216488888888,26.830102333333333],[-81.38612997222224,26.835194444444443],[-81.38887625000001,26.833559138888887]]},"properties":{"style":"solid","thickness":1}},{"type":"Feature","geometry":{"type":"LineString","coordinates":[[-81.39479116666668,26.83320377777778],[-81.39775597222223,26.834495944444445],[-81.40092877777778,26.828975],[-81.39785527777778,26.827597527777776]]},"properties":{"style":"solid","thickness":1}},{"type":"Feature","geometry":{"type":"LineString","coordinates":[[-81.28058355555555,26.630551583333332],[-81.28172944444444,26.61592888888889],[-81.29485597222222,26.624628611111113]]},"properties":{"style":"solid","thickness":1}},{"type":"Feature","geometry":{"type":"LineString","coordinates":[[-81.39872886111112,26.643147499999998],[-81.39767855555556,26.643210749999998],[-81.39709666666667,26.63540847222222]]},"properties":{"style":"solid","thickness":1}},{"type":"Feature","geometry":{"type":"LineString","coordinates":[[-81.39191552777778,26.635720444444445],[-81.39100566666667,26.636723277777776],[-81.39023111111112,26.63765475],[-81.3895918888889,26.63851488888889],[-81.38920930555557,26.639043527777776],[-81.38890611111111,26.639693805555556],[-81.38881294444445,26.640331472222222],[-81.38878511111112,26.64090197222222],[-81.38886950000001,26.642034555555554],[-81.38911238888889,26.642462388888887],[-81.38942061111112,26.642823055555557],[-81.3897335,26.643246666666666],[-81.39124144444445,26.643661527777777],[-81.39208166666667,26.643610972222223],[-81.39295911111111,26.643115722222223],[-81.39308975,26.642981444444445],[-81.3936123888889,26.64244436111111],[-81.39367302777778,26.642314305555555],[-81.39388741666667,26.64141652777778],[-81.39384052777778,26.640787305555556],[-81.3936676388889,26.64035527777778],[-81.39349947222223,26.639986194444443],[-81.39318655555556,26.639562583333333],[-81.39259358333334,26.63915586111111],[-81.39201469444446,26.63893788888889],[-81.39165991666667,26.638896055555556],[-81.39116977777779,26.638925555555556],[-81.3908243888889,26.639009527777777],[-81.38967161111111,26.639584555555555],[-81.38880825000001,26.640268527777778]]},"properties":{"style":"solid","thickness":1}},{"type":"Feature","geometry":{"type":"LineString","coordinates":[[-81.31802058333334,26.560801083333335],[-81.31804847222222,26.56117863888889],[-81.31794102777778,26.561627472222224],[-81.31770297222222,26.5622105],[-81.31745094444445,26.56260477777778],[-81.31704969444444,26.56288152777778],[-81.31649919444445,26.563040805555556],[-81.3154496111111,26.563103472222224],[-81.31467058333332,26.563023583333333],[-81.31430677777777,26.562855694444444],[-81.31378447222222,26.562444444444445],[-81.31362130555556,26.562138194444444],[-81.31344419444444,26.56164313888889],[-81.31336988888889,26.560636333333335],[-81.31348197222222,26.56025041666667],[-81.31401416666667,26.55889141666667],[-81.31478880555555,26.557960333333334],[-81.31602997222222,26.55668538888889],[-81.3175231111111,26.555016166666668],[-81.31311508333333,26.555279333333335]]},"properties":{"style":"solid","thickness":1}},{"type":"Feature","geometry":{"type":"LineString","coordinates":[[-81.30557116666667,26.55876313888889],[-81.30571038888888,26.56065088888889],[-81.30599919444444,26.561708111111113],[-81.30617625,26.562203166666666],[-81.30641402777778,26.562568194444445],[-81.30730938888888,26.56327322222222],[-81.30817230555556,26.563537750000002],[-81.30845219444444,26.563521055555555],[-81.30926866666667,26.563156333333335],[-81.30998266666667,26.562355333333333],[-81.31023472222222,26.561961083333333],[-81.31033752777778,26.561449333333336],[-81.3104685,26.560367055555556],[-81.31032922222222,26.558479305555558],[-81.31004038888888,26.557422111111112],[-81.30986330555555,26.556927055555555],[-81.30955558333333,26.556566194444446],[-81.30873022222222,26.55585702777778],[-81.30786736111111,26.555592472222223],[-81.3075875,26.555609166666667],[-81.30677105555556,26.55597388888889],[-81.30598711111111,26.556779055555555],[-81.30580502777778,26.557169138888888],[-81.30570222222222,26.55768088888889],[-81.30557116666667,26.55876313888889]]},"properties":{"style":"solid","thickness":1}},{"type":"Feature","geometry":{"type":"LineString","coordinates":[[-80.93705894444444,26.401870083333332],[-80.93708555555556,26.40224772222222],[-80.93697683333333,26.402696277777775],[-80.93673719444445,26.403278666666665],[-80.93648425,26.403672277777776],[-80.93608263888889,26.40394797222222],[-80.93553241666667,26.404105805555552],[-80.93448405555556,26.404165694444444],[-80.93370641666667,26.40408372222222],[-80.93334366666667,26.403914888888888],[-80.93282341666666,26.403502277777775],[-80.93266147222222,26.403195555555556],[-80.93248625000001,26.402700055555552],[-80.93241530555557,26.401693055555555],[-80.9325285,26.40130744444444],[-80.9330643888889,26.39994986111111],[-80.93384097222223,26.39902083333333],[-80.93508458333334,26.397749166666667],[-80.93658108333334,26.39608388888889],[-80.93217833333334,26.396335444444443]]},"properties":{"style":"solid","thickness":1}},{"type":"Feature","geometry":{"type":"LineString","coordinates":[[-80.92463366666667,26.399799277777777],[-80.9247665,26.401687388888888],[-80.92505147222222,26.40274536111111],[-80.92522666666667,26.403240888888888],[-80.92546291666667,26.403606527777775],[-80.92635472222223,26.404313916666666],[-80.92721555555556,26.404580749999997],[-80.92749511111111,26.404564777777775],[-80.9283116388889,26.40420222222222],[-80.92902725,26.40340308333333],[-80.92928022222223,26.4030095],[-80.92938455555556,26.402498027777778],[-80.9295188888889,26.401416138888887],[-80.92938597222222,26.399528027777777],[-80.929101,26.398470055555556],[-80.92892577777778,26.397974527777777],[-80.92861963888889,26.39761288888889],[-80.92779775000001,26.39690152777778],[-80.92693697222222,26.396634694444444],[-80.92665744444444,26.396650666666666],[-80.92584097222223,26.39701322222222],[-80.92505547222223,26.397816305555555],[-80.9248723888889,26.39820588888889],[-80.92476805555556,26.398717388888887],[-80.92463366666667,26.399799277777777]]},"properties":{"style":"solid","thickness":1}},{"type":"Feature","geometry":{"type":"LineString","coordinates":[[-81.39459116666667,26.281028666666664],[-81.39461925,26.28140622222222],[-81.3945123888889,26.28185511111111],[-81.39427527777778,26.28243833333333],[-81.3940241388889,26.28283275],[-81.39362402777779,26.283109749999998],[-81.39307497222222,26.283269333333333],[-81.39202791666668,26.283332583333333],[-81.39125072222222,26.28325311111111],[-81.39088769444444,26.283085416666665],[-81.39036633333335,26.282674444444442],[-81.39020336111112,26.28236822222222],[-81.39002633333334,26.28187325],[-81.38995152777778,26.28086644444444],[-81.39006308333335,26.280480472222223],[-81.39059308333334,26.279121083333333],[-81.39136522222223,26.278189527777776],[-81.39260255555556,26.27691383333333],[-81.394091,26.27524372222222],[-81.38969372222223,26.275509333333332]]},"properties":{"style":"solid","thickness":1}},{"type":"Feature","geometry":{"type":"LineString","coordinates":[[-81.38217024999999,26.278997416666666],[-81.38231041666666,26.280885194444444],[-81.38259922222221,26.281942305555553],[-81.38277622222222,26.282437305555554],[-81.38301363888888,26.28280222222222],[-81.38390736111111,26.28350677777778],[-81.38476836111111,26.283770861111112],[-81.38504758333335,26.28375402777778],[-81.38586186111112,26.283388833333333],[-81.38657361111112,26.28258738888889],[-81.38682477777779,26.282192972222223],[-81.38692697222223,26.28168113888889],[-81.38705694444445,26.28059875],[-81.38691672222222,26.27871097222222],[-81.38662786111112,26.27765388888889],[-81.38645086111111,26.277158888888888],[-81.3861436388889,26.276798194444442],[-81.38531975000001,26.276089444444445],[-81.38445880555557,26.27582536111111],[-81.38417961111112,26.275842194444444],[-81.38336538888889,26.27620738888889],[-81.3825838611111,26.277013027777777],[-81.38240247222221,26.277403222222222],[-81.38230025,26.277915055555553],[-81.38217024999999,26.278997416666666]]},"properties":{"style":"solid","thickness":1}},{"type":"Feature","geometry":{"type":"LineString","coordinates":[[-81.23523511111111,26.55924313888889],[-81.24292436111111,26.572168944444446],[-81.22666658333334,26.571086083333334]]},"properties":{"style":"solid","thickness":1}},{"type":"Feature","geometry":{"type":"LineString","coordinates":[[-81.3298435,26.578894],[-81.32424474999999,26.579228666666666]]},"properties":{"style":"solid","thickness":1}},{"type":"Feature","geometry":{"type":"LineString","coordinates":[[-81.32712188888888,26.579056722222223],[-81.32646541666666,26.570177194444444]]},"properties":{"style":"solid","thickness":1}},{"type":"Feature","geometry":{"type":"LineString","coordinates":[[-81.32032277777778,26.57054422222222],[-81.32097877777777,26.579423777777777]]},"properties":{"style":"solid","thickness":1}},{"type":"Feature","geometry":{"type":"LineString","coordinates":[[-81.31380547222221,26.575357611111112],[-81.30998130555555,26.571161555555555]]},"properties":{"style":"solid","thickness":1}},{"type":"Feature","geometry":{"type":"LineString","coordinates":[[-81.3162795,26.570785694444446],[-81.31693522222221,26.57966525],[-81.31304713888889,26.57989733333333],[-81.31272577777777,26.579776055555556],[-81.31200527777777,26.57953813888889],[-81.31125383333332,26.578880722222223],[-81.31089119444444,26.578200083333332],[-81.31082927777777,26.577361083333333],[-81.31108872222222,26.576643333333333],[-81.31173694444445,26.57590238888889],[-81.31241613888889,26.575580972222223],[-81.31271686111111,26.57542258333333],[-81.31660477777777,26.5751905]]},"properties":{"style":"solid","thickness":1}},{"type":"Feature","geometry":{"type":"LineString","coordinates":[[-81.30744830555555,26.580231333333334],[-81.30184941666667,26.58056511111111]]},"properties":{"style":"solid","thickness":1}},{"type":"Feature","geometry":{"type":"LineString","coordinates":[[-81.3047266111111,26.58039361111111],[-81.30407186111111,26.571514]]},"properties":{"style":"solid","thickness":1}},{"type":"Feature","geometry":{"type":"LineString","coordinates":[[-81.29383986111111,26.581042222222223],[-81.29858338888889,26.580759694444446],[-81.2979291111111,26.571880083333333],[-81.29310816666667,26.572167194444443]]},"properties":{"style":"solid","thickness":1}},{"type":"Feature","geometry":{"type":"LineString","coordinates":[[-81.29825366666667,26.576284944444446],[-81.29366583333334,26.576558166666665]]},"properties":{"style":"solid","thickness":1}},{"type":"Feature","geometry":{"type":"LineString","coordinates":[[-81.41539561111112,26.65986597222222],[-81.41486777777779,26.652804666666665],[-81.41476386111111,26.652459805555555],[-81.41416694444445,26.651793527777777],[-81.41374658333334,26.651397527777775],[-81.41310322222223,26.651155416666665],[-81.4122421388889,26.65113713888889],[-81.41099725000001,26.651212249999997],[-81.41030219444445,26.651324388888888],[-81.4093946388889,26.651730277777776],[-81.40888655555555,26.652252527777776],[-81.4086066388889,26.652690777777778],[-81.40849802777778,26.65332938888889],[-81.40901500000001,26.66025086111111]]},"properties":{"style":"solid","thickness":1}},{"type":"Feature","geometry":{"type":"LineString","coordinates":[[-81.4026116388889,26.656142222222222],[-81.39878158333335,26.651948583333333]]},"properties":{"style":"solid","thickness":1}},{"type":"Feature","geometry":{"type":"LineString","coordinates":[[-81.40508394444446,26.651568805555556],[-81.4057468888889,26.66044788888889],[-81.40185625000001,26.66068236111111],[-81.40153455555556,26.660561277777777],[-81.40081336111112,26.660323833333333],[-81.40006088888889,26.65966686111111],[-81.39969747222223,26.65898647222222],[-81.39963486111112,26.6581475],[-81.39989394444446,26.65742961111111],[-81.40054208333333,26.656688277777775],[-81.4012215,26.656366444444444],[-81.40152230555556,26.65620786111111],[-81.40541280555556,26.65597338888889]]},"properties":{"style":"solid","thickness":1}},{"type":"Feature","geometry":{"type":"LineString","coordinates":[[-81.39072894444445,26.66135236111111],[-81.39212958333334,26.661268083333333],[-81.39282469444446,26.661156],[-81.39417841666668,26.660442472222222],[-81.39541258333334,26.659174305555553],[-81.39581169444445,26.658237305555556],[-81.39596169444445,26.65710461111111],[-81.39589391666668,26.656195722222222],[-81.39567572222222,26.65536611111111],[-81.39521888888889,26.654480666666664],[-81.39427958333334,26.653413555555556],[-81.39394227777778,26.65308272222222],[-81.39328852777778,26.652700694444444],[-81.39193452777778,26.652360833333333],[-81.39030058333334,26.652459166666667],[-81.38953291666667,26.652645805555554],[-81.38877566666667,26.652972277777778],[-81.38832444444445,26.65321011111111],[-81.38758805555557,26.65381625],[-81.38695027777779,26.65469733333333],[-81.38675850000001,26.655270694444443],[-81.38660319444445,26.656333472222222],[-81.38672822222223,26.658011416666664],[-81.38755352777778,26.65964725],[-81.38806208333334,26.66017847222222],[-81.38864325,26.66063511111111],[-81.38921400000001,26.660951916666665],[-81.38937483333333,26.66101247222222],[-81.39072894444445,26.66135236111111]]},"properties":{"style":"solid","thickness":1}},{"type":"Feature","geometry":{"type":"LineString","coordinates":[[-81.38380347222223,26.661768916666666],[-81.38314222222222,26.65288975],[-81.3793296111111,26.653118916666664]]},"properties":{"style":"solid","thickness":1}},{"type":"Feature","geometry":{"type":"LineString","coordinates":[[-81.37205344444443,26.662474888888887],[-81.37680016666665,26.662189805555553],[-81.37613944444443,26.65331061111111],[-81.37131527777777,26.653600333333333]]},"properties":{"style":"solid","thickness":1}},{"type":"Feature","geometry":{"type":"LineString","coordinates":[[-81.37646719444444,26.65771525],[-81.37187627777777,26.65799097222222]]},"properties":{"style":"solid","thickness":1}},{"type":"Feature","geometry":{"type":"LineString","coordinates":[[-81.76784447222222,26.544527583333334],[-81.76786244444445,26.544656805555558],[-81.76789841666667,26.54479077777778],[-81.76795461111111,26.544926833333335],[-81.76803263888888,26.545061500000003],[-81.76813316666667,26.545190805555556],[-81.76825569444445,26.545310333333337],[-81.76839830555555,26.54541577777778],[-81.76855772222223,26.54550327777778],[-81.76872952777778,26.545569833333335],[-81.76890852777778,26.545613722222225],[-81.76908927777778,26.545634500000002],[-81.7692666388889,26.545633138888892],[-81.76943613888889,26.54561163888889],[-81.76959427777777,26.545572805555558],[-81.76973872222221,26.54551977777778],[-81.76986813888888,26.545455888888892],[-81.76998511111111,26.545382111111113],[-81.77009797222222,26.54529266666667],[-81.77020402777778,26.545186444444447],[-81.77029925,26.545063666666668],[-81.77037941666667,26.54492541666667],[-81.77044044444445,26.544773944444447],[-81.77047883333333,26.54461252777778],[-81.77049208333334,26.544445444444445],[-81.77047902777778,26.54427752777778],[-81.77044005555555,26.544113722222225],[-81.77037705555556,26.543958694444445],[-81.77029316666666,26.543816333333336],[-81.77019238888889,26.543689472222223],[-81.77007908333333,26.543579805555556],[-81.76995763888888,26.543487916666667],[-81.76983202777778,26.543413444444447],[-81.76970477777778,26.54335502777778],[-81.76956675,26.543307944444447],[-81.7694155,26.543273555555558],[-81.76925288888889,26.543254861111112],[-81.76908172222223,26.543254805555556],[-81.76890588888888,26.54327563888889],[-81.76873011111111,26.543318861111114],[-81.76855966666666,26.543384722222225],[-81.76839983333333,26.54347213888889],[-81.7682555,26.543578722222225],[-81.76813058333333,26.543701000000002],[-81.76802775,26.543834694444445],[-81.76794819444444,26.543975333333336],[-81.76789177777778,26.544118472222223],[-81.76785716666667,26.544260222222224],[-81.76784227777777,26.54439738888889],[-81.76784447222222,26.544527583333334]]},"properties":{"style":"solid","thickness":1}},{"type":"Feature","geometry":{"type":"LineString","coordinates":[[-81.76994972222222,26.545314416666667],[-81.76980747222223,26.54348488888889]]},"properties":{"style":"solid","thickness":1}},{"type":"Feature","geometry":{"type":"LineString","coordinates":[[-81.76945541666666,26.545529361111114],[-81.76928472222222,26.543333944444445]]},"properties":{"style":"solid","thickness":1}},{"type":"Feature","geometry":{"type":"LineString","coordinates":[[-81.76894688888889,26.545561361111112],[-81.76877619444444,26.54336591666667]]},"properties":{"style":"solid","thickness":1}},{"type":"Feature","geometry":{"type":"LineString","coordinates":[[-81.76842411111112,26.54541038888889],[-81.7682818888889,26.543580861111113]]},"properties":{"style":"solid","thickness":1}}]}
