{"type":"FeatureCollection","features":[{"type":"Feature","geometry":{"type":"LineString","coordinates":[[-81.55638327777777,26.235676],[-81.5692216111111,26.223768138888886]]},"properties":{"style":"solid","thickness":1}},{"type":"Feature","geometry":{"type":"LineString","coordinates":[[-81.71470561111111,26.220885222222222],[-81.70148947222222,26.20932002777778]]},"properties":{"style":"solid","thickness":1}},{"type":"Feature","geometry":{"type":"LineString","coordinates":[[-81.70198883333333,26.34050936111111],[-81.68904938888889,26.35242925]]},"properties":{"style":"solid","thickness":1}},{"type":"Feature","geometry":{"type":"LineString","coordinates":[[-81.70808333333333,26.21508336111111],[-81.6951495,26.227055444444442]]},"properties":{"style":"solid","thickness":1}},{"type":"Feature","geometry":{"type":"LineString","coordinates":[[-81.682213,26.239026333333335],[-81.66927386111112,26.250996027777777]]},"properties":{"style":"solid","thickness":1}},{"type":"Feature","geometry":{"type":"LineString","coordinates":[[-81.65633208333334,26.262964555555556],[-81.6433876388889,26.274931888888887]]},"properties":{"style":"solid","thickness":1}},{"type":"Feature","geometry":{"type":"LineString","coordinates":[[-81.62912777777777,26.288111111111114],[-81.64240052777778,26.29978502777778]]},"properties":{"style":"solid","thickness":1}},{"type":"Feature","geometry":{"type":"LineString","coordinates":[[-81.65567594444445,26.311457722222222],[-81.66895402777779,26.323129166666668]]},"properties":{"style":"solid","thickness":1}},{"type":"Feature","geometry":{"type":"LineString","coordinates":[[-81.68223475,26.33479936111111],[-81.69551813888889,26.346468305555554]]},"properties":{"style":"solid","thickness":1}},{"type":"Feature","geometry":{"type":"LineString","coordinates":[[-81.62912777777777,26.288111111111114],[-81.61585763888888,26.27643597222222]]},"properties":{"style":"solid","thickness":1}},{"type":"Feature","geometry":{"type":"LineString","coordinates":[[-81.60259016666666,26.264759583333333],[-81.58932536111111,26.253081972222223]]},"properties":{"style":"solid","thickness":1}},{"type":"Feature","geometry":{"type":"LineString","coordinates":[[-81.57606319444444,26.24140311111111],[-81.56280366666667,26.229723]]},"properties":{"style":"solid","thickness":1}},{"type":"Feature","geometry":{"type":"LineString","coordinates":[[-81.68159375,26.360164111111114],[-81.68227619444446,26.369042083333333],[-81.67839602777778,26.369284083333334],[-81.67807486111111,26.369163611111112],[-81.67735494444445,26.368927555555555],[-81.67660280555556,26.368272027777778],[-81.67623869444445,26.367592333333334],[-81.67617425,26.36675347222222],[-81.67643094444445,26.366035055555557],[-81.67707566666667,26.365292472222222],[-81.67775258333334,26.364969305555558],[-81.67805225000001,26.364810138888892],[-81.68193227777778,26.36456813888889]]},"properties":{"style":"solid","thickness":1}},{"type":"Feature","geometry":{"type":"LineString","coordinates":[[-81.66760905555556,26.369956277777778],[-81.66900591666668,26.369869277777777],[-81.66969900000001,26.369755861111113],[-81.67104758333333,26.369039694444446],[-81.67227558333335,26.367769111111112],[-81.67267141666667,26.366831305555557],[-81.67281833333334,26.365698305555558],[-81.67274852777778,26.364789555555557],[-81.67252891666668,26.36396036111111],[-81.6720711388889,26.36307575],[-81.67113166666667,26.362010444444447],[-81.67079441666667,26.36168027777778],[-81.67014144444445,26.3612995],[-81.66879005555556,26.36096225],[-81.66716047222222,26.361063750000003],[-81.66639522222223,26.36125188888889],[-81.66564069444445,26.361579833333334],[-81.66519119444445,26.36181855555556],[-81.66445811111112,26.362426111111112],[-81.66382405555557,26.363308472222222],[-81.66363416666667,26.363882194444447],[-81.66348180555556,26.364945277777778],[-81.6636105,26.36662302777778],[-81.6644376388889,26.36825727777778],[-81.66494616666667,26.36878752777778],[-81.66552694444445,26.369243055555557],[-81.66609700000001,26.36955875],[-81.66625758333333,26.369619],[-81.66760905555556,26.369956277777778]]},"properties":{"style":"solid","thickness":1}},{"type":"Feature","geometry":{"type":"LineString","coordinates":[[-81.65689955555555,26.370622861111112],[-81.65632616666667,26.36314288888889],[-81.65637161111111,26.36271863888889],[-81.65672747222223,26.362275055555557],[-81.65716627777779,26.361896583333333],[-81.65746594444445,26.361737444444447],[-81.65792619444446,26.361638583333335],[-81.65870219444444,26.361590305555556],[-81.65917313888889,26.361631222222222],[-81.65990905555556,26.362077111111113],[-81.66008033333334,26.36227716666667]]},"properties":{"style":"solid","thickness":1}},{"type":"Feature","geometry":{"type":"LineString","coordinates":[[-81.65371236111112,26.370750833333332],[-81.65303741666668,26.36194263888889]]},"properties":{"style":"solid","thickness":1}},{"type":"Feature","geometry":{"type":"LineString","coordinates":[[-81.64711583333334,26.37116086111111],[-81.64644138888889,26.36235263888889]]},"properties":{"style":"solid","thickness":1}},{"type":"Feature","geometry":{"type":"LineString","coordinates":[[-81.65339630555556,26.366626361111113],[-81.64680002777779,26.36703636111111]]},"properties":{"style":"solid","thickness":1}},{"type":"Feature","geometry":{"type":"LineString","coordinates":[[-81.64393933333334,26.371428416666667],[-81.64017966666667,26.36611302777778],[-81.63734275,26.371838]]},"properties":{"style":"solid","thickness":1}},{"type":"Feature","geometry":{"type":"LineString","coordinates":[[-81.64017966666667,26.36611302777778],[-81.63992827777778,26.36282741666667]]},"properties":{"style":"solid","thickness":1}},{"type":"Feature","geometry":{"type":"LineString","coordinates":[[-81.6065498611111,26.310702444444445],[-81.60794605555554,26.31061602777778],[-81.60863883333333,26.310502916666668],[-81.60998708333332,26.309787305555556],[-81.61121511111111,26.30851725],[-81.61161125,26.30757963888889],[-81.61175866666666,26.306446694444446],[-81.61168938888888,26.30553788888889],[-81.61147030555556,26.304708611111113],[-81.61101322222221,26.303823805555556],[-81.61007480555556,26.30275811111111],[-81.60973791666666,26.30242777777778],[-81.60908547222222,26.302046750000002],[-81.60773497222222,26.301708916666666],[-81.60610616666666,26.301809722222224],[-81.60534122222222,26.301997555555555],[-81.60458688888889,26.302325166666666],[-81.6041375,26.302563694444444],[-81.60340447222222,26.303170944444446],[-81.60277030555555,26.30405302777778],[-81.60258019444444,26.304626694444444],[-81.60242736111111,26.305689694444446],[-81.6025551111111,26.3073675],[-81.60338097222221,26.309002111111113],[-81.60388897222222,26.309532583333333],[-81.60446922222222,26.309988333333333],[-81.60503880555555,26.310304277777778],[-81.60519927777777,26.310364583333335],[-81.6065498611111,26.310702444444445]]},"properties":{"style":"solid","thickness":1}},{"type":"Feature","geometry":{"type":"LineString","coordinates":[[-81.59930577777777,26.306655361111112],[-81.59488458333333,26.306928694444444]]},"properties":{"style":"solid","thickness":1}},{"type":"Feature","geometry":{"type":"LineString","coordinates":[[-81.59499230555555,26.31141722222222],[-81.59964636111111,26.3111295],[-81.59897052777777,26.302251166666668]]},"properties":{"style":"solid","thickness":1}},{"type":"Feature","geometry":{"type":"LineString","coordinates":[[-81.59136944444444,26.30272097222222],[-81.59204472222221,26.31159936111111],[-81.58863169444444,26.311810166666667],[-81.58769025,26.311727833333332],[-81.58728647222222,26.311542055555556],[-81.58662872222222,26.311091027777778],[-81.58563944444444,26.3103795],[-81.58494983333333,26.309509000000002],[-81.58474158333333,26.308819472222222],[-81.58456625,26.3065125],[-81.58467355555555,26.305873722222223],[-81.58507519444444,26.305006111111112],[-81.58558094444444,26.304483222222224],[-81.58607608333332,26.303820527777777],[-81.58681452777778,26.30328325],[-81.58772933333333,26.303016055555556],[-81.58826694444444,26.30291261111111],[-81.59136944444444,26.30272097222222]]},"properties":{"style":"solid","thickness":1}},{"type":"Feature","geometry":{"type":"LineString","coordinates":[[-81.57629825,26.312571333333334],[-81.57769449999999,26.31248522222222],[-81.57838730555555,26.31237225],[-81.57973575,26.311656916666667],[-81.58096413888889,26.310387111111112],[-81.5813605,26.309449583333333],[-81.58150822222221,26.308316666666666],[-81.58143919444444,26.307407861111113],[-81.58122033333333,26.306578527777777],[-81.58076347222222,26.30569363888889],[-81.57982530555554,26.30462775],[-81.5794885,26.30429736111111],[-81.5788361111111,26.303916166666667],[-81.57748569444443,26.303578055555555],[-81.5758568611111,26.30367852777778],[-81.57509183333333,26.303866194444446],[-81.57433741666667,26.30419363888889],[-81.57388794444444,26.304432083333335],[-81.57315475,26.305039166666667],[-81.57252033333333,26.30592111111111],[-81.57233008333333,26.306494750000002],[-81.57217697222222,26.307557722222224],[-81.57230430555555,26.309235555555556],[-81.57312974999999,26.310870333333334],[-81.57363761111111,26.311400916666667],[-81.57421775,26.311856777777777],[-81.57478727777777,26.31217286111111],[-81.57494772222222,26.312233194444445],[-81.57629825,26.312571333333334]]},"properties":{"style":"solid","thickness":1}},{"type":"Feature","geometry":{"type":"LineString","coordinates":[[-81.56939452777777,26.312996916666666],[-81.56564016666667,26.307679583333336],[-81.56280105555555,26.313403083333334]]},"properties":{"style":"solid","thickness":1}},{"type":"Feature","geometry":{"type":"LineString","coordinates":[[-81.56564016666667,26.307679583333336],[-81.56539102777778,26.304393861111112]]},"properties":{"style":"solid","thickness":1}},{"type":"Feature","geometry":{"type":"LineString","coordinates":[[-81.54809961111111,26.25264772222222],[-81.5475655,26.245586805555558],[-81.54746155555556,26.245242],[-81.546866,26.244576277777778],[-81.54644663888888,26.24418066666667],[-81.54580530555555,26.243939166666667],[-81.54494724999999,26.243921694444445],[-81.5437068611111,26.243997972222225],[-81.54301441666667,26.244110777777777],[-81.54211055555555,26.2445175],[-81.54160486111111,26.245040250000002],[-81.54132647222222,26.24547877777778],[-81.54121897222223,26.2461175],[-81.5417421111111,26.253038611111112]]},"properties":{"style":"solid","thickness":1}},{"type":"Feature","geometry":{"type":"LineString","coordinates":[[-81.53087555555555,26.252512111111113],[-81.5312173611111,26.252912527777777],[-81.53194680555555,26.253289166666665],[-81.53242255555556,26.25340041666667],[-81.53375641666666,26.253529222222223],[-81.53422161111111,26.253500638888887],[-81.53514141666666,26.253303694444444],[-81.53590088888889,26.253046333333334],[-81.53605066666667,26.252966916666665],[-81.53656697222222,26.25258402777778],[-81.537078,26.25213122222222],[-81.53791855555555,26.250885583333332],[-81.53822169444445,26.249743194444445],[-81.53810547222223,26.24820516666667],[-81.53788702777777,26.24737577777778],[-81.53752938888888,26.24676563888889],[-81.53702197222222,26.24623491666667],[-81.5365973888889,26.245769361111112],[-81.53592963888889,26.245178250000002],[-81.53528830555555,26.244936722222224],[-81.53464699999999,26.244695166666666],[-81.53409375,26.24458866666667],[-81.53269827777778,26.244674361111112],[-81.53193358333333,26.244861805555555],[-81.5313345,26.24517952777778],[-81.53066316666667,26.245571916666666],[-81.53022438888888,26.245950027777777],[-81.52951244444445,26.246836527777777],[-81.52909477777777,26.24749427777778],[-81.52897138888889,26.24792325],[-81.52905580555556,26.249041833333333],[-81.532312,26.248841944444447]]},"properties":{"style":"solid","thickness":1}},{"type":"Feature","geometry":{"type":"LineString","coordinates":[[-81.5262358611111,26.253990833333333],[-81.52248538888888,26.248672388888888],[-81.51964561111112,26.25439502777778]]},"properties":{"style":"solid","thickness":1}},{"type":"Feature","geometry":{"type":"LineString","coordinates":[[-81.52248538888888,26.248672388888888],[-81.52223755555555,26.245386555555555]]},"properties":{"style":"solid","thickness":1}},{"type":"Feature","geometry":{"type":"LineString","coordinates":[[-81.51096194444445,26.25492713888889],[-81.51235752777778,26.254841666666668],[-81.51305005555555,26.254729],[-81.51439825,26.254014305555554],[-81.51562672222222,26.252745027777777],[-81.51602341666667,26.251807694444445],[-81.51617169444444,26.25067486111111],[-81.51610319444444,26.249766],[-81.51588488888889,26.248936583333336],[-81.51542875,26.248051472222222],[-81.51449166666667,26.24698516666667],[-81.51415519444444,26.24665461111111],[-81.51350338888889,26.24627313888889],[-81.51215380555556,26.245934416666667],[-81.51052575,26.24603413888889],[-81.509761,26.246221444444444],[-81.50900677777778,26.246548583333333],[-81.50855741666666,26.246786805555555],[-81.50782425,26.247393555555558],[-81.50718966666666,26.248275222222222],[-81.50699919444445,26.24884875],[-81.50684555555556,26.249911666666666],[-81.50697188888888,26.251589555555555],[-81.507796,26.253224694444445],[-81.50830330555556,26.2537555],[-81.50888288888889,26.254211666666667],[-81.50945194444445,26.25452797222222],[-81.50961227777778,26.254588388888887],[-81.51096194444445,26.25492713888889]]},"properties":{"style":"solid","thickness":1}},{"type":"Feature","geometry":{"type":"LineString","coordinates":[[-81.50406147222222,26.25534961111111],[-81.50075725,26.24663211111111],[-81.49816888888888,26.25571011111111],[-81.49478758333333,26.246997222222223],[-81.49258641666667,26.25605138888889]]},"properties":{"style":"solid","thickness":1}},{"type":"Feature","geometry":{"type":"LineString","coordinates":[[-81.75677269444445,26.23132136111111],[-81.75119211111111,26.23167272222222]]},"properties":{"style":"solid","thickness":1}},{"type":"Feature","geometry":{"type":"LineString","coordinates":[[-81.75405991666666,26.231492194444442],[-81.75337280555556,26.222614527777775]]},"properties":{"style":"solid","thickness":1}},{"type":"Feature","geometry":{"type":"LineString","coordinates":[[-81.74320875000001,26.23217494444444],[-81.74793677777778,26.231877555555553],[-81.74725011111111,26.22299986111111],[-81.74244494444444,26.22330211111111]]},"properties":{"style":"solid","thickness":1}},{"type":"Feature","geometry":{"type":"LineString","coordinates":[[-81.74759072222223,26.227403777777777],[-81.74301788888889,26.227691416666666]]},"properties":{"style":"solid","thickness":1}},{"type":"Feature","geometry":{"type":"LineString","coordinates":[[-81.7398401388889,26.227891194444442],[-81.73542227777777,26.228168861111108]]},"properties":{"style":"solid","thickness":1}},{"type":"Feature","geometry":{"type":"LineString","coordinates":[[-81.73553533333333,26.232657277777776],[-81.74018588888889,26.232365027777774],[-81.73949983333334,26.223487277777775]]},"properties":{"style":"solid","thickness":1}},{"type":"Feature","geometry":{"type":"LineString","coordinates":[[-81.73190447222223,26.223964555555554],[-81.73258997222223,26.232842305555554],[-81.72917955555556,26.23305647222222],[-81.7282386388889,26.232975055555553],[-81.72783488888889,26.232789666666665],[-81.72717705555556,26.232339277777776],[-81.72618761111111,26.231628722222222],[-81.72549741666667,26.230758888888886],[-81.72528847222222,26.230069583333332],[-81.72511047222223,26.227762749999997],[-81.72521694444444,26.227123888888887],[-81.72561727777779,26.22625586111111],[-81.72612205555556,26.22573247222222],[-81.72661602777778,26.225069277777777],[-81.72735333333334,26.224531305555555],[-81.72826719444444,26.224263194444443],[-81.72880433333333,26.22415922222222],[-81.73190447222223,26.223964555555554]]},"properties":{"style":"solid","thickness":1}},{"type":"Feature","geometry":{"type":"LineString","coordinates":[[-81.72235863888889,26.233484555555556],[-81.72181408333334,26.226424249999997],[-81.7217096388889,26.22607961111111],[-81.72111319444444,26.225414583333333],[-81.72069330555556,26.225019472222222],[-81.72005172222222,26.22477875],[-81.71919377777778,26.22476233333333],[-81.71795369444445,26.22484011111111],[-81.71726152777778,26.224953749999997],[-81.71635841666667,26.22536158333333],[-81.71585358333334,26.22588494444444],[-81.71557588888889,26.226323805555555],[-81.71546936111112,26.22696263888889],[-81.71600275,26.23388316666667]]},"properties":{"style":"solid","thickness":1}},{"type":"Feature","geometry":{"type":"LineString","coordinates":[[-81.92436933333333,26.010025944444443],[-81.92446919444446,26.010665583333335],[-81.92468361111112,26.011330555555556],[-81.92502802777778,26.011997611111113],[-81.9255103888889,26.012637055555555],[-81.92612747222223,26.013215305555555],[-81.92686291666668,26.01369925],[-81.9276875,26.014061555555557],[-81.92856291666668,26.01428538888889],[-81.92944733333334,26.01436686111111],[-81.93030186111112,26.014314777777777],[-81.93109522222223,26.01414763888889],[-81.93180644444445,26.01388936111111],[-81.93242488888889,26.013565333333332],[-81.93298797222222,26.01316733333333],[-81.93351805555555,26.012667055555557],[-81.93398513888889,26.012063972222222],[-81.93435677777778,26.01136675],[-81.93460236111112,26.010594722222223],[-81.93469841666668,26.00977725],[-81.93463333333334,26.00895086111111],[-81.93441011111112,26.008153916666668],[-81.93404597222222,26.00742111111111],[-81.93356880555557,26.006778472222223],[-81.93301194444444,26.00624125],[-81.93240883333334,26.005813833333335],[-81.93178908333334,26.00549188888889],[-81.93112616666667,26.005250277777776],[-81.93038166666668,26.00508561111111],[-81.92957016666666,26.00502161111111],[-81.92871616666667,26.00507936111111],[-81.92785347222222,26.00527313888889],[-81.92702200000001,26.005606666666665],[-81.9262625,26.00607077777778],[-81.92561030555557,26.00664388888889],[-81.92509000000001,26.007295222222222],[-81.92471266666666,26.007989916666666],[-81.92447616666666,26.008694305555554],[-81.92436805555556,26.00938],[-81.92436933333333,26.010025944444443]]},"properties":{"style":"solid","thickness":1}},{"type":"Feature","geometry":{"type":"LineString","coordinates":[[-81.93037808333334,26.02049372222222],[-81.93040294444445,26.019380666666667],[-81.93055586111112,26.01823786111111],[-81.93084661111112,26.01708272222222],[-81.93128113888889,26.015935111111112],[-81.93186072222223,26.01481666666667],[-81.93258130555556,26.013749416666666],[-81.93343341666667,26.012754694444446],[-81.9344025,26.011851611111112],[-81.93546963888889,26.011055944444443],[-81.93661286111112,26.01037911111111],[-81.93780852777778,26.009827916666666],[-81.93903280555556,26.00940425],[-81.94026308333333,26.009105583333334],[-81.94147894444446,26.008925666666666]]},"properties":{"style":"solid","thickness":1}},{"type":"Feature","geometry":{"type":"LineString","coordinates":[[-81.93037808333334,26.02049372222222],[-81.93017905555556,26.019395055555556],[-81.92984861111111,26.018283333333333],[-81.92937980555556,26.017177],[-81.92876983333333,26.016096555555556],[-81.92802086111112,26.0150635],[-81.92714030555555,26.014099194444444],[-81.92614091666667,26.0132235],[-81.92504011111112,26.012453472222223],[-81.92385905555555,26.011802305555555],[-81.92262130555557,26.011278555555556],[-81.92135130555556,26.01088586111111],[-81.92007294444446,26.010623055555556],[-81.91880825,26.010484805555556],[-81.91757644444445,26.010462222222223]]},"properties":{"style":"solid","thickness":1}},{"type":"Feature","geometry":{"type":"LineString","coordinates":[[-81.91757644444445,26.010462222222223],[-81.91879236111112,26.0102825],[-81.92002269444446,26.009984],[-81.92124705555555,26.0095605],[-81.92244277777779,26.009009416666668],[-81.92358605555556,26.00833272222222],[-81.92465325,26.007537111111112],[-81.92562233333334,26.006634083333335],[-81.92647447222222,26.005639388888888],[-81.92719505555556,26.004572194444446],[-81.92777461111112,26.00345375],[-81.92820911111112,26.002306166666667],[-81.92849983333333,26.001151],[-81.92865275,26.000008222222224],[-81.9286776388889,25.99889513888889]]},"properties":{"style":"solid","thickness":1}},{"type":"Feature","geometry":{"type":"LineString","coordinates":[[-81.9286776388889,25.99889513888889],[-81.92887661111112,25.999993833333335],[-81.929207,26.001105555555554],[-81.92967575,26.00221186111111],[-81.93028563888889,26.003292333333334],[-81.93103455555556,26.00432536111111],[-81.93191505555556,26.005289666666666],[-81.93291444444445,26.006165305555555],[-81.93401522222223,26.006935277777778],[-81.93519630555556,26.007586361111112],[-81.93643405555557,26.00811],[-81.93770408333334,26.008502583333332],[-81.93898244444445,26.008765194444443],[-81.94024713888889,26.008903305555556],[-81.94147894444446,26.008925666666666]]},"properties":{"style":"solid","thickness":1}},{"type":"Feature","geometry":{"type":"LineString","coordinates":[[-81.97789972222222,25.995936361111113],[-81.97348488888889,25.987299500000002],[-81.97062947222223,25.996406194444447]]},"properties":{"style":"solid","thickness":1}},{"type":"Feature","geometry":{"type":"LineString","coordinates":[[-81.96667919444445,25.98773913888889],[-81.96738102777778,25.996616]]},"properties":{"style":"solid","thickness":1}},{"type":"Feature","geometry":{"type":"LineString","coordinates":[[-81.96289511111111,25.996905611111114],[-81.95763569444445,25.997245],[-81.957586,25.996615916666666],[-81.96274047222222,25.988063694444445],[-81.96273494444445,25.987993777777778],[-81.95662522222223,25.988388027777777]]},"properties":{"style":"solid","thickness":1}},{"type":"Feature","geometry":{"type":"LineString","coordinates":[[-81.95376369444445,25.988572611111113],[-81.95021058333333,25.99772377777778],[-81.94548838888889,25.989106]]},"properties":{"style":"solid","thickness":1}},{"type":"Feature","geometry":{"type":"LineString","coordinates":[[-81.95259780555556,25.99152813888889],[-81.94702922222223,25.991887083333335]]},"properties":{"style":"solid","thickness":1}},{"type":"Feature","geometry":{"type":"LineString","coordinates":[[-81.94258733333334,25.99371877777778],[-81.93817877777778,25.994002666666667]]},"properties":{"style":"solid","thickness":1}},{"type":"Feature","geometry":{"type":"LineString","coordinates":[[-81.93829936111112,25.998491055555558],[-81.94294011111111,25.998192222222222],[-81.94224011111112,25.98931525]]},"properties":{"style":"solid","thickness":1}},{"type":"Feature","geometry":{"type":"LineString","coordinates":[[-81.74088147222223,26.218207638888888],[-81.73983519444444,26.218273444444442],[-81.7392323888889,26.210471944444443]]},"properties":{"style":"solid","thickness":1}},{"type":"Feature","geometry":{"type":"LineString","coordinates":[[-81.73258094444445,26.218729305555552],[-81.73348461111111,26.21772422222222],[-81.73425361111111,26.21679083333333],[-81.73488794444445,26.21592911111111],[-81.73526758333334,26.21539947222222],[-81.73556775,26.214748416666666],[-81.73565866666667,26.2141105],[-81.73568466666667,26.213539861111112],[-81.73559719444445,26.212407388888888],[-81.73535394444444,26.211980138888887],[-81.73504580555556,26.211620166666666],[-81.73473280555555,26.211197305555554],[-81.73322922222222,26.210786],[-81.73239225,26.210838583333334],[-81.73151952777778,26.211335944444443],[-81.73138975,26.211470527777777],[-81.73087061111111,26.212008916666665],[-81.73081055555556,26.21213911111111],[-81.73059955555556,26.213037472222222],[-81.7306481388889,26.213666611111112],[-81.73082163888888,26.214098277777776],[-81.73099027777778,26.214467],[-81.73130327777778,26.214889888888887],[-81.73189527777778,26.21529525],[-81.73247269444444,26.21551186111111],[-81.73282630555556,26.21555286111111],[-81.73331458333334,26.215522194444443],[-81.73365847222222,26.21543736111111],[-81.73480536111111,26.214859527777776],[-81.73566352777777,26.214173416666664]]},"properties":{"style":"solid","thickness":1}},{"type":"Feature","geometry":{"type":"LineString","coordinates":[[-81.66429961111112,26.352660750000002],[-81.66432858333334,26.35303825],[-81.66422269444445,26.353487361111114],[-81.66398677777778,26.354071],[-81.66373638888889,26.35446588888889],[-81.66333666666667,26.35474363888889],[-81.6627876388889,26.35490425],[-81.66174008333334,26.354969472222223],[-81.66096222222222,26.354891444444444],[-81.66059858333334,26.354724444444447],[-81.66007594444444,26.354314444444444],[-81.65991216666667,26.354008555555556],[-81.6597338888889,26.353513916666667],[-81.65965672222222,26.352507250000002],[-81.65976744444446,26.352121055555557],[-81.6602946388889,26.350760694444446],[-81.66106511111111,26.349827694444443],[-81.66230027777779,26.348549694444444],[-81.66378577777779,26.346876777777776],[-81.65938636111112,26.347150638888888]]},"properties":{"style":"solid","thickness":1}},{"type":"Feature","geometry":{"type":"LineString","coordinates":[[-81.65621813888889,26.355249861111112],[-81.65517058333334,26.355315027777777],[-81.65457275,26.347513333333332]]},"properties":{"style":"solid","thickness":1}},{"type":"Feature","geometry":{"type":"LineString","coordinates":[[-81.59154661111111,26.293046055555557],[-81.59157533333332,26.293423583333336],[-81.59146922222222,26.29387263888889],[-81.59123308333334,26.29445616666667],[-81.59098255555556,26.294850944444445],[-81.59058288888889,26.2951285],[-81.59003402777778,26.295288833333334],[-81.58898697222222,26.2953535],[-81.58820955555555,26.295275083333333],[-81.58784619444444,26.29510788888889],[-81.5873241111111,26.29469763888889],[-81.58716058333333,26.29439166666667],[-81.58698272222222,26.293896916666668],[-81.58690619444444,26.292890194444446],[-81.58701711111111,26.292504055555558],[-81.58754488888889,26.291143972222223],[-81.58831552777777,26.290211361111112],[-81.5895508611111,26.288933944444445],[-81.59103663888888,26.28726177777778],[-81.58663930555555,26.28753341666667]]},"properties":{"style":"solid","thickness":1}},{"type":"Feature","geometry":{"type":"LineString","coordinates":[[-81.58346769444444,26.295631111111113],[-81.58242063888889,26.29569575],[-81.58182794444444,26.287893694444445]]},"properties":{"style":"solid","thickness":1}},{"type":"Feature","geometry":{"type":"LineString","coordinates":[[-81.52485269444445,26.23521802777778],[-81.52488116666666,26.235595583333335],[-81.52477486111111,26.236044583333335],[-81.5245385,26.236628],[-81.52428788888889,26.237022666666668],[-81.52388825,26.237300027777778],[-81.52333955555555,26.237460111111112],[-81.522293,26.237524305555556],[-81.52151602777778,26.237445555555556],[-81.52115291666667,26.237278166666666],[-81.52063130555555,26.23686766666667],[-81.52046805555555,26.236561611111114],[-81.52029055555556,26.236066805555556],[-81.52021463888889,26.235060055555557],[-81.52032572222222,26.234673944444445],[-81.52085402777777,26.233314083333333],[-81.52162480555556,26.232381805555555],[-81.52286025,26.231105],[-81.52434625,26.2294335],[-81.51995094444445,26.22970308333333]]},"properties":{"style":"solid","thickness":1}},{"type":"Feature","geometry":{"type":"LineString","coordinates":[[-81.51677630555555,26.23779936111111],[-81.51572972222222,26.23786352777778],[-81.51514177777777,26.23006113888889]]},"properties":{"style":"solid","thickness":1}},{"type":"Feature","geometry":{"type":"LineString","coordinates":[[-81.76784447222222,26.544527583333334],[-81.76786244444445,26.544656805555558],[-81.76789841666667,26.54479077777778],[-81.76795461111111,26.544926833333335],[-81.76803263888888,26.545061500000003],[-81.76813316666667,26.545190805555556],[-81.76825569444445,26.545310333333337],[-81.76839830555555,26.54541577777778],[-81.76855772222223,26.54550327777778],[-81.76872952777778,26.545569833333335],[-81.76890852777778,26.545613722222225],[-81.76908927777778,26.545634500000002],[-81.7692666388889,26.545633138888892],[-81.76943613888889,26.54561163888889],[-81.76959427777777,26.545572805555558],[-81.76973872222221,26.54551977777778],[-81.76986813888888,26.545455888888892],[-81.76998511111111,26.545382111111113],[-81.77009797222222,26.54529266666667],[-81.77020402777778,26.545186444444447],[-81.77029925,26.545063666666668],[-81.77037941666667,26.54492541666667],[-81.77044044444445,26.544773944444447],[-81.77047883333333,26.54461252777778],[-81.77049208333334,26.544445444444445],[-81.77047902777778,26.54427752777778],[-81.77044005555555,26.544113722222225],[-81.77037705555556,26.543958694444445],[-81.77029316666666,26.543816333333336],[-81.77019238888889,26.543689472222223],[-81.77007908333333,26.543579805555556],[-81.76995763888888,26.543487916666667],[-81.76983202777778,26.543413444444447],[-81.76970477777778,26.54335502777778],[-81.76956675,26.543307944444447],[-81.7694155,26.543273555555558],[-81.76925288888889,26.543254861111112],[-81.76908172222223,26.543254805555556],[-81.76890588888888,26.54327563888889],[-81.76873011111111,26.543318861111114],[-81.76855966666666,26.543384722222225],[-81.76839983333333,26.54347213888889],[-81.7682555,26.543578722222225],[-81.76813058333333,26.543701000000002],[-81.76802775,26.543834694444445],[-81.76794819444444,26.543975333333336],[-81.76789177777778,26.544118472222223],[-81.76785716666667,26.544260222222224],[-81.76784227777777,26.54439738888889],[-81.76784447222222,26.544527583333334]]},"properties":{"style":"solid","thickness":1}},{"type":"Feature","geometry":{"type":"LineString","coordinates":[[-81.76994972222222,26.545314416666667],[-81.76980747222223,26.54348488888889]]},"properties":{"style":"solid","thickness":1}},{"type":"Feature","geometry":{"type":"LineString","coordinates":[[-81.76945541666666,26.545529361111114],[-81.76928472222222,26.543333944444445]]},"properties":{"style":"solid","thickness":1}},{"type":"Feature","geometry":{"type":"LineString","coordinates":[[-81.76894688888889,26.545561361111112],[-81.76877619444444,26.54336591666667]]},"properties":{"style":"solid","thickness":1}},{"type":"Feature","geometry":{"type":"LineString","coordinates":[[-81.76842411111112,26.54541038888889],[-81.7682818888889,26.543580861111113]]},"properties":{"style":"solid","thickness":1}}]}
