{"type":"FeatureCollection","features":[{"type":"Feature","geometry":{"type":"LineString","coordinates":[[-81.40841666666667,26.520694444444445],[-81.4090581388889,26.537408111111112]]},"properties":{"style":"solid","thickness":1}},{"type":"Feature","geometry":{"type":"LineString","coordinates":[[-81.40969980555556,26.554121694444444],[-81.41034166666667,26.57083527777778]]},"properties":{"style":"solid","thickness":1}},{"type":"Feature","geometry":{"type":"LineString","coordinates":[[-81.41098369444445,26.587548777777776],[-81.41162591666668,26.60426225]]},"properties":{"style":"solid","thickness":1}},{"type":"Feature","geometry":{"type":"LineString","coordinates":[[-81.41226833333334,26.620975666666666],[-81.41233333333334,26.622666666666667]]},"properties":{"style":"solid","thickness":1}},{"type":"Feature","geometry":{"type":"LineString","coordinates":[[-81.41772766666668,26.52040497222222],[-81.39910561111111,26.520983305555553]]},"properties":{"style":"solid","thickness":1}},{"type":"Feature","geometry":{"type":"LineString","coordinates":[[-81.62461652777777,26.52705725],[-81.60599455555555,26.527664388888887]]},"properties":{"style":"solid","thickness":1}},{"type":"Feature","geometry":{"type":"LineString","coordinates":[[-81.61408922222222,26.49728913888889],[-81.61476477777778,26.51399325]]},"properties":{"style":"solid","thickness":1}},{"type":"Feature","geometry":{"type":"LineString","coordinates":[[-81.61273869444445,26.463880777777778],[-81.6134138611111,26.480584999999998]]},"properties":{"style":"solid","thickness":1}},{"type":"Feature","geometry":{"type":"LineString","coordinates":[[-81.61138888888888,26.430472222222225],[-81.61206369444444,26.447176527777778]]},"properties":{"style":"solid","thickness":1}},{"type":"Feature","geometry":{"type":"LineString","coordinates":[[-81.61138888888888,26.430472222222225],[-81.61072275,26.413767583333332]]},"properties":{"style":"solid","thickness":1}},{"type":"Feature","geometry":{"type":"LineString","coordinates":[[-81.61005677777777,26.397062916666666],[-81.60939102777778,26.380358166666667]]},"properties":{"style":"solid","thickness":1}},{"type":"Feature","geometry":{"type":"LineString","coordinates":[[-81.60872541666666,26.363653388888892],[-81.60806002777777,26.346948555555553]]},"properties":{"style":"solid","thickness":1}},{"type":"Feature","geometry":{"type":"LineString","coordinates":[[-81.61682316666666,26.333279972222222],[-81.59823233333333,26.33388611111111]]},"properties":{"style":"solid","thickness":1}},{"type":"Feature","geometry":{"type":"LineString","coordinates":[[-81.57791238888889,26.431568861111113],[-81.59646641666666,26.430962027777777]]},"properties":{"style":"solid","thickness":1}},{"type":"Feature","geometry":{"type":"LineString","coordinates":[[-81.54080377777778,26.432775333333336],[-81.55935819444444,26.43217330555556]]},"properties":{"style":"solid","thickness":1}},{"type":"Feature","geometry":{"type":"LineString","coordinates":[[-81.50369444444445,26.433972222222224],[-81.52224919444444,26.43337497222222]]},"properties":{"style":"solid","thickness":1}},{"type":"Feature","geometry":{"type":"LineString","coordinates":[[-81.5033663611111,26.42559613888889],[-81.50402255555555,26.442348305555555]]},"properties":{"style":"solid","thickness":1}},{"type":"Feature","geometry":{"type":"LineString","coordinates":[[-81.55511222222222,26.609786833333334],[-81.55577672222222,26.626490944444445]]},"properties":{"style":"solid","thickness":1}},{"type":"Feature","geometry":{"type":"LineString","coordinates":[[-81.52384425,26.619151000000002],[-81.54242877777777,26.61855661111111]]},"properties":{"style":"solid","thickness":1}},{"type":"Feature","geometry":{"type":"LineString","coordinates":[[-81.48667463888889,26.620332527777776],[-81.50525952777778,26.619742972222223]]},"properties":{"style":"solid","thickness":1}},{"type":"Feature","geometry":{"type":"LineString","coordinates":[[-81.44950433333334,26.621504416666667],[-81.46808958333334,26.620919694444446]]},"properties":{"style":"solid","thickness":1}},{"type":"Feature","geometry":{"type":"LineString","coordinates":[[-81.41233333333334,26.622666666666667],[-81.43091891666667,26.62208675]]},"properties":{"style":"solid","thickness":1}},{"type":"Feature","geometry":{"type":"LineString","coordinates":[[-81.41233333333334,26.622666666666667],[-81.39374758333334,26.62324475]]},"properties":{"style":"solid","thickness":1}},{"type":"Feature","geometry":{"type":"LineString","coordinates":[[-81.37516169444444,26.623820416666668],[-81.35657561111111,26.624393666666666]]},"properties":{"style":"solid","thickness":1}},{"type":"Feature","geometry":{"type":"LineString","coordinates":[[-81.33798938888889,26.624964527777777],[-81.31940297222222,26.625532944444444]]},"properties":{"style":"solid","thickness":1}},{"type":"Feature","geometry":{"type":"LineString","coordinates":[[-81.30081638888889,26.626098972222223],[-81.28222966666667,26.626662583333335]]},"properties":{"style":"solid","thickness":1}},{"type":"Feature","geometry":{"type":"LineString","coordinates":[[-81.26953416666666,26.63540811111111],[-81.26891030555555,26.618702972222223]]},"properties":{"style":"solid","thickness":1}},{"type":"Feature","geometry":{"type":"LineString","coordinates":[[-81.22054911111111,26.442690944444443],[-81.20199155555555,26.443246555555557]]},"properties":{"style":"solid","thickness":1}},{"type":"Feature","geometry":{"type":"LineString","coordinates":[[-81.18343383333334,26.443799777777777],[-81.16733333333333,26.444277777777778]]},"properties":{"style":"solid","thickness":1}},{"type":"Feature","geometry":{"type":"LineString","coordinates":[[-81.16733333333333,26.444277777777778],[-81.16672525,26.427571722222222]]},"properties":{"style":"solid","thickness":1}},{"type":"Feature","geometry":{"type":"LineString","coordinates":[[-81.16611730555556,26.410865638888886],[-81.16550952777779,26.3941595]]},"properties":{"style":"solid","thickness":1}},{"type":"Feature","geometry":{"type":"LineString","coordinates":[[-81.16490188888889,26.377453305555555],[-81.16429441666668,26.360747083333333]]},"properties":{"style":"solid","thickness":1}},{"type":"Feature","geometry":{"type":"LineString","coordinates":[[-81.16368708333334,26.344040777777778],[-81.16307988888889,26.327334472222223]]},"properties":{"style":"solid","thickness":1}},{"type":"Feature","geometry":{"type":"LineString","coordinates":[[-81.16247283333334,26.31062811111111],[-81.16247222222223,26.31061111111111]]},"properties":{"style":"solid","thickness":1}},{"type":"Feature","geometry":{"type":"LineString","coordinates":[[-81.16733333333333,26.444277777777778],[-81.16794394444445,26.460983694444444]]},"properties":{"style":"solid","thickness":1}},{"type":"Feature","geometry":{"type":"LineString","coordinates":[[-81.16855472222223,26.477689583333333],[-81.1691656388889,26.494395416666666]]},"properties":{"style":"solid","thickness":1}},{"type":"Feature","geometry":{"type":"LineString","coordinates":[[-81.16977669444445,26.511101194444443],[-81.17038791666667,26.527806916666666]]},"properties":{"style":"solid","thickness":1}},{"type":"Feature","geometry":{"type":"LineString","coordinates":[[-81.17099927777778,26.544512583333336],[-81.17161080555556,26.561218194444447]]},"properties":{"style":"solid","thickness":1}},{"type":"Feature","geometry":{"type":"LineString","coordinates":[[-81.16293255555556,26.57819138888889],[-81.18151186111112,26.577641333333332]]},"properties":{"style":"solid","thickness":1}},{"type":"Feature","geometry":{"type":"LineString","coordinates":[[-81.17174055555556,26.310337305555556],[-81.15320383333334,26.310884333333334]]},"properties":{"style":"solid","thickness":1}},{"type":"Feature","geometry":{"type":"LineString","coordinates":[[-81.25766375,26.4415725],[-81.2391065,26.442132916666665]]},"properties":{"style":"solid","thickness":1}},{"type":"Feature","geometry":{"type":"LineString","coordinates":[[-81.29509238888889,26.448797222222222],[-81.29446319444445,26.43209166666667]]},"properties":{"style":"solid","thickness":1}},{"type":"Feature","geometry":{"type":"LineString","coordinates":[[-81.29477777777778,26.440444444444445],[-81.27622083333333,26.441009666666666]]},"properties":{"style":"solid","thickness":1}},{"type":"Feature","geometry":{"type":"LineString","coordinates":[[-81.43460408333334,26.23690063888889],[-81.45312808333334,26.236319583333334]]},"properties":{"style":"solid","thickness":1}},{"type":"Feature","geometry":{"type":"LineString","coordinates":[[-81.47165191666667,26.23573613888889],[-81.49017558333334,26.235150305555557]]},"properties":{"style":"solid","thickness":1}},{"type":"Feature","geometry":{"type":"LineString","coordinates":[[-81.50869908333334,26.234562111111114],[-81.52722238888889,26.233971500000003]]},"properties":{"style":"solid","thickness":1}},{"type":"Feature","geometry":{"type":"LineString","coordinates":[[-81.54055127777778,26.24190822222222],[-81.53989322222222,26.225202916666664]]},"properties":{"style":"solid","thickness":1}},{"type":"Feature","geometry":{"type":"LineString","coordinates":[[-81.39755555555556,26.238055583333335],[-81.41607988888889,26.237479305555556]]},"properties":{"style":"solid","thickness":1}},{"type":"Feature","geometry":{"type":"LineString","coordinates":[[-81.39755555555556,26.238055583333335],[-81.37903119444444,26.238633694444445]]},"properties":{"style":"solid","thickness":1}},{"type":"Feature","geometry":{"type":"LineString","coordinates":[[-81.36050669444444,26.239209416666668],[-81.341982,26.239782722222223]]},"properties":{"style":"solid","thickness":1}},{"type":"Feature","geometry":{"type":"LineString","coordinates":[[-81.32345713888888,26.240353666666667],[-81.30493213888889,26.240922222222224]]},"properties":{"style":"solid","thickness":1}},{"type":"Feature","geometry":{"type":"LineString","coordinates":[[-81.28640697222222,26.24148838888889],[-81.2678816388889,26.242052166666667]]},"properties":{"style":"solid","thickness":1}},{"type":"Feature","geometry":{"type":"LineString","coordinates":[[-81.25525544444444,26.250797555555554],[-81.25463347222222,26.234091361111112]]},"properties":{"style":"solid","thickness":1}},{"type":"Feature","geometry":{"type":"LineString","coordinates":[[-81.40141666666668,26.338666666666665],[-81.40077513888889,26.321961138888888]]},"properties":{"style":"solid","thickness":1}},{"type":"Feature","geometry":{"type":"LineString","coordinates":[[-81.40013377777778,26.305255555555558],[-81.39949258333334,26.288549944444448]]},"properties":{"style":"solid","thickness":1}},{"type":"Feature","geometry":{"type":"LineString","coordinates":[[-81.39885155555557,26.271844277777777],[-81.39821069444446,26.255138555555554]]},"properties":{"style":"solid","thickness":1}},{"type":"Feature","geometry":{"type":"LineString","coordinates":[[-81.39757002777779,26.238432833333334],[-81.39755555555556,26.238055583333335]]},"properties":{"style":"solid","thickness":1}},{"type":"Feature","geometry":{"type":"LineString","coordinates":[[-81.41071294444446,26.338375666666664],[-81.39212033333334,26.338957055555554]]},"properties":{"style":"solid","thickness":1}},{"type":"Feature","geometry":{"type":"LineString","coordinates":[[-81.76988069444444,26.543526972222224],[-81.76988072222223,26.545361916666668]]},"properties":{"style":"solid","thickness":1}},{"type":"Feature","geometry":{"type":"LineString","coordinates":[[-81.76937066666666,26.543343472222222],[-81.76937066666666,26.54554538888889]]},"properties":{"style":"solid","thickness":1}},{"type":"Feature","geometry":{"type":"LineString","coordinates":[[-81.76886063888888,26.543343472222222],[-81.76886063888888,26.54554538888889]]},"properties":{"style":"solid","thickness":1}},{"type":"Feature","geometry":{"type":"LineString","coordinates":[[-81.76835061111112,26.543526972222224],[-81.76835061111112,26.545361916666668]]},"properties":{"style":"solid","thickness":1}},{"type":"Feature","geometry":{"type":"LineString","coordinates":[[-81.76784058333334,26.544444444444448],[-81.76784847222223,26.54457452777778],[-81.76787397222222,26.5447105],[-81.7679195,26.544849805555558],[-81.76798691666667,26.54498913888889],[-81.76807725,26.5451245],[-81.76819025,26.545251500000003],[-81.76832441666667,26.545365694444445],[-81.76847672222222,26.545463027777778],[-81.76864305555556,26.545540222222225],[-81.76881830555556,26.54559525],[-81.76899708333333,26.545627361111112],[-81.76917422222222,26.54563713888889],[-81.76934502777777,26.545626305555558],[-81.76950588888889,26.545597472222223],[-81.76965416666667,26.545553611111114],[-81.76978827777778,26.545497972222226],[-81.76991075,26.545431694444446],[-81.77003036111111,26.545349472222224],[-81.77014444444444,26.54525013888889],[-81.77024899999999,26.54513355555556],[-81.77033975,26.545000611111114],[-81.77041241666666,26.544853250000003],[-81.77046325,26.544694583333335],[-81.77048944444445,26.54452863888889],[-81.77048944444445,26.544360222222224],[-81.77046325,26.544194305555557],[-81.77041241666666,26.544035611111113],[-81.77033975,26.543888250000002],[-81.77024899999999,26.543755305555557],[-81.77014444444444,26.543638750000003],[-81.77003036111111,26.54353938888889],[-81.76991075,26.543457194444446],[-81.76978827777778,26.54339088888889],[-81.76965416666667,26.543335250000002],[-81.76950588888889,26.54329141666667],[-81.76934502777777,26.543262583333334],[-81.76917422222222,26.543251750000003],[-81.76899708333333,26.54326152777778],[-81.76881830555556,26.54329363888889],[-81.76864305555556,26.54334863888889],[-81.76847675,26.543425861111114],[-81.76832441666667,26.543523194444447],[-81.76819027777778,26.54363738888889],[-81.76807725,26.543764388888892],[-81.76798694444444,26.54389975],[-81.76791952777778,26.544039055555558],[-81.76787399999999,26.54417838888889],[-81.76784847222223,26.544314361111113],[-81.76784058333334,26.544444444444448]]},"properties":{"style":"solid","thickness":1}},{"type":"Feature","geometry":{"type":"LineString","coordinates":[[-81.46064097222222,26.350987333333336],[-81.46112752777778,26.351238666666667],[-81.46168122222223,26.351345444444444],[-81.46354366666667,26.35123213888889],[-81.46423161111112,26.351049833333335],[-81.46445916666667,26.35096575],[-81.46557602777779,26.350265694444445],[-81.466222,26.349524027777775],[-81.4664023888889,26.348810722222222],[-81.46685122222222,26.347519194444445],[-81.46673063888889,26.345911166666667],[-81.46651777777778,26.345151555555553],[-81.46623783333334,26.3445365],[-81.46587502777778,26.343856249999998],[-81.46504138888889,26.343134416666665],[-81.46351466666667,26.342524972222222],[-81.46249019444444,26.34237661111111],[-81.46163663888889,26.342428527777777],[-81.460566,26.34270436111111],[-81.46019375,26.342937694444444],[-81.45989383333334,26.343096416666665]]},"properties":{"style":"solid","thickness":1}},{"type":"Feature","geometry":{"type":"LineString","coordinates":[[-81.45674808333334,26.342725833333333],[-81.45314497222222,26.351864444444445],[-81.44844525,26.343230388888887]]},"properties":{"style":"solid","thickness":1}},{"type":"Feature","geometry":{"type":"LineString","coordinates":[[-81.455566,26.345677249999998],[-81.4499788888889,26.346016777777777]]},"properties":{"style":"solid","thickness":1}},{"type":"Feature","geometry":{"type":"LineString","coordinates":[[-81.44585030555555,26.35230752777778],[-81.44518616666667,26.343428305555555]]},"properties":{"style":"solid","thickness":1}},{"type":"Feature","geometry":{"type":"LineString","coordinates":[[-81.44049044444445,26.35256263888889],[-81.44551561111112,26.34783297222222],[-81.43975433333334,26.343757999999998]]},"properties":{"style":"solid","thickness":1}},{"type":"Feature","geometry":{"type":"LineString","coordinates":[[-81.43649522222222,26.343955722222223],[-81.43715872222222,26.352834972222222],[-81.42772661111111,26.344487333333333],[-81.42838944444445,26.353366611111113]]},"properties":{"style":"solid","thickness":1}},{"type":"Feature","geometry":{"type":"LineString","coordinates":[[-81.42462266666666,26.34467536111111],[-81.421017,26.35381313888889],[-81.41631955555556,26.345178055555554]]},"properties":{"style":"solid","thickness":1}},{"type":"Feature","geometry":{"type":"LineString","coordinates":[[-81.42343975,26.347626527777777],[-81.41785247222222,26.347964777777776]]},"properties":{"style":"solid","thickness":1}},{"type":"Feature","geometry":{"type":"LineString","coordinates":[[-81.4178091388889,26.216459305555556],[-81.41847047222222,26.22533875],[-81.41505961111112,26.22554536111111],[-81.41411897222223,26.22546186111111],[-81.41371575000001,26.22527558333333],[-81.41305916666667,26.224823722222222],[-81.41207169444445,26.224110944444444],[-81.41138391666668,26.22323958333333],[-81.41117683333334,26.222549805555555],[-81.4110051388889,26.220242527777778],[-81.41111333333333,26.219603888888887],[-81.411516,26.21873672222222],[-81.41202219444445,26.218214444444442],[-81.41251794444445,26.21755236111111],[-81.41325666666667,26.217015999999997],[-81.41417122222222,26.216749916666664],[-81.41470861111112,26.216647138888888],[-81.4178091388889,26.216459305555556]]},"properties":{"style":"solid","thickness":1}},{"type":"Feature","geometry":{"type":"LineString","coordinates":[[-81.40757733333334,26.21707888888889],[-81.40823786111112,26.22595836111111]]},"properties":{"style":"solid","thickness":1}},{"type":"Feature","geometry":{"type":"LineString","coordinates":[[-81.40354658333334,26.217322749999997],[-81.40420683333333,26.22620225],[-81.40095097222223,26.226399166666663],[-81.40025327777778,26.22644133333333],[-81.39967944444444,26.226054638888886],[-81.39925547222222,26.225588666666663],[-81.39923469444444,26.22530897222222],[-81.39913077777778,26.22391063888889],[-81.39919269444445,26.223696194444443],[-81.39938369444445,26.223122805555555],[-81.40010691666667,26.22237675],[-81.39930055555556,26.222004111111108],[-81.3988973888889,26.221817805555553],[-81.39848380555556,26.22149163888889],[-81.3982045,26.220876444444443],[-81.39806944444445,26.219058583333332],[-81.39826561111111,26.218555111111108],[-81.39877705555556,26.218102805555553],[-81.39914383333334,26.217799694444444],[-81.39951583333334,26.217566499999997],[-81.40354658333334,26.217322749999997]]},"properties":{"style":"solid","thickness":1}},{"type":"Feature","geometry":{"type":"LineString","coordinates":[[-81.40390527777778,26.222147055555553],[-81.40010691666667,26.22237675]]},"properties":{"style":"solid","thickness":1}},{"type":"Feature","geometry":{"type":"LineString","coordinates":[[-81.39536947222223,26.226736527777778],[-81.39484491666667,26.21967486111111],[-81.39474144444445,26.219329944444443],[-81.3941468888889,26.218663555555555],[-81.39372816666668,26.21826747222222],[-81.39308727777778,26.218025277777777],[-81.39222941666668,26.21800686111111],[-81.39098916666667,26.218081777777776],[-81.39029672222223,26.21819383333333],[-81.38939247222223,26.21859961111111],[-81.38888619444445,26.219121805555552],[-81.38860727777778,26.219560027777778],[-81.38849894444445,26.220198666666665],[-81.38901272222223,26.227120527777775]]},"properties":{"style":"solid","thickness":1}},{"type":"Feature","geometry":{"type":"LineString","coordinates":[[-81.38542477777779,26.222842333333332],[-81.38100622222221,26.22310897222222]]},"properties":{"style":"solid","thickness":1}},{"type":"Feature","geometry":{"type":"LineString","coordinates":[[-81.38110549999999,26.227597749999997],[-81.38575680555556,26.227317083333332],[-81.38509797222223,26.218437499999997]]},"properties":{"style":"solid","thickness":1}},{"type":"Feature","geometry":{"type":"LineString","coordinates":[[-81.52588941666667,26.459833083333333],[-81.53062738888889,26.459542916666667],[-81.52995613888889,26.450664194444443],[-81.52514083333334,26.450959083333334]]},"properties":{"style":"solid","thickness":1}},{"type":"Feature","geometry":{"type":"LineString","coordinates":[[-81.53028911111112,26.45506861111111],[-81.52570663888889,26.45534922222222]]},"properties":{"style":"solid","thickness":1}},{"type":"Feature","geometry":{"type":"LineString","coordinates":[[-81.51638169444445,26.459993416666666],[-81.51686883333333,26.46024458333333],[-81.51742311111111,26.46035113888889],[-81.51928725,26.46023711111111],[-81.51997575,26.46005452777778],[-81.52020347222222,26.45997036111111],[-81.52132105555556,26.45926986111111],[-81.52196727777778,26.45852797222222],[-81.5221475,26.45781461111111],[-81.52259613888889,26.456522916666668],[-81.52247466666667,26.454914944444443],[-81.52226125,26.454155444444442],[-81.52198072222222,26.4535405],[-81.52161725,26.452860388888887],[-81.52078247222222,26.45213888888889],[-81.51925402777778,26.451530055555555],[-81.51822849999999,26.451382083333332],[-81.51737416666667,26.45143436111111],[-81.51630266666666,26.451710583333334],[-81.51593016666666,26.451944083333334],[-81.51563005555556,26.452102888888888]]},"properties":{"style":"solid","thickness":1}},{"type":"Feature","geometry":{"type":"LineString","coordinates":[[-81.51248113888889,26.451733555555556],[-81.50887905555555,26.46087347222222],[-81.50417072222223,26.45224136111111]]},"properties":{"style":"solid","thickness":1}},{"type":"Feature","geometry":{"type":"LineString","coordinates":[[-81.51129936111111,26.454685416666667],[-81.50570716666667,26.45502711111111]]},"properties":{"style":"solid","thickness":1}},{"type":"Feature","geometry":{"type":"LineString","coordinates":[[-81.50090866666666,26.452440555555555],[-81.49893680555556,26.46148061111111],[-81.49500586111111,26.452800805555555],[-81.49295586111111,26.461845527777776],[-81.48941369444445,26.45314186111111]]},"properties":{"style":"solid","thickness":1}},{"type":"Feature","geometry":{"type":"LineString","coordinates":[[-81.48130458333334,26.462555638888887],[-81.48270275,26.462470472222222],[-81.48339655555556,26.46235797222222],[-81.48474738888889,26.461643583333334],[-81.48597844444444,26.46037461111111],[-81.48637613888889,26.459437333333334],[-81.486525,26.458304527777777],[-81.4864566388889,26.457395666666667],[-81.48623816666667,26.456566166666665],[-81.48578144444444,26.455680972222222],[-81.48484294444445,26.454614444444445],[-81.48450597222222,26.454283805555555],[-81.48385305555556,26.453902194444442],[-81.48250113888889,26.453563166666665],[-81.48087005555556,26.453662527777777],[-81.48010388888889,26.453849638888887],[-81.47934819444444,26.45417661111111],[-81.47889794444444,26.45441472222222],[-81.47816327777778,26.45502133333333],[-81.47752727777778,26.455902833333333],[-81.47733630555555,26.45647633333333],[-81.47718208333333,26.45753922222222],[-81.47730816666667,26.45921713888889],[-81.47813333333333,26.46085247222222],[-81.47864144444445,26.461383416666667],[-81.47922194444445,26.461839694444443],[-81.47979194444444,26.462156138888886],[-81.47995255555556,26.462216583333333],[-81.48130458333334,26.462555638888887]]},"properties":{"style":"solid","thickness":1}},{"type":"Feature","geometry":{"type":"LineString","coordinates":[[-81.68507472222223,26.505516055555557],[-81.68575825,26.514393972222223],[-81.68187313888889,26.514636055555556],[-81.68155155555556,26.514515583333335],[-81.68083072222223,26.514279527777777],[-81.68007761111112,26.513624027777777],[-81.679713,26.512944333333333],[-81.67964847222223,26.51210547222222],[-81.67990547222223,26.511387083333332],[-81.68055100000001,26.51064447222222],[-81.68122877777778,26.510321277777777],[-81.68152880555556,26.51016211111111],[-81.68541377777778,26.509920055555554]]},"properties":{"style":"solid","thickness":1}},{"type":"Feature","geometry":{"type":"LineString","coordinates":[[-81.67598422222223,26.50608227777778],[-81.67239336111112,26.51522622222222],[-81.66767061111112,26.506599583333333]]},"properties":{"style":"solid","thickness":1}},{"type":"Feature","geometry":{"type":"LineString","coordinates":[[-81.67480605555556,26.509035444444443],[-81.66921172222223,26.509383555555555]]},"properties":{"style":"solid","thickness":1}},{"type":"Feature","geometry":{"type":"LineString","coordinates":[[-81.66440727777778,26.5068025],[-81.66508922222222,26.51568052777778],[-81.66120402777779,26.515922027777776],[-81.66088247222223,26.51580152777778],[-81.66016166666667,26.51556536111111],[-81.65940866666668,26.514909777777778],[-81.65904419444445,26.514230027777778],[-81.65897977777779,26.51339113888889],[-81.65923694444444,26.512672777777777],[-81.65988258333334,26.51193027777778],[-81.66056044444446,26.511607194444444],[-81.66086050000001,26.511448055555555],[-81.66474555555556,26.511206583333333]]},"properties":{"style":"solid","thickness":1}},{"type":"Feature","geometry":{"type":"LineString","coordinates":[[-81.65523888888889,26.50737225],[-81.65592011111112,26.516250305555555],[-81.65250111111112,26.516462611111113],[-81.65155791666668,26.516380694444443],[-81.65115330555557,26.516195083333333],[-81.65049413888889,26.515744333333334],[-81.64950272222222,26.51503325],[-81.64881141666667,26.514163027777776],[-81.64860241666668,26.51347361111111],[-81.64842552777779,26.51116672222222],[-81.64853269444446,26.510527916666668],[-81.64893458333334,26.50966011111111],[-81.64944097222222,26.509137],[-81.64993661111112,26.508474083333333],[-81.65067608333334,26.5079365],[-81.6515923888889,26.507668916666667],[-81.65213091666668,26.50756525],[-81.65523888888889,26.50737225]]},"properties":{"style":"solid","thickness":1}},{"type":"Feature","geometry":{"type":"LineString","coordinates":[[-81.640923,26.51718097222222],[-81.64566305555556,26.51688697222222],[-81.64498258333334,26.50800886111111],[-81.64016519444445,26.50830763888889]]},"properties":{"style":"solid","thickness":1}},{"type":"Feature","geometry":{"type":"LineString","coordinates":[[-81.64532013888889,26.512412972222222],[-81.64073566666667,26.512697305555555]]},"properties":{"style":"solid","thickness":1}},{"type":"Feature","geometry":{"type":"LineString","coordinates":[[-81.68065658333335,26.426601194444444],[-81.6762308888889,26.426876972222225]]},"properties":{"style":"solid","thickness":1}},{"type":"Feature","geometry":{"type":"LineString","coordinates":[[-81.67634180555557,26.43136547222222],[-81.68100061111112,26.431075166666666],[-81.68031794444445,26.42219713888889]]},"properties":{"style":"solid","thickness":1}},{"type":"Feature","geometry":{"type":"LineString","coordinates":[[-81.67278677777779,26.422666361111112],[-81.66919827777778,26.431810333333335],[-81.66447916666667,26.423183472222224]]},"properties":{"style":"solid","thickness":1}},{"type":"Feature","geometry":{"type":"LineString","coordinates":[[-81.6716093888889,26.42561952777778],[-81.66601908333334,26.42596752777778]]},"properties":{"style":"solid","thickness":1}},{"type":"Feature","geometry":{"type":"LineString","coordinates":[[-81.66121819444444,26.423386333333333],[-81.6618993888889,26.432264472222222],[-81.658017,26.43250588888889],[-81.65769566666667,26.43238538888889],[-81.6569753888889,26.432149194444445],[-81.65622294444445,26.431493583333335],[-81.65585875000001,26.430813805555555],[-81.65579441666667,26.429974944444446],[-81.65605141666667,26.429256555555558],[-81.65669661111112,26.428514055555556],[-81.65737397222223,26.428191],[-81.65767383333333,26.428031861111112],[-81.66155611111111,26.427790444444447]]},"properties":{"style":"solid","thickness":1}},{"type":"Feature","geometry":{"type":"LineString","coordinates":[[-81.6527368888889,26.432834055555556],[-81.64714616666667,26.433181305555557]]},"properties":{"style":"solid","thickness":1}},{"type":"Feature","geometry":{"type":"LineString","coordinates":[[-81.65001916666667,26.43300288888889],[-81.64933888888889,26.424124694444444]]},"properties":{"style":"solid","thickness":1}},{"type":"Feature","geometry":{"type":"LineString","coordinates":[[-81.63837177777778,26.43372586111111],[-81.63976947222223,26.43363913888889],[-81.64046297222222,26.43352588888889],[-81.64181247222223,26.43281],[-81.64304152777778,26.43153963888889],[-81.64343780555556,26.430601944444447],[-81.64358511111112,26.429468972222224],[-81.64351552777778,26.428560166666667],[-81.643296,26.42773091666667],[-81.64283819444445,26.426846222222224],[-81.64189844444445,26.425780722222225],[-81.64156111111112,26.425450444444447],[-81.64090786111112,26.425069555555556],[-81.63955580555556,26.424732000000002],[-81.63792527777778,26.42483316666667],[-81.63715955555556,26.42502113888889],[-81.63640450000001,26.425348916666668],[-81.63595466666668,26.425587555555555],[-81.635221,26.426194944444447],[-81.63458638888889,26.427077166666667],[-81.63439622222224,26.42765088888889],[-81.63424350000001,26.428713944444446],[-81.63437183333335,26.43039172222222],[-81.635199,26.432026166666667],[-81.63570769444445,26.43255652777778],[-81.63628866666667,26.433012166666668],[-81.63685897222223,26.433328],[-81.63701961111111,26.433388277777777],[-81.63837177777778,26.43372586111111]]},"properties":{"style":"solid","thickness":1}},{"type":"Feature","geometry":{"type":"LineString","coordinates":[[-81.67555586111112,26.347234083333333],[-81.6769525,26.347147],[-81.67764544444445,26.347033555555555],[-81.67899372222223,26.346317305555555],[-81.68022144444446,26.34504663888889],[-81.68061713888889,26.344108833333333],[-81.68076397222222,26.342975805555554],[-81.6806941388889,26.342067027777777],[-81.6804745,26.341237805555554],[-81.68001675000001,26.34035322222222],[-81.6790773888889,26.339287944444443],[-81.67874019444444,26.338957777777775],[-81.67808730555556,26.338577055555554],[-81.6767361388889,26.33823986111111],[-81.67510688888889,26.338341416666665],[-81.67434177777778,26.33852961111111],[-81.67358738888889,26.338857583333333],[-81.67313797222222,26.339096333333334],[-81.67240505555556,26.339703944444445],[-81.67177119444445,26.34058633333333],[-81.67158136111111,26.34116008333333],[-81.67142908333334,26.342223194444443],[-81.67155786111111,26.343900944444442],[-81.67238494444445,26.345535194444444],[-81.67289341666667,26.34606544444444],[-81.67347411111112,26.346520944444443],[-81.67404408333334,26.346836638888888],[-81.6742046388889,26.34689686111111],[-81.67555586111112,26.347234083333333]]},"properties":{"style":"solid","thickness":1}},{"type":"Feature","geometry":{"type":"LineString","coordinates":[[-81.66796908333333,26.33878622222222],[-81.66865030555556,26.347664388888887],[-81.66539147222223,26.34786736111111],[-81.66469316666667,26.347910833333334],[-81.66411786111112,26.347525194444444],[-81.66369236111112,26.34706],[-81.66367091666667,26.346780388888888],[-81.66356369444445,26.34538222222222],[-81.66362519444445,26.34516769444444],[-81.66381508333333,26.344593944444444],[-81.66453736111112,26.343846555555555],[-81.66372930555556,26.343475416666667],[-81.66332527777779,26.34328986111111],[-81.66291052777778,26.34296447222222],[-81.66262952777778,26.342349805555553],[-81.66249016666667,26.340532194444442],[-81.66268538888889,26.34002836111111],[-81.66319633333335,26.33957511111111],[-81.66356280555556,26.339271333333333],[-81.66393466666668,26.33903747222222],[-81.66796908333333,26.33878622222222]]},"properties":{"style":"solid","thickness":1}},{"type":"Feature","geometry":{"type":"LineString","coordinates":[[-81.66833919444444,26.343609805555555],[-81.66453736111112,26.343846555555555]]},"properties":{"style":"solid","thickness":1}},{"type":"Feature","geometry":{"type":"LineString","coordinates":[[-81.65912436111111,26.339336888888887],[-81.65716677777779,26.34837922222222],[-81.65322780555556,26.339703666666665],[-81.65119219444445,26.348750777777777],[-81.64764158333334,26.340050944444442]]},"properties":{"style":"solid","thickness":1}},{"type":"Feature","geometry":{"type":"LineString","coordinates":[[-81.64032919444445,26.349425666666665],[-81.64506238888889,26.34913172222222],[-81.64438294444444,26.340253444444443],[-81.63957255555556,26.34055219444444]]},"properties":{"style":"solid","thickness":1}},{"type":"Feature","geometry":{"type":"LineString","coordinates":[[-81.64471997222223,26.34465761111111],[-81.64014216666668,26.344941944444443]]},"properties":{"style":"solid","thickness":1}},{"type":"Feature","geometry":{"type":"LineString","coordinates":[[-81.63256986111111,26.349907249999998],[-81.63730305555556,26.349613555555553],[-81.63662422222222,26.34073522222222],[-81.63181377777777,26.34103372222222]]},"properties":{"style":"solid","thickness":1}},{"type":"Feature","geometry":{"type":"LineString","coordinates":[[-81.63696094444445,26.345139416666665],[-81.63238311111111,26.3454235]]},"properties":{"style":"solid","thickness":1}},{"type":"Feature","geometry":{"type":"LineString","coordinates":[[-81.435387,26.632782388888888],[-81.43605205555556,26.64166133333333],[-81.43278452777778,26.641858944444444],[-81.43208433333334,26.641901277777777],[-81.43150833333334,26.64151475],[-81.43108272222223,26.64104886111111],[-81.43106177777778,26.64076922222222],[-81.43095711111111,26.639370944444444],[-81.43101919444445,26.63915652777778],[-81.43121072222223,26.63858311111111],[-81.43193633333334,26.637836944444444],[-81.43112697222223,26.6374645],[-81.43072230555556,26.637278277777778],[-81.43030713888889,26.63695222222222],[-81.43002666666668,26.63633711111111],[-81.42989061111112,26.63451938888889],[-81.43008736111112,26.63401588888889],[-81.43060050000001,26.63356347222222],[-81.43096852777778,26.633260305555556],[-81.43134180555556,26.633027055555555],[-81.435387,26.632782388888888]]},"properties":{"style":"solid","thickness":1}},{"type":"Feature","geometry":{"type":"LineString","coordinates":[[-81.43574833333334,26.637606388888887],[-81.43193633333334,26.637836944444444]]},"properties":{"style":"solid","thickness":1}},{"type":"Feature","geometry":{"type":"LineString","coordinates":[[-81.42718302777779,26.642197555555555],[-81.42665463888889,26.63513633333333],[-81.42655069444444,26.634791472222222],[-81.42595383333334,26.63412525],[-81.4255335,26.63372927777778],[-81.42489022222223,26.63348722222222],[-81.42402927777778,26.633468999999998],[-81.42278458333334,26.633544194444443],[-81.42208966666666,26.633656388888888],[-81.42118227777779,26.634062333333333],[-81.42067430555556,26.63458463888889],[-81.4203945,26.635022888888887],[-81.42028597222223,26.6356615],[-81.42080347222223,26.642582916666665]]},"properties":{"style":"solid","thickness":1}},{"type":"Feature","geometry":{"type":"LineString","coordinates":[[-81.41104716666668,26.642750361111112],[-81.41153486111112,26.64300186111111],[-81.41208991666667,26.643108833333333],[-81.41395711111112,26.642996166666666],[-81.41464686111112,26.64281411111111],[-81.41487502777778,26.64273011111111],[-81.41599500000001,26.64203047222222],[-81.41664294444445,26.641289055555553],[-81.41682408333334,26.640575833333333],[-81.41727461111111,26.63928452777778],[-81.41715441666668,26.637676527777778],[-81.41694136111111,26.63691686111111],[-81.41666094444444,26.63630172222222],[-81.41629752777779,26.63562138888889],[-81.41546211111111,26.634899277777777],[-81.41393177777779,26.63428936111111],[-81.41290477777778,26.634140638888887],[-81.41204902777778,26.634192249999998],[-81.41097558333334,26.634467694444442],[-81.41060227777778,26.63470088888889],[-81.41030152777779,26.6348595]]},"properties":{"style":"solid","thickness":1}},{"type":"Feature","geometry":{"type":"LineString","coordinates":[[-81.40707019444444,26.634492527777777],[-81.40508786111111,26.643531027777776],[-81.40115780555556,26.63484888888889],[-81.39909719444445,26.643892],[-81.39555655555556,26.63518625]]},"properties":{"style":"solid","thickness":1}},{"type":"Feature","geometry":{"type":"LineString","coordinates":[[-81.39295088888889,26.644262055555554],[-81.39242461111112,26.63720072222222],[-81.39232075000001,26.636855833333332],[-81.39172408333334,26.63618947222222],[-81.39130383333334,26.63579338888889],[-81.39066063888889,26.635551194444442],[-81.38979966666668,26.635532777777776],[-81.38855491666668,26.635607666666665],[-81.38785997222223,26.635719694444443],[-81.38695244444445,26.636125416666665],[-81.38644433333334,26.636647583333332],[-81.3861643888889,26.637085777777777],[-81.38605563888889,26.637724388888888],[-81.3865711388889,26.644645916666665]]},"properties":{"style":"solid","thickness":1}},{"type":"Feature","geometry":{"type":"LineString","coordinates":[[-81.39054855555557,26.523952416666667],[-81.38988766666667,26.51507311111111]]},"properties":{"style":"solid","thickness":1}},{"type":"Feature","geometry":{"type":"LineString","coordinates":[[-81.38518061111112,26.524205444444444],[-81.39021550000001,26.519477805555553],[-81.38444761111111,26.515400694444445]]},"properties":{"style":"solid","thickness":1}},{"type":"Feature","geometry":{"type":"LineString","coordinates":[[-81.38126127777777,26.515592472222224],[-81.37764680555554,26.52472897222222],[-81.37294569444444,26.516092611111112]]},"properties":{"style":"solid","thickness":1}},{"type":"Feature","geometry":{"type":"LineString","coordinates":[[-81.38007549999999,26.518543194444444],[-81.37447980555555,26.51887975]]},"properties":{"style":"solid","thickness":1}},{"type":"Feature","geometry":{"type":"LineString","coordinates":[[-81.3696816111111,26.516288805555554],[-81.37034094444444,26.525168194444444],[-81.36692113888888,26.525373638888887],[-81.36597808333333,26.525289833333332],[-81.36557391666666,26.525103416666667],[-81.36491580555555,26.52465136111111],[-81.36392608333333,26.523938277777777],[-81.3632368611111,26.523066694444445],[-81.36302955555556,26.52237686111111],[-81.36285836111111,26.52006961111111],[-81.3629671111111,26.519431027777777],[-81.36337116666667,26.518564027777778],[-81.36387888888888,26.518041944444445],[-81.36437622222222,26.517380027777776],[-81.36511708333333,26.516843944444442],[-81.3660341111111,26.516578166666665],[-81.36657294444444,26.51647558333333],[-81.3696816111111,26.516288805555554]]},"properties":{"style":"solid","thickness":1}},{"type":"Feature","geometry":{"type":"LineString","coordinates":[[-81.36008152777777,26.525784333333334],[-81.35448544444444,26.526120083333332]]},"properties":{"style":"solid","thickness":1}},{"type":"Feature","geometry":{"type":"LineString","coordinates":[[-81.35736122222221,26.525947583333334],[-81.3567028611111,26.517068138888888]]},"properties":{"style":"solid","thickness":1}},{"type":"Feature","geometry":{"type":"LineString","coordinates":[[-81.34647988888888,26.526600055555555],[-81.35122105555556,26.52631586111111],[-81.35056316666666,26.51743638888889],[-81.34574463888889,26.51772522222222]]},"properties":{"style":"solid","thickness":1}},{"type":"Feature","geometry":{"type":"LineString","coordinates":[[-81.3508895,26.521841166666665],[-81.34630397222222,26.522116027777777]]},"properties":{"style":"solid","thickness":1}},{"type":"Feature","geometry":{"type":"LineString","coordinates":[[-81.56501116666666,26.598542388888887],[-81.56447455555555,26.59148161111111],[-81.56437025,26.59113686111111],[-81.56377280555556,26.590471194444444],[-81.56335213888889,26.59007561111111],[-81.56270883333333,26.589834194444443],[-81.56184816666666,26.589816805555554],[-81.56060405555556,26.589893194444443],[-81.55990952777778,26.590006083333332],[-81.55900297222222,26.59041288888889],[-81.55849583333332,26.590935666666667],[-81.55821663888888,26.59137422222222],[-81.55810888888888,26.592012944444445],[-81.5586345,26.598933916666667]]},"properties":{"style":"solid","thickness":1}},{"type":"Feature","geometry":{"type":"LineString","coordinates":[[-81.55536838888888,26.599134333333332],[-81.55096197222223,26.59048486111111],[-81.54805847222222,26.599582638888887]]},"properties":{"style":"solid","thickness":1}},{"type":"Feature","geometry":{"type":"LineString","coordinates":[[-81.54411913888889,26.59090436111111],[-81.54479233333333,26.599782833333332],[-81.53533227777777,26.591442555555556],[-81.53600477777778,26.600321055555558]]},"properties":{"style":"solid","thickness":1}},{"type":"Feature","geometry":{"type":"LineString","coordinates":[[-81.53222186111111,26.591632916666665],[-81.52861694444444,26.60077313888889],[-81.52390141666666,26.59214186111111]]},"properties":{"style":"solid","thickness":1}},{"type":"Feature","geometry":{"type":"LineString","coordinates":[[-81.53103913888889,26.59458488888889],[-81.52544022222222,26.59492736111111]]},"properties":{"style":"solid","thickness":1}},{"type":"Feature","geometry":{"type":"LineString","coordinates":[[-81.52130683333333,26.601220083333335],[-81.51754533333333,26.5959015],[-81.51469658333333,26.601623916666668]]},"properties":{"style":"solid","thickness":1}},{"type":"Feature","geometry":{"type":"LineString","coordinates":[[-81.51754533333333,26.5959015],[-81.51729697222223,26.59261572222222]]},"properties":{"style":"solid","thickness":1}},{"type":"Feature","geometry":{"type":"LineString","coordinates":[[-81.29414075,26.605851583333333],[-81.29358980555556,26.59837033333333],[-81.29363666666667,26.597946194444443],[-81.29399466666666,26.597503527777775],[-81.29443555555555,26.597126166666666],[-81.2947363611111,26.59696783333333],[-81.29519783333333,26.59687011111111],[-81.29597558333333,26.596823833333332],[-81.2964473611111,26.596865972222222],[-81.29718338888888,26.59731372222222],[-81.29735438888889,26.59751422222222]]},"properties":{"style":"solid","thickness":1}},{"type":"Feature","geometry":{"type":"LineString","coordinates":[[-81.29029808333333,26.597161694444445],[-81.29095177777778,26.606041361111114]]},"properties":{"style":"solid","thickness":1}},{"type":"Feature","geometry":{"type":"LineString","coordinates":[[-81.28690719444444,26.606281916666667],[-81.28252063888888,26.597624194444442],[-81.27959583333333,26.606716472222224]]},"properties":{"style":"solid","thickness":1}},{"type":"Feature","geometry":{"type":"LineString","coordinates":[[-81.27632902777778,26.606910527777778],[-81.27567644444444,26.598030833333333],[-81.27186544444444,26.59825711111111]]},"properties":{"style":"solid","thickness":1}},{"type":"Feature","geometry":{"type":"LineString","coordinates":[[-81.26932869444444,26.607326083333334],[-81.26881013888888,26.60026427777778],[-81.26870669444445,26.599919277777776],[-81.26811091666667,26.59925238888889],[-81.26769122222223,26.598855944444445],[-81.2670485,26.598613194444443],[-81.26618783333333,26.598594027777775],[-81.26494341666667,26.598667833333334],[-81.26424855555555,26.598779277777776],[-81.26334088888889,26.59918422222222],[-81.26283236111111,26.599705944444445],[-81.26255205555556,26.600143916666667],[-81.26244266666667,26.600782416666668],[-81.26295058333334,26.607704416666667]]},"properties":{"style":"solid","thickness":1}},{"type":"Feature","geometry":{"type":"LineString","coordinates":[[-81.13736947222223,26.58275363888889],[-81.13682880555557,26.57527175],[-81.13687625,26.574847666666667],[-81.13723477777778,26.574405416666668],[-81.13767608333335,26.574028527777777],[-81.13797705555557,26.573870499999998],[-81.13843858333334,26.57377333333333],[-81.13921622222223,26.57372788888889],[-81.13968786111111,26.57377052777778],[-81.14042311111112,26.574219111111113],[-81.14059380555557,26.574419777777777]]},"properties":{"style":"solid","thickness":1}},{"type":"Feature","geometry":{"type":"LineString","coordinates":[[-81.1294368611111,26.58321683333333],[-81.13418088888889,26.58293986111111],[-81.13353941666668,26.5740595],[-81.12871799999999,26.57434097222222]]},"properties":{"style":"solid","thickness":1}},{"type":"Feature","geometry":{"type":"LineString","coordinates":[[-81.13385761111111,26.578464722222222],[-81.12926933333333,26.578732583333334]]},"properties":{"style":"solid","thickness":1}},{"type":"Feature","geometry":{"type":"LineString","coordinates":[[-81.12599625,26.574499805555554],[-81.11987102777778,26.583774805555553]]},"properties":{"style":"solid","thickness":1}},{"type":"Feature","geometry":{"type":"LineString","coordinates":[[-81.12640380555555,26.583393805555556],[-81.11891958333332,26.574912527777776]]},"properties":{"style":"solid","thickness":1}},{"type":"Feature","geometry":{"type":"LineString","coordinates":[[-81.11108280555555,26.58428686111111],[-81.11248269444444,26.584205305555553],[-81.11317761111111,26.58409461111111],[-81.11453213888889,26.58338375],[-81.11576858333333,26.582118],[-81.11616969444444,26.581181805555556],[-81.11632233333333,26.580049416666668],[-81.11625683333332,26.579140388888888],[-81.11604080555556,26.57831036111111],[-81.11558644444443,26.577424],[-81.11465038888889,26.576355027777776],[-81.1143141111111,26.576023527777778],[-81.11366174999999,26.57564025],[-81.1123095,26.575297694444444],[-81.11067641666666,26.575392805555555],[-81.10990883333332,26.575577944444444],[-81.10915130555556,26.575902944444444],[-81.10869980555555,26.57613988888889],[-81.10796241666667,26.576744555555557],[-81.10732294444443,26.57762438888889],[-81.10712991666666,26.578197361111112],[-81.1069721111111,26.57925983333333],[-81.10709294444443,26.580938027777776],[-81.10791372222222,26.58257547222222],[-81.10842063888889,26.583107722222223],[-81.10900030555555,26.5835655],[-81.10956988888888,26.583883416666666],[-81.10973044444444,26.58394427777778],[-81.11108280555555,26.58428686111111]]},"properties":{"style":"solid","thickness":1}},{"type":"Feature","geometry":{"type":"LineString","coordinates":[[-81.10986408333332,26.57712536111111],[-81.10715902777777,26.57426347222222]]},"properties":{"style":"solid","thickness":1}},{"type":"Feature","geometry":{"type":"LineString","coordinates":[[-81.10416105555555,26.58468975],[-81.10365275,26.577627333333332],[-81.10354980555555,26.57728225],[-81.1029551111111,26.576614666666668],[-81.10253608333333,26.57621775],[-81.10189383333332,26.57597422222222],[-81.1010333611111,26.575954083333333],[-81.09978908333333,26.576026444444445],[-81.09909422222222,26.576137083333332],[-81.09818616666666,26.576540972222222],[-81.09767699999999,26.577062083333335],[-81.09739608333332,26.57749972222222],[-81.09728580555556,26.578138111111112],[-81.09778369444444,26.585060694444444]]},"properties":{"style":"solid","thickness":1}},{"type":"Feature","geometry":{"type":"LineString","coordinates":[[-81.12492175,26.448135833333332],[-81.11963947222222,26.448444305555554],[-81.11959413888889,26.447814972222222],[-81.12483038888888,26.43929341666667],[-81.1248253611111,26.439223472222224],[-81.11868905555555,26.439581805555555]]},"properties":{"style":"solid","thickness":1}},{"type":"Feature","geometry":{"type":"LineString","coordinates":[[-81.11637688888888,26.448634722222224],[-81.11586830555555,26.441572166666667],[-81.11576547222222,26.441227055555554],[-81.11517138888888,26.44055952777778],[-81.11475280555555,26.44016263888889],[-81.11411127777777,26.439919166666666],[-81.11325180555555,26.439899083333334],[-81.112009,26.439971583333335],[-81.11131494444444,26.44008227777778],[-81.11040799999999,26.44048627777778],[-81.1098995,26.44100747222222],[-81.10961897222222,26.441445138888888],[-81.10950888888888,26.442083555555556],[-81.11000702777777,26.449006277777777]]},"properties":{"style":"solid","thickness":1}},{"type":"Feature","geometry":{"type":"LineString","coordinates":[[-81.09912380555555,26.448446694444446],[-81.09946469444444,26.448848166666668],[-81.10019397222221,26.449227],[-81.1006701111111,26.449339694444443],[-81.10200580555555,26.449472555555555],[-81.10247188888889,26.449445416666666],[-81.103394,26.44925125],[-81.10415574999999,26.448996222222224],[-81.10430608333333,26.44891725],[-81.10482472222222,26.448535916666668],[-81.10533830555555,26.448084666666666],[-81.10618497222222,26.44684161111111],[-81.10649291666667,26.44570013888889],[-81.10638225,26.44416175],[-81.10616655555555,26.443331694444446],[-81.10581058333332,26.442720444444443],[-81.10530427777778,26.442188194444444],[-81.10488069444443,26.44172136111111],[-81.10421402777777,26.441128222222222],[-81.10357252777777,26.440884722222222],[-81.102931,26.440641222222222],[-81.10237722222222,26.440533055555555],[-81.10097902777777,26.4406145],[-81.10021233333333,26.44079961111111],[-81.09961102777777,26.4411155],[-81.09893705555555,26.441505833333334],[-81.0984961111111,26.44188261111111],[-81.09777963888888,26.442766972222223],[-81.09735877777777,26.443423444444445],[-81.09723355555555,26.443852055555556],[-81.09731394444444,26.44497088888889],[-81.10057647222222,26.44478088888889]]},"properties":{"style":"solid","thickness":1}},{"type":"Feature","geometry":{"type":"LineString","coordinates":[[-81.09383280555555,26.441030583333333],[-81.0944706111111,26.449911305555556],[-81.09105255555555,26.450110194444445],[-81.09011033333333,26.450024555555554],[-81.08970686111111,26.44983736111111],[-81.08905027777777,26.44938402777778],[-81.08806286111111,26.44866902777778],[-81.08737619444445,26.44779611111111],[-81.08717063888888,26.44710588888889],[-81.08700505555555,26.444798305555555],[-81.08711525,26.444159916666667],[-81.0875211111111,26.443293694444446],[-81.08802972222222,26.442772583333333],[-81.08852830555556,26.442111611111113],[-81.08926994444444,26.441576944444446],[-81.09018702777777,26.441312944444444],[-81.09072574999999,26.441211388888888],[-81.09383280555555,26.441030583333333]]},"properties":{"style":"solid","thickness":1}},{"type":"Feature","geometry":{"type":"LineString","coordinates":[[-81.08421644444444,26.450507694444443],[-81.08370983333333,26.443445055555557],[-81.08360708333333,26.443099944444445],[-81.08301319444445,26.44243227777778],[-81.08259469444444,26.442035277777777],[-81.08195322222223,26.441791694444444],[-81.08109375,26.44177141666667],[-81.07985091666666,26.44184361111111],[-81.07915683333333,26.441954166666665],[-81.07824975,26.442357944444446],[-81.07774111111111,26.442879027777778],[-81.07746044444444,26.443316638888888],[-81.07735019444443,26.443955],[-81.07784641666666,26.450877833333333]]},"properties":{"style":"solid","thickness":1}},{"type":"Feature","geometry":{"type":"LineString","coordinates":[[-81.12063288888888,26.31889011111111],[-81.11735569444444,26.3101635],[-81.11473572222222,26.319234722222223],[-81.1113813611111,26.310512527777778],[-81.10914888888888,26.319561]]},"properties":{"style":"solid","thickness":1}},{"type":"Feature","geometry":{"type":"LineString","coordinates":[[-81.10525180555555,26.31087036111111],[-81.10588988888888,26.319751194444443]]},"properties":{"style":"solid","thickness":1}},{"type":"Feature","geometry":{"type":"LineString","coordinates":[[-81.10144991666667,26.31109216666667],[-81.09533686111111,26.32036663888889]]},"properties":{"style":"solid","thickness":1}},{"type":"Feature","geometry":{"type":"LineString","coordinates":[[-81.10185491666667,26.319986611111112],[-81.09438922222222,26.311503833333333]]},"properties":{"style":"solid","thickness":1}},{"type":"Feature","geometry":{"type":"LineString","coordinates":[[-81.09207783333333,26.32055652777778],[-81.09157119444444,26.31349377777778],[-81.09146852777778,26.31314863888889],[-81.09087525,26.312481000000002],[-81.09045719444444,26.31208402777778],[-81.08981641666666,26.311840472222222],[-81.08895788888888,26.31182025],[-81.08771644444444,26.311892555555556],[-81.08702313888888,26.312003166666667],[-81.08611711111111,26.312407],[-81.08560905555555,26.31292813888889],[-81.08532877777778,26.31336577777778],[-81.08521869444444,26.314004166666667],[-81.08571488888889,26.320927083333334]]},"properties":{"style":"solid","thickness":1}},{"type":"Feature","geometry":{"type":"LineString","coordinates":[[-81.08205230555555,26.312222277777778],[-81.07593766666666,26.321495916666667]]},"properties":{"style":"solid","thickness":1}},{"type":"Feature","geometry":{"type":"LineString","coordinates":[[-81.08245583333333,26.321116777777778],[-81.0749915,26.312633]]},"properties":{"style":"solid","thickness":1}},{"type":"Feature","geometry":{"type":"LineString","coordinates":[[-81.32423869444445,26.421248666666667],[-81.3237176111111,26.41418675],[-81.32361416666666,26.413841777777776],[-81.32301902777778,26.41317511111111],[-81.32259983333333,26.412778805555554],[-81.321958,26.412536277777775],[-81.32109869444444,26.412517444444443],[-81.31985627777777,26.412591749999997],[-81.31916258333332,26.412703444444443],[-81.31825658333332,26.41310875],[-81.31774911111111,26.413630694444443],[-81.31746944444444,26.414068805555555],[-81.31736052777778,26.41470736111111],[-81.31787091666666,26.421629472222225]]},"properties":{"style":"solid","thickness":1}},{"type":"Feature","geometry":{"type":"LineString","coordinates":[[-81.31418783333334,26.41293058333333],[-81.30808622222222,26.422214055555557]]},"properties":{"style":"solid","thickness":1}},{"type":"Feature","geometry":{"type":"LineString","coordinates":[[-81.31460936111111,26.421824416666666],[-81.30712161111111,26.413352666666665]]},"properties":{"style":"solid","thickness":1}},{"type":"Feature","geometry":{"type":"LineString","coordinates":[[-81.3048246111111,26.42240877777778],[-81.30430469444444,26.415346777777778],[-81.30420130555555,26.415001805555555],[-81.30360627777777,26.414335027777778],[-81.30318713888889,26.413938666666667],[-81.30254536111111,26.413696055555555],[-81.30168602777778,26.41367711111111],[-81.3004436111111,26.413751249999997],[-81.29974988888888,26.41386286111111],[-81.29884380555555,26.414268055555553],[-81.29833624999999,26.414789916666667],[-81.2980565,26.415227972222223],[-81.29794747222222,26.415866527777776],[-81.29845672222223,26.422788694444446]]},"properties":{"style":"solid","thickness":1}},{"type":"Feature","geometry":{"type":"LineString","coordinates":[[-81.29519511111111,26.422983194444445],[-81.29081480555556,26.414325388888887],[-81.28789524999999,26.423418222222224]]},"properties":{"style":"solid","thickness":1}},{"type":"Feature","geometry":{"type":"LineString","coordinates":[[-81.27989638888889,26.423894472222223],[-81.28463358333333,26.423612472222224],[-81.28398138888889,26.414732444444443],[-81.27916691666667,26.415019055555554]]},"properties":{"style":"solid","thickness":1}},{"type":"Feature","geometry":{"type":"LineString","coordinates":[[-81.28430491666667,26.4191375],[-81.27972322222222,26.419410250000002]]},"properties":{"style":"solid","thickness":1}},{"type":"Feature","geometry":{"type":"LineString","coordinates":[[-81.5746868611111,26.213089555555555],[-81.57411969444443,26.205609055555556],[-81.57416538888889,26.205184805555554],[-81.57452108333332,26.204741444444444],[-81.57495958333332,26.204363194444444],[-81.57525897222222,26.20420425],[-81.57571866666666,26.204105638888887],[-81.57649366666666,26.204057805555554],[-81.57696394444444,26.204099027777776],[-81.57769855555556,26.204545361111112],[-81.57786947222222,26.204745527777778]]},"properties":{"style":"solid","thickness":1}},{"type":"Feature","geometry":{"type":"LineString","coordinates":[[-81.57083622222221,26.204406833333334],[-81.57150916666666,26.21328558333333]]},"properties":{"style":"solid","thickness":1}},{"type":"Feature","geometry":{"type":"LineString","coordinates":[[-81.56434983333332,26.209231694444444],[-81.56052877777778,26.20504213888889]]},"properties":{"style":"solid","thickness":1}},{"type":"Feature","geometry":{"type":"LineString","coordinates":[[-81.56680625,26.204655305555555],[-81.56747888888889,26.213534083333332],[-81.5636036111111,26.213772916666667],[-81.563283,26.213652194444443],[-81.56256427777778,26.213415527777777],[-81.56181380555556,26.21275936111111],[-81.56145083333332,26.212079361111112],[-81.56138733333333,26.211240416666666],[-81.56164441666667,26.210522194444444],[-81.56228899999999,26.20978011111111],[-81.56296536111111,26.2094575],[-81.56326477777777,26.209298555555556],[-81.56713991666666,26.209059749999998]]},"properties":{"style":"solid","thickness":1}},{"type":"Feature","geometry":{"type":"LineString","coordinates":[[-81.55742877777777,26.205233055555556],[-81.55383783333333,26.214374305555555],[-81.54913619444444,26.20574347222222]]},"properties":{"style":"solid","thickness":1}},{"type":"Feature","geometry":{"type":"LineString","coordinates":[[-81.55625063888888,26.20818536111111],[-81.55067047222222,26.208528805555556]]},"properties":{"style":"solid","thickness":1}},{"type":"Feature","geometry":{"type":"LineString","coordinates":[[-81.54611366666667,26.205929388888887],[-81.54004158333333,26.215222777777775]]},"properties":{"style":"solid","thickness":1}},{"type":"Feature","geometry":{"type":"LineString","coordinates":[[-81.54655219444444,26.214822527777777],[-81.53906102777778,26.206362944444443]]},"properties":{"style":"solid","thickness":1}},{"type":"Feature","geometry":{"type":"LineString","coordinates":[[-81.28164480555556,26.22584758333333],[-81.27637316666666,26.22616186111111],[-81.27632705555556,26.225532583333333],[-81.28154158333334,26.217005166666667],[-81.28153647222221,26.21693525],[-81.2754125,26.21730036111111]]},"properties":{"style":"solid","thickness":1}},{"type":"Feature","geometry":{"type":"LineString","coordinates":[[-81.27254430555556,26.217471277777776],[-81.26893077777778,26.22660525],[-81.26424975,26.21796522222222]]},"properties":{"style":"solid","thickness":1}},{"type":"Feature","geometry":{"type":"LineString","coordinates":[[-81.27135888888888,26.220421194444445],[-81.2657773611111,26.220753555555554]]},"properties":{"style":"solid","thickness":1}},{"type":"Feature","geometry":{"type":"LineString","coordinates":[[-81.26164338888888,26.227039027777778],[-81.25835825,26.218315777777775],[-81.25575144444444,26.22738947222222],[-81.25238919444445,26.218670694444445],[-81.25016955555556,26.22772125]]},"properties":{"style":"solid","thickness":1}},{"type":"Feature","geometry":{"type":"LineString","coordinates":[[-81.24379583333334,26.223605416666665],[-81.23998586111111,26.219407388888886]]},"properties":{"style":"solid","thickness":1}},{"type":"Feature","geometry":{"type":"LineString","coordinates":[[-81.24626508333334,26.219034583333332],[-81.24691341666667,26.227914666666663],[-81.24303708333333,26.228144861111108],[-81.24271677777777,26.228023416666666],[-81.24199861111111,26.227785166666663],[-81.24124986111111,26.22712736111111],[-81.24088872222222,26.226446527777775],[-81.2408275,26.225607472222222],[-81.24108658333333,26.224889833333332],[-81.24173330555556,26.224149194444443],[-81.24241061111111,26.22382811111111],[-81.2427105,26.223669833333332],[-81.24658669444445,26.223439666666664]]},"properties":{"style":"solid","thickness":1}},{"type":"Feature","geometry":{"type":"LineString","coordinates":[[-81.2368075,26.219596],[-81.23745513888889,26.228476138888887]]},"properties":{"style":"solid","thickness":1}}]}
