{"type":"FeatureCollection","features":[{"type":"Feature","geometry":{"type":"LineString","coordinates":[[-81.63691716666668,27.032998416666665],[-81.58868177777778,26.903461444444442]]},"properties":{"style":"solid","thickness":1}},{"type":"Feature","geometry":{"type":"LineString","coordinates":[[-81.70607775,26.81514675],[-81.69483955555556,26.801747472222225]]},"properties":{"style":"solid","thickness":1}},{"type":"Feature","geometry":{"type":"LineString","coordinates":[[-81.51258544444444,26.808652416666668],[-81.49885830555556,26.82018613888889]]},"properties":{"style":"solid","thickness":1}},{"type":"Feature","geometry":{"type":"LineString","coordinates":[[-81.52875227777778,26.945032305555557],[-81.51588172222222,26.93290072222222]]},"properties":{"style":"solid","thickness":1}},{"type":"Feature","geometry":{"type":"LineString","coordinates":[[-81.58288055555555,26.88786111111111],[-81.59777488888888,26.87781275]]},"properties":{"style":"solid","thickness":1}},{"type":"Feature","geometry":{"type":"LineString","coordinates":[[-81.61266663888888,26.867762805555557],[-81.62755577777777,26.857711277777778]]},"properties":{"style":"solid","thickness":1}},{"type":"Feature","geometry":{"type":"LineString","coordinates":[[-81.64244230555556,26.847658166666665],[-81.65732625000001,26.83760347222222]]},"properties":{"style":"solid","thickness":1}},{"type":"Feature","geometry":{"type":"LineString","coordinates":[[-81.67220758333333,26.827547222222222],[-81.68708630555555,26.817489388888887]]},"properties":{"style":"solid","thickness":1}},{"type":"Feature","geometry":{"type":"LineString","coordinates":[[-81.58288055555555,26.88786111111111],[-81.56930947222222,26.899319055555555]]},"properties":{"style":"solid","thickness":1}},{"type":"Feature","geometry":{"type":"LineString","coordinates":[[-81.55573566666666,26.910775666666666],[-81.54215916666666,26.922230944444447]]},"properties":{"style":"solid","thickness":1}},{"type":"Feature","geometry":{"type":"LineString","coordinates":[[-81.52857994444445,26.93368488888889],[-81.52231666666667,26.938966666666666]]},"properties":{"style":"solid","thickness":1}},{"type":"Feature","geometry":{"type":"LineString","coordinates":[[-81.50572222222222,26.814419444444447],[-81.51849488888888,26.82658627777778]]},"properties":{"style":"solid","thickness":1}},{"type":"Feature","geometry":{"type":"LineString","coordinates":[[-81.53127022222222,26.838751916666666],[-81.54404827777778,26.850916416666667]]},"properties":{"style":"solid","thickness":1}},{"type":"Feature","geometry":{"type":"LineString","coordinates":[[-81.55682905555555,26.86307975],[-81.56961249999999,26.87524188888889]]},"properties":{"style":"solid","thickness":1}},{"type":"Feature","geometry":{"type":"LineString","coordinates":[[-81.63071033333333,27.032992555555555],[-81.64607641666667,27.033006555555556],[-81.63837980555556,27.044925444444445],[-81.63071033333333,27.032992555555555]]},"properties":{"style":"solid","thickness":1}},{"type":"Feature","geometry":{"type":"LineString","coordinates":[[-81.58615449999999,26.91794325],[-81.58868177777778,26.903461444444442],[-81.60097119444444,26.913129388888887]]},"properties":{"style":"solid","thickness":1}},{"type":"Feature","geometry":{"type":"LineString","coordinates":[[-81.5509178611111,26.783416944444447],[-81.54986636111111,26.783481305555558],[-81.5492735,26.77567983333333]]},"properties":{"style":"solid","thickness":1}},{"type":"Feature","geometry":{"type":"LineString","coordinates":[[-81.54408644444445,26.775997277777776],[-81.54317677777777,26.777001055555555],[-81.54240252777778,26.777933333333333],[-81.54176363888888,26.77879411111111],[-81.54138127777777,26.779323138888888],[-81.54107855555556,26.77997375],[-81.54098613888888,26.780611472222223],[-81.54095902777777,26.781181999999998],[-81.541045,26.78231447222222],[-81.54128874999999,26.782742027777775],[-81.54159780555555,26.78310236111111],[-81.54191163888889,26.783525611111113],[-81.54342194444445,26.78393888888889],[-81.54426316666667,26.783887444444446],[-81.545141,26.78339127777778],[-81.54527163888889,26.78325686111111],[-81.54579419444444,26.782719222222223],[-81.54585475,26.78258911111111],[-81.54606822222222,26.78169113888889],[-81.54602044444444,26.781061972222222],[-81.54584677777778,26.78063013888889],[-81.54567791666666,26.78026125],[-81.54536408333333,26.779837999999998],[-81.54476983333333,26.779431888888887],[-81.54418994444444,26.779214555555555],[-81.54383469444444,26.779173083333333],[-81.543344,26.779203083333332],[-81.54299830555556,26.779287444444442],[-81.54184486111112,26.779863666666667],[-81.54098136111111,26.780548555555555]]},"properties":{"style":"solid","thickness":1}},{"type":"Feature","geometry":{"type":"LineString","coordinates":[[-81.54146252777778,26.953912055555556],[-81.54149124999999,26.954289527777778],[-81.54138430555555,26.954738499999998],[-81.54114655555556,26.95532186111111],[-81.54089444444445,26.955716499999998],[-81.54049233333333,26.95599386111111],[-81.53994025,26.95615397222222],[-81.53888716666667,26.95621825],[-81.5381053611111,26.956139583333332],[-81.53773997222223,26.95597225],[-81.53721508333334,26.95556186111111],[-81.53705074999999,26.95525586111111],[-81.53687211111111,26.954761138888887],[-81.5367956111111,26.95375452777778],[-81.53690733333333,26.95336847222222],[-81.53743874999999,26.95200875],[-81.53821425,26.951076555555556],[-81.53945722222223,26.949799777777777],[-81.54095227777778,26.948128361111113],[-81.5365296388889,26.94839836111111]]},"properties":{"style":"solid","thickness":1}},{"type":"Feature","geometry":{"type":"LineString","coordinates":[[-81.52896661111112,26.951893555555554],[-81.52910991666667,26.953780944444443],[-81.52940172222222,26.95483763888889],[-81.52958036111112,26.95533236111111],[-81.52981963888888,26.955697],[-81.53071944444444,26.956400583333334],[-81.53158580555555,26.956663777777777],[-81.53186661111111,26.956646638888888],[-81.53268519444444,26.956280694444445],[-81.5334001111111,26.95547861111111],[-81.53365225,26.955084027777776],[-81.53375441666667,26.95457213888889],[-81.53388377777777,26.953489777777776],[-81.53374038888889,26.951602388888887],[-81.53344855555555,26.950545694444443],[-81.53326991666667,26.950050972222222],[-81.53296044444444,26.949690611111112],[-81.53213086111111,26.94898277777778],[-81.53126455555555,26.948719583333332],[-81.53098377777778,26.948736722222222],[-81.53016525,26.94910266666667],[-81.52938013888888,26.949909],[-81.52919819444445,26.950299305555554],[-81.529096,26.950811166666664],[-81.52896661111112,26.951893555555554]]},"properties":{"style":"solid","thickness":1}},{"type":"Feature","geometry":{"type":"LineString","coordinates":[[-81.62922169444444,26.88232902777778],[-81.62925066666666,26.8827065],[-81.62914416666666,26.883155527777777],[-81.628907,26.883739055555555],[-81.62865533333333,26.884133833333333],[-81.62825369444444,26.884411472222222],[-81.62770208333333,26.884571916666665],[-81.62664969444444,26.88463686111111],[-81.62586830555554,26.884558666666667],[-81.62550302777777,26.884391555555556],[-81.62497813888888,26.88398147222222],[-81.62481369444444,26.883675583333332],[-81.62463477777777,26.883180944444444],[-81.62455755555555,26.88217436111111],[-81.62466888888888,26.88178825],[-81.62519894444443,26.88042816666667],[-81.62597324999999,26.879495472222224],[-81.62721447222222,26.87821788888889],[-81.62870730555555,26.87654552777778],[-81.62428763888889,26.87681825]]},"properties":{"style":"solid","thickness":1}},{"type":"Feature","geometry":{"type":"LineString","coordinates":[[-81.61673197222221,26.88031816666667],[-81.61687663888888,26.882205527777778],[-81.61716908333332,26.88326202777778],[-81.61734799999999,26.883756694444443],[-81.61758738888888,26.884121166666667],[-81.61848716666665,26.88482422222222],[-81.61935319444444,26.88508688888889],[-81.61963383333332,26.885069583333333],[-81.62045161111111,26.88470311111111],[-81.62116547222222,26.883900583333332],[-81.62141716666666,26.883505805555554],[-81.6215188611111,26.88299386111111],[-81.62164733333333,26.881911388888888],[-81.62150258333332,26.880024055555555],[-81.62121011111111,26.878967555555555],[-81.62103119444444,26.878472916666666],[-81.62072163888888,26.87811275],[-81.61989205555555,26.87740538888889],[-81.61902608333332,26.877142722222224],[-81.61874547222222,26.87716002777778],[-81.61792772222222,26.877526500000002],[-81.61714375,26.878333333333334],[-81.61696222222221,26.87872377777778],[-81.61686047222221,26.879235694444446],[-81.61673197222221,26.88031816666667]]},"properties":{"style":"solid","thickness":1}},{"type":"Feature","geometry":{"type":"LineString","coordinates":[[-81.7295736388889,26.815238944444445],[-81.72960294444445,26.81561638888889],[-81.72949686111112,26.816065527777777],[-81.72926036111112,26.816649222222225],[-81.72900916666667,26.817044194444446],[-81.72860802777778,26.817322083333334],[-81.72805686111111,26.817482944444443],[-81.72700516666667,26.81754861111111],[-81.72622416666667,26.81747097222222],[-81.72585894444444,26.81730413888889],[-81.725334,26.816894416666667],[-81.72516938888889,26.81658861111111],[-81.72499013888888,26.816094111111113],[-81.72491208333334,26.815087555555557],[-81.72502302777778,26.814701361111112],[-81.72555158333334,26.81334086111111],[-81.72632461111111,26.812407611111112],[-81.727564,26.811129166666667],[-81.7290545,26.80945572222222],[-81.7246376388889,26.809731555555555]]},"properties":{"style":"solid","thickness":1}},{"type":"Feature","geometry":{"type":"LineString","coordinates":[[-81.71708944444444,26.813236833333335],[-81.71723566666667,26.81512411111111],[-81.71752886111112,26.816180444444445],[-81.71770808333333,26.816674972222224],[-81.71794769444445,26.817039305555554],[-81.71884755555556,26.817741722222223],[-81.71971330555556,26.81800377777778],[-81.71999375,26.817986277777777],[-81.72081075,26.817619222222223],[-81.72152347222223,26.816816194444446],[-81.72177466666668,26.816421222222225],[-81.72187588888889,26.815909222222224],[-81.72200333333333,26.81482663888889],[-81.72185702777777,26.812939361111113],[-81.72156377777777,26.811883027777778],[-81.72138455555556,26.81138852777778],[-81.72107486111112,26.811028555555556],[-81.72024513888888,26.81032177777778],[-81.71937944444444,26.810059722222224],[-81.719099,26.810077222222223],[-81.71828205555556,26.81044425],[-81.71749922222223,26.811251666666667],[-81.71731813888888,26.811642222222222],[-81.71721691666667,26.81215425],[-81.71708944444444,26.813236833333335]]},"properties":{"style":"solid","thickness":1}},{"type":"Feature","geometry":{"type":"LineString","coordinates":[[-81.62665666666666,27.059275638888888],[-81.62806202777777,27.059189055555557],[-81.62875933333332,27.05907586111111],[-81.63011633333333,27.058360166666667],[-81.63135222222222,27.05709002777778],[-81.63175080555555,27.056152444444447],[-81.63189902777778,27.055019583333333],[-81.63182913888888,27.05411088888889],[-81.6316085,27.053281694444443],[-81.63114827777777,27.052397055555556],[-81.6302035,27.051331555555556],[-81.6298643611111,27.051001305555555],[-81.62920755555555,27.05062038888889],[-81.62784813888888,27.05028275],[-81.62620866666666,27.05038375],[-81.62543872222221,27.050571666666666],[-81.6246795,27.050899333333334],[-81.62422719444444,27.05113788888889],[-81.62348944444443,27.051745194444447],[-81.62285122222221,27.052627277777777],[-81.62265997222221,27.05320091666667],[-81.62250627777777,27.05426386111111],[-81.62263516666665,27.055941472222223],[-81.62346669444443,27.05757586111111],[-81.6239781111111,27.05810622222222],[-81.62456222222221,27.058561861111112],[-81.6251356111111,27.058877694444444],[-81.62529713888888,27.058938],[-81.62665666666666,27.059275638888888]]},"properties":{"style":"solid","thickness":1}},{"type":"Feature","geometry":{"type":"LineString","coordinates":[[-81.62540072222221,27.05211911111111],[-81.62267158333333,27.049267194444447]]},"properties":{"style":"solid","thickness":1}},{"type":"Feature","geometry":{"type":"LineString","coordinates":[[-81.61970788888888,27.059703527777778],[-81.61916575,27.052643472222222],[-81.61906086111111,27.05229877777778],[-81.61846066666666,27.051633388888888],[-81.61803813888888,27.051238027777778],[-81.61739208333333,27.050996861111113],[-81.61652794444444,27.050979805555556],[-81.61527883333332,27.051056666666668],[-81.61458155555555,27.05116977777778],[-81.61367152777777,27.05157691666667],[-81.61316255555555,27.052099861111113],[-81.61288244444444,27.052538472222224],[-81.61277458333333,27.053177194444444],[-81.61330558333333,27.060097444444445]]},"properties":{"style":"solid","thickness":1}},{"type":"Feature","geometry":{"type":"LineString","coordinates":[[-81.60934541666666,27.051421583333333],[-81.61002633333332,27.06029911111111],[-81.60052333333333,27.051963722222222],[-81.60120355555554,27.060841305555556]]},"properties":{"style":"solid","thickness":1}},{"type":"Feature","geometry":{"type":"LineString","coordinates":[[-81.59148972222222,27.06101622222222],[-81.5919796111111,27.061267083333334],[-81.5925368611111,27.061373361111112],[-81.59441075,27.06125836111111],[-81.59510275,27.061075416666668],[-81.59533163888888,27.06099113888889],[-81.59645461111111,27.060290138888888],[-81.59710377777778,27.059547972222223],[-81.59728447222221,27.058834583333333],[-81.59773463888888,27.05754277777778],[-81.59761147222221,27.055935027777778],[-81.59739644444444,27.055175694444443],[-81.59711402777778,27.054560944444447],[-81.59674819444444,27.05388111111111],[-81.59590858333333,27.05316011111111],[-81.59437166666666,27.05255213888889],[-81.59334066666666,27.052404722222224],[-81.59248186111111,27.052457416666666],[-81.59140491666666,27.052734194444444],[-81.59103058333334,27.05296786111111],[-81.590729,27.053126833333334]]},"properties":{"style":"solid","thickness":1}},{"type":"Feature","geometry":{"type":"LineString","coordinates":[[-81.58816444444444,27.061641583333333],[-81.58438466666666,27.05632513888889],[-81.58152769444445,27.062048444444446]]},"properties":{"style":"solid","thickness":1}},{"type":"Feature","geometry":{"type":"LineString","coordinates":[[-81.58438466666666,27.05632513888889],[-81.58413341666666,27.053039722222223]]},"properties":{"style":"solid","thickness":1}},{"type":"Feature","geometry":{"type":"LineString","coordinates":[[-81.56937622222222,26.787339361111112],[-81.57005255555555,26.79621752777778],[-81.56615761111111,26.796456444444445],[-81.56583538888889,26.79633575],[-81.565113,26.79609911111111],[-81.56435869444444,26.79544302777778],[-81.56399388888889,26.794763055555556],[-81.56393,26.793924194444447],[-81.56418838888888,26.793206],[-81.56483622222223,26.792463944444446],[-81.565516,26.792141333333333],[-81.56581694444444,26.79198241666667],[-81.56971172222222,26.791743500000003]]},"properties":{"style":"solid","thickness":1}},{"type":"Feature","geometry":{"type":"LineString","coordinates":[[-81.5608605,26.796781194444446],[-81.56032319444444,26.789720583333335],[-81.56021869444444,26.789375833333334],[-81.55962025,26.788710166666668],[-81.55919886111111,26.788314583333335],[-81.55855444444444,26.788073166666667],[-81.55769230555555,26.78805575],[-81.556446,26.788132111111114],[-81.55575027777778,26.788244944444447],[-81.55484213888889,26.788651750000003],[-81.55433408333333,26.7891745],[-81.55405438888889,26.78961302777778],[-81.55394644444443,26.790251722222223],[-81.55447275,26.79717255555556]]},"properties":{"style":"solid","thickness":1}},{"type":"Feature","geometry":{"type":"LineString","coordinates":[[-81.55052608333332,26.78849466666667],[-81.55120094444445,26.79737288888889],[-81.541724,26.789033250000003],[-81.54239819444444,26.797911527777778]]},"properties":{"style":"solid","thickness":1}},{"type":"Feature","geometry":{"type":"LineString","coordinates":[[-81.53860822222222,26.789223777777778],[-81.53499761111111,26.798363944444446],[-81.53027341666666,26.789733083333335]]},"properties":{"style":"solid","thickness":1}},{"type":"Feature","geometry":{"type":"LineString","coordinates":[[-81.53742363888888,26.792175722222225],[-81.53181502777778,26.792518444444447]]},"properties":{"style":"solid","thickness":1}},{"type":"Feature","geometry":{"type":"LineString","coordinates":[[-81.52292283333333,26.79910127777778],[-81.52767486111111,26.798811222222223],[-81.52700180555556,26.78993288888889],[-81.52217225,26.790227666666667]]},"properties":{"style":"solid","thickness":1}},{"type":"Feature","geometry":{"type":"LineString","coordinates":[[-81.52733566666666,26.794337111111112],[-81.5227396388889,26.79461763888889]]},"properties":{"style":"solid","thickness":1}},{"type":"Feature","geometry":{"type":"LineString","coordinates":[[-81.65087111111112,26.89847725],[-81.64753736111112,26.889763555555554],[-81.64494575,26.898843694444444],[-81.64153447222223,26.890134694444445],[-81.63933222222222,26.89919061111111]]},"properties":{"style":"solid","thickness":1}},{"type":"Feature","geometry":{"type":"LineString","coordinates":[[-81.6360576388889,26.899392888888887],[-81.63551525000001,26.892332666666665],[-81.63541044444445,26.89198797222222],[-81.63481102777779,26.891322638888887],[-81.63438900000001,26.890927305555554],[-81.63374386111111,26.890686194444445],[-81.63288091666666,26.89066925],[-81.63163355555555,26.89074625],[-81.63093727777778,26.89085947222222],[-81.63002858333333,26.891266722222223],[-81.62952041666667,26.89178972222222],[-81.62924075,26.89222838888889],[-81.62913313888889,26.892867166666665],[-81.62966438888888,26.89978758333333]]},"properties":{"style":"solid","thickness":1}},{"type":"Feature","geometry":{"type":"LineString","coordinates":[[-81.62323975,26.895688944444444],[-81.61939366666665,26.891501333333334]]},"properties":{"style":"solid","thickness":1}},{"type":"Feature","geometry":{"type":"LineString","coordinates":[[-81.62570852777777,26.89111188888889],[-81.62638980555555,26.89998963888889],[-81.62249144444444,26.900230083333334],[-81.62216883333333,26.9001095],[-81.62144569444443,26.899873166666666],[-81.62069038888889,26.89921738888889],[-81.62032488888889,26.898537583333333],[-81.62026058333333,26.897698722222223],[-81.62051883333332,26.89698047222222],[-81.62116688888888,26.896238166666667],[-81.62184713888888,26.895915277777778],[-81.62214825,26.895756249999998],[-81.62604647222221,26.895515805555554]]},"properties":{"style":"solid","thickness":1}},{"type":"Feature","geometry":{"type":"LineString","coordinates":[[-81.61619725,26.891698333333334],[-81.61687777777777,26.90057611111111],[-81.60738752777777,26.892240944444445],[-81.60806738888888,26.901118777777775]]},"properties":{"style":"solid","thickness":1}},{"type":"Feature","geometry":{"type":"LineString","coordinates":[[-81.5993348611111,26.901656083333332],[-81.60073830555555,26.901569777777777],[-81.60143469444444,26.901456694444445],[-81.60278997222221,26.90074122222222],[-81.60402447222222,26.899471305555554],[-81.60442269444444,26.89853375],[-81.60457097222222,26.89740088888889],[-81.60450141666666,26.89649213888889],[-81.60428127777777,26.89566288888889],[-81.60382188888889,26.894778111111112],[-81.60287869444444,26.893712416666666],[-81.60254008333332,26.893382083333332],[-81.60188427777777,26.89300102777778],[-81.60052680555555,26.89266313888889],[-81.59888958333333,26.892763833333333],[-81.59812063888889,26.892951583333332],[-81.59736238888888,26.893279166666666],[-81.59691066666666,26.893517638888888],[-81.59617377777778,26.894124805555556],[-81.59553625,26.895006805555553],[-81.5953451111111,26.895580416666665],[-81.59519141666667,26.89664336111111],[-81.59531969444444,26.898321083333332],[-81.59614972222222,26.899955638888887],[-81.59666030555555,26.90048611111111],[-81.59724349999999,26.900941888888887],[-81.59781602777777,26.90125786111111],[-81.59797730555555,26.901318166666666],[-81.5993348611111,26.901656083333332]]},"properties":{"style":"solid","thickness":1}},{"type":"Feature","geometry":{"type":"LineString","coordinates":[[-81.74518588888888,26.831948944444445],[-81.74075619444444,26.823305583333333],[-81.73786180555555,26.832407]]},"properties":{"style":"solid","thickness":1}},{"type":"Feature","geometry":{"type":"LineString","coordinates":[[-81.73397800000001,26.823729333333333],[-81.73038183333334,26.83287438888889],[-81.72564155555555,26.824250027777776]]},"properties":{"style":"solid","thickness":1}},{"type":"Feature","geometry":{"type":"LineString","coordinates":[[-81.73279808333334,26.82668286111111],[-81.72718836111112,26.82703325]]},"properties":{"style":"solid","thickness":1}},{"type":"Feature","geometry":{"type":"LineString","coordinates":[[-81.71862380555555,26.832695194444444],[-81.71937925,26.83335044444444],[-81.71954050000001,26.83341063888889],[-81.72056427777778,26.833487249999997],[-81.72141052777778,26.833293972222222],[-81.72185636111111,26.832985194444444],[-81.72229675,26.832606527777777],[-81.72263755555555,26.831953111111112],[-81.72251288888889,26.83034538888889],[-81.7219966388889,26.829745444444445],[-81.72166327777778,26.829485305555554],[-81.72046205555556,26.829138805555555],[-81.71911041666667,26.828871944444444],[-81.71814294444445,26.82851086111111],[-81.71779877777777,26.82811088888889],[-81.71756711111111,26.827142],[-81.71765252777777,26.826223583333334],[-81.71799875,26.825640083333333],[-81.7183666388889,26.825336166666666],[-81.71866205555555,26.82510702777778],[-81.71903536111111,26.824873027777777],[-81.71987613888889,26.82460986111111],[-81.72034358333333,26.824580694444442],[-81.72082188888889,26.824691305555554],[-81.72146686111111,26.824932027777777],[-81.72187811111111,26.825187333333332],[-81.72246683333333,26.825712499999998]]},"properties":{"style":"solid","thickness":1}},{"type":"Feature","geometry":{"type":"LineString","coordinates":[[-81.71004533333334,26.834143138888887],[-81.71479836111111,26.83384686111111],[-81.7141106388889,26.824969444444445],[-81.70928008333334,26.825270555555555]]},"properties":{"style":"solid","thickness":1}},{"type":"Feature","geometry":{"type":"LineString","coordinates":[[-81.71445177777778,26.829373194444443],[-81.70985477777778,26.82965975]]},"properties":{"style":"solid","thickness":1}},{"type":"Feature","geometry":{"type":"LineString","coordinates":[[-81.70257275,26.833695499999997],[-81.70332811111112,26.83435086111111],[-81.70348936111111,26.834411055555556],[-81.70451311111111,26.834487777777777],[-81.7053593888889,26.83429458333333],[-81.70580527777778,26.83398586111111],[-81.70624572222222,26.83360725],[-81.7065866388889,26.83295386111111],[-81.70646219444444,26.83134613888889],[-81.705946,26.830746138888887],[-81.70561269444445,26.830485944444444],[-81.7044115,26.83013933333333],[-81.70305988888889,26.829872305555554],[-81.70209247222222,26.82951113888889],[-81.70174836111111,26.82911111111111],[-81.70151683333333,26.828142194444442],[-81.70160236111111,26.82722377777778],[-81.70194866666667,26.826640305555554],[-81.70231661111112,26.826336444444443],[-81.70261205555556,26.826107333333333],[-81.70298538888889,26.825873388888887],[-81.70382619444445,26.825610305555557],[-81.70429369444444,26.825581194444442],[-81.70477197222222,26.825691888888887],[-81.70541691666666,26.825932666666667],[-81.70582811111112,26.826188],[-81.70641680555556,26.82671325]]},"properties":{"style":"solid","thickness":1}},{"type":"Feature","geometry":{"type":"LineString","coordinates":[[-81.55457263888889,26.96929986111111],[-81.55403494444444,26.962239416666666],[-81.55393030555555,26.961894666666666],[-81.553331,26.961229],[-81.552909,26.960833416666667],[-81.5522636111111,26.960591944444445],[-81.55140016666667,26.9605745],[-81.550152,26.960650805555556],[-81.54945519444445,26.960763611111112],[-81.54854566666667,26.96117036111111],[-81.54803680555555,26.961693055555553],[-81.54775669444444,26.962131555555555],[-81.54764852777778,26.96277025],[-81.54817519444444,26.969690888888888]]},"properties":{"style":"solid","thickness":1}},{"type":"Feature","geometry":{"type":"LineString","coordinates":[[-81.54489844444444,26.969891055555554],[-81.53928111111111,26.970234027777774]]},"properties":{"style":"solid","thickness":1}},{"type":"Feature","geometry":{"type":"LineString","coordinates":[[-81.54216780555555,26.970057805555555],[-81.54149266666667,26.961179777777776]]},"properties":{"style":"solid","thickness":1}},{"type":"Feature","geometry":{"type":"LineString","coordinates":[[-81.53124516666666,26.970724305555553],[-81.53600433333334,26.970433999999997],[-81.53532966666667,26.96155597222222],[-81.53049286111111,26.961851]]},"properties":{"style":"solid","thickness":1}},{"type":"Feature","geometry":{"type":"LineString","coordinates":[[-81.53566433333333,26.965960027777776],[-81.53106138888889,26.966240805555554]]},"properties":{"style":"solid","thickness":1}},{"type":"Feature","geometry":{"type":"LineString","coordinates":[[-81.52820241666666,26.97090983333333],[-81.52752836111111,26.962031749999998],[-81.52370569444444,26.962264722222223]]},"properties":{"style":"solid","thickness":1}},{"type":"Feature","geometry":{"type":"LineString","coordinates":[[-81.51642141666666,26.971627499999997],[-81.5211806388889,26.971337694444443],[-81.52050711111112,26.96245958333333],[-81.51567025,26.96275411111111]]},"properties":{"style":"solid","thickness":1}},{"type":"Feature","geometry":{"type":"LineString","coordinates":[[-81.52084122222222,26.96686369444444],[-81.51623819444444,26.96714397222222]]},"properties":{"style":"solid","thickness":1}},{"type":"Feature","geometry":{"type":"LineString","coordinates":[[-81.76784447222222,26.544527583333334],[-81.76786244444445,26.544656805555558],[-81.76789841666667,26.54479077777778],[-81.76795461111111,26.544926833333335],[-81.76803263888888,26.545061500000003],[-81.76813316666667,26.545190805555556],[-81.76825569444445,26.545310333333337],[-81.76839830555555,26.54541577777778],[-81.76855772222223,26.54550327777778],[-81.76872952777778,26.545569833333335],[-81.76890852777778,26.545613722222225],[-81.76908927777778,26.545634500000002],[-81.7692666388889,26.545633138888892],[-81.76943613888889,26.54561163888889],[-81.76959427777777,26.545572805555558],[-81.76973872222221,26.54551977777778],[-81.76986813888888,26.545455888888892],[-81.76998511111111,26.545382111111113],[-81.77009797222222,26.54529266666667],[-81.77020402777778,26.545186444444447],[-81.77029925,26.545063666666668],[-81.77037941666667,26.54492541666667],[-81.77044044444445,26.544773944444447],[-81.77047883333333,26.54461252777778],[-81.77049208333334,26.544445444444445],[-81.77047902777778,26.54427752777778],[-81.77044005555555,26.544113722222225],[-81.77037705555556,26.543958694444445],[-81.77029316666666,26.543816333333336],[-81.77019238888889,26.543689472222223],[-81.77007908333333,26.543579805555556],[-81.76995763888888,26.543487916666667],[-81.76983202777778,26.543413444444447],[-81.76970477777778,26.54335502777778],[-81.76956675,26.543307944444447],[-81.7694155,26.543273555555558],[-81.76925288888889,26.543254861111112],[-81.76908172222223,26.543254805555556],[-81.76890588888888,26.54327563888889],[-81.76873011111111,26.543318861111114],[-81.76855966666666,26.543384722222225],[-81.76839983333333,26.54347213888889],[-81.7682555,26.543578722222225],[-81.76813058333333,26.543701000000002],[-81.76802775,26.543834694444445],[-81.76794819444444,26.543975333333336],[-81.76789177777778,26.544118472222223],[-81.76785716666667,26.544260222222224],[-81.76784227777777,26.54439738888889],[-81.76784447222222,26.544527583333334]]},"properties":{"style":"solid","thickness":1}},{"type":"Feature","geometry":{"type":"LineString","coordinates":[[-81.76994972222222,26.545314416666667],[-81.76980747222223,26.54348488888889]]},"properties":{"style":"solid","thickness":1}},{"type":"Feature","geometry":{"type":"LineString","coordinates":[[-81.76945541666666,26.545529361111114],[-81.76928472222222,26.543333944444445]]},"properties":{"style":"solid","thickness":1}},{"type":"Feature","geometry":{"type":"LineString","coordinates":[[-81.76894688888889,26.545561361111112],[-81.76877619444444,26.54336591666667]]},"properties":{"style":"solid","thickness":1}},{"type":"Feature","geometry":{"type":"LineString","coordinates":[[-81.76842411111112,26.54541038888889],[-81.7682818888889,26.543580861111113]]},"properties":{"style":"solid","thickness":1}}]}
