{
"type": "FeatureCollection",
"name": "rsw119smvagp",
"features": [
{ "type": "Feature", "properties": { "style": "solid", "thickness": 1 }, "geometry": { "type": "LineString", "coordinates": [ [ -81.72162, 26.44062 ], [ -81.719495138888888, 26.447795583333335 ] ] } },
{ "type": "Feature", "properties": { "style": "solid", "thickness": 1 }, "geometry": { "type": "LineString", "coordinates": [ [ -81.72162, 26.44062 ], [ -81.723082472222231, 26.432961972222223 ], [ -81.723870194444444, 26.424636361111112 ] ] } },
{ "type": "Feature", "properties": { "style": "solid", "thickness": 1 }, "geometry": { "type": "LineString", "coordinates": [ [ -81.25508994444445, 26.358595416666667 ], [ -81.255430027777777, 26.351299166666667 ], [ -81.256476944444444, 26.344072166666667 ], [ -81.258222777777775, 26.336953972222222 ], [ -81.260654222222229, 26.329998833333335 ], [ -81.263752777777782, 26.323259638888889 ], [ -81.267494888888891, 26.316787805555556 ], [ -81.271852055555556, 26.310632583333334 ], [ -81.276791111111109, 26.30484088888889 ], [ -81.282274472222227, 26.299456861111114 ], [ -81.28826041666666, 26.294521527777778 ], [ -81.294703361111104, 26.2900725 ], [ -81.301554305555555, 26.286143722222224 ], [ -81.308761083333337, 26.282765111111111 ], [ -81.316268861111112, 26.27996247222222 ], [ -81.3240205, 26.277757166666667 ], [ -81.331957027777776, 26.276166 ], [ -81.340017972222213, 26.275201083333332 ], [ -81.34806, 26.27487 ], [ -81.356183694444439, 26.275208444444445 ] ] } },
{ "type": "Feature", "properties": { "style": "solid", "thickness": 1 }, "geometry": { "type": "LineString", "coordinates": [ [ -81.611598027777774, 26.339562583333333 ], [ -81.612619111111101, 26.331792555555555 ], [ -81.614440472222213, 26.324127722222222 ], [ -81.617000277777777, 26.316633833333334 ], [ -81.620279027777769, 26.309367972222223 ], [ -81.62425175, 26.302385472222223 ], [ -81.628888222222216, 26.295739555555556 ], [ -81.634153166666678, 26.289480861111112 ], [ -81.640006500000013, 26.283657055555558 ], [ -81.646403666666671, 26.278312555555555 ], [ -81.653296, 26.273488083333334 ], [ -81.660631055555555, 26.269220472222223 ], [ -81.668352972222223, 26.265542222222223 ], [ -81.676403, 26.26248138888889 ], [ -81.684719888888893, 26.260061305555556 ], [ -81.693240333333335, 26.258300472222221 ], [ -81.701899472222223, 26.257212277777779 ], [ -81.710631388888885, 26.256805055555557 ], [ -81.719222194444441, 26.25707088888889 ], [ -81.72015, 26.25714 ] ] } },
{ "type": "Feature", "properties": { "style": "solid", "thickness": 1 }, "geometry": { "type": "LineString", "coordinates": [ [ -81.723870194444444, 26.424636361111112 ], [ -81.723538277777777, 26.417103305555557 ], [ -81.722478555555554, 26.409667805555554 ], [ -81.720699277777783, 26.402342861111109 ], [ -81.718214, 26.39518425 ], [ -81.715041611111118, 26.388246444444444 ], [ -81.711206305555564, 26.381582361111111 ], [ -81.70673722222223, 26.375242694444445 ], [ -81.701668388888891, 26.369275805555557 ], [ -81.696038388888894, 26.363727138888891 ], [ -81.689890055555566, 26.358638972222224 ], [ -81.683270194444447, 26.354050138888891 ], [ -81.676229194444446, 26.349995611111108 ], [ -81.668820611111116, 26.346506277777777 ], [ -81.661100861111123, 26.34360875 ], [ -81.653128694444447, 26.341325138888887 ], [ -81.64496475, 26.339672888888888 ], [ -81.636671194444446, 26.338664555555553 ], [ -81.628311138888876, 26.338307833333332 ], [ -81.619948194444433, 26.33860547222222 ], [ -81.611598027777774, 26.339562583333333 ] ] } },
{ "type": "Feature", "properties": { "style": "solid", "thickness": 1 }, "geometry": { "type": "LineString", "coordinates": [ [ -82.34397, 27.39915 ], [ -82.317207416666662, 27.413310388888888 ], [ -82.25152241666666, 27.443326027777779 ], [ -82.18314, 27.46814 ] ] } },
{ "type": "Feature", "properties": { "style": "solid", "thickness": 1 }, "geometry": { "type": "LineString", "coordinates": [ [ -82.318567805555546, 26.850003333333333 ], [ -82.322896472222212, 26.856240055555556 ], [ -82.326583972222224, 26.862764638888891 ], [ -82.32962, 26.869550722222222 ], [ -82.331981472222225, 26.876546611111113 ], [ -82.333650416666657, 26.883699027777777 ], [ -82.334614111111108, 26.890953472222222 ], [ -82.33486525, 26.898254777777776 ], [ -82.334401888888891, 26.905547361111111 ], [ -82.333227611111113, 26.912775694444441 ], [ -82.33135127777777, 26.919884805555558 ], [ -82.328787222222218, 26.926820611111111 ], [ -82.325554944444434, 26.93353038888889 ], [ -82.321679027777776, 26.939963083333332 ], [ -82.317189, 26.946069805555556 ], [ -82.312119027777769, 26.951804138888889 ], [ -82.306507666666661, 26.95712247222222 ], [ -82.300397666666669, 26.961984444444443 ], [ -82.2938355, 26.966353055555555 ], [ -82.286871083333338, 26.970195166666667 ], [ -82.279557472222223, 26.973481555555555 ], [ -82.271950305555549, 26.976187305555555 ], [ -82.264107472222221, 26.978291805555553 ], [ -82.256088694444443, 26.97977911111111 ], [ -82.247954944444444, 26.980637944444442 ], [ -82.239768166666664, 26.98086175 ], [ -82.231590638888889, 26.98044883333333 ], [ -82.223484611111118, 26.979402333333333 ], [ -82.215511805555565, 26.977730194444444 ], [ -82.207732861111111, 26.975445138888887 ], [ -82.20017847222222, 26.97255225 ] ] } },
{ "type": "Feature", "properties": { "style": "solid", "thickness": 1 }, "geometry": { "type": "LineString", "coordinates": [ [ -81.57528, 26.09903 ], [ -81.583339861111099, 26.099363138888886 ], [ -81.591387055555558, 26.10032988888889 ], [ -81.599309805555549, 26.101922805555557 ], [ -81.607047805555553, 26.104129694444445 ], [ -81.614542166666666, 26.10693377777778 ], [ -81.621735861111105, 26.11031363888889 ], [ -81.628574138888879, 26.1142435 ], [ -81.635004944444447, 26.118693416666666 ], [ -81.640979361111121, 26.123629444444443 ], [ -81.64645188888889, 26.129014 ], [ -81.651380888888895, 26.134806 ], [ -81.655728861111115, 26.140961333333333 ], [ -81.659462694444457, 26.147433083333333 ], [ -81.662553972222227, 26.154171944444442 ], [ -81.664979194444456, 26.161126611111111 ], [ -81.666719888888892, 26.168244111111111 ], [ -81.667762805555554, 26.17547025 ], [ -81.668100027777783, 26.18275952777778 ], [ -81.667769861111111, 26.190051055555557 ], [ -81.6667336388889, 26.197279083333335 ], [ -81.664999305555568, 26.204398111111111 ], [ -81.662580055555566, 26.211354027777777 ], [ -81.659494305555555, 26.218093888888887 ], [ -81.655765527777788, 26.224566472222222 ], [ -81.651422111111117, 26.230722527777775 ], [ -81.646497083333344, 26.23651527777778 ], [ -81.641027972222233, 26.241900722222223 ], [ -81.635056388888898, 26.246837888888891 ], [ -81.62862775, 26.251289277777779 ], [ -81.621791027777775, 26.255221083333332 ], [ -81.61459819444444, 26.258603416666666 ] ] } },
{ "type": "Feature", "properties": { "style": "solid", "thickness": 1 }, "geometry": { "type": "LineString", "coordinates": [ [ -82.435318944444447, 26.642302444444443 ], [ -82.318567805555546, 26.850003333333333 ] ] } },
{ "type": "Feature", "properties": { "style": "solid", "thickness": 1 }, "geometry": { "type": "LineString", "coordinates": [ [ -81.73584, 26.71974 ], [ -81.742633777777783, 26.715397861111111 ], [ -81.749825416666667, 26.711601027777778 ], [ -81.757360111111112, 26.708378416666665 ], [ -81.76518055555556, 26.705754611111111 ], [ -81.77322725, 26.703749638888887 ], [ -81.781438916666659, 26.702378805555554 ], [ -81.789753083333338, 26.701652527777778 ], [ -81.798106472222216, 26.701576361111112 ], [ -81.8064355, 26.702150888888887 ], [ -81.814676777777777, 26.703371722222222 ], [ -81.822767611111104, 26.705229583333331 ], [ -81.83064638888888, 26.70771025 ], [ -81.838253138888888, 26.710794833333331 ], [ -81.84553002777777, 26.714459805555556 ], [ -81.852421611111112, 26.718677222222219 ], [ -81.858875472222223, 26.723414916666666 ], [ -81.8648425, 26.728636777777776 ], [ -81.870277249999987, 26.734303 ], [ -81.875138388888885, 26.740370388888891 ], [ -81.879388916666656, 26.746792694444444 ], [ -81.882996472222217, 26.753521027777779 ], [ -81.88412, 26.75598 ], [ -81.887715333333347, 26.762483388888889 ], [ -81.890662194444445, 26.769241416666667 ], [ -81.892938166666667, 26.776202638888886 ], [ -81.894525888888893, 26.783314055555554 ], [ -81.895413333333337, 26.790521472222224 ], [ -81.89559372222223, 26.79777002777778 ], [ -81.895065666666667, 26.805004583333336 ], [ -81.893833222222227, 26.812170083333335 ], [ -81.891905722222234, 26.819212 ] ] } },
{ "type": "Feature", "properties": { "style": "solid", "thickness": 1 }, "geometry": { "type": "LineString", "coordinates": [ [ -82.435318944444447, 26.642302444444443 ], [ -82.56641, 26.44122 ] ] } },
{ "type": "Feature", "properties": { "style": "solid", "thickness": 1 }, "geometry": { "type": "LineString", "coordinates": [ [ -81.72015, 26.25714 ], [ -81.728392916666664, 26.258365111111111 ], [ -81.736485416666667, 26.260229805555557 ], [ -81.744365888888893, 26.262719888888888 ], [ -81.75197436111111, 26.26581636111111 ], [ -81.759252972222228, 26.269495583333331 ], [ -81.766146277777779, 26.273729555555555 ], [ -81.772601805555553, 26.278485944444444 ], [ -81.778570472222228, 26.283728527777779 ], [ -81.784006833333336, 26.289417305555556 ], [ -81.7888695, 26.295508944444446 ], [ -81.7931215, 26.301957027777778 ], [ -81.796730416666662, 26.308712416666669 ], [ -81.799668833333328, 26.31572363888889 ], [ -81.801914361111102, 26.322937305555556 ], [ -81.803449944444438, 26.3302985 ], [ -81.804263833333337, 26.337751138888887 ], [ -81.804349916666666, 26.345238527777777 ], [ -81.803707444444441, 26.35270363888889 ], [ -81.802341388888891, 26.360089722222224 ], [ -81.80026211111111, 26.367340527777777 ], [ -81.797485444444447, 26.374400944444446 ], [ -81.7940325, 26.381217277777779 ], [ -81.789929583333333, 26.387737666666666 ], [ -81.785207888888891, 26.393912555555556 ], [ -81.779903388888883, 26.399695027777778 ], [ -81.77923, 26.40036 ], [ -81.772478861111111, 26.405634888888887 ], [ -81.765240138888885, 26.4103625 ], [ -81.757568944444444, 26.414506888888887 ], [ -81.749523611111115, 26.418036583333336 ], [ -81.741165388888888, 26.420924805555558 ], [ -81.732557888888891, 26.423149583333334 ], [ -81.723870194444444, 26.424636361111112 ] ] } },
{ "type": "Feature", "properties": { "style": "solid", "thickness": 1 }, "geometry": { "type": "LineString", "coordinates": [ [ -81.61459819444444, 26.258603416666666 ], [ -81.607104055555553, 26.26141061111111 ], [ -81.599365611111111, 26.263621305555557 ], [ -81.59144175, 26.265218722222222 ], [ -81.583392805555548, 26.26619075 ], [ -81.575252305555551, 26.266529916666666 ], [ -81.567113444444445, 26.266187666666667 ], [ -81.559066416666667, 26.26521286111111 ], [ -81.55114475, 26.263612777777777 ], [ -81.543408722222225, 26.261399638888889 ], [ -81.53591725, 26.258590222222221 ], [ -81.528727305555549, 26.255205833333335 ], [ -81.521893638888884, 26.25127225 ], [ -81.515468222222225, 26.246819305555558 ], [ -81.5095, 26.241880833333333 ], [ -81.50403436111111, 26.236494361111113 ], [ -81.499112888888888, 26.23070086111111 ], [ -81.494773111111115, 26.224544305555554 ], [ -81.491047972222219, 26.218071555555554 ], [ -81.487965888888894, 26.211331777777776 ], [ -81.485550277777776, 26.20437625 ], [ -81.483819527777783, 26.197257888888888 ], [ -81.482786805555563, 26.190030805555555 ], [ -81.48246, 26.18275 ], [ -81.482792916666668, 26.175515444444446 ], [ -81.483831444444448, 26.168288805555555 ], [ -81.485567833333334, 26.161170444444444 ], [ -81.487988833333333, 26.154214611111108 ], [ -81.491076055555553, 26.147474222222222 ], [ -81.494805972222224, 26.141000666666667 ], [ -81.499150222222227, 26.134843222222223 ], [ -81.504075722222225, 26.129048805555556 ], [ -81.509544972222216, 26.12366161111111 ], [ -81.515516388888884, 26.118722666666667 ], [ -81.5219445, 26.114269611111112 ], [ -81.528780416666663, 26.110336416666669 ], [ -81.535972055555547, 26.106953055555557 ], [ -81.543464722222225, 26.104145333333335 ], [ -81.551201388888884, 26.101934638888892 ], [ -81.559123194444439, 26.100337888888891 ], [ -81.567169805555551, 26.099367194444444 ], [ -81.57528, 26.09903 ] ] } },
{ "type": "Feature", "properties": { "style": "solid", "thickness": 1 }, "geometry": { "type": "LineString", "coordinates": [ [ -82.20017847222222, 26.97255225 ], [ -82.198791027777787, 26.971917055555554 ], [ -82.192896833333336, 26.9691075 ], [ -82.191587166666665, 26.968413083333331 ], [ -82.185995833333337, 26.965146666666666 ], [ -82.18475911111112, 26.964353111111109 ], [ -82.179508500000011, 26.960664666666666 ], [ -82.178354138888892, 26.959778083333333 ], [ -82.173484194444455, 26.955695611111111 ], [ -82.172420972222227, 26.954722722222222 ], [ -82.16796875, 26.950277277777776 ], [ -82.16700475, 26.949225472222224 ], [ -82.163004138888894, 26.944450833333335 ], [ -82.162146694444445, 26.943328166666667 ], [ -82.158628138888901, 26.938260611111112 ], [ -82.157883750000011, 26.937075583333332 ], [ -82.154874, 26.931753638888889 ], [ -82.154248305555555, 26.930515305555556 ], [ -82.151770305555559, 26.924979444444446 ], [ -82.151268055555562, 26.923697194444447 ], [ -82.149340611111114, 26.9179895 ], [ -82.148965583333336, 26.916673083333336 ], [ -82.147603416666669, 26.910836972222221 ], [ -82.147358472222223, 26.90949636111111 ], [ -82.1465718888889, 26.90357622222222 ], [ -82.146458861111114, 26.902221638888886 ], [ -82.146253888888893, 26.896262527777779 ], [ -82.1462736388889, 26.894904222222223 ], [ -82.146651805555564, 26.888951444444444 ], [ -82.146804194444456, 26.88759975 ], [ -82.147762638888892, 26.881698638888889 ], [ -82.148046472222234, 26.880363805555557 ], [ -82.149577916666672, 26.874559277777777 ], [ -82.14999111111112, 26.873251444444445 ], [ -82.152083888888896, 26.867587694444445 ], [ -82.15262325, 26.866316833333336 ], [ -82.155261444444449, 26.860837 ], [ -82.155922944444455, 26.85961275 ], [ -82.159086472222228, 26.854358555555557 ], [ -82.159865111111117, 26.853190277777781 ], [ -82.163529888888888, 26.848201777777778 ], [ -82.164419722222235, 26.847098361111112 ], [ -82.168557888888898, 26.842413527777776 ], [ -82.169552166666676, 26.841383388888886 ], [ -82.174132222222227, 26.837038 ], [ -82.175223416666668, 26.836089 ], [ -82.1802105, 26.832116111111112 ], [ -82.18139027777778, 26.831255527777778 ], [ -82.186746472222225, 26.827685472222221 ], [ -82.188005861111108, 26.826919833333331 ], [ -82.193690361111109, 26.823779805555557 ], [ -82.19501980555556, 26.823115027777778 ], [ -82.200989361111112, 26.820429 ], [ -82.202378722222221, 26.819870138888888 ], [ -82.208587888888886, 26.817658555555557 ], [ -82.210026583333331, 26.81720988888889 ], [ -82.216428111111114, 26.815489638888888 ], [ -82.217905194444441, 26.815154583333335 ], [ -82.22445036111111, 26.813938833333335 ], [ -82.22595455555556, 26.813719972222223 ], [ -82.232593555555553, 26.813017916666666 ], [ -82.234113416666673, 26.812916944444446 ], [ -82.240795722222217, 26.812734 ], [ -82.242319666666674, 26.812751638888891 ], [ -82.248994388888889, 26.813089166666668 ], [ -82.25051080555555, 26.813225305555555 ], [ -82.25712719444445, 26.814080777777779 ], [ -82.2586245, 26.814334361111111 ], [ -82.26513216666666, 26.815701194444443 ], [ -82.266599, 26.816070333333332 ], [ -82.272948388888892, 26.817938138888888 ], [ -82.274373555555556, 26.818419944444443 ], [ -82.280516361111111, 26.820774444444446 ], [ -82.281889, 26.821365277777776 ], [ -82.2877785, 26.824188555555555 ], [ -82.289088166666659, 26.824883861111111 ], [ -82.2946795, 26.828154333333334 ], [ -82.295916194444445, 26.828948833333332 ], [ -82.301166833333326, 26.832641583333334 ], [ -82.302321166666658, 26.833529166666665 ], [ -82.307191138888882, 26.837616055555554 ], [ -82.308254361111111, 26.838589944444443 ], [ -82.312706583333338, 26.843039805555556 ], [ -82.313670583333334, 26.844092583333332 ], [ -82.317662194444438, 26.848878888888887 ], [ -82.318567805555546, 26.850003333333333 ] ] } },
{ "type": "Feature", "properties": { "style": "solid", "thickness": 1 }, "geometry": { "type": "LineString", "coordinates": [ [ -82.18314, 27.46814 ], [ -82.179352416666674, 27.464514777777776 ], [ -82.177596055555554, 27.462716083333333 ], [ -82.174147333333337, 27.458840416666664 ], [ -82.172578388888894, 27.456909305555556 ], [ -82.169523500000011, 27.45278147222222 ], [ -82.168150222222224, 27.450736333333332 ], [ -82.165512388888899, 27.44638775 ], [ -82.164345222222224, 27.444244138888887 ], [ -82.162144527777784, 27.43970786111111 ], [ -82.161192333333332, 27.437482083333332 ], [ -82.159445472222231, 27.432792583333335 ], [ -82.158715472222227, 27.430501583333335 ], [ -82.157435777777778, 27.425694527777779 ], [ -82.156933472222221, 27.423355666666669 ], [ -82.156130638888897, 27.418467638888892 ], [ -82.155859861111111, 27.416098694444443 ], [ -82.155540027777789, 27.411166833333333 ], [ -82.155502805555557, 27.408785833333333 ], [ -82.155668361111111, 27.403847666666664 ], [ -82.155865, 27.401472666666667 ], [ -82.156514694444454, 27.396565777777777 ], [ -82.15694369444445, 27.394214833333333 ], [ -82.158072611111123, 27.389376555555554 ], [ -82.158730722222231, 27.387067555555554 ], [ -82.16033025, 27.382334666666669 ], [ -82.1612125, 27.380085166666667 ], [ -82.16327050000001, 27.375493777777777 ], [ -82.164370194444444, 27.373320888888891 ], [ -82.166871027777788, 27.368905944444446 ], [ -82.168179805555553, 27.366826222222222 ], [ -82.171104416666665, 27.362621333333333 ], [ -82.172612388888894, 27.360650638888892 ], [ -82.175938555555561, 27.356687861111112 ], [ -82.177634222222224, 27.354841222222223 ], [ -82.181336638888894, 27.351150777777779 ], [ -82.183207138888889, 27.349442277777776 ], [ -82.187257638888894, 27.346052305555553 ], [ -82.18928872222223, 27.344494972222222 ], [ -82.19365647222223, 27.341431333333333 ], [ -82.195832722222221, 27.340037083333332 ], [ -82.2004845, 27.337323111111111 ], [ -82.202789333333342, 27.336102611111109 ], [ -82.207689722222227, 27.333759027777777 ], [ -82.210105611111118, 27.332721555555555 ], [ -82.215217305555555, 27.33076625 ], [ -82.217725833333333, 27.329919777777778 ], [ -82.223009916666669, 27.328367666666665 ], [ -82.225592, 27.327718666666666 ], [ -82.231008277777775, 27.326581583333333 ], [ -82.233644222222225, 27.326134972222221 ], [ -82.239151472222218, 27.325421611111111 ], [ -82.241821222222228, 27.325180861111111 ], [ -82.2473775, 27.324896638888887 ], [ -82.250060722222216, 27.324863555555556 ], [ -82.255623722222225, 27.325010666666667 ], [ -82.2583, 27.3251855 ], [ -82.263827388888885, 27.325762805555556 ], [ -82.266476277777784, 27.32614425 ], [ -82.271926, 27.327147361111113 ], [ -82.274527361111112, 27.327732472222223 ], [ -82.279857916666671, 27.329153722222223 ], [ -82.282391944444441, 27.329938027777779 ], [ -82.28756275, 27.331766555555554 ], [ -82.290010138888888, 27.332744083333335 ], [ -82.294981861111111, 27.334965972222221 ], [ -82.297323944444443, 27.336129222222223 ], [ -82.302058722222213, 27.3387275 ], [ -82.304277722222224, 27.340067583333333 ], [ -82.3087395, 27.343022416666667 ], [ -82.3108185, 27.344529111111111 ], [ -82.314973361111115, 27.347818 ], [ -82.316896527777772, 27.349479777777777 ], [ -82.320712833333332, 27.353077611111111 ], [ -82.322465583333326, 27.354881805555557 ], [ -82.325914305555557, 27.358761138888891 ], [ -82.32748325, 27.360693972222222 ], [ -82.330538166666656, 27.36482525 ], [ -82.331911444444444, 27.366871972222224 ], [ -82.334549277777768, 27.371223694444446 ], [ -82.335716444444444, 27.373368722222224 ], [ -82.337917138888884, 27.377907722222222 ], [ -82.338869333333335, 27.380134694444443 ], [ -82.340616166666663, 27.384826444444442 ], [ -82.341346194444441, 27.38711838888889 ], [ -82.34262588888889, 27.391927138888889 ], [ -82.34312275, 27.394267638888888 ], [ -82.34397, 27.39915 ] ] } },
{ "type": "Feature", "properties": { "style": "solid", "thickness": 1 }, "geometry": { "type": "LineString", "coordinates": [ [ -81.95632, 25.5589 ], [ -82.02168, 25.65966 ], [ -82.07839, 25.77098 ], [ -82.1355, 25.89202 ] ] } },
{ "type": "Feature", "properties": { "style": "solid", "thickness": 1 }, "geometry": { "type": "LineString", "coordinates": [ [ -81.719495138888888, 26.447795583333335 ], [ -81.716679888888891, 26.454777638888888 ], [ -81.713195694444451, 26.461513027777777 ], [ -81.709069027777787, 26.467950555555554 ], [ -81.704331333333343, 26.474041305555552 ], [ -81.699018638888887, 26.479738916666665 ], [ -81.693171388888899, 26.485000166666669 ], [ -81.686834111111111, 26.489785027777778 ], [ -81.680055, 26.494057166666668 ], [ -81.6728856388889, 26.497784111111113 ], [ -81.665380638888891, 26.500937555555556 ], [ -81.657597083333343, 26.503493555555554 ], [ -81.649594222222234, 26.505432694444444 ], [ -81.641432972222233, 26.50674025 ], [ -81.63672, 26.5072 ], [ -81.628552388888878, 26.508233638888889 ], [ -81.620315166666657, 26.508626333333332 ], [ -81.612071055555546, 26.508375055555554 ], [ -81.60388277777777, 26.507481777777777 ], [ -81.59581266666666, 26.50595325 ], [ -81.587922138888885, 26.503801083333332 ], [ -81.58027125, 26.501041611111113 ], [ -81.572918194444441, 26.497695805555555 ], [ -81.565918972222221, 26.493789083333333 ], [ -81.55932683333333, 26.489351111111112 ], [ -81.553191972222223, 26.48441563888889 ], [ -81.547561027777775, 26.479020111111108 ], [ -81.542476916666658, 26.473205555555555 ], [ -81.537978277777782, 26.467016166666664 ], [ -81.534099361111103, 26.460499 ], [ -81.530869722222221, 26.453703583333333 ], [ -81.528313916666661, 26.44668161111111 ], [ -81.526451388888887, 26.439486472222221 ], [ -81.52529633333333, 26.432172916666669 ], [ -81.5248575, 26.424796555555556 ], [ -81.525138277777771, 26.417413583333335 ], [ -81.5261365, 26.41008011111111 ], [ -81.527844583333334, 26.402852027777776 ], [ -81.530249527777784, 26.395784361111112 ], [ -81.533333027777772, 26.38893088888889 ], [ -81.537071583333329, 26.38234386111111 ], [ -81.541436805555549, 26.376073444444444 ], [ -81.54639541666667, 26.370167416666668 ], [ -81.55190972222222, 26.364670777777778 ], [ -81.557937722222221, 26.359625444444447 ], [ -81.564433555555553, 26.355069861111112 ], [ -81.571347777777774, 26.35103875 ], [ -81.578627777777768, 26.347562833333331 ], [ -81.586218138888881, 26.344668666666667 ], [ -81.594061111111102, 26.342378277777776 ], [ -81.602096972222213, 26.340709138888887 ], [ -81.610264583333333, 26.339674 ], [ -81.611598027777774, 26.339562583333333 ] ] } },
{ "type": "Feature", "properties": { "style": "solid", "thickness": 1 }, "geometry": { "type": "LineString", "coordinates": [ [ -81.356183694444439, 26.275208444444445 ], [ -81.364243611111107, 26.2761805 ], [ -81.372178361111111, 26.277778694444443 ], [ -81.379927555555554, 26.279990888888889 ], [ -81.38743225, 26.282800166666664 ], [ -81.394635333333341, 26.286185166666669 ], [ -81.401481944444456, 26.29012 ], [ -81.40792, 26.294574722222222 ], [ -81.413900500000011, 26.299515361111112 ], [ -81.419377916666676, 26.30490425 ], [ -81.424310583333337, 26.310700305555557 ], [ -81.428660972222232, 26.31685938888889 ], [ -81.432395944444451, 26.323334555555554 ], [ -81.435487083333342, 26.33007647222222 ], [ -81.437910861111121, 26.337033777777776 ], [ -81.439648833333337, 26.3441535 ], [ -81.440687777777782, 26.351381444444446 ], [ -81.44102, 26.35858 ], [ -81.440691333333334, 26.365861944444447 ], [ -81.439655583333334, 26.373090055555554 ], [ -81.437920638888897, 26.380209361111113 ], [ -81.435499694444445, 26.387165666666665 ], [ -81.432411194444455, 26.393906083333334 ], [ -81.428678638888897, 26.400379333333333 ], [ -81.42433044444445, 26.40653625 ], [ -81.419399666666678, 26.412329972222221 ], [ -81.413923888888888, 26.4177165 ], [ -81.407944722222226, 26.422654916666669 ], [ -81.401507722222235, 26.427107638888891 ], [ -81.394661833333345, 26.431040861111111 ], [ -81.387459194444446, 26.43442475 ], [ -81.379954611111103, 26.437233527777778 ], [ -81.372205194444433, 26.439445916666667 ], [ -81.364269944444445, 26.441045083333332 ], [ -81.356209194444432, 26.442018888888889 ], [ -81.348072166666668, 26.442359972222224 ], [ -81.339935, 26.442021638888889 ], [ -81.331873888888879, 26.4410505 ], [ -81.323937944444438, 26.439453944444445 ], [ -81.316187638888891, 26.437244138888889 ], [ -81.308681888888884, 26.434437833333334 ], [ -81.30147786111111, 26.431056333333334 ], [ -81.294630388888891, 26.427125361111113 ], [ -81.288191527777769, 26.422674777777779 ], [ -81.282210361111112, 26.417738361111113 ], [ -81.276732333333328, 26.412353638888888 ], [ -81.271799194444441, 26.406561527777775 ], [ -81.26744844444444, 26.400406055555553 ], [ -81.263713222222222, 26.393934027777778 ], [ -81.260621972222225, 26.387194638888889 ], [ -81.258198166666674, 26.380239138888889 ], [ -81.256460305555549, 26.373120444444446 ], [ -81.255421555555557, 26.365892666666667 ], [ -81.25508994444445, 26.358595416666667 ] ] } },
{ "type": "Feature", "properties": { "style": "solid", "thickness": 1 }, "geometry": { "type": "LineString", "coordinates": [ [ -81.72015, 26.25714 ], [ -81.72609663888889, 26.252277972222224 ], [ -81.732601416666668, 26.247817916666669 ], [ -81.739514861111118, 26.24388313888889 ], [ -81.746784361111111, 26.240503666666669 ], [ -81.754354583333338, 26.23770525 ], [ -81.762167916666669, 26.23550925 ], [ -81.770164888888885, 26.233932388888888 ], [ -81.778284666666664, 26.232986694444442 ], [ -81.786465416666658, 26.232679416666667 ], [ -81.794644888888882, 26.23301286111111 ], [ -81.802760833333338, 26.233984472222222 ], [ -81.8107515, 26.235586888888889 ], [ -81.818556055555547, 26.237807861111111 ], [ -81.826115111111108, 26.240630444444445 ], [ -81.833371138888879, 26.244033138888891 ], [ -81.840268916666659, 26.247989972222221 ], [ -81.846755916666666, 26.252470777777777 ], [ -81.852782833333322, 26.257441416666666 ], [ -81.85830375, 26.262864 ], [ -81.863276638888877, 26.268697166666666 ], [ -81.867663694444431, 26.27489647222222 ], [ -81.871431527777773, 26.28141472222222 ], [ -81.874551416666662, 26.288202194444445 ], [ -81.876999638888876, 26.29520725 ], [ -81.878757583333325, 26.3023765 ], [ -81.879811861111108, 26.309655388888888 ], [ -81.880154444444443, 26.316988472222221 ], [ -81.879782722222217, 26.324319944444444 ], [ -81.878699527777769, 26.331594055555556 ], [ -81.876913083333321, 26.338755388888888 ], [ -81.874437027777773, 26.345749527777777 ], [ -81.871290166666654, 26.352523222222224 ], [ -81.867496472222214, 26.359025027777779 ], [ -81.863084805555545, 26.365205472222225 ], [ -81.85808875, 26.371017583333334 ], [ -81.852546333333322, 26.376417166666666 ], [ -81.846499722222219, 26.381363222222223 ], [ -81.839994944444442, 26.38581813888889 ], [ -81.8330815, 26.389748083333334 ], [ -81.82594, 26.39307 ], [ -81.82376572222222, 26.397046833333334 ], [ -81.82228725, 26.399548333333332 ], [ -81.819774583333327, 26.40336536111111 ], [ -81.81805275, 26.405738166666666 ], [ -81.815178222222215, 26.409344388888886 ], [ -81.813232, 26.411573694444442 ], [ -81.810017444444441, 26.414941666666664 ], [ -81.807861666666668, 26.417010555555557 ], [ -81.804331527777777, 26.420114694444447 ], [ -81.801982527777781, 26.422007361111113 ], [ -81.798163722222213, 26.424824055555558 ], [ -81.795639388888887, 26.426526166666669 ], [ -81.791560944444441, 26.429034 ], [ -81.7888805, 26.430532583333335 ], [ -81.784573444444447, 26.432712472222224 ], [ -81.781757277777771, 26.43399611111111 ], [ -81.777254388888892, 26.435831527777779 ], [ -81.774323944444447, 26.436890472222224 ], [ -81.769659527777776, 26.438367416666669 ], [ -81.766637138888882, 26.439193611111111 ], [ -81.761846666666671, 26.440300888888888 ], [ -81.75875533333334, 26.440888027777778 ], [ -81.753875305555553, 26.441617222222224 ], [ -81.750738527777784, 26.441960833333333 ], [ -81.745806083333335, 26.442306416666668 ], [ -81.742647805555563, 26.442403916666667 ], [ -81.73770047222223, 26.442363222222223 ], [ -81.734544722222225, 26.442213833333334 ], [ -81.72962019444445, 26.441787222222221 ], [ -81.726492611111112, 26.441381611111112 ], [ -81.72162, 26.44062 ] ] } },
{ "type": "Feature", "properties": { "style": "solid", "thickness": 1 }, "geometry": { "type": "LineString", "coordinates": [ [ -81.891905722222234, 26.819212 ], [ -81.889297861111118, 26.826076777777779 ], [ -81.8860295, 26.832712194444444 ], [ -81.882125499999987, 26.839067805555555 ], [ -81.87761555555555, 26.845095305555553 ], [ -81.872534027777775, 26.850748861111114 ], [ -81.866919527777767, 26.855985472222223 ], [ -81.860814861111109, 26.86076541666667 ], [ -81.854266444444434, 26.865052305555558 ], [ -81.847324111111107, 26.868813611111111 ], [ -81.8418, 26.87131 ], [ -81.8368575, 26.877110138888888 ], [ -81.831367111111106, 26.882503722222221 ], [ -81.825370555555551, 26.887449722222222 ], [ -81.818913527777781, 26.891910555555555 ], [ -81.812045166666664, 26.89585236111111 ], [ -81.804817722222225, 26.899245194444443 ], [ -81.797286194444439, 26.90206325 ], [ -81.789507916666665, 26.904285166666664 ], [ -81.781542083333335, 26.905894027777777 ], [ -81.773449305555559, 26.906877638888886 ], [ -81.765291194444444, 26.907228555555555 ], [ -81.75712986111111, 26.906944055555556 ], [ -81.749027361111118, 26.906026333333333 ], [ -81.741045388888892, 26.904482361111111 ], [ -81.733244694444451, 26.90232386111111 ], [ -81.725684638888893, 26.89956722222222 ], [ -81.718422777777775, 26.896233388888888 ], [ -81.711514361111114, 26.892347638888889 ], [ -81.70501194444445, 26.887939555555555 ], [ -81.698965055555561, 26.883042611111112 ], [ -81.693419694444444, 26.877693972222222 ], [ -81.688418055555559, 26.871934333333332 ], [ -81.68714, 26.87028 ], [ -81.681693027777783, 26.862228361111111 ], [ -81.677053444444454, 26.853783222222223 ], [ -81.673256555555554, 26.845008833333331 ], [ -81.67033125, 26.835971861111108 ], [ -81.668299805555563, 26.826741055555555 ], [ -81.66746, 26.82061 ], [ -81.666350111111115, 26.812826805555556 ], [ -81.666004527777787, 26.804986333333336 ], [ -81.666425888888895, 26.797148305555556 ], [ -81.667611, 26.789372333333336 ], [ -81.669550833333332, 26.781717638888889 ], [ -81.672230638888891, 26.7742425 ], [ -81.67563, 26.767003833333334 ], [ -81.679723055555556, 26.760056805555557 ], [ -81.684478638888891, 26.753454333333334 ], [ -81.689860583333342, 26.74724675 ], [ -81.695827916666673, 26.741481333333333 ], [ -81.702335222222231, 26.736202055555555 ], [ -81.709333, 26.731449166666664 ], [ -81.716767944444442, 26.727258888888887 ], [ -81.7245835, 26.723663194444441 ], [ -81.73272019444444, 26.7206895 ], [ -81.73584, 26.71974 ] ] } },
{ "type": "Feature", "properties": { "style": "solid", "thickness": 1 }, "geometry": { "type": "LineString", "coordinates": [ [ -82.56641, 26.44122 ], [ -82.58666, 26.47317 ], [ -82.60556, 26.5277 ], [ -82.62677, 26.6029 ], [ -82.62926, 26.63209 ], [ -82.6246, 26.65706 ], [ -82.64299, 26.68728 ], [ -82.68702, 26.73944 ], [ -82.74449, 26.844 ], [ -82.7912, 26.9401 ] ] } },
{ "type": "Feature", "properties": { "style": "solid", "thickness": 1 }, "geometry": { "type": "LineString", "coordinates": [ [ -82.7912, 26.9401 ], [ -82.775612166666662, 26.972181611111111 ], [ -82.733153694444439, 27.046538166666668 ], [ -82.683582833333332, 27.117269166666667 ], [ -82.627276861111099, 27.183843472222222 ], [ -82.56466427777778, 27.245762111111112 ], [ -82.49622161111111, 27.302561888888889 ], [ -82.42246975, 27.353818611111112 ], [ -82.34397, 27.39915 ] ] } },
{ "type": "Feature", "properties": { "style": "solid", "thickness": 1 }, "geometry": { "type": "LineString", "coordinates": [ [ -82.1355, 25.89202 ], [ -82.16162, 26.04106 ], [ -82.20189, 26.10101 ], [ -82.38317, 26.18443 ], [ -82.46771, 26.24552 ], [ -82.56641, 26.44122 ] ] } },
{ "type": "Feature", "properties": { "style": "solid", "thickness": 1 }, "geometry": { "type": "LineString", "coordinates": [ [ -81.279989138888894, 26.908916861111109 ], [ -81.28117258333333, 26.909951916666664 ], [ -81.326466694444434, 26.946227916666668 ], [ -81.327746861111109, 26.947166805555558 ], [ -81.376414777777768, 26.979774944444443 ], [ -81.377782, 26.980610583333331 ], [ -81.429453305555555, 27.009306 ], [ -81.430897138888895, 27.010032083333332 ], [ -81.48517861111111, 27.034599555555559 ], [ -81.486688055555561, 27.035210638888891 ], [ -81.543166583333331, 27.055465972222223 ], [ -81.54473013888888, 27.055957444444445 ], [ -81.602975861111105, 27.07174897222222 ], [ -81.604581638888888, 27.072117111111112 ], [ -81.66415127777779, 27.083326583333331 ], [ -81.665787, 27.083568638888888 ], [ -81.726227194444448, 27.090112166666664 ], [ -81.727880444444452, 27.090226333333334 ], [ -81.788731194444438, 27.092054944444442 ], [ -81.790389333333337, 27.092040333333333 ], [ -81.851187555555555, 27.089140361111109 ], [ -81.852837916666658, 27.088997083333332 ], [ -81.913120888888898, 27.081390222222222 ], [ -81.914750916666677, 27.08111938888889 ], [ -81.974059861111115, 27.068862527777778 ], [ -81.975657111111119, 27.068466166666667 ], [ -82.03354063888888, 27.051651083333333 ], [ -82.035092972222216, 27.051132138888889 ], [ -82.091110527777772, 27.029884722222221 ], [ -82.092606083333322, 27.029247138888888 ], [ -82.146331361111123, 27.003726583333332 ], [ -82.147758777777781, 27.002975138888889 ], [ -82.198774833333331, 26.973358888888889 ], [ -82.20017847222222, 26.97255225 ] ] } },
{ "type": "Feature", "properties": { "style": "solid", "thickness": 1 }, "geometry": { "type": "LineString", "coordinates": [ [ -82.18314, 27.46814 ], [ -82.153999583333345, 27.478099555555556 ], [ -82.061363194444439, 27.504428638888889 ], [ -81.966492472222228, 27.523491472222222 ], [ -81.870109444444438, 27.535146805555556 ], [ -81.772947666666667, 27.539308305555558 ], [ -81.675746555555563, 27.535945111111111 ], [ -81.579245916666665, 27.525082138888887 ], [ -81.484180138888888, 27.506799888888889 ], [ -81.391272777777786, 27.481233833333331 ], [ -81.301230861111108, 27.448573527777778 ], [ -81.214739694444447, 27.409061416666667 ], [ -81.132457527777774, 27.362991027777777 ] ] } },
{ "type": "Feature", "properties": { "style": "solid", "thickness": 1 }, "geometry": { "type": "LineString", "coordinates": [ [ -81.95632, 25.5589 ], [ -82.051163611111107, 25.57715525 ], [ -82.143882583333337, 25.602793027777778 ], [ -82.233771194444444, 25.635613527777778 ], [ -82.320145388888889, 25.675361138888888 ], [ -82.402347777777777, 25.721726611111109 ], [ -82.479752777777776, 25.7743495 ], [ -82.551771277777775, 25.83282125 ], [ -82.617855166666658, 25.896688416666667 ], [ -82.6775015, 25.965456555555555 ], [ -82.730256361111117, 26.038594 ], [ -82.77571825, 26.115536388888891 ], [ -82.81354113888888, 26.195691 ], [ -82.843437222222221, 26.278441611111109 ], [ -82.865178916666665, 26.363153361111113 ], [ -82.87860080555555, 26.449177666666667 ], [ -82.883600694444453, 26.535857361111113 ], [ -82.880140583333329, 26.622531722222224 ], [ -82.86824677777777, 26.708541555555556 ], [ -82.848009777777776, 26.79323425 ], [ -82.819583638888886, 26.875968611111112 ], [ -82.7912, 26.9401 ] ] } },
{ "type": "Feature", "properties": { "style": "solid", "thickness": 1 }, "geometry": { "type": "LineString", "coordinates": [ [ -82.1355, 25.89202 ], [ -82.134033638888894, 25.891329777777777 ], [ -82.079758805555556, 25.866502666666669 ], [ -82.078249388888878, 25.865885416666668 ], [ -82.021770861111108, 25.845419722222221 ], [ -82.020207305555559, 25.844923111111111 ], [ -81.961961583333334, 25.828962444444443 ], [ -81.960355861111111, 25.828590333333334 ], [ -81.900786222222223, 25.817258055555556 ], [ -81.899150527777778, 25.817013361111112 ], [ -81.838710333333324, 25.810397083333335 ], [ -81.837057166666668, 25.810281666666668 ], [ -81.776206388888895, 25.808432583333335 ], [ -81.774548333333328, 25.808447361111114 ], [ -81.713750083333338, 25.811379777777777 ], [ -81.71209977777778, 25.811524611111111 ], [ -81.651816805555555, 25.819215833333335 ], [ -81.650186833333336, 25.819489611111109 ], [ -81.590877888888883, 25.831880138888888 ], [ -81.589280666666667, 25.832280777777779 ], [ -81.531397138888892, 25.849274833333332 ], [ -81.529844833333328, 25.849799166666667 ], [ -81.473827277777787, 25.871265416666667 ], [ -81.472331722222222, 25.871909388888888 ], [ -81.41860644444445, 25.897682 ], [ -81.417179027777777, 25.898440638888889 ], [ -81.366154888888886, 25.928320611111111 ], [ -81.3648065, 25.92918802777778 ], [ -81.31687186111111, 25.962944861111112 ], [ -81.31561275, 25.963914361111112 ], [ -81.271132388888887, 26.001287805555556 ], [ -81.269972138888889, 26.002351861111112 ], [ -81.229284611111112, 26.043054083333335 ], [ -81.228232, 26.044204472222223 ], [ -81.191646944444443, 26.087922305555555 ], [ -81.190710027777783, 26.089150194444443 ], [ -81.158505861111124, 26.135547555555554 ], [ -81.157691722222225, 26.1368435 ], [ -81.130113555555553, 26.185564222222222 ], [ -81.129428333333323, 26.186918222222221 ], [ -81.106686055555556, 26.237588694444444 ], [ -81.106134972222222, 26.238990416666667 ], [ -81.088401666666655, 26.291222611111113 ], [ -81.087988833333327, 26.292661333333335 ], [ -81.075399444444443, 26.34605575 ], [ -81.075128027777779, 26.3475205 ], [ -81.067778388888883, 26.401669361111111 ], [ -81.067650388888879, 26.403148972222223 ], [ -81.065596416666665, 26.457639333333333 ], [ -81.065612833333333, 26.459122555555556 ], [ -81.068870166666656, 26.513539416666667 ], [ -81.069030833333329, 26.515015027777778 ], [ -81.077574694444436, 26.568944555555554 ], [ -81.077878416666664, 26.570401361111109 ], [ -81.091643777777776, 26.623434083333333 ], [ -81.092088249999989, 26.624861055555556 ], [ -81.110970333333327, 26.676594861111113 ], [ -81.111552249999988, 26.677981222222222 ], [ -81.135407333333333, 26.72802436111111 ], [ -81.136122277777787, 26.729359638888887 ], [ -81.164768833333341, 26.77733375 ], [ -81.165611361111118, 26.778607861111109 ], [ -81.198831416666664, 26.824150694444445 ], [ -81.199795166666675, 26.825354 ], [ -81.237335861111106, 26.868122138888889 ], [ -81.23841352777778, 26.869245555555555 ], [ -81.279989138888894, 26.908916861111109 ] ] } },
{ "type": "Feature", "properties": { "style": "solid", "thickness": 1 }, "geometry": { "type": "LineString", "coordinates": [ [ -81.132457527777774, 27.362991027777777 ], [ -81.055010583333328, 27.310705083333335 ], [ -80.98298825, 27.252593083333334 ], [ -80.916938666666667, 27.189088583333334 ], [ -80.857364555555549, 27.12066625 ], [ -80.80471925, 27.047838388888891 ], [ -80.759403444444445, 26.971151444444441 ], [ -80.721762027777785, 26.891181916666667 ], [ -80.692081444444455, 26.808532361111112 ], [ -80.670587611111117, 26.723826888888887 ], [ -80.657444111111118, 26.637706527777777 ], [ -80.652750944444449, 26.550824555555558 ], [ -80.656543833333345, 26.4638415 ], [ -80.668793944444445, 26.377420222222224 ], [ -80.689408, 26.292220666666669 ], [ -80.718229166666674, 26.208895 ], [ -80.755038055555559, 26.128082305555555 ], [ -80.799554555555559, 26.050403722222224 ], [ -80.85143983333333, 25.976457472222222 ], [ -80.910299055555555, 25.906814055555554 ], [ -80.97568425, 25.842011777777778 ], [ -81.047097805555552, 25.782552277777778 ], [ -81.123996194444445, 25.728896527777778 ], [ -81.205794194444451, 25.681461138888888 ], [ -81.29186925, 25.64061475 ], [ -81.381566305555552, 25.606675222222222 ], [ -81.47420272222223, 25.579906805555556 ], [ -81.569073444444442, 25.560518138888888 ], [ -81.665456472222232, 25.548660388888891 ], [ -81.76261825, 25.544426055555558 ], [ -81.859819361111107, 25.547848166666668 ], [ -81.95632, 25.5589 ] ] } },
{ "type": "Feature", "properties": { "style": "solid", "thickness": 1 }, "geometry": { "type": "LineString", "coordinates": [ [ -81.769880333333333, 26.543527444444447 ], [ -81.769880361111106, 26.545361444444445 ] ] } },
{ "type": "Feature", "properties": { "style": "solid", "thickness": 1 }, "geometry": { "type": "LineString", "coordinates": [ [ -81.769370583333327, 26.543344055555558 ], [ -81.769370583333327, 26.545544833333334 ] ] } },
{ "type": "Feature", "properties": { "style": "solid", "thickness": 1 }, "geometry": { "type": "LineString", "coordinates": [ [ -81.768860805555548, 26.543344055555558 ], [ -81.768860805555548, 26.545544833333334 ] ] } },
{ "type": "Feature", "properties": { "style": "solid", "thickness": 1 }, "geometry": { "type": "LineString", "coordinates": [ [ -81.768351027777783, 26.543527444444447 ], [ -81.768351027777783, 26.545361444444445 ] ] } },
{ "type": "Feature", "properties": { "style": "solid", "thickness": 1 }, "geometry": { "type": "LineString", "coordinates": [ [ -81.76784125, 26.544444444444448 ], [ -81.767849138888892, 26.544574444444446 ], [ -81.767874638888884, 26.544710361111111 ], [ -81.767920138888883, 26.544849611111111 ], [ -81.767987527777777, 26.544988861111111 ], [ -81.768077805555549, 26.545124138888891 ], [ -81.76819075, 26.545251083333333 ], [ -81.768324833333338, 26.545365222222223 ], [ -81.768477083333337, 26.5454625 ], [ -81.768643305555557, 26.54553966666667 ], [ -81.768818472222222, 26.54559466666667 ], [ -81.768997166666665, 26.54562675 ], [ -81.769174194444446, 26.545636527777781 ], [ -81.769344944444441, 26.545625694444446 ], [ -81.76950572222222, 26.545596861111111 ], [ -81.76965391666667, 26.545553055555558 ], [ -81.769787972222218, 26.545497444444447 ], [ -81.769910388888889, 26.545431194444447 ], [ -81.770029916666672, 26.545349027777778 ], [ -81.770143944444442, 26.545249722222223 ], [ -81.770248444444448, 26.545133222222223 ], [ -81.770339138888886, 26.545000333333334 ], [ -81.770411777777781, 26.544853055555556 ], [ -81.770462611111114, 26.544694444444445 ], [ -81.770488777777771, 26.544528611111112 ], [ -81.770488777777771, 26.544360277777781 ], [ -81.770462611111114, 26.544194416666667 ], [ -81.770411777777781, 26.544035833333336 ], [ -81.770339138888886, 26.543888527777778 ], [ -81.770248444444448, 26.543755666666669 ], [ -81.770143944444442, 26.543639138888892 ], [ -81.770029916666672, 26.543539861111114 ], [ -81.769910361111116, 26.543457694444445 ], [ -81.769787972222218, 26.543391444444445 ], [ -81.76965391666667, 26.543335833333334 ], [ -81.76950572222222, 26.543292 ], [ -81.769344944444441, 26.543263166666669 ], [ -81.769174194444446, 26.543252361111112 ], [ -81.768997194444438, 26.543262138888892 ], [ -81.768818472222222, 26.543294222222222 ], [ -81.76864333333333, 26.543349222222226 ], [ -81.76847711111111, 26.543426388888889 ], [ -81.768324861111111, 26.543523666666669 ], [ -81.768190777777775, 26.543637805555559 ], [ -81.768077805555549, 26.543764722222225 ], [ -81.76798755555555, 26.543900027777781 ], [ -81.767920138888883, 26.544039277777781 ], [ -81.767874638888884, 26.5441785 ], [ -81.767849166666664, 26.544314416666669 ], [ -81.76784125, 26.544444444444448 ] ] } },
{ "type": "Feature", "properties": { "style": "solid", "thickness": 1 }, "geometry": { "type": "LineString", "coordinates": [ [ -82.532718305555548, 26.97412525 ], [ -82.530704555555559, 26.974262305555555 ], [ -82.529440388888887, 26.959346805555555 ] ] } },
{ "type": "Feature", "properties": { "style": "solid", "thickness": 1 }, "geometry": { "type": "LineString", "coordinates": [ [ -82.516742388888886, 26.97521172222222 ], [ -82.518469166666662, 26.973279694444443 ], [ -82.519937583333331, 26.971486194444442 ], [ -82.521147638888891, 26.969831194444442 ], [ -82.521871611111109, 26.968814138888888 ], [ -82.522440972222228, 26.967565638888889 ], [ -82.522607583333325, 26.9663445 ], [ -82.522650138888892, 26.965252805555554 ], [ -82.52246677777778, 26.963087638888886 ], [ -82.521992777777783, 26.962273 ], [ -82.521394694444439, 26.961587777777776 ], [ -82.520786472222227, 26.960782277777778 ], [ -82.51788605555555, 26.96001161111111 ], [ -82.51627522222222, 26.960121083333334 ], [ -82.514601416666665, 26.961081666666665 ], [ -82.514353305555559, 26.9613405 ], [ -82.513360833333337, 26.96237575 ], [ -82.513246944444447, 26.962625444444445 ], [ -82.512852444444448, 26.964345944444442 ], [ -82.51295422222222, 26.965548833333333 ], [ -82.513293944444442, 26.966372611111112 ], [ -82.5136235, 26.967076083333332 ], [ -82.51423172222222, 26.96788161111111 ], [ -82.515376944444441, 26.968650666666665 ], [ -82.516491611111107, 26.969058833333332 ], [ -82.517173027777773, 26.969133527777775 ], [ -82.51811275, 26.969069666666666 ], [ -82.518773805555554, 26.96890375 ], [ -82.520974472222221, 26.967786305555553 ], [ -82.522617777777782, 26.966464777777777 ] ] } },
{ "type": "Feature", "properties": { "style": "solid", "thickness": 1 }, "geometry": { "type": "LineString", "coordinates": [ [ -81.545767361111103, 27.364492416666668 ], [ -81.54374555555556, 27.364615444444446 ], [ -81.542606611111111, 27.349693166666665 ] ] } },
{ "type": "Feature", "properties": { "style": "solid", "thickness": 1 }, "geometry": { "type": "LineString", "coordinates": [ [ -81.529727583333326, 27.36546775 ], [ -81.531477027777782, 27.363547972222225 ], [ -81.532966027777775, 27.361764888888889 ], [ -81.534194583333331, 27.360118527777779 ], [ -81.53492986111111, 27.359106638888889 ], [ -81.535512, 27.35786227777778 ], [ -81.535689805555549, 27.356642472222223 ], [ -81.535741972222226, 27.355551194444445 ], [ -81.53557680555555, 27.353385055555556 ], [ -81.53510825, 27.35256725 ], [ -81.534514083333335, 27.351877972222223 ], [ -81.533910777777777, 27.351068333333334 ], [ -81.531007194444442, 27.350277611111114 ], [ -81.529389944444446, 27.350375888888891 ], [ -81.527702083333338, 27.351324722222223 ], [ -81.527450888888893, 27.351581777777778 ], [ -81.52644602777778, 27.35261 ], [ -81.526329583333336, 27.352858861111113 ], [ -81.525918833333336, 27.354576388888891 ], [ -81.5260105, 27.355779805555557 ], [ -81.526344222222221, 27.356605833333333 ], [ -81.526668777777772, 27.357311527777778 ], [ -81.52727208333333, 27.358121166666667 ], [ -81.5284145, 27.358898083333333 ], [ -81.529529444444449, 27.359313944444445 ], [ -81.530212527777778, 27.359393333333333 ], [ -81.531156, 27.359336 ], [ -81.531820722222221, 27.359174722222225 ], [ -81.534038611111114, 27.358072722222225 ], [ -81.535698972222221, 27.356762805555558 ] ] } },
{ "type": "Feature", "properties": { "style": "solid", "thickness": 1 }, "geometry": { "type": "LineString", "coordinates": [ [ -81.771643888888889, 26.855419555555557 ], [ -81.771700194444449, 26.856141583333336 ], [ -81.771497555555555, 26.857000777777778 ], [ -81.771045361111106, 26.858117472222222 ], [ -81.770564972222218, 26.858873166666669 ], [ -81.7697975, 26.859405027777779 ], [ -81.768742916666667, 26.859713027777779 ], [ -81.766730361111115, 26.859839222222224 ], [ -81.76523575, 26.859691083333335 ], [ -81.76453675, 26.85937213888889 ], [ -81.763531944444438, 26.858588638888889 ], [ -81.763216722222225, 26.858003777777778 ], [ -81.762873361111104, 26.857057916666669 ], [ -81.762723361111114, 26.8551325 ], [ -81.762935416666664, 26.854393666666667 ], [ -81.763945972222217, 26.851790888888889 ], [ -81.765424611111115, 26.850005222222222 ], [ -81.767795388888885, 26.84755897222222 ], [ -81.770646388888892, 26.844357 ], [ -81.762194777777779, 26.844887 ] ] } },
{ "type": "Feature", "properties": { "style": "solid", "thickness": 1 }, "geometry": { "type": "LineString", "coordinates": [ [ -81.74861725, 26.860973861111113 ], [ -81.754789166666669, 26.8605875 ], [ -81.75589330555556, 26.853988444444447 ], [ -81.754723305555558, 26.854545416666667 ], [ -81.753696805555549, 26.855214305555556 ], [ -81.751281833333337, 26.8553655 ], [ -81.750055611111108, 26.855200416666669 ], [ -81.748791944444449, 26.854553972222224 ], [ -81.74731925, 26.852953194444446 ], [ -81.746938611111119, 26.851525916666667 ], [ -81.74679825, 26.849720833333333 ], [ -81.74750025, 26.84834675 ], [ -81.748336388888887, 26.84696425 ], [ -81.748710777777774, 26.846578055555554 ], [ -81.749468916666672, 26.845925972222222 ], [ -81.750791722222218, 26.845601305555554 ], [ -81.752267416666669, 26.845508916666667 ], [ -81.753359388888896, 26.845682388888889 ], [ -81.754738388888896, 26.84607975 ], [ -81.756020722222218, 26.846966833333333 ], [ -81.756183, 26.847319444444445 ] ] } },
{ "type": "Feature", "properties": { "style": "solid", "thickness": 1 }, "geometry": { "type": "LineString", "coordinates": [ [ -82.51639025, 26.159593861111109 ], [ -82.516450888888883, 26.160315583333333 ], [ -82.516255083333334, 26.161175833333331 ], [ -82.515812888888888, 26.162294916666664 ], [ -82.515340361111114, 26.163053111111111 ], [ -82.51458102777778, 26.163588972222222 ], [ -82.513534888888884, 26.1639025 ], [ -82.511535444444448, 26.164039277777775 ], [ -82.510049, 26.163899 ], [ -82.509352222222219, 26.163583722222221 ], [ -82.508348444444451, 26.162805527777778 ], [ -82.508031361111108, 26.162222305555556 ], [ -82.507683972222225, 26.16127825 ], [ -82.507522388888887, 26.159353666666664 ], [ -82.507728361111106, 26.158613694444444 ], [ -82.508715861111114, 26.156005638888889 ], [ -82.510173888888886, 26.15421225 ], [ -82.512514305555555, 26.151753555555555 ], [ -82.515327111111105, 26.148536638888888 ], [ -82.506930611111116, 26.149111027777778 ] ] } },
{ "type": "Feature", "properties": { "style": "solid", "thickness": 1 }, "geometry": { "type": "LineString", "coordinates": [ [ -82.502481416666669, 26.164779305555555 ], [ -82.4922175, 26.165480333333331 ], [ -82.498134166666674, 26.14971222222222 ] ] } },
{ "type": "Feature", "properties": { "style": "solid", "thickness": 1 }, "geometry": { "type": "LineString", "coordinates": [ [ -82.131422666666666, 26.222063805555553 ], [ -82.129421722222219, 26.222195166666666 ], [ -82.128218, 26.207275722222221 ] ] } },
{ "type": "Feature", "properties": { "style": "solid", "thickness": 1 }, "geometry": { "type": "LineString", "coordinates": [ [ -82.113557, 26.223356666666664 ], [ -82.119693361111104, 26.222954388888887 ], [ -82.120770361111099, 26.21635222222222 ], [ -82.119608638888877, 26.21691222222222 ], [ -82.11858997222221, 26.217583777777776 ], [ -82.116188916666658, 26.217741222222219 ], [ -82.114968972222215, 26.217579277777777 ], [ -82.11371027777777, 26.216936027777777 ], [ -82.112240694444438, 26.21533897222222 ], [ -82.111857638888878, 26.213912638888889 ], [ -82.111712277777769, 26.212107833333334 ], [ -82.112406027777766, 26.210731888888887 ], [ -82.1132331111111, 26.209347166666667 ], [ -82.113604194444434, 26.20896 ], [ -82.114356027777774, 26.208305944444444 ], [ -82.11567047222222, 26.207977861111111 ], [ -82.117137666666665, 26.207881666666665 ], [ -82.118224111111104, 26.208052361111111 ], [ -82.119596722222212, 26.208446166666665 ], [ -82.12087475, 26.209329972222221 ], [ -82.121037249999986, 26.209682194444444 ] ] } },
{ "type": "Feature", "properties": { "style": "solid", "thickness": 1 }, "geometry": { "type": "LineString", "coordinates": [ [ -81.50541886111111, 26.50448588888889 ], [ -81.503412277777784, 26.50460838888889 ], [ -81.502287138888889, 26.489683861111111 ] ] } },
{ "type": "Feature", "properties": { "style": "solid", "thickness": 1 }, "geometry": { "type": "LineString", "coordinates": [ [ -81.487502277777779, 26.505699472222222 ], [ -81.493655916666668, 26.505324444444444 ], [ -81.494771638888892, 26.498727166666669 ], [ -81.493604, 26.499282 ], [ -81.492579166666673, 26.499949027777777 ], [ -81.490171361111109, 26.500095805555556 ], [ -81.488949333333338, 26.499928444444446 ], [ -81.487691055555558, 26.49927963888889 ], [ -81.486226583333334, 26.497676111111112 ], [ -81.485850388888892, 26.496248083333334 ], [ -81.48571455555556, 26.494442666666668 ], [ -81.4864175, 26.493069833333333 ], [ -81.487254194444446, 26.491688805555558 ], [ -81.48762830555556, 26.491303277777778 ], [ -81.488385555555553, 26.490652583333333 ], [ -81.489705, 26.490330361111113 ], [ -81.491176333333328, 26.490240666666669 ], [ -81.492264527777778, 26.490416166666666 ], [ -81.493638333333337, 26.490816055555555 ], [ -81.494914666666673, 26.491705527777778 ], [ -81.495075611111119, 26.492058444444446 ] ] } },
{ "type": "Feature", "properties": { "style": "solid", "thickness": 1 }, "geometry": { "type": "LineString", "coordinates": [ [ -80.992212, 26.491684805555558 ], [ -80.990205111111109, 26.4918 ], [ -80.989147027777776, 26.4768715 ] ] } },
{ "type": "Feature", "properties": { "style": "solid", "thickness": 1 }, "geometry": { "type": "LineString", "coordinates": [ [ -80.976290527777778, 26.492597944444444 ], [ -80.978035833333337, 26.49068475 ], [ -80.979522027777776, 26.48890725 ], [ -80.980749111111109, 26.487265444444446 ], [ -80.981483666666662, 26.486256305555557 ], [ -80.982067333333333, 26.48501402777778 ], [ -80.982249666666675, 26.483794777777778 ], [ -80.982306722222219, 26.482703555555553 ], [ -80.98215325, 26.480536527777776 ], [ -80.98169225, 26.479716805555555 ], [ -80.981106, 26.479025138888886 ], [ -80.980511222222219, 26.478213055555553 ], [ -80.977633722222222, 26.47741097222222 ], [ -80.976028388888892, 26.477502972222222 ], [ -80.974348888888898, 26.47844536111111 ], [ -80.974098361111118, 26.47870147222222 ], [ -80.97309625, 26.479725944444443 ], [ -80.9729795, 26.479974388888888 ], [ -80.97256358333334, 26.481690527777776 ], [ -80.97264875, 26.482894444444444 ], [ -80.97297591666667, 26.48372186111111 ], [ -80.973294583333342, 26.484428888888889 ], [ -80.973889333333332, 26.485240972222222 ], [ -80.97501925, 26.486022388888891 ], [ -80.976123638888893, 26.486442638888889 ], [ -80.976801083333342, 26.486524694444444 ], [ -80.97773761111111, 26.486471027777778 ], [ -80.978398027777786, 26.486312305555558 ], [ -80.980604222222226, 26.485218805555558 ], [ -80.982258194444441, 26.483915166666666 ] ] } },
{ "type": "Feature", "properties": { "style": "solid", "thickness": 1 }, "geometry": { "type": "LineString", "coordinates": [ [ -81.82805441666666, 25.731061444444443 ], [ -81.826061638888888, 25.7311885 ], [ -81.824902333333327, 25.71626725 ] ] } },
{ "type": "Feature", "properties": { "style": "solid", "thickness": 1 }, "geometry": { "type": "LineString", "coordinates": [ [ -81.812244972222217, 25.732068666666667 ], [ -81.81396483333333, 25.73014525 ], [ -81.815428305555557, 25.728359083333331 ], [ -81.816635361111111, 25.726710138888887 ], [ -81.817357722222212, 25.725696722222221 ], [ -81.817928527777781, 25.724451083333332 ], [ -81.818100805555545, 25.723230805555556 ], [ -81.81814955555555, 25.722139361111111 ], [ -81.817981416666669, 25.719973361111109 ], [ -81.8175175, 25.719156388888887 ], [ -81.816930111111105, 25.71846825 ], [ -81.816333388888893, 25.71765975 ], [ -81.813469111111104, 25.716874722222222 ], [ -81.811875055555547, 25.716976222222222 ], [ -81.810213527777776, 25.717928472222219 ], [ -81.8099665, 25.718186055555552 ], [ -81.808978472222222, 25.719216361111108 ], [ -81.808864277777772, 25.719465472222222 ], [ -81.808463583333335, 25.721183972222221 ], [ -81.808556888888887, 25.722387305555554 ], [ -81.808887916666663, 25.72321275 ], [ -81.809209583333327, 25.723917833333331 ], [ -81.809806305555554, 25.724726361111109 ], [ -81.810934416666669, 25.725501055555554 ], [ -81.812034527777769, 25.72591475 ], [ -81.812708083333334, 25.725992777777776 ], [ -81.81363802777777, 25.725933583333333 ], [ -81.814292916666659, 25.725770944444442 ], [ -81.816476583333326, 25.724664472222219 ], [ -81.818110138888883, 25.723351138888887 ] ] } },
{ "type": "Feature", "properties": { "style": "solid", "thickness": 1 }, "geometry": { "type": "LineString", "coordinates": [ [ -81.657894361111119, 26.44722186111111 ], [ -81.65794975, 26.447943944444443 ], [ -81.657747, 26.448803027777778 ], [ -81.657295277777777, 26.449919416666667 ], [ -81.6568158888889, 26.45067475 ], [ -81.656050611111112, 26.451206 ], [ -81.654999472222229, 26.451513166666665 ], [ -81.652994, 26.451637777777776 ], [ -81.651504833333334, 26.451488444444443 ], [ -81.650808666666677, 26.451168916666667 ], [ -81.649808194444446, 26.450384583333332 ], [ -81.649494666666669, 26.449799444444444 ], [ -81.649153500000011, 26.44885325 ], [ -81.649005916666667, 26.446927638888891 ], [ -81.649217972222232, 26.446188944444444 ], [ -81.6502275, 26.443586861111111 ], [ -81.651702638888892, 26.441802305555555 ], [ -81.65406738888889, 26.439357861111112 ], [ -81.656911388888901, 26.436158 ], [ -81.648489388888891, 26.43668127777778 ] ] } },
{ "type": "Feature", "properties": { "style": "solid", "thickness": 1 }, "geometry": { "type": "LineString", "coordinates": [ [ -81.643722638888889, 26.448102111111112 ], [ -81.643777944444452, 26.448824194444445 ], [ -81.643575083333346, 26.44968325 ], [ -81.643123222222229, 26.450799583333332 ], [ -81.642643722222232, 26.451554888888889 ], [ -81.641878388888898, 26.452086055555554 ], [ -81.640827222222228, 26.45239311111111 ], [ -81.638821694444445, 26.452517527777776 ], [ -81.637332527777787, 26.452368027777776 ], [ -81.636636388888903, 26.452048444444443 ], [ -81.635636027777778, 26.451264027777778 ], [ -81.635322583333334, 26.450678833333331 ], [ -81.6349815, 26.449732611111113 ], [ -81.634834166666678, 26.447807 ], [ -81.635046305555562, 26.447068333333334 ], [ -81.636056166666677, 26.444466333333335 ], [ -81.637531527777782, 26.442681944444445 ], [ -81.639896583333339, 26.440237722222221 ], [ -81.642741, 26.437038138888891 ], [ -81.634318888888899, 26.437560583333333 ] ] } },
{ "type": "Feature", "properties": { "style": "solid", "thickness": 1 }, "geometry": { "type": "LineString", "coordinates": [ [ -81.828882444444446, 26.322918888888889 ], [ -81.82687925, 26.323045944444445 ], [ -81.825713944444445, 26.308122888888889 ] ] } },
{ "type": "Feature", "properties": { "style": "solid", "thickness": 1 }, "geometry": { "type": "LineString", "coordinates": [ [ -81.81995358333333, 26.323726916666665 ], [ -81.809670305555557, 26.324378222222222 ], [ -81.815689777777777, 26.308637333333333 ] ] } },
{ "type": "Feature", "properties": { "style": "solid", "thickness": 1 }, "geometry": { "type": "LineString", "coordinates": [ [ -81.356381805555543, 26.384051611111111 ], [ -81.354377305555545, 26.384171972222223 ], [ -81.353272888888881, 26.36924725 ] ] } },
{ "type": "Feature", "properties": { "style": "solid", "thickness": 1 }, "geometry": { "type": "LineString", "coordinates": [ [ -81.340479361111107, 26.385005694444445 ], [ -81.342216833333325, 26.38308813888889 ], [ -81.343695861111101, 26.381306916666666 ], [ -81.3449165, 26.379662083333333 ], [ -81.345647083333333, 26.378651111111111 ], [ -81.346226222222214, 26.377407416666667 ], [ -81.3464045, 26.37618777777778 ], [ -81.346458027777771, 26.3750965 ], [ -81.346297861111111, 26.37293 ], [ -81.345834694444434, 26.372111527777779 ], [ -81.345246833333334, 26.371421416666667 ], [ -81.344650083333335, 26.370610944444444 ], [ -81.341772944444443, 26.369816305555556 ], [ -81.340169527777775, 26.369912444444445 ], [ -81.33849475, 26.370859111111113 ], [ -81.338245277777773, 26.371115833333334 ], [ -81.337247444444444, 26.372142805555555 ], [ -81.337131583333331, 26.372391527777779 ], [ -81.336721555555556, 26.374108611111112 ], [ -81.336810444444438, 26.375312222222224 ], [ -81.337139916666658, 26.37613875 ], [ -81.3374605, 26.376844916666666 ], [ -81.33805725, 26.377655416666666 ], [ -81.3391885, 26.378433888888889 ], [ -81.340293083333322, 26.37885125 ], [ -81.340970111111105, 26.378931555555557 ], [ -81.3419055, 26.378875472222223 ], [ -81.34256475, 26.378715055555556 ], [ -81.34476525, 26.377615944444447 ], [ -81.346413388888891, 26.376308138888888 ] ] } },
{ "type": "Feature", "properties": { "style": "solid", "thickness": 1 }, "geometry": { "type": "LineString", "coordinates": [ [ -81.605299194444441, 26.20461 ], [ -81.605354138888885, 26.205332111111112 ], [ -81.605151388888885, 26.20619111111111 ], [ -81.604700138888887, 26.207307333333333 ], [ -81.604221416666661, 26.20806247222222 ], [ -81.6034575, 26.208593444444443 ], [ -81.602408444444436, 26.208900222222223 ], [ -81.600407138888883, 26.209024083333333 ], [ -81.598921194444443, 26.208874194444444 ], [ -81.598226638888889, 26.208554416666665 ], [ -81.597228638888879, 26.207769694444444 ], [ -81.596916055555553, 26.207184444444444 ], [ -81.596576027777772, 26.206238111111109 ], [ -81.596429638888878, 26.204312444444444 ], [ -81.596641583333323, 26.203573833333333 ], [ -81.597650194444441, 26.20097211111111 ], [ -81.599123027777779, 26.199188111111113 ], [ -81.601483916666666, 26.196744527777778 ], [ -81.604323388888886, 26.193545722222222 ], [ -81.595918916666662, 26.19406586111111 ] ] } },
{ "type": "Feature", "properties": { "style": "solid", "thickness": 1 }, "geometry": { "type": "LineString", "coordinates": [ [ -81.58154925, 26.200758138888887 ], [ -81.58182325, 26.204368777777777 ], [ -81.58237875, 26.206390083333332 ], [ -81.582718666666665, 26.207336444444444 ], [ -81.58317375, 26.208033861111112 ], [ -81.584884444444441, 26.209379222222221 ], [ -81.58653122222222, 26.209882083333333 ], [ -81.587064888888889, 26.209849111111112 ], [ -81.588620277777778, 26.209148388888888 ], [ -81.589978222222214, 26.207613444444444 ], [ -81.590457055555547, 26.206858333333333 ], [ -81.59065075, 26.205879 ], [ -81.590895583333335, 26.203808222222222 ], [ -81.590621305555544, 26.200197611111111 ], [ -81.590065666666661, 26.198176333333333 ], [ -81.589725722222212, 26.197229972222221 ], [ -81.58913725, 26.196540833333334 ], [ -81.587560083333329, 26.195187277777777 ], [ -81.585913527777777, 26.194684416666668 ], [ -81.58537988888888, 26.19471738888889 ], [ -81.583824694444445, 26.195418083333333 ], [ -81.582333416666657, 26.196961222222221 ], [ -81.581987972222223, 26.197708055555555 ], [ -81.581794222222214, 26.198687388888889 ], [ -81.58154925, 26.200758138888887 ] ] } },
{ "type": "Feature", "properties": { "style": "solid", "thickness": 1 }, "geometry": { "type": "LineString", "coordinates": [ [ -82.252740361111108, 27.378154388888888 ], [ -82.2528, 27.378876083333335 ], [ -82.252600083333334, 27.379735833333335 ], [ -82.252150527777772, 27.380853861111113 ], [ -82.251671194444441, 27.381611055555556 ], [ -82.250902472222222, 27.38214538888889 ], [ -82.249844361111116, 27.382456916666666 ], [ -82.24782319444445, 27.382589944444444 ], [ -82.246321111111115, 27.382446888888889 ], [ -82.245617583333328, 27.382130361111113 ], [ -82.244604861111114, 27.381350416666667 ], [ -82.24428575, 27.380766722222223 ], [ -82.243936833333336, 27.379822194444444 ], [ -82.243777972222219, 27.377897638888889 ], [ -82.243987888888896, 27.377158194444444 ], [ -82.244992027777784, 27.374552444444443 ], [ -82.246469833333336, 27.372762083333335 ], [ -82.248841055555559, 27.370308222222224 ], [ -82.25169147222222, 27.367097111111111 ], [ -82.243203638888886, 27.367655694444444 ] ] } },
{ "type": "Feature", "properties": { "style": "solid", "thickness": 1 }, "geometry": { "type": "LineString", "coordinates": [ [ -82.238670333333332, 27.383312861111111 ], [ -82.22829472222223, 27.383994555555557 ], [ -82.2343115, 27.368240333333333 ] ] } },
{ "type": "Feature", "properties": { "style": "solid", "thickness": 1 }, "geometry": { "type": "LineString", "coordinates": [ [ -82.247676277777785, 26.925754805555556 ], [ -82.245663166666674, 26.925887805555558 ], [ -82.244436916666672, 26.910970722222221 ] ] } },
{ "type": "Feature", "properties": { "style": "solid", "thickness": 1 }, "geometry": { "type": "LineString", "coordinates": [ [ -82.235293027777786, 26.919557277777781 ], [ -82.231401222222217, 26.919814055555555 ], [ -82.22923025, 26.918022027777781 ], [ -82.22890261111111, 26.917317916666669 ], [ -82.228584861111116, 26.916734111111111 ], [ -82.22846638888889, 26.915290527777778 ], [ -82.228914333333336, 26.914172416666666 ], [ -82.229630638888892, 26.91303661111111 ], [ -82.230396305555558, 26.912502305555556 ], [ -82.230903444444451, 26.912106 ], [ -82.231947361111111, 26.911674277777777 ], [ -82.234362777777775, 26.911514916666665 ], [ -82.235465944444442, 26.911804972222221 ], [ -82.2363205, 26.912353333333332 ], [ -82.237060611111119, 26.913151138888889 ], [ -82.237542222222217, 26.914086972222222 ], [ -82.237745583333336, 26.914920194444441 ], [ -82.237844416666661, 26.916123194444442 ], [ -82.237759611111116, 26.916733555555556 ], [ -82.237416305555556, 26.917481916666667 ], [ -82.236909166666663, 26.91787825 ], [ -82.235293027777786, 26.919557277777781 ], [ -82.23657986111111, 26.920439972222223 ], [ -82.237329916666667, 26.921358083333335 ], [ -82.237647722222221, 26.921941861111112 ], [ -82.23780583333334, 26.923866638888889 ], [ -82.237253388888888, 26.925354527777777 ], [ -82.236880416666665, 26.925742 ], [ -82.23571208333334, 26.926302916666668 ], [ -82.234936472222216, 26.926716944444447 ], [ -82.23319175, 26.926832055555558 ], [ -82.23195425, 26.926550833333334 ], [ -82.230100916666672, 26.925342611111112 ], [ -82.229783138888891, 26.924758805555555 ], [ -82.229605416666672, 26.922593416666668 ], [ -82.229909277777779, 26.921363861111111 ], [ -82.230033611111111, 26.921234722222223 ], [ -82.230665138888895, 26.92070925 ], [ -82.231401222222217, 26.919814055555555 ] ] } },
{ "type": "Feature", "properties": { "style": "solid", "thickness": 1 }, "geometry": { "type": "LineString", "coordinates": [ [ -81.7375105, 26.372032722222222 ], [ -81.737566361111107, 26.372754805555555 ], [ -81.737364305555559, 26.373613972222223 ], [ -81.736913694444439, 26.374730638888888 ], [ -81.736435111111106, 26.375486222222221 ], [ -81.735670722222224, 26.376017916666669 ], [ -81.734620472222218, 26.376325666666666 ], [ -81.732616388888886, 26.376451416666669 ], [ -81.731128111111119, 26.376302916666667 ], [ -81.730432166666674, 26.37598377777778 ], [ -81.729431805555564, 26.3752 ], [ -81.729118083333333, 26.374615027777779 ], [ -81.728776472222222, 26.37366902777778 ], [ -81.728627666666668, 26.3717435 ], [ -81.728839055555554, 26.371004694444444 ], [ -81.729846138888888, 26.36840202777778 ], [ -81.731319055555559, 26.366616638888889 ], [ -81.733680583333339, 26.364170833333336 ], [ -81.7365205, 26.36096938888889 ], [ -81.728104388888895, 26.361497388888889 ] ] } },
{ "type": "Feature", "properties": { "style": "solid", "thickness": 1 }, "geometry": { "type": "LineString", "coordinates": [ [ -81.722052111111111, 26.376992805555556 ], [ -81.720047972222218, 26.377118361111112 ], [ -81.718895916666668, 26.362195472222222 ] ] } },
{ "type": "Feature", "properties": { "style": "solid", "thickness": 1 }, "geometry": { "type": "LineString", "coordinates": [ [ -82.009355472222225, 26.750942916666666 ], [ -82.007345111111107, 26.751072555555556 ], [ -82.006151777777774, 26.7361525 ] ] } },
{ "type": "Feature", "properties": { "style": "solid", "thickness": 1 }, "geometry": { "type": "LineString", "coordinates": [ [ -81.991405666666665, 26.75222025 ], [ -81.997570888888887, 26.751823333333334 ], [ -81.998659944444441, 26.74522225 ], [ -81.99749225, 26.74578125 ], [ -81.996468138888886, 26.746451916666668 ], [ -81.994055805555561, 26.74660725 ], [ -81.992830388888891, 26.74644425 ], [ -81.991566555555551, 26.745799944444446 ], [ -81.990091888888884, 26.744201666666669 ], [ -81.989708583333339, 26.742775027777778 ], [ -81.9895645, 26.740970166666667 ], [ -81.990262916666666, 26.739594833333335 ], [ -81.991095305555561, 26.73821088888889 ], [ -81.991468527777783, 26.737824055555556 ], [ -81.992224555555552, 26.737170666666668 ], [ -81.993545416666663, 26.73684375 ], [ -81.995019527777785, 26.736748833333333 ], [ -81.99611080555556, 26.736920444444447 ], [ -81.997489333333334, 26.737315416666668 ], [ -81.998772333333335, 26.738200333333335 ], [ -81.998935194444442, 26.738552666666667 ] ] } }
]
}
