{
"type": "FeatureCollection",
"name": "rsw133sgp",
"features": [
{ "type": "Feature", "properties": { "style": "solid", "thickness": 1 }, "geometry": { "type": "LineString", "coordinates": [ [ -81.769880694444439, 26.543526972222224 ], [ -81.769880722222226, 26.545361916666668 ] ] } },
{ "type": "Feature", "properties": { "style": "solid", "thickness": 1 }, "geometry": { "type": "LineString", "coordinates": [ [ -81.76937066666666, 26.543343472222222 ], [ -81.76937066666666, 26.54554538888889 ] ] } },
{ "type": "Feature", "properties": { "style": "solid", "thickness": 1 }, "geometry": { "type": "LineString", "coordinates": [ [ -81.768860638888881, 26.543343472222222 ], [ -81.768860638888881, 26.54554538888889 ] ] } },
{ "type": "Feature", "properties": { "style": "solid", "thickness": 1 }, "geometry": { "type": "LineString", "coordinates": [ [ -81.768350611111117, 26.543526972222224 ], [ -81.768350611111117, 26.545361916666668 ] ] } },
{ "type": "Feature", "properties": { "style": "solid", "thickness": 1 }, "geometry": { "type": "LineString", "coordinates": [ [ -81.767840583333339, 26.544444444444448 ], [ -81.767848472222227, 26.54457452777778 ], [ -81.767873972222219, 26.5447105 ], [ -81.7679195, 26.544849805555558 ], [ -81.767986916666672, 26.544989138888891 ], [ -81.76807725, 26.5451245 ], [ -81.76819025, 26.5452515 ], [ -81.768324416666673, 26.545365694444445 ], [ -81.768476722222218, 26.545463027777778 ], [ -81.768643055555557, 26.545540222222225 ], [ -81.768818305555556, 26.54559525 ], [ -81.768997083333332, 26.545627361111112 ], [ -81.769174222222219, 26.545637138888889 ], [ -81.769345027777774, 26.545626305555558 ], [ -81.769505888888887, 26.545597472222223 ], [ -81.769654166666669, 26.545553611111114 ], [ -81.769788277777778, 26.545497972222226 ], [ -81.76991075, 26.545431694444446 ], [ -81.770030361111111, 26.545349472222224 ], [ -81.770144444444441, 26.545250138888889 ], [ -81.770249, 26.545133555555559 ], [ -81.77033975, 26.545000611111114 ], [ -81.770412416666659, 26.54485325 ], [ -81.77046325, 26.544694583333335 ], [ -81.770489444444451, 26.544528638888892 ], [ -81.770489444444451, 26.544360222222224 ], [ -81.77046325, 26.544194305555557 ], [ -81.770412416666659, 26.544035611111113 ], [ -81.77033975, 26.54388825 ], [ -81.770249, 26.543755305555557 ], [ -81.770144444444441, 26.54363875 ], [ -81.770030361111111, 26.543539388888892 ], [ -81.76991075, 26.543457194444446 ], [ -81.769788277777778, 26.54339088888889 ], [ -81.769654166666669, 26.54333525 ], [ -81.769505888888887, 26.543291416666669 ], [ -81.769345027777774, 26.543262583333334 ], [ -81.769174222222219, 26.54325175 ], [ -81.768997083333332, 26.54326152777778 ], [ -81.768818305555556, 26.54329363888889 ], [ -81.768643055555557, 26.54334863888889 ], [ -81.76847675, 26.543425861111114 ], [ -81.768324416666673, 26.543523194444447 ], [ -81.768190277777776, 26.543637388888889 ], [ -81.76807725, 26.543764388888892 ], [ -81.767986944444445, 26.54389975 ], [ -81.767919527777778, 26.544039055555558 ], [ -81.767874, 26.544178388888891 ], [ -81.767848472222227, 26.544314361111113 ], [ -81.767840583333339, 26.544444444444448 ] ] } },
{ "type": "Feature", "properties": { "style": "solid", "thickness": 1 }, "geometry": { "type": "LineString", "coordinates": [ [ -82.776009444444441, 26.95205875 ], [ -82.776144777777773, 26.967378 ], [ -82.769413805555558, 26.967425583333331 ], [ -82.768873222222226, 26.967188138888886 ], [ -82.767657416666665, 26.966714166666666 ], [ -82.766435305555561, 26.965516444444443 ], [ -82.765886277777781, 26.964313972222222 ], [ -82.765873611111118, 26.9628665 ], [ -82.766401527777774, 26.96165647222222 ], [ -82.767602472222222, 26.960441722222221 ], [ -82.768809722222215, 26.959950694444444 ], [ -82.769346055555559, 26.959705638888888 ], [ -82.776076583333335, 26.959658055555554 ] ] } },
{ "type": "Feature", "properties": { "style": "solid", "thickness": 1 }, "geometry": { "type": "LineString", "coordinates": [ [ -82.755008305555549, 26.952206166666667 ], [ -82.755140833333328, 26.967525444444444 ] ] } },
{ "type": "Feature", "properties": { "style": "solid", "thickness": 1 }, "geometry": { "type": "LineString", "coordinates": [ [ -82.454462, 26.678297861111112 ], [ -82.445330861111117, 26.678341777777778 ], [ -82.445324444444452, 26.677256083333333 ], [ -82.455310722222222, 26.663093694444441 ], [ -82.45531, 26.66297308333333 ], [ -82.44470316666667, 26.663024055555553 ] ] } },
{ "type": "Feature", "properties": { "style": "solid", "thickness": 1 }, "geometry": { "type": "LineString", "coordinates": [ [ -82.415964083333336, 26.663158305555555 ], [ -82.416050833333344, 26.678478611111114 ] ] } },
{ "type": "Feature", "properties": { "style": "solid", "thickness": 1 }, "geometry": { "type": "LineString", "coordinates": [ [ -82.4039621388889, 26.678533361111111 ], [ -82.403876972222221, 26.663213027777775 ], [ -82.397298, 26.663242388888886 ] ] } },
{ "type": "Feature", "properties": { "style": "solid", "thickness": 1 }, "geometry": { "type": "LineString", "coordinates": [ [ -81.95892805555556, 26.110937305555556 ], [ -81.958953361111114, 26.126258083333333 ] ] } },
{ "type": "Feature", "properties": { "style": "solid", "thickness": 1 }, "geometry": { "type": "LineString", "coordinates": [ [ -81.939436527777787, 26.12471475 ], [ -81.940641083333333, 26.125919638888888 ], [ -81.940908527777779, 26.126039972222223 ], [ -81.94264619444445, 26.12627911111111 ], [ -81.944115861111115, 26.126036 ], [ -81.944916944444444, 26.125552472222221 ], [ -81.945717833333333, 26.124948277777779 ], [ -81.946384333333341, 26.123861722222223 ], [ -81.946380055555565, 26.121087083333332 ], [ -81.945576611111122, 26.120002388888889 ], [ -81.945041333333336, 26.1195205 ], [ -81.94303577777778, 26.118799166666665 ], [ -81.94076316666667, 26.118198777777778 ], [ -81.939158527777778, 26.117476916666668 ], [ -81.938622944444447, 26.11675375 ], [ -81.938353194444446, 26.115065138888891 ], [ -81.938618138888899, 26.113496555555557 ], [ -81.939284833333332, 26.112530666666668 ], [ -81.939952222222232, 26.112047305555556 ], [ -81.940486166666673, 26.11168475 ], [ -81.94115375, 26.111322027777778 ], [ -81.942623027777785, 26.110958333333336 ], [ -81.94342475, 26.110957333333335 ], [ -81.944226861111119, 26.111197611111113 ], [ -81.945296555555558, 26.111678833333336 ], [ -81.945965416666667, 26.112160527777778 ], [ -81.946902277777781, 26.113124444444445 ] ] } },
{ "type": "Feature", "properties": { "style": "solid", "thickness": 1 }, "geometry": { "type": "LineString", "coordinates": [ [ -81.896267055555569, 26.12632875 ], [ -81.896252638888896, 26.113420694444446 ], [ -81.896385472222235, 26.11269675 ], [ -81.897052777777787, 26.111972333333334 ], [ -81.897853805555556, 26.111368416666668 ], [ -81.898388027777784, 26.111126638888891 ], [ -81.899189611111112, 26.11100525 ], [ -81.900525833333333, 26.111004 ], [ -81.901327694444447, 26.111123888888891 ], [ -81.902531277777783, 26.111967194444446 ], [ -81.902798944444456, 26.112328861111113 ] ] } },
{ "type": "Feature", "properties": { "style": "solid", "thickness": 1 }, "geometry": { "type": "LineString", "coordinates": [ [ -82.55371477777777, 26.906127666666666 ], [ -82.554257944444444, 26.906848416666666 ], [ -82.555473861111111, 26.907565444444444 ], [ -82.556282805555554, 26.907802194444443 ], [ -82.55857263888889, 26.908151333333333 ], [ -82.559379916666657, 26.908146833333333 ], [ -82.560992805555557, 26.907896555555553 ], [ -82.562335777777776, 26.907527166666664 ], [ -82.56260402777778, 26.907405027777777 ], [ -82.563541638888893, 26.906796611111108 ], [ -82.564478388888887, 26.906067583333332 ], [ -82.566078583333336, 26.904007916666664 ], [ -82.566737777777774, 26.902074138888889 ], [ -82.566719166666658, 26.899420416666665 ], [ -82.56643994444444, 26.897974444444444 ], [ -82.565894194444439, 26.896891861111111 ], [ -82.56508025, 26.895931416666667 ], [ -82.564401666666669, 26.895090833333335 ], [ -82.563317833333329, 26.89401125 ], [ -82.56223822222222, 26.893534777777777 ], [ -82.561158638888884, 26.893058305555556 ], [ -82.56021525, 26.892822333333331 ], [ -82.557793694444442, 26.892835833333333 ], [ -82.556450083333331, 26.893084583333334 ], [ -82.555377166666659, 26.893573055555557 ], [ -82.554170555555558, 26.894182888888889 ], [ -82.55336752777778, 26.8947905 ], [ -82.552032166666663, 26.896245444444443 ], [ -82.551232416666664, 26.897335527777777 ], [ -82.550968305555557, 26.89806075 ], [ -82.550981583333325, 26.899990722222221 ], [ -82.556632194444447, 26.899959416666665 ] ] } },
{ "type": "Feature", "properties": { "style": "solid", "thickness": 1 }, "geometry": { "type": "LineString", "coordinates": [ [ -82.540405361111112, 26.908251527777775 ], [ -82.540322777777774, 26.896068472222222 ], [ -82.54018413888889, 26.895466083333332 ], [ -82.53923425, 26.894264972222221 ], [ -82.538556694444438, 26.89354486111111 ], [ -82.537477194444449, 26.893068222222222 ], [ -82.535996527777769, 26.892955638888889 ], [ -82.533844055555548, 26.892967277777778 ], [ -82.532634083333335, 26.893094444444444 ], [ -82.53102375, 26.89370625 ], [ -82.53008766666666, 26.894555694444445 ], [ -82.529554388888883, 26.895282333333334 ], [ -82.52929258333333, 26.896369416666666 ], [ -82.529372388888888, 26.90831122222222 ] ] } },
{ "type": "Feature", "properties": { "style": "solid", "thickness": 1 }, "geometry": { "type": "LineString", "coordinates": [ [ -82.51106025, 26.906840277777775 ], [ -82.512279055555553, 26.908040166666666 ], [ -82.512548944444447, 26.90815936111111 ], [ -82.514299638888886, 26.908391416666664 ], [ -82.515778111111118, 26.908142361111111 ], [ -82.516582222222226, 26.90765561111111 ], [ -82.517385555555549, 26.907048222222222 ], [ -82.518051138888893, 26.905959027777776 ], [ -82.518032861111109, 26.903184666666665 ], [ -82.517218472222226, 26.902103333333333 ], [ -82.516677111111107, 26.901623666666666 ], [ -82.51465425, 26.900910555555555 ], [ -82.512363138888887, 26.900319472222222 ], [ -82.510743944444442, 26.899604194444443 ], [ -82.510201083333328, 26.898883277777777 ], [ -82.509921, 26.897195944444444 ], [ -82.510179861111112, 26.895626416666666 ], [ -82.510846222222227, 26.89465788888889 ], [ -82.51151575, 26.894171861111111 ], [ -82.5120515, 26.893807138888889 ], [ -82.512721805555557, 26.89344175 ], [ -82.514199277777777, 26.893072083333333 ], [ -82.515006472222225, 26.893067833333333 ], [ -82.515815222222216, 26.893304833333332 ], [ -82.516894638888886, 26.893781638888889 ], [ -82.517570472222218, 26.894260583333335 ], [ -82.518518555555559, 26.895220583333334 ] ] } },
{ "type": "Feature", "properties": { "style": "solid", "thickness": 1 }, "geometry": { "type": "LineString", "coordinates": [ [ -82.469483638888889, 26.907896694444442 ], [ -82.470293916666662, 26.908375194444442 ], [ -82.47123725, 26.908611777777775 ], [ -82.474466472222218, 26.908595694444443 ], [ -82.475675916666674, 26.908348416666666 ], [ -82.476078805555559, 26.90822575 ], [ -82.478090277777781, 26.907130027777775 ], [ -82.479293666666663, 26.905917694444444 ], [ -82.479689777777779, 26.904709416666666 ], [ -82.480618, 26.902533444444444 ], [ -82.480600611111115, 26.899759055555556 ], [ -82.48032325, 26.898433527777776 ], [ -82.47991283333333, 26.897349916666666 ], [ -82.479367166666663, 26.896146388888887 ], [ -82.478013527777776, 26.89482625 ], [ -82.475449888888889, 26.893632777777778 ], [ -82.473698722222224, 26.893279638888888 ], [ -82.472218888888889, 26.893287 ], [ -82.470337666666666, 26.893658222222221 ], [ -82.469667222222228, 26.894023444444443 ], [ -82.469130583333339, 26.894267361111112 ] ] } },
{ "type": "Feature", "properties": { "style": "solid", "thickness": 1 }, "geometry": { "type": "LineString", "coordinates": [ [ -82.74302175, 26.967609138888886 ], [ -82.742890833333334, 26.952289805555555 ] ] } },
{ "type": "Feature", "properties": { "style": "solid", "thickness": 1 }, "geometry": { "type": "LineString", "coordinates": [ [ -82.73373191666667, 26.967551944444441 ], [ -82.74295577777778, 26.959889166666667 ], [ -82.733468666666667, 26.952354138888889 ] ] } },
{ "type": "Feature", "properties": { "style": "solid", "thickness": 1 }, "geometry": { "type": "LineString", "coordinates": [ [ -82.72282536111112, 26.967746305555554 ], [ -82.722697166666663, 26.952426916666667 ] ] } },
{ "type": "Feature", "properties": { "style": "solid", "thickness": 1 }, "geometry": { "type": "LineString", "coordinates": [ [ -82.7135355, 26.967687805555553 ], [ -82.72276075, 26.960026305555555 ], [ -82.71327494444445, 26.952489916666664 ] ] } },
{ "type": "Feature", "properties": { "style": "solid", "thickness": 1 }, "geometry": { "type": "LineString", "coordinates": [ [ -82.697719583333338, 26.960192388888888 ], [ -82.69160047222222, 26.95263247222222 ] ] } },
{ "type": "Feature", "properties": { "style": "solid", "thickness": 1 }, "geometry": { "type": "LineString", "coordinates": [ [ -82.702503388888886, 26.952561166666666 ], [ -82.702628888888896, 26.967880611111109 ], [ -82.69589780555556, 26.96792475 ], [ -82.695357361111121, 26.967687 ], [ -82.694141833333333, 26.967212416666666 ], [ -82.692920472222227, 26.966014055555554 ], [ -82.692372222222232, 26.964811305555553 ], [ -82.692360472222219, 26.963363805555556 ], [ -82.692889166666674, 26.962154027777778 ], [ -82.694090916666667, 26.960939888888888 ], [ -82.6952985, 26.960449472222223 ], [ -82.695835, 26.960204722222223 ], [ -82.702565638888885, 26.960160583333334 ] ] } },
{ "type": "Feature", "properties": { "style": "solid", "thickness": 1 }, "geometry": { "type": "LineString", "coordinates": [ [ -82.426393833333336, 26.678430972222223 ], [ -82.434585027777786, 26.678392694444447 ], [ -82.434495833333344, 26.663072388888889 ], [ -82.426171444444449, 26.663111277777777 ] ] } },
{ "type": "Feature", "properties": { "style": "solid", "thickness": 1 }, "geometry": { "type": "LineString", "coordinates": [ [ -82.434540083333331, 26.670672222222223 ], [ -82.426617972222232, 26.67070925 ] ] } },
{ "type": "Feature", "properties": { "style": "solid", "thickness": 1 }, "geometry": { "type": "LineString", "coordinates": [ [ -82.381895027777773, 26.67091 ], [ -82.375812305555556, 26.663336166666664 ] ] } },
{ "type": "Feature", "properties": { "style": "solid", "thickness": 1 }, "geometry": { "type": "LineString", "coordinates": [ [ -82.38668777777778, 26.663289083333332 ], [ -82.386770666666678, 26.678609472222224 ], [ -82.3800565, 26.678638638888891 ], [ -82.379518083333323, 26.678399694444444 ], [ -82.378306972222219, 26.677922361111111 ], [ -82.377092, 26.67672125 ], [ -82.376548472222211, 26.675517222222222 ], [ -82.37654075, 26.674069611111111 ], [ -82.377071444444439, 26.672860972222225 ], [ -82.3782735, 26.671649444444444 ], [ -82.379479388888882, 26.671161722222223 ], [ -82.380015194444439, 26.67091813888889 ], [ -82.386728888888896, 26.670888972222222 ] ] } },
{ "type": "Feature", "properties": { "style": "solid", "thickness": 1 }, "geometry": { "type": "LineString", "coordinates": [ [ -81.92778783333334, 26.110975833333335 ], [ -81.920458916666675, 26.126304722222223 ], [ -81.913490361111116, 26.11099125 ] ] } },
{ "type": "Feature", "properties": { "style": "solid", "thickness": 1 }, "geometry": { "type": "LineString", "coordinates": [ [ -81.925389388888888, 26.115924611111112 ], [ -81.91576825, 26.115934972222224 ] ] } },
{ "type": "Feature", "properties": { "style": "solid", "thickness": 1 }, "geometry": { "type": "LineString", "coordinates": [ [ -81.885706333333346, 26.126337972222224 ], [ -81.879950555555553, 26.116812416666669 ], [ -81.874347027777773, 26.126347027777779 ] ] } },
{ "type": "Feature", "properties": { "style": "solid", "thickness": 1 }, "geometry": { "type": "LineString", "coordinates": [ [ -81.879950555555553, 26.116812416666669 ], [ -81.879945, 26.1111425 ] ] } },
{ "type": "Feature", "properties": { "style": "solid", "thickness": 1 }, "geometry": { "type": "LineString", "coordinates": [ [ -82.491019361111114, 26.908512166666664 ], [ -82.499226861111111, 26.908470027777778 ], [ -82.4991285, 26.893150666666667 ], [ -82.490787555555556, 26.893193472222222 ] ] } },
{ "type": "Feature", "properties": { "style": "solid", "thickness": 1 }, "geometry": { "type": "LineString", "coordinates": [ [ -82.499177277777775, 26.900750027777775 ], [ -82.491239416666673, 26.900790777777775 ] ] } }
]
}
