{"type":"FeatureCollection","features":[{"type":"Feature","geometry":{"type":"LineString","coordinates":[[-82.21323411111112,26.713973694444444],[-82.20106847222222,26.703909222222222],[-82.1883666388889,26.694395194444446],[-82.1751595,26.68545466666667],[-82.16147916666667,26.677109277777777],[-82.14735886111112,26.66937927777778],[-82.13283288888888,26.66228336111111],[-82.11793647222221,26.65583872222222],[-82.10270572222221,26.65006097222222],[-82.08717752777777,26.64496411111111],[-82.07138955555556,26.640560444444443],[-82.06175,26.638242388888887]]},"properties":{"style":"solid","thickness":1}},{"type":"Feature","geometry":{"type":"LineString","coordinates":[[-82.15400308333334,26.87042661111111],[-82.14921752777778,26.86022116666667],[-82.14369008333334,26.85032202777778],[-82.13744513888889,26.840772555555553],[-82.13051022222221,26.831614527777777],[-82.12291580555555,26.82288802777778],[-82.11469527777777,26.814631277777778],[-82.10588477777777,26.80688038888889],[-82.09652288888888,26.79966925],[-82.08665069444444,26.79302941666667],[-82.07631144444444,26.78698991666667],[-82.06555036111111,26.78157713888889],[-82.05441458333333,26.776814777777776],[-82.04295280555556,26.772723638888888],[-82.03121513888888,26.769321583333333],[-82.01925288888889,26.7666235],[-82.00711836111111,26.764641166666667],[-81.99486455555555,26.763383277777777],[-81.982545,26.762855277777778],[-81.9702135,26.7630595],[-81.957924,26.763995055555554],[-81.94573011111112,26.765657861111112],[-81.94481569444444,26.765812611111112]]},"properties":{"style":"solid","thickness":1}},{"type":"Feature","geometry":{"type":"LineString","coordinates":[[-82.15592416666668,26.853393833333335],[-82.13916208333335,26.860697222222225]]},"properties":{"style":"solid","thickness":1}},{"type":"Feature","geometry":{"type":"LineString","coordinates":[[-81.95994366666667,26.75538775],[-81.96183380555556,26.77201622222222]]},"properties":{"style":"solid","thickness":1}},{"type":"Feature","geometry":{"type":"LineString","coordinates":[[-82.14753869444445,26.659866916666665],[-82.13849266666668,26.674473055555556]]},"properties":{"style":"solid","thickness":1}},{"type":"Feature","geometry":{"type":"LineString","coordinates":[[-82.07510638888888,26.776699194444443],[-82.06604205555556,26.791300472222225]]},"properties":{"style":"solid","thickness":1}},{"type":"Feature","geometry":{"type":"LineString","coordinates":[[-81.94656341666668,26.774021444444443],[-81.94306822222222,26.75760375]]},"properties":{"style":"solid","thickness":1}},{"type":"Feature","geometry":{"type":"LineString","coordinates":[[-82.14529802777778,26.87340936111111],[-82.16270769444445,26.867443305555557]]},"properties":{"style":"solid","thickness":1}},{"type":"Feature","geometry":{"type":"LineString","coordinates":[[-82.0866915,26.653647749999998],[-82.09278325,26.63785438888889]]},"properties":{"style":"solid","thickness":1}},{"type":"Feature","geometry":{"type":"LineString","coordinates":[[-82.05947963888889,26.646347111111112],[-82.06402005555556,26.630137583333333]]},"properties":{"style":"solid","thickness":1}},{"type":"Feature","geometry":{"type":"LineString","coordinates":[[-82.20676208333333,26.71997913888889],[-82.21970544444444,26.70796797222222]]},"properties":{"style":"solid","thickness":1}},{"type":"Feature","geometry":{"type":"LineString","coordinates":[[-82.18550411111111,26.703047333333334],[-82.19723327777778,26.6900705]]},"properties":{"style":"solid","thickness":1}},{"type":"Feature","geometry":{"type":"LineString","coordinates":[[-81.99248075,26.936313916666666],[-81.99109519444444,26.936239944444445],[-81.98970144444445,26.936110583333335],[-81.98830347222223,26.935924777777778],[-81.9869055,26.935681666666667],[-81.98551180555556,26.93538075],[-81.98412686111111,26.935021916666667],[-81.98275505555556,26.93460536111111],[-81.98140086111111,26.934131694444446],[-81.98006872222223,26.933601833333334],[-81.9787628888889,26.933017083333336],[-81.97748761111112,26.93237913888889],[-81.97624683333333,26.93169],[-81.97504433333333,26.930951916666668],[-81.97388363888889,26.930167583333336],[-81.97276794444444,26.929339805555557],[-81.97170013888889,26.928471694444447],[-81.97068280555555,26.927566527777778],[-81.96971805555556,26.92662775],[-81.96880772222222,26.92565888888889],[-81.96795325000001,26.924663583333334],[-81.9671556388889,26.923645500000003]]},"properties":{"style":"solid","thickness":1}},{"type":"Feature","geometry":{"type":"LineString","coordinates":[[-81.99248075,26.936313916666666],[-81.99168255555556,26.935296166666667],[-81.99082755555555,26.934301194444444],[-81.98991677777778,26.933332694444445],[-81.98895166666667,26.93239425],[-81.98793402777778,26.93148938888889],[-81.98686602777778,26.930621555555557],[-81.98575019444445,26.929794055555558],[-81.98458941666667,26.92900991666667],[-81.98338694444445,26.92827202777778],[-81.98214622222223,26.927583000000002],[-81.98087105555555,26.926945111111113],[-81.97956541666667,26.92636038888889],[-81.97823347222223,26.9258305],[-81.97687955555556,26.925356694444446],[-81.975508,26.924939972222223],[-81.97412333333334,26.92458088888889],[-81.97272994444445,26.924279666666667],[-81.97133225,26.924036166666667],[-81.96993452777778,26.92384988888889],[-81.968541,26.923720055555556],[-81.9671556388889,26.923645500000003]]},"properties":{"style":"solid","thickness":1}},{"type":"Feature","geometry":{"type":"LineString","coordinates":[[-81.76895038888888,26.54334213888889],[-81.77039225,26.544638972222224]]},"properties":{"style":"solid","thickness":1}},{"type":"Feature","geometry":{"type":"LineString","coordinates":[[-81.76844575,26.543536666666668],[-81.77017597222222,26.54509286111111]]},"properties":{"style":"solid","thickness":1}},{"type":"Feature","geometry":{"type":"LineString","coordinates":[[-81.76808527777777,26.543860861111114],[-81.76981549999999,26.545417055555557]]},"properties":{"style":"solid","thickness":1}},{"type":"Feature","geometry":{"type":"LineString","coordinates":[[-81.767869,26.54431475],[-81.76931086111111,26.545611583333336]]},"properties":{"style":"solid","thickness":1}},{"type":"Feature","geometry":{"type":"LineString","coordinates":[[-81.76822944444444,26.54528738888889],[-81.76833725,26.54537427777778],[-81.76846213888889,26.54545416666667],[-81.76860377777777,26.545523694444444],[-81.76876091666666,26.545579305555556],[-81.76893108333333,26.54561755555556],[-81.76911075,26.545635472222223],[-81.76929530555556,26.545630916666667],[-81.76947944444444,26.545602861111114],[-81.76965766666666,26.545551722222225],[-81.76982475,26.545479222222223],[-81.76997633333333,26.545388250000002],[-81.77010919444444,26.545282555555556],[-81.77022141666667,26.545166333333334],[-81.77031244444444,26.545043694444445],[-81.77038280555556,26.544918472222225],[-81.77043386111112,26.54479388888889],[-81.77046830555555,26.54466916666667],[-81.77048825,26.544535055555556],[-81.77049080555555,26.544392333333334],[-81.77047311111112,26.544243472222224],[-81.77043277777777,26.544091833333336],[-81.77036833333334,26.543941500000003],[-81.77027958333333,26.543797027777778],[-81.77016769444444,26.543663111111112],[-81.77003536111111,26.543544083333334],[-81.76988647222223,26.543443472222222],[-81.76972583333334,26.54336363888889],[-81.76955869444444,26.543305694444445],[-81.76939008333333,26.543269416666668],[-81.76922458333333,26.543253472222222],[-81.76906591666666,26.543255805555557],[-81.76891677777778,26.543273722222224],[-81.76877813888889,26.543304722222224],[-81.76863963888889,26.543350638888892],[-81.76850038888888,26.54341391666667],[-81.76836402777778,26.54349577777778],[-81.76823480555555,26.543596722222222],[-81.76811730555555,26.543716194444446],[-81.76801616666667,26.543852555555556],[-81.76793555555555,26.544002833333334],[-81.76787869444445,26.544163111111114],[-81.7678475,26.544328722222225],[-81.76784241666667,26.544494722222225],[-81.76786233333333,26.544656305555556],[-81.76790488888889,26.54480938888889],[-81.76796669444444,26.544950694444445],[-81.768044,26.545078111111113],[-81.76813280555555,26.545190416666667],[-81.76822944444444,26.54528738888889]]},"properties":{"style":"solid","thickness":1}},{"type":"Feature","geometry":{"type":"LineString","coordinates":[[-82.16706863888889,26.646849333333332],[-82.1631876388889,26.647104],[-82.16102391666668,26.645311555555555],[-82.16069766666668,26.644607555555556],[-82.16038119444445,26.644023805555555],[-82.16026397222222,26.64258072222222],[-82.16071136111111,26.641463277777778],[-82.1614263888889,26.640328305555556],[-82.16219025000001,26.63979461111111],[-82.16269622222222,26.63939872222222],[-82.16373744444445,26.638967694444442],[-82.16614619444445,26.638809638888887],[-82.16724605555557,26.639100166666665],[-82.16809783333333,26.63964875],[-82.16883536111112,26.64044663888889],[-82.16931502777778,26.641382333333333],[-82.16951727777779,26.642215333333333],[-82.16961505555555,26.643417916666667],[-82.16953011111111,26.644028],[-82.16918727777778,26.644775888888887],[-82.16868130555557,26.645171805555556],[-82.16706863888889,26.646849333333332],[-82.16835130555556,26.647732333333334],[-82.1690986388889,26.648650472222222],[-82.16941519444445,26.649234194444443],[-82.16957161111111,26.651158305555555],[-82.16901977777778,26.652645333333332],[-82.16864761111111,26.65303244444444],[-82.16748219444445,26.653592527777775],[-82.1667085,26.654006],[-82.1649686388889,26.654120166666665],[-82.16373480555556,26.653838416666666],[-82.16188747222223,26.65262972222222],[-82.16157094444445,26.652045972222222],[-82.16139511111112,26.649881333333333],[-82.16169891666667,26.648652416666668],[-82.16182297222223,26.64852338888889],[-82.16245305555556,26.647998472222223],[-82.1631876388889,26.647104]]},"properties":{"style":"solid","thickness":1}},{"type":"Feature","geometry":{"type":"LineString","coordinates":[[-82.14457652777779,26.654852138888888],[-82.14541858333334,26.65528061111111],[-82.14637497222223,26.655459777777775],[-82.14958708333334,26.655249416666667],[-82.1507721388889,26.65493],[-82.15116388888889,26.654783444444444],[-82.15308361111111,26.653569583333333],[-82.15419052777779,26.652288055555555],[-82.15449441666667,26.651059166666666],[-82.15525552777778,26.64883311111111],[-82.15503100000001,26.646067166666665],[-82.15465597222223,26.64476186111111],[-82.15416666666667,26.643705861111112],[-82.15353375000001,26.64253836111111],[-82.15208816666667,26.641303222222223],[-82.149448,26.64026722222222],[-82.14767905555556,26.64002038888889],[-82.14620702777779,26.640116805555554],[-82.14436277777779,26.64060025],[-82.14372291666668,26.641004833333334],[-82.14320711111112,26.641280388888887]]},"properties":{"style":"solid","thickness":1}},{"type":"Feature","geometry":{"type":"LineString","coordinates":[[-82.17404944444445,26.84393763888889],[-82.17434344444445,26.847545166666666],[-82.17491222222223,26.849563083333333],[-82.17525877777778,26.850507500000003],[-82.17571977777779,26.85120263888889],[-82.17744619444444,26.85254013888889],[-82.17910400000001,26.853035861111113],[-82.17964025,26.853000666666667],[-82.1812,26.85229386111111],[-82.182557,26.850754083333335],[-82.18303441666667,26.849997388888887],[-82.18322405555556,26.849017777777778],[-82.18345947222222,26.84694711111111],[-82.18316519444446,26.843339583333332],[-82.18259627777778,26.841321722222222],[-82.18224972222222,26.840377305555556],[-82.18165466666667,26.839691],[-82.18006244444445,26.838344749999997],[-82.17840483333333,26.837849027777775],[-82.1778686388889,26.83788419444444],[-82.17630908333334,26.83859097222222],[-82.17481808333334,26.8401395],[-82.17447472222223,26.840887388888888],[-82.17428502777778,26.84186697222222],[-82.17404944444445,26.84393763888889]]},"properties":{"style":"solid","thickness":1}},{"type":"Feature","geometry":{"type":"LineString","coordinates":[[-82.16794900000001,26.83853461111111],[-82.16919286111111,26.853806611111114],[-82.163562,26.8541755],[-82.16235536111111,26.85425452777778],[-82.16135816666667,26.853594472222223],[-82.16061933333334,26.852796611111113],[-82.16058016666668,26.852315583333336],[-82.16038444444445,26.849910527777777],[-82.16048916666668,26.849541],[-82.16081305555556,26.848552638888886],[-82.16205580555557,26.847262333333333],[-82.16065647222223,26.84662861111111],[-82.15995683333334,26.846311749999998],[-82.15923761111112,26.84575436111111],[-82.1587473888889,26.844698416666667],[-82.158493,26.841571833333333],[-82.15882669444446,26.84070375],[-82.15970636111112,26.839920805555554],[-82.16033747222222,26.839395888888887],[-82.16097838888889,26.83899125],[-82.16794900000001,26.83853461111111]]},"properties":{"style":"solid","thickness":1}},{"type":"Feature","geometry":{"type":"LineString","coordinates":[[-82.16862475,26.846832],[-82.16205580555557,26.847262333333333]]},"properties":{"style":"solid","thickness":1}},{"type":"Feature","geometry":{"type":"LineString","coordinates":[[-82.13851722222223,26.884911805555554],[-82.13881019444445,26.888519388888888],[-82.13937858333334,26.890537416666668],[-82.13972494444445,26.891481916666667],[-82.14018591666667,26.892177166666666],[-82.14191252777779,26.893515083333334],[-82.14357077777778,26.894011194444445],[-82.14410725,26.893976166666665],[-82.14566777777779,26.89326972222222],[-82.14702572222222,26.891730305555555],[-82.14750352777779,26.89097372222222],[-82.14769355555556,26.889994166666668],[-82.14792969444446,26.887923583333333],[-82.14763641666667,26.884316],[-82.14706791666667,26.88229802777778],[-82.14672150000001,26.88135352777778],[-82.14612647222224,26.880667055555556],[-82.14453408333334,26.879320444444446],[-82.14287602777779,26.878824305555558],[-82.1423396388889,26.87885936111111],[-82.14077930555557,26.87956575],[-82.13928727777778,26.88111388888889],[-82.13894358333334,26.881861694444446],[-82.1387535,26.882841222222222],[-82.13851722222223,26.884911805555554]]},"properties":{"style":"solid","thickness":1}},{"type":"Feature","geometry":{"type":"LineString","coordinates":[[-82.1325503611111,26.879498583333334],[-82.12641341666667,26.895251972222223],[-82.11820147222221,26.880434277777777]]},"properties":{"style":"solid","thickness":1}},{"type":"Feature","geometry":{"type":"LineString","coordinates":[[-82.13053658333332,26.88458647222222],[-82.12088083333333,26.88521613888889]]},"properties":{"style":"solid","thickness":1}},{"type":"Feature","geometry":{"type":"LineString","coordinates":[[-82.0959636111111,26.762308416666666],[-82.09625494444444,26.765916222222224],[-82.09682197222222,26.767934472222223],[-82.0971676111111,26.76887911111111],[-82.09762780555555,26.769574499999997],[-82.09935208333333,26.770913],[-82.10100838888889,26.771409638888887],[-82.10154430555555,26.77137475],[-82.10310344444444,26.770668777777775],[-82.10446052777777,26.769129694444445],[-82.10493811111111,26.76837325],[-82.10512827777777,26.76739372222222],[-82.10536494444443,26.76532313888889],[-82.10507333333332,26.761715388888888],[-82.10450622222221,26.75969713888889],[-82.10416052777778,26.758752527777776],[-82.10356638888888,26.75806586111111],[-82.10197619444443,26.75671872222222],[-82.1003201111111,26.756222083333334],[-82.09978427777777,26.75625697222222],[-82.09822530555554,26.75696288888889],[-82.09673430555556,26.75851063888889],[-82.09639069444444,26.75925833333333],[-82.09620044444443,26.76023786111111],[-82.0959636111111,26.762308416666666]]},"properties":{"style":"solid","thickness":1}},{"type":"Feature","geometry":{"type":"LineString","coordinates":[[-82.07992522222222,26.77217608333333],[-82.08076788888889,26.772604916666666],[-82.08172513888888,26.772784527777777],[-82.08494066666667,26.77257558333333],[-82.08612708333332,26.77225672222222],[-82.08651930555556,26.772110333333334],[-82.08844166666667,26.77089736111111],[-82.08955041666667,26.76961636111111],[-82.08985530555555,26.76838761111111],[-82.09061841666666,26.76616197222222],[-82.09039522222221,26.763395972222224],[-82.09002052777777,26.762090555555556],[-82.08953127777777,26.761034333333335],[-82.08889838888888,26.759866583333334],[-82.08745202777777,26.758630805555555],[-82.08480972222222,26.757593666666665],[-82.0830391111111,26.757346055555555],[-82.08156552777777,26.757441805555555],[-82.07971913888889,26.75792441666667],[-82.07907838888889,26.758328694444444],[-82.07856191666666,26.75860402777778]]},"properties":{"style":"solid","thickness":1}},{"type":"Feature","geometry":{"type":"LineString","coordinates":[[-82.22129463888889,26.732917194444443],[-82.21741086111112,26.733173333333333],[-82.21524469444445,26.731381749999997],[-82.21491786111112,26.730677888888888],[-82.21460086111111,26.730094305555554],[-82.2144828888889,26.728651277777775],[-82.21493008333334,26.727533694444443],[-82.21564511111112,26.726398444444442],[-82.21640925,26.72586447222222],[-82.21691541666667,26.72546838888889],[-82.21795722222222,26.725036999999997],[-82.22036766666668,26.724878027777777],[-82.2214685,26.72516811111111],[-82.22232116666667,26.72571636111111],[-82.22305963888888,26.72651394444444],[-82.22354008333333,26.727449444444442],[-82.22374288888889,26.72828236111111],[-82.22384130555555,26.72948486111111],[-82.22375658333334,26.730094972222222],[-82.22341386111111,26.73084297222222],[-82.22290772222222,26.73123908333333],[-82.22129463888889,26.732917194444443],[-82.22257866666666,26.733799694444446],[-82.223327,26.73471752777778],[-82.22364405555555,26.735301111111113],[-82.22380152777778,26.737225111111112],[-82.22324997222222,26.738712305555556],[-82.22287772222222,26.739099555555555],[-82.22171169444445,26.739660083333334],[-82.22093763888888,26.740073833333334],[-82.21919652777778,26.74018866666667],[-82.2179616388889,26.739907416666668],[-82.21611236111112,26.738699444444446],[-82.21579533333333,26.738115833333335],[-82.21561833333334,26.735951305555556],[-82.21592177777778,26.734722305555557],[-82.21604588888889,26.734593222222223],[-82.21667616666667,26.734068083333334],[-82.21741086111112,26.733173333333333]]},"properties":{"style":"solid","thickness":1}},{"type":"Feature","geometry":{"type":"LineString","coordinates":[[-82.20885102777778,26.725637222222222],[-82.20273261111112,26.741394333333336],[-82.19452197222222,26.726580499999997]]},"properties":{"style":"solid","thickness":1}},{"type":"Feature","geometry":{"type":"LineString","coordinates":[[-82.20684330555555,26.73072636111111],[-82.19720088888889,26.73136111111111]]},"properties":{"style":"solid","thickness":1}},{"type":"Feature","geometry":{"type":"LineString","coordinates":[[-82.22048088888889,26.679164194444446],[-82.21659894444444,26.679420305555556],[-82.21443377777778,26.677628694444447],[-82.21410711111112,26.676924805555558],[-82.21379027777778,26.676341194444447],[-82.21367236111111,26.67489816666667],[-82.21411936111112,26.673780583333336],[-82.21483405555556,26.672645333333335],[-82.21559786111112,26.672111361111114],[-82.21610380555556,26.67171527777778],[-82.2171451388889,26.67128388888889],[-82.21955444444444,26.671124916666667],[-82.22065475000001,26.67141502777778],[-82.22150702777778,26.671963277777778],[-82.2222451388889,26.67276088888889],[-82.22272536111112,26.67369638888889],[-82.22292805555556,26.674529333333336],[-82.22302641666667,26.675731861111114],[-82.22294172222223,26.676341944444445],[-82.22259916666667,26.677089972222223],[-82.22209322222223,26.677486083333335],[-82.22048088888889,26.679164194444446],[-82.22176430555555,26.680046722222222],[-82.22251230555555,26.68096455555556],[-82.22282919444444,26.68154813888889],[-82.22298655555555,26.683472194444445],[-82.22243525,26.68495938888889],[-82.22206316666667,26.685346666666668],[-82.22089769444445,26.685907166666667],[-82.22012397222223,26.686320916666666],[-82.21838366666667,26.68643575],[-82.21714936111111,26.686154472222224],[-82.21530097222222,26.684946444444446],[-82.21498408333333,26.68436286111111],[-82.21480719444445,26.682198305555556],[-82.21511052777778,26.68096927777778],[-82.21523455555555,26.680840194444446],[-82.21586455555556,26.680315055555557],[-82.21659894444444,26.679420305555556]]},"properties":{"style":"solid","thickness":1}},{"type":"Feature","geometry":{"type":"LineString","coordinates":[[-82.20790930555556,26.67189286111111],[-82.20915647222222,26.687165055555557],[-82.2035338888889,26.687535472222223],[-82.20232905555555,26.687614833333335],[-82.20133305555557,26.686955027777778],[-82.20059502777778,26.686157305555557],[-82.20055577777778,26.685676305555557],[-82.20035952777778,26.683271222222224],[-82.20046394444445,26.68290163888889],[-82.20078705555555,26.681913166666668],[-82.20202755555556,26.680622472222222],[-82.20063005555556,26.679989111111112],[-82.19993130555557,26.67967241666667],[-82.19921294444445,26.679115222222222],[-82.19872305555556,26.678059361111114],[-82.198468,26.67493275],[-82.19880091666667,26.67406452777778],[-82.19967905555556,26.673281305555555],[-82.20030908333334,26.672756222222223],[-82.20094891666668,26.67235138888889],[-82.20790930555556,26.67189286111111]]},"properties":{"style":"solid","thickness":1}},{"type":"Feature","geometry":{"type":"LineString","coordinates":[[-82.20858686111112,26.680190361111112],[-82.20202755555556,26.680622472222222]]},"properties":{"style":"solid","thickness":1}},{"type":"Feature","geometry":{"type":"LineString","coordinates":[[-82.113041,26.625079500000002],[-82.10916058333333,26.62533266666667],[-82.10699811111111,26.62353938888889],[-82.10667224999999,26.622835277777778],[-82.10635611111111,26.622251416666668],[-82.1062396111111,26.62080827777778],[-82.10668741666666,26.619691],[-82.10740283333332,26.618556277777778],[-82.10816680555556,26.61802286111111],[-82.1086728611111,26.61762716666667],[-82.1097141111111,26.617196555555555],[-82.11212247222221,26.61703938888889],[-82.113222,26.617330333333335],[-82.11407336111111,26.61787925],[-82.11481038888888,26.618677416666667],[-82.11528952777778,26.619613305555557],[-82.11549136111111,26.62044638888889],[-82.11558852777777,26.621649027777778],[-82.11550333333332,26.622259055555556],[-82.11516022222222,26.623006833333335],[-82.11465416666667,26.623402555555558],[-82.113041,26.625079500000002],[-82.114323,26.625963],[-82.11506977777778,26.626881416666667],[-82.115386,26.62746525],[-82.11554149999999,26.629389444444445],[-82.11498905555555,26.63087625],[-82.11461677777777,26.63126325],[-82.11345130555554,26.63182288888889],[-82.11267755555555,26.632236055555556],[-82.11093797222222,26.632349583333333],[-82.10970449999999,26.632067361111112],[-82.10785808333333,26.630857944444443],[-82.10754188888889,26.630274083333333],[-82.1073671111111,26.62810936111111],[-82.10767141666666,26.626880555555555],[-82.10779552777777,26.626751583333334],[-82.10842572222222,26.62622688888889],[-82.10916058333333,26.62533266666667]]},"properties":{"style":"solid","thickness":1}},{"type":"Feature","geometry":{"type":"LineString","coordinates":[[-82.100482,26.617798583333332],[-82.1017143611111,26.633071944444445],[-82.09582638888888,26.633455583333333],[-82.09420119444444,26.63331963888889],[-82.093503,26.633002444444443],[-82.09236461111111,26.632230305555556],[-82.09065216666666,26.631011944444445],[-82.08945566666667,26.629518222222224],[-82.0890911111111,26.628333],[-82.08877130555555,26.624364305555556],[-82.08895169444445,26.6232645],[-82.08963825,26.621769083333334],[-82.09050702777778,26.62086625],[-82.09135641666666,26.61972288888889],[-82.09262658333333,26.618793916666668],[-82.09420311111111,26.618328555555557],[-82.09513002777777,26.618147305555556],[-82.100482,26.617798583333332]]},"properties":{"style":"solid","thickness":1}},{"type":"Feature","geometry":{"type":"LineString","coordinates":[[-82.05409352777778,26.660063944444442],[-82.05021180555555,26.660315527777776],[-82.04804958333334,26.65852136111111],[-82.04772397222222,26.65781711111111],[-82.04740802777778,26.657233138888888],[-82.04729222222223,26.655789944444443],[-82.04774075,26.65467286111111],[-82.04845697222223,26.653538444444443],[-82.04922141666667,26.653005333333333],[-82.04972783333334,26.65260986111111],[-82.05076963888888,26.652179666666665],[-82.05317880555555,26.6520235],[-82.05427852777777,26.65231488888889],[-82.05512986111111,26.652864138888887],[-82.05586669444445,26.65366261111111],[-82.05634549999999,26.65459869444444],[-82.05654697222222,26.65543186111111],[-82.05664358333333,26.656634527777776],[-82.05655802777777,26.657244527777777],[-82.05621444444444,26.657992166666666],[-82.05570802777777,26.658387666666666],[-82.05409352777778,26.660063944444442],[-82.05537547222222,26.660947944444445],[-82.056122,26.661866666666665],[-82.05643802777777,26.662450638888888],[-82.05659258333333,26.664374888888887],[-82.05603922222222,26.665861472222222],[-82.05566663888888,26.666248305555555],[-82.05450052777778,26.666807472222224],[-82.05372633333333,26.667220333333333],[-82.05198616666667,26.667333111111112],[-82.05075244444444,26.66705038888889],[-82.04890608333334,26.665840222222222],[-82.04859008333334,26.66525625],[-82.04841636111111,26.66309147222222],[-82.0487213888889,26.661862805555554],[-82.0488456111111,26.66173386111111],[-82.04947625,26.661209416666665],[-82.05021180555555,26.660315527777776]]},"properties":{"style":"solid","thickness":1}},{"type":"Feature","geometry":{"type":"LineString","coordinates":[[-82.03459375,26.66858013888889],[-82.04275938888888,26.668051694444447],[-82.04153441666666,26.652777888888888],[-82.033236,26.653314916666666]]},"properties":{"style":"solid","thickness":1}},{"type":"Feature","geometry":{"type":"LineString","coordinates":[[-82.04214202777777,26.660354666666667],[-82.0342446388889,26.660865777777776]]},"properties":{"style":"solid","thickness":1}},{"type":"Feature","geometry":{"type":"LineString","coordinates":[[-81.96629358333334,26.73706197222222],[-81.96658077777778,26.740670055555558],[-81.96714541666667,26.742688833333336],[-81.96748991666666,26.743633805555557],[-81.96794925,26.74432963888889],[-81.9696716388889,26.745669694444445],[-81.97132702777778,26.746167833333335],[-81.97186286111112,26.746133416666666],[-81.97342244444445,26.74542886111111],[-81.97478100000001,26.743891],[-81.97525930555555,26.743134972222222],[-81.97545055555555,26.742155611111112],[-81.9756895,26.74008525],[-81.97540202777778,26.736477166666667],[-81.97483727777778,26.73445841666667],[-81.97449275,26.733513472222224],[-81.97389947222223,26.732826277777775],[-81.97231116666667,26.731477666666667],[-81.97065597222222,26.730979527777777],[-81.97012022222222,26.731013916666665],[-81.96856080555555,26.731718444444443],[-81.96706838888889,26.733264833333333],[-81.966724,26.73401225],[-81.96653269444445,26.734991583333333],[-81.96629358333334,26.73706197222222]]},"properties":{"style":"solid","thickness":1}},{"type":"Feature","geometry":{"type":"LineString","coordinates":[[-81.96020852777778,26.73164988888889],[-81.96142363888889,26.746924166666666],[-81.95552936111112,26.747302055555558],[-81.95390272222222,26.74716452777778],[-81.95320422222223,26.74684663888889],[-81.9520656388889,26.74607341666667],[-81.95035297222222,26.74485341666667],[-81.94915708333333,26.74335852777778],[-81.94879361111111,26.742173],[-81.94847830555555,26.738204055555556],[-81.94866019444444,26.737104472222224],[-81.94934925,26.735609750000002],[-81.95021997222223,26.73470777777778],[-81.95107158333333,26.733565277777778],[-81.95234413888889,26.732637555555552],[-81.95392277777778,26.732173749999998],[-81.95485083333334,26.73199338888889],[-81.96020852777778,26.73164988888889]]},"properties":{"style":"solid","thickness":1}},{"type":"Feature","geometry":{"type":"LineString","coordinates":[[-81.93532238888889,26.782532444444442],[-81.93560872222223,26.78614055555556],[-81.93617302777778,26.788159472222222],[-81.93651744444445,26.7891045],[-81.93697675,26.78980041666667],[-81.93869947222223,26.791140805555557],[-81.94035538888889,26.791639333333336],[-81.94089144444445,26.79160502777778],[-81.94245183333334,26.79090080555556],[-81.94381130555556,26.78936327777778],[-81.94429002777778,26.78860736111111],[-81.94448161111112,26.787628055555558],[-81.94472119444445,26.785557722222222],[-81.94443455555556,26.78194963888889],[-81.9438701388889,26.77993077777778],[-81.94352572222222,26.77898575],[-81.94293241666666,26.778298444444445],[-81.94134383333333,26.7769495],[-81.9396881388889,26.776450999999998],[-81.93915213888889,26.776485277777777],[-81.93759191666668,26.777189472222222],[-81.9360985,26.778735527777776],[-81.93575377777778,26.77948286111111],[-81.9355621388889,26.780462166666666],[-81.93532238888889,26.782532444444442]]},"properties":{"style":"solid","thickness":1}},{"type":"Feature","geometry":{"type":"LineString","coordinates":[[-81.9222728888889,26.792915583333336],[-81.93044786111112,26.79239352777778],[-81.9292363888889,26.77711913888889],[-81.9209285,26.777649666666665]]},"properties":{"style":"solid","thickness":1}},{"type":"Feature","geometry":{"type":"LineString","coordinates":[[-81.92983730555557,26.784696194444447],[-81.9219308888889,26.785201111111114]]},"properties":{"style":"solid","thickness":1}},{"type":"Feature","geometry":{"type":"LineString","coordinates":[[-82.05152891666667,26.938510583333333],[-82.05275844444444,26.953783305555554],[-82.04604872222222,26.954217],[-82.04549258333333,26.954011166666668],[-82.04424613888888,26.95360813888889],[-82.04294166666666,26.952483583333333],[-82.04230816666667,26.951315666666666],[-82.0421921111111,26.949872583333335],[-82.04263216666666,26.948635333333332],[-82.04374313888889,26.947354722222222],[-82.0449121111111,26.946795666666667],[-82.04542952777777,26.946520472222222],[-82.05213880555556,26.946086805555556]]},"properties":{"style":"solid","thickness":1}},{"type":"Feature","geometry":{"type":"LineString","coordinates":[[-82.02374216666666,26.953601527777778],[-82.02433686111111,26.9542885],[-82.02560258333334,26.954932194444442],[-82.02642705555556,26.955120805555556],[-82.02873738888889,26.955334472222223],[-82.02954258333334,26.955282527777776],[-82.03113363888889,26.95493813888889],[-82.03244661111111,26.954490805555555],[-82.03270533333333,26.95435322222222],[-82.03359638888888,26.953691305555555],[-82.03447777777778,26.952909138888888],[-82.03592380555556,26.950760833333334],[-82.03644013888889,26.948793388888888],[-82.0362275,26.946147694444445],[-82.03584316666667,26.944721916666666],[-82.03521944444444,26.94367422222222],[-82.03433705555555,26.94276411111111],[-82.0335985,26.941965583333335],[-82.0324381111111,26.940952527777778],[-82.03132602777778,26.94054075],[-82.03021394444444,26.940128972222222],[-82.02925538888888,26.93994902777778],[-82.02684013888889,26.940104805555556],[-82.02551766666667,26.940431833333335],[-82.02448280555555,26.940982083333335],[-82.02332344444444,26.94166125],[-82.02256658333333,26.942314444444445],[-82.02134055555555,26.94384402777778],[-82.02062227777778,26.944978250000002],[-82.02041177777778,26.94571711111111],[-82.02056616666667,26.94764125],[-82.02620208333333,26.947277972222224]]},"properties":{"style":"solid","thickness":1}},{"type":"Feature","geometry":{"type":"LineString","coordinates":[[-82.0144955,26.940900305555555],[-82.01572011111111,26.95617336111111],[-82.00981530555555,26.9565535],[-82.00818563888889,26.95641661111111],[-82.00748572222223,26.956099],[-82.00634469444445,26.95532625],[-82.00462833333333,26.95410697222222],[-82.00342955555556,26.95261261111111],[-82.00306486111111,26.95142727777778],[-82.00274705555556,26.947458666666666],[-82.00292877777778,26.946359055555554],[-82.00361833333334,26.94486413888889],[-82.00449025,26.94396188888889],[-82.00534286111112,26.94281911111111],[-82.00661727777778,26.94189097222222],[-82.00819855555555,26.941426555555555],[-82.00912822222222,26.94124586111111],[-82.0144955,26.940900305555555]]},"properties":{"style":"solid","thickness":1}}]}
