{"type":"FeatureCollection","features":[{"type":"Feature","geometry":{"type":"LineString","coordinates":[[-81.66497125000001,26.594810083333332],[-81.64989766666667,26.604595972222224]]},"properties":{"style":"solid","thickness":1}},{"type":"Feature","geometry":{"type":"LineString","coordinates":[[-81.63482155555556,26.61438027777778],[-81.61974288888888,26.624162944444446]]},"properties":{"style":"solid","thickness":1}},{"type":"Feature","geometry":{"type":"LineString","coordinates":[[-81.60466166666666,26.633944027777776],[-81.58957791666666,26.64372347222222]]},"properties":{"style":"solid","thickness":1}},{"type":"Feature","geometry":{"type":"LineString","coordinates":[[-81.61428833333333,26.525071777777775],[-81.61324877777777,26.525943166666664],[-81.61122399999999,26.527870333333333],[-81.60933911111111,26.529909083333333],[-81.60760169444444,26.53205125],[-81.60601874999999,26.534288222222223],[-81.60459666666667,26.536610972222224],[-81.60356519444444,26.538582027777778]]},"properties":{"style":"solid","thickness":1}},{"type":"Feature","geometry":{"type":"LineString","coordinates":[[-81.5995425,26.554784972222222],[-81.5995536111111,26.557104777777777],[-81.59975327777778,26.55975036111111],[-81.60013916666666,26.562379194444446],[-81.60070966666666,26.56498075],[-81.60146255555556,26.567544527777777],[-81.60239480555555,26.570060194444444],[-81.60286977777777,26.57111377777778]]},"properties":{"style":"solid","thickness":1}},{"type":"Feature","geometry":{"type":"LineString","coordinates":[[-81.61299369444444,26.584994527777777],[-81.61354097222221,26.585506027777775],[-81.61571633333332,26.587296555555554],[-81.61801366666666,26.588959416666665],[-81.62042374999999,26.590487888888887],[-81.62293688888889,26.591875805555553],[-81.62554291666666,26.59311758333333],[-81.6282313611111,26.59420822222222],[-81.62833049999999,26.594241805555555]]},"properties":{"style":"solid","thickness":1}},{"type":"Feature","geometry":{"type":"LineString","coordinates":[[-81.64646938888889,26.597357916666667],[-81.6484171388889,26.59732194444444],[-81.65135627777778,26.597099416666666],[-81.65427380555556,26.596709666666666],[-81.65715794444445,26.596154305555554],[-81.65999705555556,26.595435527777777],[-81.66277969444445,26.594556305555553],[-81.66452572222222,26.593889916666665]]},"properties":{"style":"solid","thickness":1}},{"type":"Feature","geometry":{"type":"LineString","coordinates":[[-81.62895383333333,26.515071805555557],[-81.64398447222223,26.50524686111111]]},"properties":{"style":"solid","thickness":1}},{"type":"Feature","geometry":{"type":"LineString","coordinates":[[-81.65901258333334,26.495420361111112],[-81.67403813888889,26.48559225]]},"properties":{"style":"solid","thickness":1}},{"type":"Feature","geometry":{"type":"LineString","coordinates":[[-81.65641294444445,26.575867583333334],[-81.65564783333333,26.57591511111111],[-81.65521097222222,26.570227916666667]]},"properties":{"style":"solid","thickness":1}},{"type":"Feature","geometry":{"type":"LineString","coordinates":[[-81.64958138888889,26.576337833333334],[-81.65192775,26.576192194444445],[-81.65234966666667,26.5736775],[-81.65190469444445,26.573889444444443],[-81.65151425,26.57414411111111],[-81.65059611111111,26.574201111111112],[-81.65013,26.57413786111111],[-81.64964980555557,26.573891166666666],[-81.64909044444445,26.573280722222222],[-81.64894619444445,26.572736694444444],[-81.6488933888889,26.57204872222222],[-81.64916069444445,26.571525194444444],[-81.64947902777779,26.57099852777778],[-81.64962147222222,26.570851444444443],[-81.64990991666667,26.570603138888888],[-81.65041291666667,26.57047975],[-81.650974,26.570444916666666],[-81.65138908333334,26.570511305555556],[-81.65191322222223,26.57066311111111],[-81.65240044444445,26.571001527777778],[-81.65246202777779,26.571135944444443]]},"properties":{"style":"solid","thickness":1}},{"type":"Feature","geometry":{"type":"LineString","coordinates":[[-81.66688391666668,26.58326538888889],[-81.66780211111111,26.58320827777778],[-81.66825766666668,26.58313386111111],[-81.66914411111111,26.58266397222222],[-81.66995130555556,26.581830361111113],[-81.67021147222222,26.581215083333333],[-81.67030805555557,26.58047175],[-81.67026216666667,26.5798755],[-81.67011780555556,26.579331472222222],[-81.66981688888889,26.57875111111111],[-81.66919933333334,26.578052194444446],[-81.66897763888889,26.577835555555556],[-81.66854841666667,26.57758575],[-81.66766011111112,26.577364499999998],[-81.66658891666667,26.57743111111111],[-81.6660858888889,26.577554555555555],[-81.66558991666668,26.57776972222222],[-81.66529444444446,26.577926333333334],[-81.66481258333334,26.578324972222223],[-81.66439583333334,26.578903888888888],[-81.664271,26.579280305555557],[-81.66417088888889,26.579977777777778],[-81.66425552777778,26.581078527777777],[-81.66479925,26.582150722222224],[-81.66513352777778,26.58249861111111],[-81.66551530555556,26.58279747222222],[-81.66589,26.583004583333334],[-81.66599555555557,26.58304411111111],[-81.66688391666668,26.58326538888889]]},"properties":{"style":"solid","thickness":1}},{"type":"Feature","geometry":{"type":"LineString","coordinates":[[-81.66189613888889,26.577722833333333],[-81.66060955555557,26.58365538888889],[-81.65801950000001,26.577963722222222],[-81.65668166666667,26.583899388888888],[-81.65434686111112,26.578191805555555]]},"properties":{"style":"solid","thickness":1}},{"type":"Feature","geometry":{"type":"LineString","coordinates":[[-81.64902994444445,26.584374416666666],[-81.6499481388889,26.584317444444444],[-81.65040372222222,26.584243083333334],[-81.65129025,26.583773305555553],[-81.65209755555556,26.582939777777778],[-81.65235786111111,26.582324555555555],[-81.65245452777778,26.581581222222223],[-81.65240875,26.580984972222222],[-81.65226444444446,26.580440944444444],[-81.65196361111111,26.57986052777778],[-81.65134616666667,26.579161527777778],[-81.65112452777778,26.57894486111111],[-81.65069533333335,26.578695],[-81.64980702777778,26.578473638888887],[-81.64873583333333,26.57854011111111],[-81.64823277777778,26.5786635],[-81.64773677777778,26.57887861111111],[-81.64744127777779,26.579035194444444],[-81.64695933333334,26.579433777777776],[-81.64654250000001,26.580012611111112],[-81.64641761111112,26.580389027777777],[-81.64631738888889,26.5810865],[-81.64640186111112,26.58218725],[-81.64694541666667,26.583259527777777],[-81.64727966666668,26.583607444444443],[-81.64766138888889,26.58390633333333],[-81.64803605555556,26.584113499999997],[-81.64814161111111,26.584153055555554],[-81.64902994444445,26.584374416666666]]},"properties":{"style":"solid","thickness":1}},{"type":"Feature","geometry":{"type":"LineString","coordinates":[[-81.64448986111111,26.584656083333332],[-81.64404297222222,26.578831277777777]]},"properties":{"style":"solid","thickness":1}},{"type":"Feature","geometry":{"type":"LineString","coordinates":[[-81.6409665,26.58482847222222],[-81.64426466666667,26.58172075],[-81.64047230555556,26.579052694444446]]},"properties":{"style":"solid","thickness":1}},{"type":"Feature","geometry":{"type":"LineString","coordinates":[[-81.6387765,26.585010333333333],[-81.63630522222223,26.581522944444444],[-81.63444041666668,26.585279027777776]]},"properties":{"style":"solid","thickness":1}},{"type":"Feature","geometry":{"type":"LineString","coordinates":[[-81.63630522222223,26.581522944444444],[-81.63613997222222,26.579367305555554]]},"properties":{"style":"solid","thickness":1}},{"type":"Feature","geometry":{"type":"LineString","coordinates":[[-81.56596936111112,26.635806277777778],[-81.56594625,26.63617633333333],[-81.5658616111111,26.636411944444443],[-81.56553577777777,26.636846694444444],[-81.5652435,26.63704897222222],[-81.56495122222222,26.63725125],[-81.5644988611111,26.637371194444444],[-81.56424369444444,26.63738686111111],[-81.56367530555555,26.63732963888889],[-81.56319152777778,26.637036777777777],[-81.56286088888889,26.636734527777776],[-81.56278894444443,26.63646247222222],[-81.56271916666667,26.635545138888887],[-81.56290238888889,26.635257416666665],[-81.56323522222222,26.634914388888888],[-81.56366663888889,26.63451925],[-81.56402388888888,26.634497305555556]]},"properties":{"style":"solid","thickness":1}},{"type":"Feature","geometry":{"type":"LineString","coordinates":[[-81.56366663888889,26.63451925],[-81.56302980555556,26.634235805555555],[-81.56281169444445,26.63406488888889],[-81.56253211111111,26.6337595],[-81.56247061111111,26.63362502777778],[-81.56238816666666,26.633215361111112],[-81.56237772222222,26.63307777777778],[-81.56240083333333,26.632707694444445],[-81.562482,26.63242625],[-81.56271275,26.6320895],[-81.56300152777777,26.63184136111111],[-81.56349094444444,26.631534833333333],[-81.56466474999999,26.631462722222224],[-81.56503244444444,26.63157836111111],[-81.56562174999999,26.631910805555556],[-81.56573080555555,26.63199625],[-81.56591880555555,26.6324455],[-81.56593275,26.63262897222222]]},"properties":{"style":"solid","thickness":1}},{"type":"Feature","geometry":{"type":"LineString","coordinates":[[-81.55687058333334,26.634153194444444],[-81.55697516666666,26.635529194444445],[-81.55718752777777,26.6362995],[-81.5573175,26.636660166666665],[-81.55749152777777,26.636925972222222],[-81.55814580555555,26.637438777777778],[-81.55877569444444,26.6376305],[-81.55897983333332,26.637617972222223],[-81.5595748611111,26.63735102777778],[-81.56009441666666,26.636766166666668],[-81.56027763888889,26.636478444444442],[-81.56035183333333,26.63610525],[-81.56044566666667,26.63531611111111],[-81.56034105555555,26.63394013888889],[-81.56012866666666,26.633169805555557],[-81.55999869444445,26.632809138888888],[-81.55977363888888,26.632546472222224],[-81.55917038888889,26.632030555555556],[-81.55854055555555,26.631838833333333],[-81.55833638888889,26.63185136111111],[-81.55774141666666,26.632118277777778],[-81.55717080555556,26.63270627777778],[-81.55703861111111,26.63299086111111],[-81.55696444444445,26.633364055555553],[-81.55687058333334,26.634153194444444]]},"properties":{"style":"solid","thickness":1}},{"type":"Feature","geometry":{"type":"LineString","coordinates":[[-81.57424866666666,26.64169561111111],[-81.57173191666666,26.638947277777778]]},"properties":{"style":"solid","thickness":1}},{"type":"Feature","geometry":{"type":"LineString","coordinates":[[-81.57586599999999,26.638693055555557],[-81.57630966666666,26.644517999999998],[-81.57375766666667,26.644674972222223],[-81.57354649999999,26.644595777777777],[-81.57307316666666,26.64444058333333],[-81.57257888888888,26.644010166666668],[-81.57233980555556,26.643564055555554],[-81.57229788888888,26.643013666666665],[-81.57246713888888,26.642542444444445],[-81.57289158333333,26.642055555555554],[-81.57333694444443,26.641843833333333],[-81.57353413888889,26.641739555555557],[-81.57608608333332,26.64158261111111]]},"properties":{"style":"solid","thickness":1}},{"type":"Feature","geometry":{"type":"LineString","coordinates":[[-81.56645883333333,26.64512361111111],[-81.56737758333333,26.645067138888887],[-81.56783344444445,26.644993055555556],[-81.56872077777777,26.644523805555554],[-81.56952911111111,26.64369075],[-81.56978997222222,26.643075666666665],[-81.56988722222222,26.642332416666665],[-81.5698418611111,26.641736138888888],[-81.56969788888888,26.641192027777777],[-81.56939730555555,26.640611472222222],[-81.56878002777778,26.639912111111112],[-81.56855841666666,26.639695333333332],[-81.56812916666667,26.63944522222222],[-81.56724058333333,26.63922336111111],[-81.56616877777778,26.63928922222222],[-81.56566536111112,26.639412305555556],[-81.56516894444444,26.63962711111111],[-81.56487319444444,26.639783527777777],[-81.56439069444444,26.640181805555557],[-81.56397322222222,26.640760416666666],[-81.56384802777778,26.64113675],[-81.56374722222222,26.641834166666666],[-81.56383094444445,26.642934944444445],[-81.56437405555555,26.6440075],[-81.56470819444444,26.64435561111111],[-81.56508991666666,26.64465475],[-81.56546463888888,26.64486211111111],[-81.56557022222222,26.644901722222222],[-81.56645883333333,26.64512361111111]]},"properties":{"style":"solid","thickness":1}},{"type":"Feature","geometry":{"type":"LineString","coordinates":[[-81.56147324999999,26.639577638888888],[-81.56191619444444,26.64540263888889],[-81.55967038888889,26.645540527777776],[-81.55905091666666,26.645486388888887],[-81.55878525,26.645364472222223],[-81.55835252777777,26.64506847222222],[-81.55770169444445,26.644601527777777],[-81.55724802777777,26.644030333333333],[-81.55711108333333,26.643577944444445],[-81.55699605555556,26.64206436111111],[-81.55706675,26.641645305555556],[-81.55733116666666,26.64107611111111],[-81.55766402777778,26.64073311111111],[-81.55798994444444,26.640298388888887],[-81.55847591666667,26.639946],[-81.55907791666667,26.639770805555553],[-81.55943169444444,26.639703],[-81.56147324999999,26.639577638888888]]},"properties":{"style":"solid","thickness":1}},{"type":"Feature","geometry":{"type":"LineString","coordinates":[[-81.55473613888888,26.639991194444445],[-81.55517875,26.645816222222223],[-81.55293294444444,26.645954],[-81.55231347222222,26.64589983333333],[-81.55204780555555,26.645777888888887],[-81.55161508333333,26.645481888888888],[-81.55096427777778,26.645014916666668],[-81.55051066666667,26.644443694444444],[-81.55037374999999,26.643991305555556],[-81.55025877777777,26.642477694444445],[-81.55032952777778,26.642058638888887],[-81.55059397222222,26.641489472222222],[-81.55092686111111,26.641146499999998],[-81.55125277777778,26.640711777777778],[-81.55173877777777,26.640359416666666],[-81.55234080555556,26.64018425],[-81.55269458333333,26.640116444444445],[-81.55473613888888,26.639991194444445]]},"properties":{"style":"solid","thickness":1}},{"type":"Feature","geometry":{"type":"LineString","coordinates":[[-81.54532772222223,26.64642033333333],[-81.54844127777777,26.64622947222222],[-81.547999,26.640404444444442],[-81.54483455555555,26.640598444444443]]},"properties":{"style":"solid","thickness":1}},{"type":"Feature","geometry":{"type":"LineString","coordinates":[[-81.54821838888888,26.643294027777777],[-81.545207,26.643478638888887]]},"properties":{"style":"solid","thickness":1}},{"type":"Feature","geometry":{"type":"LineString","coordinates":[[-81.58042913888889,26.64782761111111],[-81.58051722222221,26.648323916666666],[-81.5807025,26.64879813888889],[-81.58097902777777,26.649235027777777],[-81.58133791666667,26.6496205],[-81.58176763888889,26.649942194444446],[-81.58225441666666,26.650189777777776],[-81.58278252777778,26.650355277777777],[-81.58333505555555,26.65043338888889],[-81.58389425,26.650421583333333],[-81.58444208333333,26.65032025],[-81.58496097222222,26.650132638888888],[-81.58543424999999,26.649864805555556],[-81.58584669444444,26.649525305555557],[-81.58618505555555,26.64912511111111],[-81.58643844444444,26.648677055555556],[-81.58659872222222,26.648195527777776],[-81.58666075,26.647696027777776],[-81.58662252777778,26.64719461111111],[-81.58648527777777,26.64670738888889],[-81.58625344444444,26.64625],[-81.58593441666666,26.645837166666666],[-81.58553852777777,26.645482166666667],[-81.58507841666666,26.645196388888888],[-81.58456894444444,26.64498902777778],[-81.58402647222222,26.644866722222222],[-81.58346838888889,26.644833444444444],[-81.58291266666666,26.64489025],[-81.58237716666666,26.645035305555556],[-81.58187908333333,26.645263944444444],[-81.58143444444444,26.645568805555556],[-81.58105752777777,26.64594013888889],[-81.58076044444444,26.64636597222222],[-81.58055275,26.64683263888889],[-81.58044113888889,26.647325111111112],[-81.58042913888889,26.64782761111111]]},"properties":{"style":"solid","thickness":1}},{"type":"Feature","geometry":{"type":"LineString","coordinates":[[-81.5840355,26.654116055555555],[-81.58375255555555,26.65288261111111],[-81.58322080555556,26.651717388888887],[-81.58245863888888,26.650660527777777],[-81.58149225,26.649748388888888],[-81.58035494444444,26.649012444444445],[-81.57908591666666,26.648478],[-81.57772883333332,26.648163444444442],[-81.57633044444444,26.648079666666668]]},"properties":{"style":"solid","thickness":1}},{"type":"Feature","geometry":{"type":"LineString","coordinates":[[-81.57633044444444,26.648079666666668],[-81.57770308333333,26.647825472222223],[-81.57899983333333,26.64734772222222],[-81.58017597222222,26.646662888888887],[-81.58119102777778,26.645794527777777],[-81.58201,26.64477258333333],[-81.58260472222221,26.643632222222223],[-81.58295469444444,26.64241275],[-81.58304788888888,26.641156166666665]]},"properties":{"style":"solid","thickness":1}},{"type":"Feature","geometry":{"type":"LineString","coordinates":[[-81.58304788888888,26.641156166666665],[-81.58333080555555,26.64238961111111],[-81.5838625,26.643554833333333],[-81.58462463888888,26.644611694444443],[-81.585591,26.64552377777778],[-81.58672830555555,26.646259694444446],[-81.5879973611111,26.646794083333333],[-81.58935444444444,26.647108527777778],[-81.59075283333333,26.647192194444443]]},"properties":{"style":"solid","thickness":1}},{"type":"Feature","geometry":{"type":"LineString","coordinates":[[-81.59075283333333,26.647192194444443],[-81.58938022222222,26.6474465],[-81.58808352777777,26.647924333333332],[-81.58690741666666,26.64860925],[-81.58589238888888,26.64947763888889],[-81.58507338888889,26.65049963888889],[-81.58447866666666,26.651639999999997],[-81.58412866666666,26.65285947222222],[-81.5840355,26.654116055555555]]},"properties":{"style":"solid","thickness":1}},{"type":"Feature","geometry":{"type":"LineString","coordinates":[[-81.6681023888889,26.47197561111111],[-81.66855008333334,26.47780047222222],[-81.6663076388889,26.477940055555553],[-81.66568902777779,26.477886388888887],[-81.66542361111112,26.47776463888889],[-81.66499125,26.47746897222222],[-81.66434091666667,26.477002499999998],[-81.6638873888889,26.47643161111111],[-81.66375022222223,26.475979305555555],[-81.66363394444446,26.474465777777777],[-81.66370416666668,26.474046638888886],[-81.66396766666668,26.473477222222222],[-81.66429975000001,26.47313397222222],[-81.66462475,26.472699],[-81.66510972222223,26.47234622222222],[-81.66571069444446,26.47217058333333],[-81.66606391666667,26.4721025],[-81.6681023888889,26.47197561111111]]},"properties":{"style":"solid","thickness":1}},{"type":"Feature","geometry":{"type":"LineString","coordinates":[[-81.65976261111112,26.475397833333332],[-81.65724741666668,26.472650944444442]]},"properties":{"style":"solid","thickness":1}},{"type":"Feature","geometry":{"type":"LineString","coordinates":[[-81.6613753888889,26.47239422222222],[-81.66182275,26.47821911111111],[-81.65927450000001,26.47837758333333],[-81.65906361111112,26.478298527777778],[-81.65859083333334,26.478143611111108],[-81.65809691666668,26.47771347222222],[-81.65785786111111,26.4772675],[-81.65781561111112,26.47671711111111],[-81.65798425000001,26.476245777777777],[-81.65840772222222,26.47575861111111],[-81.65885230555556,26.47554661111111],[-81.65904911111112,26.47544222222222],[-81.66159730555556,26.47528372222222]]},"properties":{"style":"solid","thickness":1}},{"type":"Feature","geometry":{"type":"LineString","coordinates":[[-81.65560502777778,26.47860572222222],[-81.65524947222222,26.473973333333333],[-81.65518091666667,26.473747166666666],[-81.65478897222222,26.473310694444443],[-81.65451305555555,26.47305133333333],[-81.65409127777778,26.472893222222222],[-81.65352716666668,26.47288219444444],[-81.65271175000001,26.472932861111108],[-81.65225661111111,26.47300725],[-81.6516626388889,26.473274583333332],[-81.65133052777779,26.473617805555556],[-81.65114780555557,26.473905638888887],[-81.65107752777779,26.474324777777777],[-81.65142586111112,26.47886544444444]]},"properties":{"style":"solid","thickness":1}},{"type":"Feature","geometry":{"type":"LineString","coordinates":[[-81.64883858333334,26.473173499999998],[-81.64755247222223,26.479106055555555],[-81.64496538888889,26.473414055555555],[-81.64362811111111,26.47934972222222],[-81.64129602777778,26.473641833333332]]},"properties":{"style":"solid","thickness":1}},{"type":"Feature","geometry":{"type":"LineString","coordinates":[[-81.63670205555556,26.47918038888889],[-81.63719586111112,26.47961061111111],[-81.63730130555557,26.479650138888886],[-81.6379708888889,26.479700777777776],[-81.6385245,26.479574277777775],[-81.63881625,26.47937183333333],[-81.63910447222223,26.479123527777777],[-81.63932766666667,26.47869494444444],[-81.63924686111112,26.477640027777777],[-81.63890944444445,26.477246194444444],[-81.63869152777778,26.47707538888889],[-81.63790597222223,26.476847611111108],[-81.637022,26.476672027777777],[-81.63638936111111,26.476434777777776],[-81.63616441666667,26.47617222222222],[-81.63601330555557,26.475536416666664],[-81.63606958333334,26.474933861111108],[-81.63629630555556,26.474551111111108],[-81.63653708333334,26.47435186111111],[-81.63673038888889,26.47420161111111],[-81.63697466666667,26.474048194444443],[-81.63752472222222,26.47387583333333],[-81.6378305,26.47385686111111],[-81.63814330555556,26.47392961111111],[-81.63856508333333,26.474087777777775],[-81.63883394444446,26.47425544444444],[-81.63921880555556,26.47460022222222]]},"properties":{"style":"solid","thickness":1}},{"type":"Feature","geometry":{"type":"LineString","coordinates":[[-81.60471122222222,26.510761055555555],[-81.60468825,26.51113113888889],[-81.60460380555556,26.511366777777777],[-81.60427844444443,26.51180161111111],[-81.60398655555555,26.51200397222222],[-81.60369466666666,26.512206333333335],[-81.60324283333333,26.512326416666667],[-81.60298794444444,26.512342166666667],[-81.60242013888889,26.51228508333333],[-81.60193680555555,26.511992361111112],[-81.60160641666666,26.511690194444444],[-81.60153444444444,26.51141813888889],[-81.60146444444445,26.510500805555555],[-81.6016473611111,26.510213],[-81.60197972222221,26.509869916666666],[-81.60241055555555,26.50947463888889],[-81.60276741666667,26.509452583333335]]},"properties":{"style":"solid","thickness":1}},{"type":"Feature","geometry":{"type":"LineString","coordinates":[[-81.60241055555555,26.50947463888889],[-81.60177427777778,26.50919136111111],[-81.60155636111111,26.5090205],[-81.60127697222222,26.508715166666665],[-81.6012155,26.508580722222224],[-81.60113299999999,26.508171055555554],[-81.60112252777778,26.508033472222223],[-81.6011455,26.50766338888889],[-81.60122644444444,26.50738188888889],[-81.6014568611111,26.507045083333335],[-81.60174522222222,26.506796861111113],[-81.60223402777777,26.506490166666666],[-81.60340652777778,26.50641775],[-81.60377388888888,26.506533305555557],[-81.60436266666666,26.506865583333333],[-81.60447161111111,26.506951],[-81.60465955555556,26.507400222222223],[-81.60467358333332,26.507583694444445]]},"properties":{"style":"solid","thickness":1}},{"type":"Feature","geometry":{"type":"LineString","coordinates":[[-81.59562169444445,26.509110416666665],[-81.5957266111111,26.510486416666666],[-81.59593902777777,26.511256694444445],[-81.59606897222221,26.511617333333334],[-81.59624288888888,26.51188311111111],[-81.59689663888888,26.512395722222223],[-81.59752591666667,26.512587305555556],[-81.59772983333333,26.512574722222222],[-81.59832411111111,26.512307611111112],[-81.59884294444444,26.511722583333334],[-81.5990258611111,26.511434805555556],[-81.59909983333333,26.511061583333333],[-81.59919330555554,26.51027238888889],[-81.59908833333333,26.508896416666666],[-81.59887591666666,26.50812611111111],[-81.59874597222222,26.5077655],[-81.59852105555555,26.50750288888889],[-81.59791830555555,26.506987111111112],[-81.59728905555555,26.50679552777778],[-81.59708513888889,26.50680813888889],[-81.59649088888888,26.507075222222223],[-81.59592111111111,26.50766338888889],[-81.59578913888889,26.50794802777778],[-81.59571516666666,26.50832125],[-81.59562169444445,26.509110416666665]]},"properties":{"style":"solid","thickness":1}},{"type":"Feature","geometry":{"type":"LineString","coordinates":[[-81.61162972222222,26.5193075],[-81.60916063888888,26.515819611111112],[-81.60729605555555,26.51957538888889]]},"properties":{"style":"solid","thickness":1}},{"type":"Feature","geometry":{"type":"LineString","coordinates":[[-81.60916063888888,26.515819611111112],[-81.60899599999999,26.513663916666665]]},"properties":{"style":"solid","thickness":1}},{"type":"Feature","geometry":{"type":"LineString","coordinates":[[-81.604761,26.513879555555555],[-81.60520569444444,26.519704555555556]]},"properties":{"style":"solid","thickness":1}},{"type":"Feature","geometry":{"type":"LineString","coordinates":[[-81.60049505555556,26.51704625],[-81.59798038888889,26.514298333333333]]},"properties":{"style":"solid","thickness":1}},{"type":"Feature","geometry":{"type":"LineString","coordinates":[[-81.60210994444444,26.514043305555557],[-81.60255447222222,26.51986833333333],[-81.60000525,26.52002575],[-81.59979430555555,26.51994661111111],[-81.59932144444444,26.5197915],[-81.59882758333333,26.519361166666666],[-81.59858866666666,26.518915083333333],[-81.59854666666666,26.518364694444443],[-81.59871563888889,26.517893444444443],[-81.59913949999999,26.517406444444443],[-81.59958433333333,26.51719463888889],[-81.59978127777778,26.517090333333332],[-81.60233044444443,26.51693288888889]]},"properties":{"style":"solid","thickness":1}},{"type":"Feature","geometry":{"type":"LineString","coordinates":[[-81.5958901111111,26.51442736111111],[-81.59633433333333,26.52025238888889],[-81.59409099999999,26.520390833333334],[-81.59347216666666,26.52033686111111],[-81.59320675,26.52021497222222],[-81.59277438888888,26.51991908333333],[-81.5921241111111,26.519452305555554],[-81.59167077777778,26.518881194444443],[-81.5915338611111,26.518428805555555],[-81.59141849999999,26.51691522222222],[-81.591489,26.51649613888889],[-81.59175294444444,26.51592686111111],[-81.5920853611111,26.515583777777778],[-81.59241075,26.51514897222222],[-81.5928961111111,26.514796444444446],[-81.59349741666666,26.514621083333335],[-81.59385080555555,26.514553194444446],[-81.5958901111111,26.51442736111111]]},"properties":{"style":"solid","thickness":1}},{"type":"Feature","geometry":{"type":"LineString","coordinates":[[-81.58670366666666,26.520247416666667],[-81.58719747222221,26.520677777777777],[-81.58730294444445,26.52071736111111],[-81.58797274999999,26.52076822222222],[-81.5885266111111,26.520641916666666],[-81.58881852777778,26.52043958333333],[-81.58910697222221,26.52019138888889],[-81.58933044444444,26.51976286111111],[-81.58925005555555,26.518707916666667],[-81.58891269444445,26.518314],[-81.58869477777777,26.51814311111111],[-81.58790902777777,26.517915055555555],[-81.58702483333333,26.517739166666665],[-81.58639205555555,26.517501694444444],[-81.58616716666666,26.517239083333333],[-81.58601627777777,26.516603222222223],[-81.58607280555555,26.516000666666667],[-81.58629977777777,26.515618027777776],[-81.58654072222222,26.51541883333333],[-81.58673416666666,26.515268666666667],[-81.5869786111111,26.51511536111111],[-81.58752894444444,26.514943166666665],[-81.58783483333333,26.514924305555557],[-81.58814772222222,26.514997166666667],[-81.58856955555555,26.5151555],[-81.58883844444443,26.51532325],[-81.58922330555555,26.515668166666668]]},"properties":{"style":"solid","thickness":1}},{"type":"Feature","geometry":{"type":"LineString","coordinates":[[-81.61557425,26.521975583333333],[-81.6156623611111,26.522471916666667],[-81.61584758333333,26.52294611111111],[-81.61612394444444,26.523382916666666],[-81.61648258333332,26.523768305555553],[-81.61691194444444,26.524089916666664],[-81.61739825,26.52433738888889],[-81.6179258611111,26.52450275],[-81.61847780555554,26.524580722222222],[-81.6190363611111,26.524568777777777],[-81.61958358333332,26.524467305555554],[-81.62010186111111,26.524279583333332],[-81.62057455555555,26.52401161111111],[-81.62098644444444,26.523671999999998],[-81.62132430555555,26.523271722222223],[-81.62157727777777,26.52282358333333],[-81.62173725,26.522342],[-81.62179905555556,26.52184247222222],[-81.62176072222222,26.521341055555556],[-81.62162347222221,26.52085386111111],[-81.62139172222221,26.520396527777777],[-81.62107294444444,26.519983749999998],[-81.6206773611111,26.519628833333332],[-81.62021766666666,26.519343166666665],[-81.61970869444444,26.519135916666666],[-81.61916674999999,26.519013777777776],[-81.61860927777776,26.51898061111111],[-81.61805416666667,26.519037555555556],[-81.61751930555555,26.51918275],[-81.61702183333333,26.5194115],[-81.61657777777778,26.519716499999998],[-81.61620136111111,26.520087944444445],[-81.61590475,26.52051386111111],[-81.61569741666666,26.520980583333333],[-81.61558605555555,26.52147311111111],[-81.61557425,26.521975583333333]]},"properties":{"style":"solid","thickness":1}},{"type":"Feature","geometry":{"type":"LineString","coordinates":[[-81.61917861111111,26.528263305555555],[-81.61889558333333,26.527029916666667],[-81.61836408333333,26.525864805555553],[-81.61760238888888,26.524808083333333],[-81.61663677777777,26.523896194444443],[-81.6155005,26.5231605],[-81.61423266666667,26.52262633333333],[-81.61287697222221,26.52231213888889],[-81.61148005555555,26.522228666666667]]},"properties":{"style":"solid","thickness":1}},{"type":"Feature","geometry":{"type":"LineString","coordinates":[[-81.61148005555555,26.522228666666667],[-81.61285113888889,26.521974138888886],[-81.61414633333332,26.521496083333332],[-81.615321,26.520810916666665],[-81.61633466666666,26.519942305555556],[-81.61715244444444,26.51892011111111],[-81.61774619444444,26.517779583333333],[-81.61809541666666,26.516559972222222],[-81.61818811111111,26.515303333333332]]},"properties":{"style":"solid","thickness":1}},{"type":"Feature","geometry":{"type":"LineString","coordinates":[[-81.61818811111111,26.515303333333332],[-81.61847108333333,26.51653675],[-81.61900255555555,26.51770186111111],[-81.61976419444444,26.518758555555554],[-81.62072980555556,26.519670444444444],[-81.62186608333333,26.52040611111111],[-81.62313391666666,26.520940194444442],[-81.62448963888889,26.521254305555555],[-81.62588655555555,26.52133761111111]]},"properties":{"style":"solid","thickness":1}},{"type":"Feature","geometry":{"type":"LineString","coordinates":[[-81.62588655555555,26.52133761111111],[-81.62451549999999,26.521592277777778],[-81.62322036111111,26.522070444444445],[-81.62204572222221,26.522755666666665],[-81.62103205555555,26.523624333333334],[-81.62021427777778,26.524646527777776],[-81.61962052777777,26.52578708333333],[-81.61927130555554,26.527006666666665],[-81.61917861111111,26.528263305555555]]},"properties":{"style":"solid","thickness":1}},{"type":"Feature","geometry":{"type":"LineString","coordinates":[[-81.67345313888889,26.484135194444445],[-81.67354147222223,26.484631472222222],[-81.67372686111112,26.485105583333333],[-81.67400336111112,26.485542305555555],[-81.67436205555556,26.485927555555556],[-81.67479144444445,26.486249],[-81.67527772222223,26.486496250000002],[-81.67580525000001,26.486661416666667],[-81.67635705555556,26.486739166666666],[-81.67691541666667,26.486727000000002],[-81.67746241666667,26.486625305555556],[-81.67798041666667,26.48643736111111],[-81.67845283333334,26.486169194444447],[-81.67886441666667,26.485829416666668],[-81.67920197222223,26.485429],[-81.6794546388889,26.484980750000002],[-81.67961430555556,26.484499111111113],[-81.67967583333333,26.483999555555556],[-81.67963727777779,26.48349813888889],[-81.67949983333334,26.483010999999998],[-81.67926794444445,26.482553749999997],[-81.67894902777778,26.48214111111111],[-81.67855341666667,26.48178636111111],[-81.67809375,26.48150086111111],[-81.67758480555555,26.481293833333332],[-81.67704300000001,26.481171888888888],[-81.67648566666666,26.48113897222222],[-81.67593077777778,26.48119611111111],[-81.67539616666667,26.481341527777776],[-81.67489897222222,26.481570499999997],[-81.67445519444445,26.481875666666664],[-81.67407911111111,26.482247249999997],[-81.67378277777779,26.482673305555554],[-81.67357575,26.48314011111111],[-81.67346469444445,26.483632694444445],[-81.67345313888889,26.484135194444445]]},"properties":{"style":"solid","thickness":1}},{"type":"Feature","geometry":{"type":"LineString","coordinates":[[-81.67705947222223,26.4904215],[-81.67677591666667,26.489188194444445],[-81.67624400000001,26.488023277777778],[-81.67548202777779,26.48696688888889],[-81.67451627777778,26.486055361111113],[-81.67338000000001,26.48532011111111],[-81.67211230555556,26.484786472222222],[-81.67075688888889,26.484472805555555],[-81.66936038888889,26.484389916666668]]},"properties":{"style":"solid","thickness":1}},{"type":"Feature","geometry":{"type":"LineString","coordinates":[[-81.66936038888889,26.484389916666668],[-81.67073091666667,26.484134833333336],[-81.67202544444444,26.48365625],[-81.67319938888889,26.48297061111111],[-81.67421230555556,26.482101555555555],[-81.67502930555555,26.481079027777778],[-81.67562227777778,26.47993825],[-81.67597077777778,26.478718527777776],[-81.67606280555556,26.477461833333333]]},"properties":{"style":"solid","thickness":1}},{"type":"Feature","geometry":{"type":"LineString","coordinates":[[-81.67606280555556,26.477461833333333],[-81.67634630555555,26.478695138888888],[-81.67687819444446,26.479860027777775],[-81.67764011111112,26.480916444444443],[-81.67860586111111,26.481827944444444],[-81.6797421388889,26.48256313888889],[-81.68100983333333,26.48309672222222],[-81.68236527777778,26.48341027777778],[-81.68376175,26.483493055555556]]},"properties":{"style":"solid","thickness":1}},{"type":"Feature","geometry":{"type":"LineString","coordinates":[[-81.68376175,26.483493055555556],[-81.68239127777778,26.48374825],[-81.68109680555555,26.484226944444444],[-81.6799228888889,26.48491263888889],[-81.67891,26.485781722222224],[-81.67809297222223,26.48680427777778],[-81.67750000000001,26.487945055555556],[-81.67715150000001,26.489164805555557],[-81.67705947222223,26.4904215]]},"properties":{"style":"solid","thickness":1}},{"type":"Feature","geometry":{"type":"LineString","coordinates":[[-81.67009752777778,26.589654555555555],[-81.67018591666667,26.590150833333333],[-81.67037147222223,26.590624944444443],[-81.67064819444445,26.59106163888889],[-81.67100722222223,26.591446916666666],[-81.67143700000001,26.59176833333333],[-81.67192369444444,26.59201561111111],[-81.67245169444445,26.592180805555554],[-81.673004,26.592258555555553],[-81.6735628888889,26.59224638888889],[-81.67411036111112,26.592144722222223],[-81.67462886111112,26.591956777777778],[-81.67510169444445,26.591688638888886],[-81.67551366666667,26.591348888888888],[-81.67585155555555,26.59094847222222],[-81.67610447222222,26.590500249999998],[-81.67626430555556,26.59001861111111],[-81.6763258888889,26.589519083333332],[-81.67628730555556,26.589017666666667],[-81.67614975000001,26.588530527777777],[-81.67591766666668,26.588073277777777],[-81.6755985,26.587660666666665],[-81.67520250000001,26.58730588888889],[-81.67474241666667,26.587020388888888],[-81.67423305555556,26.586813333333332],[-81.67369072222223,26.586691388888887],[-81.67313291666667,26.586658472222222],[-81.67257752777778,26.58671561111111],[-81.6720423888889,26.586861],[-81.67154475000001,26.587089944444443],[-81.67110055555555,26.58739511111111],[-81.67072411111111,26.587766666666667],[-81.67042752777779,26.588192694444444],[-81.67022030555556,26.5886595],[-81.67010911111112,26.589152055555555],[-81.67009752777778,26.589654555555555]]},"properties":{"style":"solid","thickness":1}},{"type":"Feature","geometry":{"type":"LineString","coordinates":[[-81.67370694444445,26.595940833333334],[-81.67342316666667,26.594707555555555],[-81.67289080555555,26.593542638888888],[-81.67212819444445,26.59248625],[-81.67116158333334,26.59157472222222],[-81.67002427777778,26.59083947222222],[-81.66875547222223,26.590305805555555],[-81.66739880555556,26.58999211111111],[-81.66600105555555,26.589909194444445]]},"properties":{"style":"solid","thickness":1}},{"type":"Feature","geometry":{"type":"LineString","coordinates":[[-81.66600105555555,26.589909194444445],[-81.66737283333333,26.58965413888889],[-81.66866852777778,26.589175583333333],[-81.66984355555556,26.58849],[-81.67085744444445,26.587620972222222],[-81.67167522222223,26.586598499999997],[-81.67226875,26.58545775],[-81.67261761111112,26.584238055555556],[-81.67270977777778,26.58298138888889]]},"properties":{"style":"solid","thickness":1}},{"type":"Feature","geometry":{"type":"LineString","coordinates":[[-81.67270977777778,26.58298138888889],[-81.6729935,26.584214666666664],[-81.67352583333334,26.58537958333333],[-81.67428841666667,26.586435972222223],[-81.675255,26.58734747222222],[-81.67639230555557,26.58808269444444],[-81.6776611388889,26.588616277777778],[-81.67901780555556,26.588929888888888],[-81.68041555555556,26.589012666666665]]},"properties":{"style":"solid","thickness":1}},{"type":"Feature","geometry":{"type":"LineString","coordinates":[[-81.68041555555556,26.589012666666665],[-81.67904380555557,26.58926783333333],[-81.67774813888889,26.5897465],[-81.6765731388889,26.590432166666666],[-81.67555930555557,26.591301194444444],[-81.67474152777778,26.592323694444442],[-81.67414797222223,26.593464444444443],[-81.67379911111112,26.594684166666667],[-81.67370694444445,26.595940833333334]]},"properties":{"style":"solid","thickness":1}},{"type":"Feature","geometry":{"type":"LineString","coordinates":[[-81.76993133333333,26.5453335],[-81.76993133333333,26.54355538888889]]},"properties":{"style":"solid","thickness":1}},{"type":"Feature","geometry":{"type":"LineString","coordinates":[[-81.76942155555555,26.545544833333334],[-81.76942155555555,26.543344055555558]]},"properties":{"style":"solid","thickness":1}},{"type":"Feature","geometry":{"type":"LineString","coordinates":[[-81.76891177777777,26.545544833333334],[-81.76891177777777,26.543344055555558]]},"properties":{"style":"solid","thickness":1}},{"type":"Feature","geometry":{"type":"LineString","coordinates":[[-81.768402,26.5453335],[-81.768402,26.54355538888889]]},"properties":{"style":"solid","thickness":1}},{"type":"Feature","geometry":{"type":"LineString","coordinates":[[-81.76784125,26.544444444444448],[-81.76786255555555,26.544657305555557],[-81.76792575,26.54486330555556],[-81.7680288611111,26.545055861111113],[-81.76816852777777,26.54522877777778],[-81.76834027777778,26.545376472222223],[-81.76853858333334,26.545494194444448],[-81.76875708333333,26.545578194444445],[-81.76898875,26.545625750000003],[-81.76922613888888,26.545635333333333],[-81.76946161111111,26.54560663888889],[-81.76968758333334,26.545540611111115],[-81.76989683333333,26.545439333333334],[-81.7700826111111,26.545306083333337],[-81.77023894444444,26.54514513888889],[-81.77036083333333,26.54496166666667],[-81.77044430555556,26.544761583333337],[-81.77048675,26.544551305555558],[-81.77048675,26.544337583333334],[-81.77044430555556,26.544127305555556],[-81.77036080555555,26.543927194444446],[-81.77023894444444,26.54374375],[-81.7700826111111,26.54358280555556],[-81.76989683333333,26.543449555555558],[-81.76968758333334,26.54334827777778],[-81.76946158333334,26.543282222222224],[-81.76922613888888,26.54325355555556],[-81.76898875,26.54326313888889],[-81.76875708333333,26.543310694444447],[-81.76853858333334,26.543394694444444],[-81.76834027777778,26.54351241666667],[-81.76816852777777,26.543660111111112],[-81.7680288611111,26.543833000000003],[-81.76792577777778,26.544025555555557],[-81.76786255555555,26.544231583333335],[-81.76784125,26.544444444444448]]},"properties":{"style":"solid","thickness":1}},{"type":"Feature","geometry":{"type":"LineString","coordinates":[[-81.65372136111111,26.465817666666666],[-81.65728852777778,26.465595916666665],[-81.65463033333334,26.4703235],[-81.65419391666667,26.464636194444445]]},"properties":{"style":"solid","thickness":1}},{"type":"Feature","geometry":{"type":"LineString","coordinates":[[-81.6481896388889,26.467129138888886],[-81.6482951388889,26.46850511111111],[-81.64850780555557,26.469275333333332],[-81.6486378888889,26.469635916666665],[-81.64881186111111,26.46990161111111],[-81.64946561111111,26.470414027777775],[-81.65009475000001,26.470605361111108],[-81.65029858333334,26.47059269444444],[-81.65089255555556,26.470325361111108],[-81.65141088888889,26.469740166666664],[-81.6515936388889,26.469452305555553],[-81.65166741666667,26.469079027777777],[-81.65176047222222,26.468289833333333],[-81.65165491666667,26.46691386111111],[-81.65144225,26.466143638888887],[-81.65131216666667,26.465783055555555],[-81.65108722222223,26.465520527777777],[-81.65048444444444,26.46500497222222],[-81.64985536111112,26.464813638888888],[-81.64965152777778,26.464826305555555],[-81.64905758333335,26.46509361111111],[-81.64848827777779,26.465682],[-81.6483565,26.465966694444443],[-81.64828272222223,26.466339944444442],[-81.6481896388889,26.467129138888886]]},"properties":{"style":"solid","thickness":1}}]}
