{"type":"FeatureCollection","features":[{"type":"Feature","geometry":{"type":"LineString","coordinates":[[-81.39176683333334,26.81903186111111],[-81.39661233333334,26.681566111111113]]},"properties":{"style":"solid","thickness":1}},{"type":"Feature","geometry":{"type":"LineString","coordinates":[[-81.40227777777778,26.52075],[-81.40168947222223,26.53746525]]},"properties":{"style":"solid","thickness":1}},{"type":"Feature","geometry":{"type":"LineString","coordinates":[[-81.40110100000001,26.554180416666668],[-81.40051236111111,26.570895583333332]]},"properties":{"style":"solid","thickness":1}},{"type":"Feature","geometry":{"type":"LineString","coordinates":[[-81.39992355555556,26.587610666666667],[-81.39933455555557,26.604325722222224]]},"properties":{"style":"solid","thickness":1}},{"type":"Feature","geometry":{"type":"LineString","coordinates":[[-81.39874541666667,26.621040722222222],[-81.39815608333333,26.637755666666667]]},"properties":{"style":"solid","thickness":1}},{"type":"Feature","geometry":{"type":"LineString","coordinates":[[-81.41158969444444,26.52101488888889],[-81.3929658888889,26.5204845]]},"properties":{"style":"solid","thickness":1}},{"type":"Feature","geometry":{"type":"LineString","coordinates":[[-81.40665658333334,26.661348527777776],[-81.3880101388889,26.6608175]]},"properties":{"style":"solid","thickness":1}},{"type":"Feature","geometry":{"type":"LineString","coordinates":[[-81.50545088888889,26.696040166666666],[-81.5033103611111,26.694560222222222],[-81.4997305,26.692204944444445],[-81.49794958333334,26.691090777777777]]},"properties":{"style":"solid","thickness":1}},{"type":"Feature","geometry":{"type":"LineString","coordinates":[[-81.49018333333333,26.686483388888888],[-81.48863108333333,26.68560775],[-81.48481833333334,26.683569055555555],[-81.48217136111111,26.682229333333336]]},"properties":{"style":"solid","thickness":1}},{"type":"Feature","geometry":{"type":"LineString","coordinates":[[-81.47393355555556,26.67833925],[-81.47307141666667,26.677950222222222],[-81.46906030555556,26.676246555555558],[-81.46549033333334,26.674822694444444]]},"properties":{"style":"solid","thickness":1}},{"type":"Feature","geometry":{"type":"LineString","coordinates":[[-81.4568626388889,26.671688444444445],[-81.45677241666667,26.671657],[-81.45259933333334,26.670303833333335],[-81.44839161111112,26.66904030555556],[-81.44806933333334,26.66895113888889]]},"properties":{"style":"solid","thickness":1}},{"type":"Feature","geometry":{"type":"LineString","coordinates":[[-81.43913486111111,26.666612916666665],[-81.43558458333334,26.665794638888887],[-81.43126233333334,26.664896416666664],[-81.43008208333333,26.664677638888886]]},"properties":{"style":"solid","thickness":1}},{"type":"Feature","geometry":{"type":"LineString","coordinates":[[-81.42093347222223,26.663150027777775],[-81.41817016666667,26.66275986111111],[-81.41377252777778,26.662235055555556],[-81.41171169444445,26.66203388888889]]},"properties":{"style":"solid","thickness":1}},{"type":"Feature","geometry":{"type":"LineString","coordinates":[[-81.38383605555556,26.661176805555556],[-81.38277527777777,26.66120983333333],[-81.37834666666666,26.661442694444442],[-81.37455077777777,26.661723944444443]]},"properties":{"style":"solid","thickness":1}},{"type":"Feature","geometry":{"type":"LineString","coordinates":[[-81.36530716666667,26.66268608333333],[-81.36511527777778,26.66270861111111],[-81.36073130555555,26.663318888888888],[-81.35636475,26.664022749999997],[-81.35612916666666,26.66406597222222]]},"properties":{"style":"solid","thickness":1}},{"type":"Feature","geometry":{"type":"LineString","coordinates":[[-81.34704005555555,26.665859027777778],[-81.34339402777778,26.66669186111111],[-81.33912163888888,26.667765694444444],[-81.33806166666666,26.66805675]]},"properties":{"style":"solid","thickness":1}},{"type":"Feature","geometry":{"type":"LineString","coordinates":[[-81.32921625,26.670653666666666],[-81.32649183333334,26.67153113888889],[-81.32235233333333,26.672965194444444],[-81.32052572222221,26.673643333333334]]},"properties":{"style":"solid","thickness":1}},{"type":"Feature","geometry":{"type":"LineString","coordinates":[[-81.3120116111111,26.677018333333333],[-81.31017783333333,26.677792833333335],[-81.30620869444444,26.67957416666667],[-81.30369502777778,26.68077030555556]]},"properties":{"style":"solid","thickness":1}},{"type":"Feature","geometry":{"type":"LineString","coordinates":[[-81.29559658333334,26.684889972222223],[-81.29459988888888,26.685420305555557],[-81.2908371111111,26.687532722222223],[-81.28773636111112,26.68936713888889]]},"properties":{"style":"solid","thickness":1}},{"type":"Feature","geometry":{"type":"LineString","coordinates":[[-81.28013386111111,26.694190722222224],[-81.27989925,26.69434438888889],[-81.276377,26.696768777777777],[-81.27291994444444,26.699267833333334],[-81.27281016666666,26.69935113888889]]},"properties":{"style":"solid","thickness":1}},{"type":"Feature","geometry":{"type":"LineString","coordinates":[[-81.26578622222222,26.704837694444443],[-81.26295955555555,26.707198638888887],[-81.2597826388889,26.709981805555554],[-81.25907525,26.71063175]]},"properties":{"style":"solid","thickness":1}},{"type":"Feature","geometry":{"type":"LineString","coordinates":[[-81.252694,26.71671894444444],[-81.25070675,26.718727805555552],[-81.24783880555556,26.721769805555553],[-81.24665830555556,26.72308422222222]]},"properties":{"style":"solid","thickness":1}},{"type":"Feature","geometry":{"type":"LineString","coordinates":[[-81.24098316666667,26.72971175],[-81.23972997222222,26.731251694444442],[-81.23719713888889,26.734524972222225],[-81.23568275,26.73658511111111]]},"properties":{"style":"solid","thickness":1}},{"type":"Feature","geometry":{"type":"LineString","coordinates":[[-81.23077027777778,26.74368725],[-81.23012919444444,26.744656777777777],[-81.22795455555556,26.74813163888889],[-81.22625797222223,26.751000555555557]]},"properties":{"style":"solid","thickness":1}},{"type":"Feature","geometry":{"type":"LineString","coordinates":[[-81.22215716666666,26.758506861111112],[-81.22199202777777,26.758821416666667],[-81.22019544444444,26.762466333333332],[-81.21849608333333,26.76614863888889],[-81.21847916666667,26.766187944444443]]},"properties":{"style":"solid","thickness":1}},{"type":"Feature","geometry":{"type":"LineString","coordinates":[[-81.21524088888889,26.774027],[-81.21399077777778,26.777398972222223],[-81.2126895,26.781209777777775],[-81.21244211111112,26.78200111111111]]},"properties":{"style":"solid","thickness":1}},{"type":"Feature","geometry":{"type":"LineString","coordinates":[[-81.21008980555555,26.790090444444445],[-81.20939752777778,26.792793944444448],[-81.20850627777779,26.79669863888889],[-81.20818991666667,26.798274916666667]]},"properties":{"style":"solid","thickness":1}},{"type":"Feature","geometry":{"type":"LineString","coordinates":[[-81.20674725,26.806534222222222],[-81.20645802777778,26.80851147222222],[-81.20598508333333,26.812474555555557],[-81.20561758333334,26.81644661111111]]},"properties":{"style":"solid","thickness":1}},{"type":"Feature","geometry":{"type":"LineString","coordinates":[[-81.39756658333334,26.654470555555555],[-81.39697691666667,26.67118538888889]]},"properties":{"style":"solid","thickness":1}},{"type":"Feature","geometry":{"type":"LineString","coordinates":[[-81.51964394444444,26.70685511111111],[-81.51766025,26.705208083333332],[-81.51433072222223,26.702572888888888],[-81.51266855555555,26.70131925]]},"properties":{"style":"solid","thickness":1}},{"type":"Feature","geometry":{"type":"LineString","coordinates":[[-81.53263152777778,26.718828666666663],[-81.53025252777778,26.716438194444443],[-81.52721697222222,26.713530416666664],[-81.52630377777778,26.712696416666667]]},"properties":{"style":"solid","thickness":1}},{"type":"Feature","geometry":{"type":"LineString","coordinates":[[-81.38434672222223,26.82772347222222],[-81.16833486111112,26.814065833333334]]},"properties":{"style":"solid","thickness":1}},{"type":"Feature","geometry":{"type":"LineString","coordinates":[[-81.39621819444446,26.82447636111111],[-81.56070477777777,26.697078]]},"properties":{"style":"solid","thickness":1}},{"type":"Feature","geometry":{"type":"LineString","coordinates":[[-81.76988069444444,26.543526972222224],[-81.76988072222223,26.545361916666668]]},"properties":{"style":"solid","thickness":1}},{"type":"Feature","geometry":{"type":"LineString","coordinates":[[-81.76937066666666,26.543343472222222],[-81.76937066666666,26.54554538888889]]},"properties":{"style":"solid","thickness":1}},{"type":"Feature","geometry":{"type":"LineString","coordinates":[[-81.76886063888888,26.543343472222222],[-81.76886063888888,26.54554538888889]]},"properties":{"style":"solid","thickness":1}},{"type":"Feature","geometry":{"type":"LineString","coordinates":[[-81.76835061111112,26.543526972222224],[-81.76835061111112,26.545361916666668]]},"properties":{"style":"solid","thickness":1}},{"type":"Feature","geometry":{"type":"LineString","coordinates":[[-81.76784058333334,26.544444444444448],[-81.76784847222223,26.54457452777778],[-81.76787397222222,26.5447105],[-81.7679195,26.544849805555558],[-81.76798691666667,26.54498913888889],[-81.76807725,26.5451245],[-81.76819025,26.545251500000003],[-81.76832441666667,26.545365694444445],[-81.76847672222222,26.545463027777778],[-81.76864305555556,26.545540222222225],[-81.76881830555556,26.54559525],[-81.76899708333333,26.545627361111112],[-81.76917422222222,26.54563713888889],[-81.76934502777777,26.545626305555558],[-81.76950588888889,26.545597472222223],[-81.76965416666667,26.545553611111114],[-81.76978827777778,26.545497972222226],[-81.76991075,26.545431694444446],[-81.77003036111111,26.545349472222224],[-81.77014444444444,26.54525013888889],[-81.77024899999999,26.54513355555556],[-81.77033975,26.545000611111114],[-81.77041241666666,26.544853250000003],[-81.77046325,26.544694583333335],[-81.77048944444445,26.54452863888889],[-81.77048944444445,26.544360222222224],[-81.77046325,26.544194305555557],[-81.77041241666666,26.544035611111113],[-81.77033975,26.543888250000002],[-81.77024899999999,26.543755305555557],[-81.77014444444444,26.543638750000003],[-81.77003036111111,26.54353938888889],[-81.76991075,26.543457194444446],[-81.76978827777778,26.54339088888889],[-81.76965416666667,26.543335250000002],[-81.76950588888889,26.54329141666667],[-81.76934502777777,26.543262583333334],[-81.76917422222222,26.543251750000003],[-81.76899708333333,26.54326152777778],[-81.76881830555556,26.54329363888889],[-81.76864305555556,26.54334863888889],[-81.76847675,26.543425861111114],[-81.76832441666667,26.543523194444447],[-81.76819027777778,26.54363738888889],[-81.76807725,26.543764388888892],[-81.76798694444444,26.54389975],[-81.76791952777778,26.544039055555558],[-81.76787399999999,26.54417838888889],[-81.76784847222223,26.544314361111113],[-81.76784058333334,26.544444444444448]]},"properties":{"style":"solid","thickness":1}},{"type":"Feature","geometry":{"type":"LineString","coordinates":[[-81.38441597222223,26.640775277777777],[-81.38507713888889,26.649654416666667],[-81.38165369444444,26.649860222222223],[-81.3807096111111,26.649776527777778],[-81.38030497222222,26.64959013888889],[-81.3796461111111,26.649138166666667],[-81.37865519444443,26.648425194444442],[-81.37796513888888,26.647553694444444],[-81.37775749999999,26.646863888888888],[-81.37758583333333,26.644556722222223],[-81.37769463888888,26.64391813888889],[-81.37809902777776,26.64305111111111],[-81.37860722222221,26.642528972222223],[-81.379105,26.641867027777778],[-81.37984658333333,26.64133086111111],[-81.38076458333333,26.641065],[-81.38130397222221,26.64096236111111],[-81.38441597222223,26.640775277777777]]},"properties":{"style":"solid","thickness":1}},{"type":"Feature","geometry":{"type":"LineString","coordinates":[[-81.37480674999999,26.65027161111111],[-81.37428152777777,26.643210194444443],[-81.37417774999999,26.642865305555556],[-81.37358113888888,26.642198861111112],[-81.37316094444444,26.64180272222222],[-81.37251775,26.641560444444444],[-81.37165672222221,26.641541916666664],[-81.37041191666665,26.641616638888888],[-81.36971691666666,26.641728583333332],[-81.36880927777777,26.642134194444445],[-81.36830102777778,26.642656305555555],[-81.368021,26.64309447222222],[-81.36791216666666,26.643733027777778],[-81.36842658333333,26.650654638888888]]},"properties":{"style":"solid","thickness":1}},{"type":"Feature","geometry":{"type":"LineString","coordinates":[[-81.36449902777777,26.64197147222222],[-81.36515869444443,26.650850694444443],[-81.36126830555556,26.651084027777777],[-81.36094669444444,26.65096286111111],[-81.36022566666666,26.650725194444444],[-81.35947347222222,26.650068027777778],[-81.3591103611111,26.649387527777776],[-81.35904805555555,26.648548527777777],[-81.35930738888888,26.64783072222222],[-81.35995572222221,26.647089583333333],[-81.36063519444444,26.646767944444445],[-81.36093602777777,26.646609444444444],[-81.36482625,26.64637613888889]]},"properties":{"style":"solid","thickness":1}},{"type":"Feature","geometry":{"type":"LineString","coordinates":[[-81.35531844444444,26.642521916666666],[-81.35597738888889,26.651401194444443],[-81.34652677777777,26.643048472222223],[-81.34718502777777,26.651927777777775]]},"properties":{"style":"solid","thickness":1}},{"type":"Feature","geometry":{"type":"LineString","coordinates":[[-81.34399488888889,26.65211872222222],[-81.3383926111111,26.65245386111111]]},"properties":{"style":"solid","thickness":1}},{"type":"Feature","geometry":{"type":"LineString","coordinates":[[-81.34127155555555,26.652281666666664],[-81.34061374999999,26.643402333333334]]},"properties":{"style":"solid","thickness":1}},{"type":"Feature","geometry":{"type":"LineString","coordinates":[[-81.46905802777778,26.51333436111111],[-81.46839116666666,26.50445538888889]]},"properties":{"style":"solid","thickness":1}},{"type":"Feature","geometry":{"type":"LineString","coordinates":[[-81.46369072222222,26.513590305555557],[-81.46872194444444,26.508859916666665],[-81.46295183333334,26.504785972222223]]},"properties":{"style":"solid","thickness":1}},{"type":"Feature","geometry":{"type":"LineString","coordinates":[[-81.45483688888889,26.514198194444443],[-81.45623569444444,26.514113277777778],[-81.45692986111112,26.514000916666667],[-81.45828147222223,26.51328677777778],[-81.4595133888889,26.512018027777778],[-81.45991144444444,26.511080833333335],[-81.46006063888889,26.509948055555554],[-81.45999244444445,26.509039194444444],[-81.45977408333334,26.508209666666666],[-81.45931736111112,26.50732438888889],[-81.45837866666668,26.506257694444443],[-81.45804163888889,26.505927],[-81.45738852777778,26.50554525],[-81.45603605555556,26.50520597222222],[-81.45440425,26.505305027777776],[-81.45363766666667,26.505492],[-81.45288158333334,26.505818833333333],[-81.45243105555556,26.506056861111112],[-81.45169591666667,26.506663305555556],[-81.45105944444445,26.50754472222222],[-81.45086825,26.508118166666666],[-81.45071372222222,26.509181027777778],[-81.45083947222223,26.510858944444443],[-81.45166463888889,26.512494444444446],[-81.45217283333334,26.513025444444445],[-81.4527535,26.513481833333334],[-81.45332369444445,26.51379838888889],[-81.45348433333334,26.51385888888889],[-81.45483688888889,26.514198194444443]]},"properties":{"style":"solid","thickness":1}},{"type":"Feature","geometry":{"type":"LineString","coordinates":[[-81.441439,26.514589333333333],[-81.44192622222222,26.51484072222222],[-81.44248066666667,26.514947583333335],[-81.44434577777778,26.51483452777778],[-81.44503472222223,26.514652305555554],[-81.44526261111112,26.51456825],[-81.44638116666667,26.51386836111111],[-81.44702819444444,26.513126805555554],[-81.44720894444445,26.512413555555554],[-81.44765861111111,26.51112211111111],[-81.44753813888889,26.509514083333332],[-81.44732511111111,26.508754472222222],[-81.44704486111111,26.50813938888889],[-81.44668163888889,26.507459083333334],[-81.44584697222223,26.506737166666667],[-81.44431816666668,26.506127527777778],[-81.44329227777779,26.505979027777776],[-81.4424375,26.506030833333334],[-81.44136530555556,26.506306527777777],[-81.44099247222222,26.506539805555555],[-81.44069211111112,26.506698472222222]]},"properties":{"style":"solid","thickness":1}},{"type":"Feature","geometry":{"type":"LineString","coordinates":[[-81.43812352777778,26.515141361111112],[-81.43746427777778,26.506332194444443]]},"properties":{"style":"solid","thickness":1}},{"type":"Feature","geometry":{"type":"LineString","coordinates":[[-81.43151791666668,26.515541333333335],[-81.43085916666666,26.50673213888889]]},"properties":{"style":"solid","thickness":1}},{"type":"Feature","geometry":{"type":"LineString","coordinates":[[-81.43781480555556,26.511016416666667],[-81.43120944444445,26.51141638888889]]},"properties":{"style":"solid","thickness":1}},{"type":"Feature","geometry":{"type":"LineString","coordinates":[[-81.42359633333334,26.516090833333333],[-81.4283368888889,26.515804083333332],[-81.42767313888889,26.506924944444446],[-81.42285525,26.50721638888889]]},"properties":{"style":"solid","thickness":1}},{"type":"Feature","geometry":{"type":"LineString","coordinates":[[-81.4280023888889,26.511329555555555],[-81.42341744444445,26.51160691666667]]},"properties":{"style":"solid","thickness":1}},{"type":"Feature","geometry":{"type":"LineString","coordinates":[[-81.20788272222222,26.836079277777777],[-81.20733627777778,26.828598055555556],[-81.20738355555555,26.828173944444444],[-81.20774258333334,26.82773152777778],[-81.20818466666667,26.827354444444445],[-81.20848616666667,26.827196277777777],[-81.20894866666667,26.827098888888887],[-81.209728,26.827053055555556],[-81.21020069444445,26.827095472222222],[-81.21093783333333,26.827543638888887],[-81.21110902777778,26.82774425]]},"properties":{"style":"solid","thickness":1}},{"type":"Feature","geometry":{"type":"LineString","coordinates":[[-81.20403888888889,26.82738747222222],[-81.20468722222222,26.83626711111111]]},"properties":{"style":"solid","thickness":1}},{"type":"Feature","geometry":{"type":"LineString","coordinates":[[-81.19998636111112,26.827625555555557],[-81.20063438888889,26.83650519444444],[-81.19736091666667,26.836697444444443],[-81.19665947222222,26.83673861111111],[-81.19608330555556,26.836351138888887],[-81.19565788888889,26.835884583333332],[-81.1956375,26.835604916666664],[-81.1955355,26.834206527777777],[-81.1955981388889,26.833992194444445],[-81.19579116666667,26.83341913888889],[-81.19651952777778,26.832674194444444],[-81.19570955555555,26.832300444444446],[-81.19530458333334,26.832113555555555],[-81.1948893888889,26.831786833333332],[-81.19460969444445,26.831171277777777],[-81.19447711111111,26.829353416666667],[-81.19467522222223,26.82885025],[-81.19519016666668,26.82839872222222],[-81.19555944444444,26.828096166666665],[-81.19593383333334,26.827863527777776],[-81.19998636111112,26.827625555555557]]},"properties":{"style":"solid","thickness":1}},{"type":"Feature","geometry":{"type":"LineString","coordinates":[[-81.20033841666667,26.832449944444445],[-81.19651952777778,26.832674194444444]]},"properties":{"style":"solid","thickness":1}},{"type":"Feature","geometry":{"type":"LineString","coordinates":[[-81.19174927777779,26.837026805555553],[-81.18613755555556,26.837355944444443]]},"properties":{"style":"solid","thickness":1}},{"type":"Feature","geometry":{"type":"LineString","coordinates":[[-81.18902136111112,26.837186805555554],[-81.18837422222222,26.82830713888889]]},"properties":{"style":"solid","thickness":1}},{"type":"Feature","geometry":{"type":"LineString","coordinates":[[-81.17733027777778,26.837872055555554],[-81.17873319444445,26.83778988888889],[-81.17942958333335,26.83767886111111],[-81.18078669444445,26.836967388888887],[-81.18202513888889,26.835701138888886],[-81.18242655555557,26.834764777777778],[-81.18257891666667,26.83363236111111],[-81.18251272222223,26.832723416666667],[-81.18229575000001,26.831893527777776],[-81.18183988888889,26.831007416666665],[-81.18090111111111,26.829938972222223],[-81.18056391666667,26.829607638888888],[-81.17990991666667,26.82922463888889],[-81.17855447222223,26.82888275],[-81.17691783333333,26.828978638888888],[-81.17614866666668,26.829164111111112],[-81.17538966666667,26.829489444444445],[-81.17493730555556,26.829726583333333],[-81.1741986388889,26.830331555555556],[-81.17355825,26.831211666666665],[-81.1733651388889,26.83178472222222],[-81.17320761111111,26.832847194444444],[-81.17332969444445,26.83452525],[-81.17415322222223,26.836162249999997],[-81.17466155555556,26.83669422222222],[-81.17524275000001,26.837151694444444],[-81.17581377777778,26.83746933333333],[-81.17597475000001,26.837530138888887],[-81.17733027777778,26.837872055555554]]},"properties":{"style":"solid","thickness":1}},{"type":"Feature","geometry":{"type":"LineString","coordinates":[[-81.42430036111112,26.84541286111111],[-81.42363502777778,26.83653425],[-81.41981644444445,26.83676447222222]]},"properties":{"style":"solid","thickness":1}},{"type":"Feature","geometry":{"type":"LineString","coordinates":[[-81.41662127777778,26.83695702777778],[-81.41728605555556,26.84583563888889],[-81.41401269444445,26.846032833333332],[-81.41331125,26.846075083333332],[-81.41273430555556,26.84568847222222],[-81.41230800000001,26.845222555555555],[-81.41228708333334,26.844942916666664],[-81.41218244444445,26.84354472222222],[-81.41224466666667,26.843330277777778],[-81.41243663888889,26.842756916666666],[-81.41316366666668,26.842010888888886],[-81.41235291666668,26.84163836111111],[-81.41194755555556,26.841452083333333],[-81.41153172222222,26.841126],[-81.41125083333334,26.840510888888886],[-81.41111483333334,26.838693194444442],[-81.41131202777778,26.838189749999998],[-81.41182616666667,26.837737444444443],[-81.41219488888889,26.83743433333333],[-81.41256886111111,26.837201138888886],[-81.41662127777778,26.83695702777778]]},"properties":{"style":"solid","thickness":1}},{"type":"Feature","geometry":{"type":"LineString","coordinates":[[-81.41698244444444,26.84178086111111],[-81.41316366666668,26.842010888888886]]},"properties":{"style":"solid","thickness":1}},{"type":"Feature","geometry":{"type":"LineString","coordinates":[[-81.40840119444445,26.846370694444442],[-81.40399636111111,26.83771711111111],[-81.40107502777778,26.846811444444445]]},"properties":{"style":"solid","thickness":1}},{"type":"Feature","geometry":{"type":"LineString","coordinates":[[-81.57561047222222,26.73147236111111],[-81.57504063888888,26.723992361111108],[-81.57508655555556,26.723568138888886],[-81.57544383333332,26.723124805555553],[-81.57588427777777,26.722746555555553],[-81.57618502777777,26.72258761111111],[-81.57664677777777,26.722489027777776],[-81.57742524999999,26.722441194444443],[-81.57789766666666,26.72248238888889],[-81.57863558333332,26.72292869444444],[-81.57880725,26.72312883333333]]},"properties":{"style":"solid","thickness":1}},{"type":"Feature","geometry":{"type":"LineString","coordinates":[[-81.57174241666667,26.72279025],[-81.57241847222222,26.731668388888888]]},"properties":{"style":"solid","thickness":1}},{"type":"Feature","geometry":{"type":"LineString","coordinates":[[-81.56187630555556,26.731893888888887],[-81.56236469444444,26.732144888888886],[-81.56292030555555,26.732251277777777],[-81.56478880555555,26.732136638888885],[-81.5654788611111,26.73195386111111],[-81.56570711111111,26.731869611111108],[-81.56682702777778,26.731168805555555],[-81.5674745,26.73042672222222],[-81.56765486111111,26.729713333333333],[-81.56810402777778,26.728421555555553],[-81.56798163888888,26.72681372222222],[-81.56776741666667,26.726054305555554],[-81.567486,26.72543947222222],[-81.56712138888888,26.724759499999998],[-81.56628438888889,26.724038305555553],[-81.56475205555556,26.723429999999997],[-81.56372408333333,26.72328236111111],[-81.56286775,26.723334888888886],[-81.56179383333333,26.72361147222222],[-81.56142055555556,26.723845055555554],[-81.56111977777778,26.72400397222222]]},"properties":{"style":"solid","thickness":1}},{"type":"Feature","geometry":{"type":"LineString","coordinates":[[-81.55856047222223,26.73251861111111],[-81.55295494444444,26.732862138888887]]},"properties":{"style":"solid","thickness":1}},{"type":"Feature","geometry":{"type":"LineString","coordinates":[[-81.55583555555555,26.73268563888889],[-81.55516075,26.723807444444443]]},"properties":{"style":"solid","thickness":1}},{"type":"Feature","geometry":{"type":"LineString","coordinates":[[-81.54901069444445,26.72418422222222],[-81.54968502777777,26.733062444444442]]},"properties":{"style":"solid","thickness":1}},{"type":"Feature","geometry":{"type":"LineString","coordinates":[[-81.39453969444445,26.82295311111111],[-81.38760197222223,26.823369944444444],[-81.38500508333334,26.828399055555554],[-81.3888771388889,26.833591416666664],[-81.3947951388889,26.833235833333333],[-81.39786083333334,26.827626638888887],[-81.39453969444445,26.82295311111111]]},"properties":{"style":"solid","thickness":1}},{"type":"Feature","geometry":{"type":"LineString","coordinates":[[-81.39453969444445,26.82295311111111],[-81.39432097222223,26.820023944444443],[-81.38738341666668,26.820440777777776],[-81.38760197222223,26.823369944444444]]},"properties":{"style":"solid","thickness":1}},{"type":"Feature","geometry":{"type":"LineString","coordinates":[[-81.38500508333334,26.828399055555554],[-81.38216222222222,26.830132805555554],[-81.38612941666668,26.835227555555555],[-81.3888771388889,26.833591416666664]]},"properties":{"style":"solid","thickness":1}},{"type":"Feature","geometry":{"type":"LineString","coordinates":[[-81.3947951388889,26.833235833333333],[-81.3977615,26.834528666666664],[-81.40093594444446,26.829004833333332],[-81.39786083333334,26.827626638888887]]},"properties":{"style":"solid","thickness":1}},{"type":"Feature","geometry":{"type":"LineString","coordinates":[[-81.38853686111112,26.83315211111111],[-81.38701358333334,26.83471472222222]]},"properties":{"style":"solid","thickness":1}},{"type":"Feature","geometry":{"type":"LineString","coordinates":[[-81.38819661111111,26.832712805555555],[-81.38590486111111,26.834965194444443]]},"properties":{"style":"solid","thickness":1}},{"type":"Feature","geometry":{"type":"LineString","coordinates":[[-81.38784952777779,26.832181972222223],[-81.38556461111112,26.834525888888887]]},"properties":{"style":"solid","thickness":1}},{"type":"Feature","geometry":{"type":"LineString","coordinates":[[-81.38750927777778,26.831742666666667],[-81.38522436111111,26.83408658333333]]},"properties":{"style":"solid","thickness":1}},{"type":"Feature","geometry":{"type":"LineString","coordinates":[[-81.38716219444446,26.831211833333334],[-81.38487727777779,26.83355575]]},"properties":{"style":"solid","thickness":1}},{"type":"Feature","geometry":{"type":"LineString","coordinates":[[-81.38682194444445,26.83077252777778],[-81.38453702777778,26.833116444444443]]},"properties":{"style":"solid","thickness":1}},{"type":"Feature","geometry":{"type":"LineString","coordinates":[[-81.38637966666667,26.83033936111111],[-81.38409475,26.83268325]]},"properties":{"style":"solid","thickness":1}},{"type":"Feature","geometry":{"type":"LineString","coordinates":[[-81.38603261111112,26.82980852777778],[-81.38374769444445,26.832152416666666]]},"properties":{"style":"solid","thickness":1}},{"type":"Feature","geometry":{"type":"LineString","coordinates":[[-81.38569236111111,26.829369222222223],[-81.38340744444446,26.83171311111111]]},"properties":{"style":"solid","thickness":1}},{"type":"Feature","geometry":{"type":"LineString","coordinates":[[-81.38534530555556,26.82883836111111],[-81.38306722222221,26.831273805555554]]},"properties":{"style":"solid","thickness":1}},{"type":"Feature","geometry":{"type":"LineString","coordinates":[[-81.38500508333334,26.828399055555554],[-81.38272699999999,26.83083447222222]]},"properties":{"style":"solid","thickness":1}},{"type":"Feature","geometry":{"type":"LineString","coordinates":[[-81.38304638888889,26.82962],[-81.38227791666667,26.83030975]]},"properties":{"style":"solid","thickness":1}},{"type":"Feature","geometry":{"type":"LineString","coordinates":[[-81.39794505555557,26.834241777777777],[-81.39765947222223,26.834534805555556]]},"properties":{"style":"solid","thickness":1}},{"type":"Feature","geometry":{"type":"LineString","coordinates":[[-81.39902586111111,26.832245916666665],[-81.39712877777778,26.83429086111111]]},"properties":{"style":"solid","thickness":1}},{"type":"Feature","geometry":{"type":"LineString","coordinates":[[-81.4002086388889,26.830243888888887],[-81.39659125,26.83395538888889]]},"properties":{"style":"solid","thickness":1}},{"type":"Feature","geometry":{"type":"LineString","coordinates":[[-81.40072505555555,26.828925555555557],[-81.39595852777778,26.833717583333332]]},"properties":{"style":"solid","thickness":1}},{"type":"Feature","geometry":{"type":"LineString","coordinates":[[-81.40009236111112,26.828687777777777],[-81.39542786111112,26.833473638888886]]},"properties":{"style":"solid","thickness":1}},{"type":"Feature","geometry":{"type":"LineString","coordinates":[[-81.39955483333334,26.828352305555555],[-81.3947951388889,26.833235833333333]]},"properties":{"style":"solid","thickness":1}},{"type":"Feature","geometry":{"type":"LineString","coordinates":[[-81.39902419444445,26.82810838888889],[-81.39578761111112,26.831429194444443]]},"properties":{"style":"solid","thickness":1}},{"type":"Feature","geometry":{"type":"LineString","coordinates":[[-81.3983915,26.827870583333333],[-81.39677322222222,26.829531]]},"properties":{"style":"solid","thickness":1}},{"type":"Feature","geometry":{"type":"LineString","coordinates":[[-81.39451236111111,26.822586944444446],[-81.39413158333333,26.82297763888889]]},"properties":{"style":"solid","thickness":1}},{"type":"Feature","geometry":{"type":"LineString","coordinates":[[-81.39445766666667,26.821854666666667],[-81.3933153888889,26.823026694444444]]},"properties":{"style":"solid","thickness":1}},{"type":"Feature","geometry":{"type":"LineString","coordinates":[[-81.39439616666667,26.82103083333333],[-81.39239716666667,26.82308186111111]]},"properties":{"style":"solid","thickness":1}},{"type":"Feature","geometry":{"type":"LineString","coordinates":[[-81.39434147222222,26.820298555555556],[-81.39158097222223,26.823130916666667]]},"properties":{"style":"solid","thickness":1}},{"type":"Feature","geometry":{"type":"LineString","coordinates":[[-81.39370883333333,26.820060722222223],[-81.39066272222223,26.823186083333333]]},"properties":{"style":"solid","thickness":1}},{"type":"Feature","geometry":{"type":"LineString","coordinates":[[-81.39289266666667,26.820109777777777],[-81.38984652777778,26.82323511111111]]},"properties":{"style":"solid","thickness":1}},{"type":"Feature","geometry":{"type":"LineString","coordinates":[[-81.39197444444446,26.820164972222223],[-81.38892830555557,26.823290277777776]]},"properties":{"style":"solid","thickness":1}},{"type":"Feature","geometry":{"type":"LineString","coordinates":[[-81.39115827777779,26.820214],[-81.38811208333334,26.823339305555557]]},"properties":{"style":"solid","thickness":1}},{"type":"Feature","geometry":{"type":"LineString","coordinates":[[-81.39024005555557,26.820269166666666],[-81.38757463888889,26.823003805555555]]},"properties":{"style":"solid","thickness":1}},{"type":"Feature","geometry":{"type":"LineString","coordinates":[[-81.3894238888889,26.820318194444443],[-81.38752000000001,26.8222715]]},"properties":{"style":"solid","thickness":1}},{"type":"Feature","geometry":{"type":"LineString","coordinates":[[-81.38850566666667,26.820373361111113],[-81.38745852777778,26.821447666666668]]},"properties":{"style":"solid","thickness":1}},{"type":"Feature","geometry":{"type":"LineString","coordinates":[[-81.38768947222223,26.82042238888889],[-81.38740391666667,26.82071538888889]]},"properties":{"style":"solid","thickness":1}},{"type":"Feature","geometry":{"type":"LineString","coordinates":[[-81.17586169444445,26.817948583333333],[-81.16833486111112,26.814065833333334],[-81.17601988888889,26.810441583333333]]},"properties":{"style":"solid","thickness":1}},{"type":"Feature","geometry":{"type":"LineString","coordinates":[[-81.39208247222223,26.68820913888889],[-81.39661233333334,26.681566111111113],[-81.40043222222222,26.688559916666666]]},"properties":{"style":"solid","thickness":1}},{"type":"Feature","geometry":{"type":"LineString","coordinates":[[-81.55226244444444,26.698863444444445],[-81.56070477777777,26.697078],[-81.55786272222223,26.70443811111111]]},"properties":{"style":"solid","thickness":1}}]}
