{"type":"FeatureCollection","features":[{"type":"Feature","geometry":{"type":"LineString","coordinates":[[-81.883519,27.251260944444443],[-81.90219761111112,27.250327333333335]]},"properties":{"style":"solid","thickness":1}},{"type":"Feature","geometry":{"type":"LineString","coordinates":[[-81.64044966666667,27.028784666666667],[-81.63633336111111,27.045109722222225]]},"properties":{"style":"solid","thickness":1}},{"type":"Feature","geometry":{"type":"LineString","coordinates":[[-81.92941950000001,26.993705000000002],[-81.94571441666668,27.001850083333334]]},"properties":{"style":"solid","thickness":1}},{"type":"Feature","geometry":{"type":"LineString","coordinates":[[-81.8745791111111,27.081552],[-81.89088258333334,27.089703083333333]]},"properties":{"style":"solid","thickness":1}},{"type":"Feature","geometry":{"type":"LineString","coordinates":[[-81.88375244444445,27.10231566666667],[-81.88477466666667,27.11900347222222]]},"properties":{"style":"solid","thickness":1}},{"type":"Feature","geometry":{"type":"LineString","coordinates":[[-81.88579716666668,27.135691194444444],[-81.88681997222223,27.152378833333334]]},"properties":{"style":"solid","thickness":1}},{"type":"Feature","geometry":{"type":"LineString","coordinates":[[-81.88784308333334,27.16906638888889],[-81.88886652777778,27.18575386111111]]},"properties":{"style":"solid","thickness":1}},{"type":"Feature","geometry":{"type":"LineString","coordinates":[[-81.88989025000001,27.202441222222223],[-81.89091427777778,27.219128527777777]]},"properties":{"style":"solid","thickness":1}},{"type":"Feature","geometry":{"type":"LineString","coordinates":[[-81.89193861111112,27.235815722222224],[-81.89285833333334,27.250794444444445]]},"properties":{"style":"solid","thickness":1}},{"type":"Feature","geometry":{"type":"LineString","coordinates":[[-81.92846602777779,27.012368333333335],[-81.91936308333334,27.02695825]]},"properties":{"style":"solid","thickness":1}},{"type":"Feature","geometry":{"type":"LineString","coordinates":[[-81.91025780555556,27.04154752777778],[-81.90115022222223,27.056136194444445]]},"properties":{"style":"solid","thickness":1}},{"type":"Feature","geometry":{"type":"LineString","coordinates":[[-81.89204030555557,27.07072422222222],[-81.88292808333333,27.08531161111111]]},"properties":{"style":"solid","thickness":1}},{"type":"Feature","geometry":{"type":"LineString","coordinates":[[-81.86450113888888,27.08201175],[-81.8462728611111,27.078393388888887]]},"properties":{"style":"solid","thickness":1}},{"type":"Feature","geometry":{"type":"LineString","coordinates":[[-81.82804575,27.07477272222222],[-81.80981977777778,27.071149694444443]]},"properties":{"style":"solid","thickness":1}},{"type":"Feature","geometry":{"type":"LineString","coordinates":[[-81.79159497222221,27.067524333333335],[-81.77337130555556,27.063896638888888]]},"properties":{"style":"solid","thickness":1}},{"type":"Feature","geometry":{"type":"LineString","coordinates":[[-81.75514880555555,27.06026663888889],[-81.73692747222222,27.05663427777778]]},"properties":{"style":"solid","thickness":1}},{"type":"Feature","geometry":{"type":"LineString","coordinates":[[-81.71870730555555,27.05299961111111],[-81.70048827777778,27.049362611111114]]},"properties":{"style":"solid","thickness":1}},{"type":"Feature","geometry":{"type":"LineString","coordinates":[[-81.68227041666667,27.04572327777778],[-81.66405372222223,27.04208161111111]]},"properties":{"style":"solid","thickness":1}},{"type":"Feature","geometry":{"type":"LineString","coordinates":[[-81.64583816666668,27.038437611111114],[-81.63839166666668,27.036947222222224]]},"properties":{"style":"solid","thickness":1}},{"type":"Feature","geometry":{"type":"LineString","coordinates":[[-81.99916202777779,27.002073305555555],[-81.99987286111111,27.010949],[-81.99643969444445,27.011169555555554],[-81.99549219444445,27.011089916666666],[-81.99508525,27.010905305555557],[-81.9944218888889,27.010456194444444],[-81.99342405555555,27.009747555555556],[-81.99272711111111,27.00887911111111],[-81.99251513888889,27.00819025],[-81.99233058333333,27.005883944444445],[-81.99243627777778,27.005244944444446],[-81.99283730555555,27.00437625],[-81.99334430555555,27.003851944444445],[-81.99384011111111,27.00318788888889],[-81.99458116666666,27.002648583333333],[-81.99550063888888,27.00237877777778],[-81.99604119444444,27.002273805555557],[-81.99916202777779,27.002073305555555]]},"properties":{"style":"solid","thickness":1}},{"type":"Feature","geometry":{"type":"LineString","coordinates":[[-81.98403336111112,27.011965888888888],[-81.98543786111111,27.011875805555555],[-81.98613452777778,27.01176086111111],[-81.98748869444445,27.01104175],[-81.9887201111111,27.009768527777776],[-81.98911558333333,27.008829944444443],[-81.98926019444444,27.00769672222222],[-81.98918752777777,27.006788194444443],[-81.98896438888889,27.005959555555556],[-81.98850158333333,27.005076055555556],[-81.98755391666667,27.004012916666667],[-81.98721386111112,27.003683527777778],[-81.98655616666667,27.00330425],[-81.98519625,27.002970027777778],[-81.98355780555556,27.00307513888889],[-81.98278875,27.003264944444446],[-81.98203088888889,27.003594555555555],[-81.9815795,27.00383422222222],[-81.98084397222222,27.00444336111111],[-81.98020877777778,27.005327055555554],[-81.98001938888889,27.005901166666668],[-81.97986911111111,27.0069645],[-81.98000313888889,27.008641805555555],[-81.98083944444444,27.010274083333332],[-81.98135227777777,27.010803166666665],[-81.98193758333333,27.01125736111111],[-81.98251172222223,27.011571777777778],[-81.98267336111111,27.011631666666666],[-81.98403336111112,27.011965888888888]]},"properties":{"style":"solid","thickness":1}},{"type":"Feature","geometry":{"type":"LineString","coordinates":[[-81.96942522222223,27.011708],[-81.96977080555556,27.012107333333333],[-81.97050652777779,27.012481694444446],[-81.97098586111112,27.0125915],[-81.97232911111111,27.012716194444444],[-81.97279727777779,27.012686194444445],[-81.97372244444445,27.01248641666667],[-81.974486,27.01222675],[-81.97463647222223,27.012146861111113],[-81.97515475,27.011762444444443],[-81.97566744444444,27.011308111111113],[-81.97650886111111,27.01006],[-81.97680966666667,27.008916777777777],[-81.97668683333333,27.00737925],[-81.97646377777778,27.006550583333333],[-81.97610144444445,27.005941583333332],[-81.9755886388889,27.0054125],[-81.97515944444444,27.00494827777778],[-81.97448502777777,27.004359277777777],[-81.9738385,27.00411972222222],[-81.973192,27.003880166666665],[-81.97263466666666,27.00377538888889],[-81.97123027777778,27.00386536111111],[-81.97046119444444,27.00405511111111],[-81.96985933333333,27.00437463888889],[-81.969185,27.004769055555556],[-81.96874475,27.00514847222222],[-81.96803144444445,27.006037111111112],[-81.9676135,27.006696083333335],[-81.96749091666666,27.007125416666668],[-81.96758016666666,27.00824363888889],[-81.97085725000001,27.00803375]]},"properties":{"style":"solid","thickness":1}},{"type":"Feature","geometry":{"type":"LineString","coordinates":[[-81.96476027777778,27.013200861111113],[-81.96405213888889,27.004325],[-81.96022897222223,27.004569666666665]]},"properties":{"style":"solid","thickness":1}},{"type":"Feature","geometry":{"type":"LineString","coordinates":[[-81.95297772222223,27.013954527777777],[-81.95773758333334,27.013650194444445],[-81.95702997222223,27.004774305555557],[-81.95219247222222,27.00508361111111]]},"properties":{"style":"solid","thickness":1}},{"type":"Feature","geometry":{"type":"LineString","coordinates":[[-81.95738097222223,27.009177305555557],[-81.95277736111112,27.009471666666666]]},"properties":{"style":"solid","thickness":1}},{"type":"Feature","geometry":{"type":"LineString","coordinates":[[-82.15307644444445,26.766369916666665],[-82.15379761111112,26.775245249999998],[-82.15052752777778,26.775459305555554],[-82.14982677777779,26.77550513888889],[-82.14924772222223,26.775121499999997],[-82.14881869444446,26.774657777777776],[-82.14879597222223,26.774378249999998],[-82.14868247222223,26.772980555555556],[-82.14874330555556,26.772765805555554],[-82.14893147222223,26.772191444444445],[-82.14965327777779,26.771441666666664],[-82.14884066666667,26.771073305555554],[-82.14843433333334,26.77088911111111],[-82.14801669444445,26.770565166666664],[-82.14773205555557,26.76995147222222],[-82.14758450000001,26.768134472222222],[-82.14777833333333,26.76763],[-82.14828927777778,26.76717502777778],[-82.14865583333334,26.766870027777777],[-82.14902808333333,26.766634888888888],[-82.15307644444445,26.766369916666665]]},"properties":{"style":"solid","thickness":1}},{"type":"Feature","geometry":{"type":"LineString","coordinates":[[-82.15346825,26.771191944444443],[-82.14965327777779,26.771441666666664]]},"properties":{"style":"solid","thickness":1}},{"type":"Feature","geometry":{"type":"LineString","coordinates":[[-82.14492163888889,26.775826055555555],[-82.1443486388889,26.768767694444442],[-82.14424241666667,26.76842336111111],[-82.14364072222223,26.76776013888889],[-82.14321741666667,26.767366305555555],[-82.1425718888889,26.767127499999997],[-82.14170983333334,26.76711361111111],[-82.14046416666667,26.767195055555554],[-82.1397691388889,26.76731075],[-82.13886325,26.767721249999997],[-82.13835794444445,26.768246055555554],[-82.13808052777779,26.768685722222223],[-82.13797583333334,26.76932486111111],[-82.13853711111112,26.7762435]]},"properties":{"style":"solid","thickness":1}},{"type":"Feature","geometry":{"type":"LineString","coordinates":[[-82.13526697222223,26.776457194444443],[-82.13454722222222,26.767581777777778],[-82.13073233333333,26.76783097222222]]},"properties":{"style":"solid","thickness":1}},{"type":"Feature","geometry":{"type":"LineString","coordinates":[[-82.12273130555555,26.777275666666664],[-82.12413280555555,26.77718422222222],[-82.12482791666666,26.777068611111112],[-82.12617844444443,26.776348166666665],[-82.12740583333333,26.775073694444444],[-82.1277993611111,26.774134694444445],[-82.12794233333332,26.773001277777777],[-82.12786872222222,26.77209275],[-82.12764502777777,26.771264305555555],[-82.12718213888888,26.770381194444443],[-82.1262351111111,26.769318944444443],[-82.12589538888888,26.768989833333332],[-82.12523858333333,26.768611194444443],[-82.12388105555554,26.768278249999998],[-82.12224608333332,26.768384944444442],[-82.1214788611111,26.7685755],[-82.12072291666667,26.76890586111111],[-82.12027275,26.769145972222223],[-82.11953944444444,26.76975586111111],[-82.11890663888889,26.770640194444443],[-82.11871833333333,26.771214527777776],[-82.1185696111111,26.772278027777777],[-82.11870538888888,26.773955305555553],[-82.11954191666666,26.775586861111112],[-82.1200543611111,26.776115472222223],[-82.120639,26.77656911111111],[-82.12121230555555,26.776882999999998],[-82.12137369444444,26.77694272222222],[-82.12273130555555,26.777275666666664]]},"properties":{"style":"solid","thickness":1}},{"type":"Feature","geometry":{"type":"LineString","coordinates":[[-82.11580158333332,26.777727666666667],[-82.11243619444444,26.769024694444443],[-82.109884,26.77811336111111],[-82.10644119444444,26.769415305555555],[-82.1042778611111,26.77847852777778]]},"properties":{"style":"solid","thickness":1}},{"type":"Feature","geometry":{"type":"LineString","coordinates":[[-81.6105536111111,27.04161688888889],[-81.61058255555555,27.041994333333335],[-81.61047583333333,27.042443333333335],[-81.61023822222222,27.043026805555556],[-81.60998616666666,27.04342152777778],[-81.60958391666667,27.043699083333333],[-81.60903152777777,27.043859472222223],[-81.60797766666666,27.04392427777778],[-81.60719519444444,27.043845972222226],[-81.60682944444444,27.043678833333335],[-81.60630388888889,27.043268694444446],[-81.60613925,27.04296277777778],[-81.60596016666666,27.04246813888889],[-81.60588299999999,27.041461583333334],[-81.60599458333333,27.0410755],[-81.60652558333332,27.03971552777778],[-81.6073011111111,27.038782972222222],[-81.60854427777777,27.03750563888889],[-81.61003947222221,27.035833555555556],[-81.60561361111111,27.036105666666668]]},"properties":{"style":"solid","thickness":1}},{"type":"Feature","geometry":{"type":"LineString","coordinates":[[-81.59804688888889,27.03960441666667],[-81.59819141666667,27.041491722222222],[-81.5984841111111,27.042548222222223],[-81.59866316666667,27.04304288888889],[-81.5989028611111,27.04340738888889],[-81.59980374999999,27.04411052777778],[-81.60067094444445,27.04437327777778],[-81.60095197222222,27.04435602777778],[-81.60177094444444,27.043989694444445],[-81.60248594444444,27.043187305555556],[-81.60273802777778,27.042792555555557],[-81.60283997222221,27.042280666666667],[-81.60296877777778,27.04119825],[-81.60282416666666,27.039310972222225],[-81.60253144444444,27.038254444444448],[-81.60235238888889,27.037759805555556],[-81.60204244444444,27.037399611111113],[-81.60121183333332,27.036692194444445],[-81.60034469444444,27.036429416666667],[-81.60006369444444,27.036446694444447],[-81.59924475,27.03681302777778],[-81.59845955555555,27.037619722222225],[-81.59827769444443,27.038010111111113],[-81.59817572222222,27.03852202777778],[-81.59804688888889,27.03960441666667]]},"properties":{"style":"solid","thickness":1}},{"type":"Feature","geometry":{"type":"LineString","coordinates":[[-81.9808786388889,26.997029972222222],[-81.97982544444444,26.997097500000002],[-81.97920225,26.98929825]]},"properties":{"style":"solid","thickness":1}},{"type":"Feature","geometry":{"type":"LineString","coordinates":[[-81.97252319444445,26.997565555555557],[-81.97343086111111,26.99655911111111],[-81.97420311111111,26.995624555555555],[-81.97483991666667,26.99476188888889],[-81.97522102777778,26.994231722222224],[-81.97552183333333,26.99358025],[-81.97561202777779,26.99294227777778],[-81.97563702777778,26.992371694444444],[-81.97554661111111,26.99123952777778],[-81.97530080555556,26.99081275],[-81.97498983333334,26.99045336111111],[-81.97467383333334,26.990031083333335],[-81.97315925,26.98962238888889],[-81.97231675,26.98967638888889],[-81.97143916666667,26.99017513888889],[-81.97130880555555,26.990309944444444],[-81.97078727777777,26.99084911111111],[-81.97072711111112,26.99097938888889],[-81.97051655555556,26.991877944444447],[-81.97056677777778,26.992506916666667],[-81.97074233333333,26.99293822222222],[-81.97091288888889,26.993306611111112],[-81.97122888888889,26.99372888888889],[-81.97182572222222,26.994133194444444],[-81.9724075,26.99434877777778],[-81.97276358333333,26.994389194444445],[-81.97325508333334,26.994357694444446],[-81.97360111111111,26.99427230555556],[-81.97475452777778,26.99369263888889],[-81.97561705555556,26.993005166666666]]},"properties":{"style":"solid","thickness":1}},{"type":"Feature","geometry":{"type":"LineString","coordinates":[[-81.85811522222221,27.097873333333332],[-81.858145,27.09825075],[-81.85803916666666,27.098699916666664],[-81.85780272222222,27.099283805555554],[-81.85755138888888,27.09967897222222],[-81.85714955555555,27.099957222222223],[-81.85659722222222,27.100118555555557],[-81.855543,27.10018516666667],[-81.85475997222221,27.100108222222225],[-81.85439366666667,27.099941722222223],[-81.85386697222222,27.0995325],[-81.8537016111111,27.09922688888889],[-81.85352133333333,27.098732555555554],[-81.85344197222221,27.097726166666664],[-81.85355274999999,27.09733988888889],[-81.85408108333333,27.095979027777776],[-81.85485497222221,27.09504513888889],[-81.85609597222222,27.093765666666666],[-81.85758830555555,27.092091],[-81.85316083333333,27.092370777777777]]},"properties":{"style":"solid","thickness":1}},{"type":"Feature","geometry":{"type":"LineString","coordinates":[[-81.84559797222222,27.095882638888888],[-81.84574666666666,27.097769638888888],[-81.84604177777777,27.098825638888886],[-81.846222,27.099319944444442],[-81.84646258333333,27.099684055555553],[-81.84736547222222,27.10038561111111],[-81.84823363888889,27.100646861111112],[-81.84851477777778,27.10062911111111],[-81.8493333611111,27.100261361111112],[-81.85004697222222,27.099457722222223],[-81.85029833333333,27.099062583333332],[-81.85039922222222,27.098550499999998],[-81.85052574999999,27.097467888888886],[-81.85037697222222,27.095580888888886],[-81.85008183333333,27.094524888888888],[-81.84990158333333,27.094030555555555],[-81.84959072222222,27.093670916666664],[-81.84875816666666,27.092964944444443],[-81.84789005555555,27.09270369444444],[-81.84760894444445,27.092721444444443],[-81.84679038888889,27.093089194444442],[-81.84600652777777,27.09389722222222],[-81.84582544444444,27.094287944444442],[-81.84572452777778,27.0948],[-81.84559797222222,27.095882638888888]]},"properties":{"style":"solid","thickness":1}},{"type":"Feature","geometry":{"type":"LineString","coordinates":[[-81.85245127777777,27.240947555555557],[-81.85248108333333,27.241324916666667],[-81.8523751111111,27.241774083333333],[-81.85213833333333,27.242357916666666],[-81.85188666666666,27.242753055555557],[-81.85148430555554,27.243031277777778],[-81.85093127777778,27.243192583333336],[-81.84987572222222,27.243259166666668],[-81.84909172222221,27.243182194444444],[-81.84872497222221,27.243015694444445],[-81.84819763888889,27.242606472222224],[-81.84803208333332,27.24230086111111],[-81.84785161111111,27.241806555555556],[-81.84777219444445,27.240800194444446],[-81.84788313888889,27.240413944444445],[-81.84841219444444,27.239053138888888],[-81.8491871111111,27.238119333333334],[-81.85042972222222,27.236839944444444],[-81.851924,27.235165416666668],[-81.84749097222222,27.23544502777778]]},"properties":{"style":"solid","thickness":1}},{"type":"Feature","geometry":{"type":"LineString","coordinates":[[-81.83991841666666,27.238956416666667],[-81.84006722222222,27.24084336111111],[-81.84036266666666,27.241899333333333],[-81.84054308333333,27.24239363888889],[-81.84078394444444,27.242757722222223],[-81.84168794444444,27.243459305555557],[-81.84255719444444,27.243720555555555],[-81.84283866666667,27.243702833333334],[-81.84365830555555,27.24333511111111],[-81.84437283333332,27.242531555555555],[-81.84462452777777,27.242136416666668],[-81.84472558333333,27.24162438888889],[-81.84485233333334,27.240541805555555],[-81.84470344444443,27.238654888888888],[-81.84440797222221,27.237598916666666],[-81.84422755555555,27.23710461111111],[-81.84391630555555,27.236744972222223],[-81.84308275,27.23603897222222],[-81.84221352777777,27.235777694444444],[-81.84193208333333,27.235795444444445],[-81.84111247222222,27.23616313888889],[-81.8403276111111,27.236971111111114],[-81.84014627777778,27.237361805555558],[-81.84004522222222,27.23787386111111],[-81.83991841666666,27.238956416666667]]},"properties":{"style":"solid","thickness":1}},{"type":"Feature","geometry":{"type":"LineString","coordinates":[[-82.08449486111111,26.75361786111111],[-82.08504358333333,26.755392555555556],[-82.08631397222221,26.756838777777777],[-82.08810847222222,26.757731555555555],[-82.09014791666667,26.757932055555557],[-82.09211511111111,26.757409055555556],[-82.09370405555555,26.756243916666666],[-82.09466758333333,26.754617888888887],[-82.09485588888889,26.752783861111112],[-82.09423969444444,26.751027083333334],[-82.09291488888888,26.749620833333335],[-82.0910875,26.74878375],[-82.08904174999999,26.748646055555557],[-82.08709577777778,26.74922913888889],[-82.08555222222222,26.750442333333332],[-82.08465113888889,26.752096972222223],[-82.08449486111111,26.75361786111111]]},"properties":{"style":"solid","thickness":1}},{"type":"Feature","geometry":{"type":"LineString","coordinates":[[-82.09055413888889,26.764072305555555],[-82.08978772222221,26.761282055555554],[-82.0882623611111,26.758755444444443],[-82.08607663888888,26.756655722222224],[-82.08337183333333,26.755118583333335],[-82.08032272222222,26.75424336111111],[-82.07766236111111,26.75406175]]},"properties":{"style":"solid","thickness":1}},{"type":"Feature","geometry":{"type":"LineString","coordinates":[[-82.07766236111111,26.75406175],[-82.0807705,26.753374],[-82.08358494444444,26.752004805555554],[-82.08592380555555,26.750042666666666],[-82.08763588888888,26.747614444444444],[-82.08861061111111,26.744877111111112],[-82.08881269444444,26.74248877777778]]},"properties":{"style":"solid","thickness":1}},{"type":"Feature","geometry":{"type":"LineString","coordinates":[[-82.08881269444444,26.74248877777778],[-82.08957894444444,26.745279055555557],[-82.09110416666667,26.747805666666668],[-82.09328983333333,26.749905305555558],[-82.09599463888888,26.75144225],[-82.09904380555555,26.752317138888888],[-82.10170413888888,26.752498361111112]]},"properties":{"style":"solid","thickness":1}},{"type":"Feature","geometry":{"type":"LineString","coordinates":[[-82.10170413888888,26.752498361111112],[-82.09859613888888,26.753186555555555],[-82.0957818611111,26.754556055555554],[-82.09344308333333,26.756518333333332],[-82.09173097222222,26.75894661111111],[-82.09075622222221,26.761683972222222],[-82.09055413888889,26.764072305555555]]},"properties":{"style":"solid","thickness":1}},{"type":"Feature","geometry":{"type":"LineString","coordinates":[[-81.87355183333332,27.105616722222223],[-81.86995791666666,27.114764750000003],[-81.86519538888888,27.106145555555557]]},"properties":{"style":"solid","thickness":1}},{"type":"Feature","geometry":{"type":"LineString","coordinates":[[-81.87237258333333,27.108571222222224],[-81.86674941666666,27.108927083333334]]},"properties":{"style":"solid","thickness":1}},{"type":"Feature","geometry":{"type":"LineString","coordinates":[[-81.86191527777777,27.106353000000002],[-81.86261613888888,27.11522916666667]]},"properties":{"style":"solid","thickness":1}},{"type":"Feature","geometry":{"type":"LineString","coordinates":[[-81.85539,27.111190555555556],[-81.85152816666667,27.107009416666667]]},"properties":{"style":"solid","thickness":1}},{"type":"Feature","geometry":{"type":"LineString","coordinates":[[-81.85785416666666,27.106609722222224],[-81.85855472222222,27.115485944444448],[-81.85464947222222,27.115732694444446],[-81.85432602777777,27.115612666666667],[-81.85360102777777,27.1153775],[-81.85284294444443,27.114722972222225],[-81.85247541666666,27.114043805555557],[-81.85240925,27.113205111111114],[-81.85266652777777,27.112486444444446],[-81.85331433333333,27.11174313888889],[-81.85399519444444,27.111419166666668],[-81.85429658333332,27.11125963888889],[-81.85820166666666,27.11101288888889]]},"properties":{"style":"solid","thickness":1}},{"type":"Feature","geometry":{"type":"LineString","coordinates":[[-81.84902588888889,27.11608786111111],[-81.84457730555555,27.10744825],[-81.84168397222221,27.116551222222224]]},"properties":{"style":"solid","thickness":1}},{"type":"Feature","geometry":{"type":"LineString","coordinates":[[-81.83778261111111,27.10787688888889],[-81.83418574999999,27.117024027777777],[-81.82942583333333,27.10840363888889]]},"properties":{"style":"solid","thickness":1}},{"type":"Feature","geometry":{"type":"LineString","coordinates":[[-81.83660241666666,27.110831111111114],[-81.83097902777777,27.111185555555558]]},"properties":{"style":"solid","thickness":1}},{"type":"Feature","geometry":{"type":"LineString","coordinates":[[-81.87071919444443,27.253632333333332],[-81.86685194444443,27.249451750000002]]},"properties":{"style":"solid","thickness":1}},{"type":"Feature","geometry":{"type":"LineString","coordinates":[[-81.87318580555555,27.24905138888889],[-81.87388847222222,27.257927194444445],[-81.86997836111111,27.25817436111111],[-81.8696545,27.25805436111111],[-81.86892855555556,27.257819277777777],[-81.86816944444443,27.257164888888887],[-81.86780133333333,27.256485777777776],[-81.867735,27.25564711111111],[-81.8679925,27.254928472222222],[-81.868641,27.254185111111113],[-81.86932266666666,27.253861083333334],[-81.86962441666665,27.25370152777778],[-81.8735343611111,27.25345436111111]]},"properties":{"style":"solid","thickness":1}},{"type":"Feature","geometry":{"type":"LineString","coordinates":[[-81.85879538888888,27.258880722222223],[-81.86020305555554,27.25879186111111],[-81.8609013611111,27.258677527777778],[-81.86225927777777,27.257959666666668],[-81.86349475,27.25668761111111],[-81.8638921111111,27.255749416666667],[-81.86403827777777,27.254616388888888],[-81.86396644444444,27.253707833333333],[-81.86374372222221,27.252879055555557],[-81.86328088888888,27.251995194444444],[-81.86233227777777,27.250931305555557],[-81.86199186111111,27.25060161111111],[-81.86133313888888,27.250221777777778],[-81.85997063888888,27.24988638888889],[-81.8583285,27.249990055555557],[-81.85755758333333,27.250179194444446],[-81.85679769444444,27.25050811111111],[-81.85634508333332,27.25074738888889],[-81.85560727777778,27.25135586111111],[-81.85496975,27.252238916666666],[-81.85477933333333,27.252812833333333],[-81.85462752777777,27.25387597222222],[-81.85476005555554,27.255553305555555],[-81.85559638888888,27.257186222222224],[-81.85610977777777,27.257715722222223],[-81.85669583333333,27.258170416666665],[-81.8572708611111,27.258485305555556],[-81.85743280555555,27.258545305555554],[-81.85879538888888,27.258880722222223]]},"properties":{"style":"solid","thickness":1}},{"type":"Feature","geometry":{"type":"LineString","coordinates":[[-81.84415575,27.258610055555554],[-81.84450163888889,27.259009694444444],[-81.84523858333333,27.259384666666666],[-81.84571883333332,27.25949486111111],[-81.84706486111111,27.259620722222223],[-81.84753408333333,27.25959113888889],[-81.8484615,27.259392194444445],[-81.84922697222221,27.25913322222222],[-81.84937786111111,27.259053472222224],[-81.84989769444444,27.2586695],[-81.85041199999999,27.25821563888889],[-81.85125661111111,27.25696836111111],[-81.85155933333333,27.255825472222224],[-81.85143788888888,27.254287916666666],[-81.85121527777777,27.253459111111113],[-81.85085280555555,27.252849833333332],[-81.85033947222222,27.252320305555557],[-81.84990983333333,27.25185575],[-81.84923458333333,27.251266194444444],[-81.84858694444443,27.251026083333333],[-81.84793927777777,27.250786],[-81.8473808611111,27.25068072222222],[-81.84597330555555,27.25076947222222],[-81.8452023611111,27.25095852777778],[-81.84459883333332,27.251277527777777],[-81.84392261111111,27.251671333333334],[-81.843481,27.252050333333333],[-81.84276516666667,27.252938277777776],[-81.84234558333333,27.25359686111111],[-81.84222224999999,27.254026055555556],[-81.84231047222222,27.255144277777777],[-81.84559491666666,27.254937277777778]]},"properties":{"style":"solid","thickness":1}},{"type":"Feature","geometry":{"type":"LineString","coordinates":[[-81.83885724999999,27.25121786111111],[-81.83525594444444,27.260364694444444],[-81.83048994444444,27.251744666666667]]},"properties":{"style":"solid","thickness":1}},{"type":"Feature","geometry":{"type":"LineString","coordinates":[[-81.83767561111111,27.254172],[-81.83204513888889,27.25452647222222]]},"properties":{"style":"solid","thickness":1}},{"type":"Feature","geometry":{"type":"LineString","coordinates":[[-81.82720558333332,27.251951305555554],[-81.82790463888888,27.260827305555555],[-81.81836897222222,27.252506888888888],[-81.81906733333334,27.261382944444446]]},"properties":{"style":"solid","thickness":1}},{"type":"Feature","geometry":{"type":"LineString","coordinates":[[-81.62434352777777,27.059446],[-81.62574888888888,27.059359444444446],[-81.62644619444444,27.05924625],[-81.62780322222221,27.058530555555556],[-81.62903913888888,27.05726047222222],[-81.62943775,27.05632288888889],[-81.62958597222222,27.05519002777778],[-81.6295161111111,27.054281333333336],[-81.6292955,27.05345213888889],[-81.62883527777777,27.052567472222222],[-81.62789052777777,27.051501972222223],[-81.62755138888888,27.051171694444445],[-81.6268946111111,27.050790777777777],[-81.62553519444444,27.05045313888889],[-81.62389572222222,27.05055411111111],[-81.62312575,27.050742],[-81.62236652777777,27.051069666666667],[-81.62191419444444,27.05130822222222],[-81.62117644444444,27.0519155],[-81.62053822222222,27.052797583333334],[-81.62034694444444,27.053371194444445],[-81.62019325,27.05443413888889],[-81.62032208333332,27.05611177777778],[-81.62115358333332,27.057746166666668],[-81.621665,27.058276527777778],[-81.6222491111111,27.058732194444445],[-81.6228225,27.059048027777777],[-81.62298399999999,27.059108333333334],[-81.62434352777777,27.059446]]},"properties":{"style":"solid","thickness":1}},{"type":"Feature","geometry":{"type":"LineString","coordinates":[[-81.62308775,27.052289444444444],[-81.62035863888889,27.049437500000003]]},"properties":{"style":"solid","thickness":1}},{"type":"Feature","geometry":{"type":"LineString","coordinates":[[-81.61739472222222,27.059873777777778],[-81.61685274999999,27.052813722222222],[-81.61674783333332,27.05246902777778],[-81.61614769444444,27.051803638888888],[-81.61572513888888,27.05140825],[-81.6150791111111,27.051167055555556],[-81.61421497222221,27.05115],[-81.61296583333333,27.051226833333335],[-81.61226855555554,27.051339944444447],[-81.61135852777777,27.051747083333336],[-81.61084955555555,27.05227],[-81.61056944444444,27.05270861111111],[-81.61046155555555,27.053347333333335],[-81.61099241666666,27.06026761111111]]},"properties":{"style":"solid","thickness":1}},{"type":"Feature","geometry":{"type":"LineString","coordinates":[[-81.60703241666666,27.051591666666667],[-81.60771316666666,27.060469194444444],[-81.59821030555555,27.052133666666666],[-81.5988903611111,27.06101125]]},"properties":{"style":"solid","thickness":1}},{"type":"Feature","geometry":{"type":"LineString","coordinates":[[-81.5891765,27.061186],[-81.58966638888889,27.06143688888889],[-81.59022363888889,27.061543166666667],[-81.59209752777777,27.061428194444446],[-81.59278952777777,27.06124527777778],[-81.59301841666667,27.061161000000002],[-81.59414141666666,27.06046],[-81.59479058333334,27.05971786111111],[-81.59497130555555,27.059004444444444],[-81.5954215,27.057712666666667],[-81.5952983611111,27.056104916666666],[-81.59508333333333,27.055345583333335],[-81.59480094444444,27.054730833333334],[-81.59443513888888,27.054050972222225],[-81.59359552777778,27.053329972222222],[-81.59205861111111,27.052721972222223],[-81.59102763888889,27.052574555555555],[-81.59016883333332,27.052627222222224],[-81.5890918611111,27.052904],[-81.58871752777777,27.053137638888888],[-81.58841594444444,27.05329661111111]]},"properties":{"style":"solid","thickness":1}},{"type":"Feature","geometry":{"type":"LineString","coordinates":[[-81.58585119444444,27.061811305555555],[-81.58207152777777,27.056494805555555],[-81.57921441666666,27.062218083333335]]},"properties":{"style":"solid","thickness":1}},{"type":"Feature","geometry":{"type":"LineString","coordinates":[[-81.58207152777777,27.056494805555555],[-81.58182033333333,27.053209388888888]]},"properties":{"style":"solid","thickness":1}},{"type":"Feature","geometry":{"type":"LineString","coordinates":[[-81.76784447222222,26.544527583333334],[-81.76786244444445,26.544656805555558],[-81.76789841666667,26.54479077777778],[-81.76795461111111,26.544926833333335],[-81.76803263888888,26.545061500000003],[-81.76813316666667,26.545190805555556],[-81.76825569444445,26.545310333333337],[-81.76839830555555,26.54541577777778],[-81.76855772222223,26.54550327777778],[-81.76872952777778,26.545569833333335],[-81.76890852777778,26.545613722222225],[-81.76908927777778,26.545634500000002],[-81.7692666388889,26.545633138888892],[-81.76943613888889,26.54561163888889],[-81.76959427777777,26.545572805555558],[-81.76973872222221,26.54551977777778],[-81.76986813888888,26.545455888888892],[-81.76998511111111,26.545382111111113],[-81.77009797222222,26.54529266666667],[-81.77020402777778,26.545186444444447],[-81.77029925,26.545063666666668],[-81.77037941666667,26.54492541666667],[-81.77044044444445,26.544773944444447],[-81.77047883333333,26.54461252777778],[-81.77049208333334,26.544445444444445],[-81.77047902777778,26.54427752777778],[-81.77044005555555,26.544113722222225],[-81.77037705555556,26.543958694444445],[-81.77029316666666,26.543816333333336],[-81.77019238888889,26.543689472222223],[-81.77007908333333,26.543579805555556],[-81.76995763888888,26.543487916666667],[-81.76983202777778,26.543413444444447],[-81.76970477777778,26.54335502777778],[-81.76956675,26.543307944444447],[-81.7694155,26.543273555555558],[-81.76925288888889,26.543254861111112],[-81.76908172222223,26.543254805555556],[-81.76890588888888,26.54327563888889],[-81.76873011111111,26.543318861111114],[-81.76855966666666,26.543384722222225],[-81.76839983333333,26.54347213888889],[-81.7682555,26.543578722222225],[-81.76813058333333,26.543701000000002],[-81.76802775,26.543834694444445],[-81.76794819444444,26.543975333333336],[-81.76789177777778,26.544118472222223],[-81.76785716666667,26.544260222222224],[-81.76784227777777,26.54439738888889],[-81.76784447222222,26.544527583333334]]},"properties":{"style":"solid","thickness":1}},{"type":"Feature","geometry":{"type":"LineString","coordinates":[[-81.76994972222222,26.545314416666667],[-81.76980747222223,26.54348488888889]]},"properties":{"style":"solid","thickness":1}},{"type":"Feature","geometry":{"type":"LineString","coordinates":[[-81.76945541666666,26.545529361111114],[-81.76928472222222,26.543333944444445]]},"properties":{"style":"solid","thickness":1}},{"type":"Feature","geometry":{"type":"LineString","coordinates":[[-81.76894688888889,26.545561361111112],[-81.76877619444444,26.54336591666667]]},"properties":{"style":"solid","thickness":1}},{"type":"Feature","geometry":{"type":"LineString","coordinates":[[-81.76842411111112,26.54541038888889],[-81.7682818888889,26.543580861111113]]},"properties":{"style":"solid","thickness":1}}]}
