{"type":"FeatureCollection","features":[{"type":"Feature","geometry":{"type":"LineString","coordinates":[[-81.76999841666667,26.545283361111114],[-81.7698605,26.543509583333336]]},"properties":{"style":"solid","thickness":1}},{"type":"Feature","geometry":{"type":"LineString","coordinates":[[-81.76950627777778,26.54552616666667],[-81.76933558333333,26.543330722222223]]},"properties":{"style":"solid","thickness":1}},{"type":"Feature","geometry":{"type":"LineString","coordinates":[[-81.76899775,26.54555813888889],[-81.76882705555555,26.543362722222223]]},"properties":{"style":"solid","thickness":1}},{"type":"Feature","geometry":{"type":"LineString","coordinates":[[-81.76847280555556,26.545379305555556],[-81.76833491666666,26.54360552777778]]},"properties":{"style":"solid","thickness":1}},{"type":"Feature","geometry":{"type":"LineString","coordinates":[[-81.76784447222222,26.544527583333334],[-81.76788222222223,26.544738583333334],[-81.76796127777777,26.54494013888889],[-81.76807905555556,26.54512575],[-81.76823177777777,26.545289472222223],[-81.76841458333334,26.54542602777778],[-81.76862152777778,26.545531055555557],[-81.768846,26.54560113888889],[-81.76908080555556,26.54563402777778],[-81.76931833333333,26.545628694444446],[-81.76955102777778,26.54558530555556],[-81.76977133333334,26.54550525],[-81.76997222222222,26.545391111111112],[-81.77014722222222,26.54524652777778],[-81.77029069444444,26.545076166666668],[-81.77039802777777,26.544885500000003],[-81.77046580555556,26.54468063888889],[-81.77049180555555,26.544468222222225],[-81.77047525,26.54425502777778],[-81.77041661111112,26.544047916666667],[-81.77031777777778,26.543853555555557],[-81.77018197222222,26.54367816666667],[-81.77001355555555,26.543527444444447],[-81.7698178888889,26.543406166666667],[-81.76960130555555,26.54331827777778],[-81.76937075,26.543266555555558],[-81.76913361111112,26.543252722222224],[-81.76889755555555,26.54327716666667],[-81.76867016666667,26.54333913888889],[-81.76845872222222,26.543436638888892],[-81.76827,26.54356652777778],[-81.76811013888889,26.54372463888889],[-81.76798422222222,26.54390588888889],[-81.76789630555555,26.544104444444447],[-81.76784922222222,26.544313916666667],[-81.76784447222222,26.544527583333334]]},"properties":{"style":"solid","thickness":1}},{"type":"Feature","geometry":{"type":"LineString","coordinates":[[-82.13180997222221,26.591682277777778],[-82.12737897222222,26.591972194444445]]},"properties":{"style":"solid","thickness":1}},{"type":"Feature","geometry":{"type":"LineString","coordinates":[[-82.12750777777777,26.596460305555553],[-82.13217213888888,26.59615511111111],[-82.13145349999999,26.58727933333333]]},"properties":{"style":"solid","thickness":1}},{"type":"Feature","geometry":{"type":"LineString","coordinates":[[-82.12455363888888,26.5966535],[-82.12383555555554,26.587777666666664],[-82.12002655555555,26.588026694444444]]},"properties":{"style":"solid","thickness":1}},{"type":"Feature","geometry":{"type":"LineString","coordinates":[[-82.11558547222222,26.593024194444443],[-82.11333105555555,26.593171444444444],[-82.11207463888888,26.59212938888889],[-82.11188527777777,26.59172022222222],[-82.11170158333333,26.591380916666665],[-82.11163380555556,26.59054225],[-82.11189394444443,26.589892944444443],[-82.11230952777777,26.589233472222222],[-82.1127533611111,26.58892347222222],[-82.1130473611111,26.588693499999998],[-82.11365230555555,26.588443194444444],[-82.11505152777777,26.588351805555554],[-82.1156903611111,26.588520833333334],[-82.11618502777777,26.588839805555555],[-82.11661325,26.589303638888886],[-82.11689163888889,26.589847499999998],[-82.11700894444444,26.590331638888888],[-82.11706541666666,26.591030527777775],[-82.11701594444443,26.591385055555556],[-82.11681663888888,26.59181963888889],[-82.11652263888888,26.59204961111111],[-82.11558547222222,26.593024194444443],[-82.11633030555555,26.593537583333333],[-82.11676419444444,26.594071305555556],[-82.11694794444443,26.59441058333333],[-82.11703833333333,26.595528805555553],[-82.11671744444443,26.59639288888889],[-82.11650116666667,26.596617777777777],[-82.11582408333332,26.596943055555553],[-82.11537458333333,26.597183194444444],[-82.11436397222222,26.597249194444444],[-82.11364733333333,26.597085222222223],[-82.11257458333333,26.59638247222222],[-82.11239086111111,26.596043166666664],[-82.11228922222222,26.594785166666664],[-82.11246597222221,26.594071055555553],[-82.11253805555555,26.593996083333334],[-82.11290416666667,26.59369113888889],[-82.11333105555555,26.593171444444444]]},"properties":{"style":"solid","thickness":1}},{"type":"Feature","geometry":{"type":"LineString","coordinates":[[-82.10495158333333,26.59779344444444],[-82.10595533333333,26.596674083333333],[-82.10680919444444,26.59563475],[-82.10751322222221,26.594675444444444],[-82.1079345,26.594085888888888],[-82.10826675,26.59336161111111],[-82.10836577777778,26.592652583333333],[-82.10839272222222,26.5920185],[-82.1082911111111,26.5907605],[-82.10801838888888,26.590286499999998],[-82.10767358333332,26.58988747222222],[-82.10732313888889,26.589418527777777],[-82.10564552777777,26.588965972222223],[-82.10471269444444,26.58902683333333],[-82.1037416111111,26.589582],[-82.10359744444443,26.589731944444445],[-82.10302066666667,26.590331638888888],[-82.10295422222222,26.59047647222222],[-82.10272225,26.591475222222222],[-82.10277866666667,26.59217411111111],[-82.10297361111111,26.592653194444445],[-82.10316294444443,26.59306238888889],[-82.10351338888889,26.59353133333333],[-82.10417480555554,26.593979972222222],[-82.10481927777778,26.594218944444442],[-82.10521363888888,26.59426347222222],[-82.10575780555556,26.594227944444444],[-82.1061408611111,26.594132694444443],[-82.10741727777777,26.593487333333332],[-82.10837144444444,26.59272247222222]]},"properties":{"style":"solid","thickness":1}},{"type":"Feature","geometry":{"type":"LineString","coordinates":[[-82.08592058333333,26.585910805555553],[-82.08601075,26.586406805555555],[-82.086198,26.586880388888886],[-82.08647627777778,26.587316277777777],[-82.08683666666666,26.5877005],[-82.08726758333333,26.58802069444444],[-82.08775513888888,26.588266555555553],[-82.08828372222222,26.58843019444444],[-82.08883627777777,26.58850633333333],[-82.0893951111111,26.588492555555554],[-82.08994219444443,26.588389305555555],[-82.09046,26.58819986111111],[-82.09093183333333,26.587930333333333],[-82.09134258333333,26.587589388888887],[-82.091679,26.587187999999998],[-82.09193030555555,26.586739055555555],[-82.09208838888888,26.58625697222222],[-82.09214819444443,26.58575725],[-82.09210780555556,26.58525597222222],[-82.0919685,26.58476922222222],[-82.09173477777777,26.584312666666666],[-82.09141413888888,26.58390097222222],[-82.09101691666666,26.58354736111111],[-82.09055583333333,26.583263194444445],[-82.09004572222221,26.583057611111112],[-82.089503,26.58293725],[-82.08894508333333,26.582905944444445],[-82.08838991666666,26.582964694444446],[-82.08785533333332,26.583111638888887],[-82.08735852777777,26.58334202777778],[-82.08691547222222,26.583648472222222],[-82.0865403611111,26.584021138888886],[-82.08624530555555,26.584448],[-82.08603977777777,26.584915388888888],[-82.08593036111111,26.585408277777777],[-82.08592058333333,26.585910805555553]]},"properties":{"style":"solid","thickness":1}},{"type":"Feature","geometry":{"type":"LineString","coordinates":[[-82.08955241666666,26.592186527777777],[-82.08926422222221,26.590954083333333],[-82.08872769444444,26.58979075],[-82.08796133333333,26.588736555555553],[-82.08699147222222,26.58782786111111],[-82.08585158333332,26.587095916666666],[-82.08458091666667,26.586565944444445],[-82.08322319444444,26.58625619444444],[-82.08182519444443,26.58617733333333]]},"properties":{"style":"solid","thickness":1}},{"type":"Feature","geometry":{"type":"LineString","coordinates":[[-82.08182519444443,26.58617733333333],[-82.083196,26.585918305555555],[-82.08448994444444,26.58543597222222],[-82.08566244444444,26.584747],[-82.08667316666666,26.583875055555556],[-82.08748722222222,26.582850194444443],[-82.08807663888888,26.58170775],[-82.0884211111111,26.580487027777778],[-82.08850874999999,26.579230111111112]]},"properties":{"style":"solid","thickness":1}},{"type":"Feature","geometry":{"type":"LineString","coordinates":[[-82.08850874999999,26.579230111111112],[-82.08879691666667,26.580462583333333],[-82.08933338888889,26.581625916666667],[-82.09009972222222,26.582680083333333],[-82.09106955555555,26.583588777777777],[-82.09220944444444,26.584320694444443],[-82.09348013888888,26.58485058333333],[-82.0948378611111,26.585160249999998],[-82.09623586111111,26.58523897222222]]},"properties":{"style":"solid","thickness":1}},{"type":"Feature","geometry":{"type":"LineString","coordinates":[[-82.09623586111111,26.58523897222222],[-82.09486508333333,26.585498138888887],[-82.09357119444444,26.585980527777778],[-82.09239872222221,26.58666961111111],[-82.09138802777777,26.587541583333334],[-82.09057394444444,26.588566444444442],[-82.08998452777777,26.589708916666666],[-82.08964005555555,26.59092961111111],[-82.08955241666666,26.592186527777777]]},"properties":{"style":"solid","thickness":1}},{"type":"Feature","geometry":{"type":"LineString","coordinates":[[-82.046598,26.596040499999997],[-82.04668802777778,26.596536555555556],[-82.0468751388889,26.597010166666667],[-82.04715330555555,26.597446138888888],[-82.04751358333333,26.597830444444444],[-82.04794441666667,26.59815075],[-82.04843194444445,26.59839675],[-82.04896049999999,26.598560527777778],[-82.04951308333334,26.598636833333334],[-82.05007197222221,26.598623222222223],[-82.05061913888889,26.59852011111111],[-82.05113705555556,26.598330805555555],[-82.05160902777777,26.598061416666667],[-82.05201991666667,26.59772058333333],[-82.0523565,26.59731927777778],[-82.05260797222222,26.596870388888888],[-82.05276624999999,26.59638836111111],[-82.05282625,26.595888666666667],[-82.052786,26.59538736111111],[-82.05264686111111,26.59490058333333],[-82.05241327777777,26.594443972222223],[-82.05209275,26.594032166666665],[-82.05169558333333,26.593678444444443],[-82.05123455555555,26.593394166666666],[-82.0507245,26.593188444444444],[-82.05018175,26.593067916666666],[-82.04962380555556,26.59303647222222],[-82.04906855555555,26.593095055555555],[-82.04853388888888,26.59324186111111],[-82.04803697222222,26.59347211111111],[-82.04759375,26.593778444444442],[-82.0472185,26.594151],[-82.04692327777778,26.594577805555556],[-82.04671755555556,26.59504513888889],[-82.04660794444445,26.59553797222222],[-82.046598,26.596040499999997]]},"properties":{"style":"solid","thickness":1}},{"type":"Feature","geometry":{"type":"LineString","coordinates":[[-82.05022802777778,26.602317222222222],[-82.04994024999999,26.601084694444445],[-82.04940408333333,26.59992122222222],[-82.04863797222222,26.598866833333332],[-82.0476683611111,26.59795786111111],[-82.04652861111111,26.597225583333334],[-82.045258,26.596695277777776],[-82.04390027777778,26.596385138888888],[-82.04250216666667,26.59630588888889]]},"properties":{"style":"solid","thickness":1}},{"type":"Feature","geometry":{"type":"LineString","coordinates":[[-82.04250216666667,26.59630588888889],[-82.04387319444444,26.596047249999998],[-82.04516741666666,26.595565305555553],[-82.04634025,26.59487661111111],[-82.04735133333332,26.594004972222223],[-82.04816583333333,26.592980333333333],[-82.04875569444444,26.591838055555556],[-82.04910061111111,26.590617444444444],[-82.04918869444444,26.589360527777778]]},"properties":{"style":"solid","thickness":1}},{"type":"Feature","geometry":{"type":"LineString","coordinates":[[-82.04918869444444,26.589360527777778],[-82.04947644444444,26.590593055555555],[-82.05001258333333,26.591756555555556],[-82.05077863888889,26.592810944444444],[-82.05174822222222,26.593719888888888],[-82.05288797222222,26.59445211111111],[-82.05415858333333,26.59498236111111],[-82.05551633333333,26.595292388888886],[-82.05691441666666,26.595371527777775]]},"properties":{"style":"solid","thickness":1}},{"type":"Feature","geometry":{"type":"LineString","coordinates":[[-82.05691441666666,26.595371527777775],[-82.05554347222223,26.595630277777776],[-82.05424927777777,26.59611233333333],[-82.05307647222222,26.596801083333332],[-82.05206538888889,26.597672777777777],[-82.05125088888889,26.598697416666667],[-82.05066102777778,26.59983972222222],[-82.0503161111111,26.601060333333336],[-82.05022802777778,26.602317222222222]]},"properties":{"style":"solid","thickness":1}},{"type":"Feature","geometry":{"type":"LineString","coordinates":[[-81.99297530555556,26.609850444444447],[-81.99306511111111,26.61034652777778],[-81.99325202777779,26.610820222222223],[-81.99353002777778,26.61125627777778],[-81.99389016666667,26.611640750000003],[-81.99432091666667,26.611961194444447],[-81.99480838888888,26.61220738888889],[-81.99533691666667,26.612371361111112],[-81.99588955555555,26.61244788888889],[-81.9964485,26.612434472222223],[-81.99699580555556,26.612331555555556],[-81.99751386111112,26.612142444444444],[-81.997986,26.611873222222222],[-81.99839711111112,26.611532555555556],[-81.99873391666667,26.61113138888889],[-81.9989856388889,26.610682583333336],[-81.9991441388889,26.61020061111111],[-81.99920436111111,26.609700944444445],[-81.99916436111111,26.60919963888889],[-81.99902544444444,26.608712805555555],[-81.99879202777778,26.608256083333334],[-81.99847166666667,26.60784416666667],[-81.99807461111111,26.607490305555558],[-81.99761366666667,26.60720586111111],[-81.99710361111111,26.606999944444446],[-81.9965608611111,26.606879222222222],[-81.99600286111111,26.606847555555557],[-81.99544752777778,26.606905944444446],[-81.99491272222222,26.60705252777778],[-81.9944156388889,26.607282611111113],[-81.99397222222223,26.607588777777778],[-81.99359675,26.607961194444446],[-81.99330130555556,26.60838786111111],[-81.99309533333333,26.60885513888889],[-81.9929855,26.609347944444448],[-81.99297530555556,26.609850444444447]]},"properties":{"style":"solid","thickness":1}},{"type":"Feature","geometry":{"type":"LineString","coordinates":[[-81.99660288888889,26.61612852777778],[-81.99631563888889,26.614895888888892],[-81.99577991666666,26.613732194444445],[-81.99501422222222,26.61267752777778],[-81.99404491666667,26.611768194444444],[-81.99290536111111,26.61103552777778],[-81.99163486111111,26.610504722222224],[-81.99027708333334,26.610194083333333],[-81.98887886111112,26.610114305555555]]},"properties":{"style":"solid","thickness":1}},{"type":"Feature","geometry":{"type":"LineString","coordinates":[[-81.98887886111112,26.610114305555555],[-81.99025016666667,26.609856194444447],[-81.99154475,26.609374694444448],[-81.99271808333333,26.608686472222224],[-81.99372969444444,26.607815194444445],[-81.99454475,26.60679086111111],[-81.99513522222222,26.605648805555557],[-81.99548072222223,26.604428333333335],[-81.9955693888889,26.603171472222222]]},"properties":{"style":"solid","thickness":1}},{"type":"Feature","geometry":{"type":"LineString","coordinates":[[-81.9955693888889,26.603171472222222],[-81.99585661111111,26.604404083333336],[-81.99639227777777,26.60556777777778],[-81.99715794444444,26.606622444444447],[-81.99812722222222,26.60753177777778],[-81.99926677777778,26.608264416666668],[-82.00053730555555,26.60879513888889],[-82.00189508333334,26.609105666666668],[-82.00329330555556,26.609185333333336]]},"properties":{"style":"solid","thickness":1}},{"type":"Feature","geometry":{"type":"LineString","coordinates":[[-82.00329330555556,26.609185333333336],[-82.00192202777778,26.609443583333334],[-82.00062747222222,26.60992513888889],[-81.99945419444444,26.610613444444446],[-81.99844261111112,26.61148477777778],[-81.99762752777778,26.612509111111113],[-81.99703708333334,26.613651194444447],[-81.99669155555556,26.61487166666667],[-81.99660288888889,26.61612852777778]]},"properties":{"style":"solid","thickness":1}},{"type":"Feature","geometry":{"type":"LineString","coordinates":[[-82.04439088888888,26.591422166666664],[-82.043679,26.582545888888887]]},"properties":{"style":"solid","thickness":1}},{"type":"Feature","geometry":{"type":"LineString","coordinates":[[-82.03902119444444,26.591699944444443],[-82.04403213888888,26.586949083333334],[-82.03823755555555,26.582898555555555]]},"properties":{"style":"solid","thickness":1}},{"type":"Feature","geometry":{"type":"LineString","coordinates":[[-82.03016427777777,26.592343777777778],[-82.03156363888888,26.592253194444442],[-82.03225769444444,26.592138],[-82.03360663888888,26.59141836111111],[-82.03483305555555,26.59014461111111],[-82.03522666666666,26.589205805555554],[-82.03537027777777,26.588072416666666],[-82.0352975,26.58716383333333],[-82.03507480555555,26.586335194444445],[-82.03461333333333,26.585451749999997],[-82.03366863888888,26.58438886111111],[-82.03332969444445,26.584059527777775],[-82.03267422222223,26.583680444444443],[-82.03131911111112,26.583346666666664],[-82.02968666666666,26.583452333333334],[-82.0289205,26.583642444444443],[-82.02816552777777,26.58397233333333],[-82.02771588888889,26.584212194444444],[-82.02698327777777,26.584821638888886],[-82.02635077777778,26.58570563888889],[-82.02616233333333,26.58627986111111],[-82.02601302777778,26.587343333333333],[-82.02614730555555,26.58902075],[-82.02698125,26.590652916666667],[-82.02749247222222,26.59118186111111],[-82.02807583333333,26.591635888888888],[-82.028648,26.591950138888887],[-82.02880908333333,26.592009972222222],[-82.03016427777777,26.592343777777778]]},"properties":{"style":"solid","thickness":1}},{"type":"Feature","geometry":{"type":"LineString","coordinates":[[-82.02324522222222,26.5927915],[-82.02253494444444,26.58391511111111],[-82.01872583333333,26.584161444444444]]},"properties":{"style":"solid","thickness":1}},{"type":"Feature","geometry":{"type":"LineString","coordinates":[[-82.01553863888888,26.584367472222223],[-82.01624838888888,26.59324388888889],[-82.01298316666667,26.59345488888889],[-82.0122835,26.593500083333332],[-82.01170577777778,26.59311588888889],[-82.01127794444444,26.592651749999998],[-82.01125561111111,26.592372194444444],[-82.0111438888889,26.590974305555555],[-82.01120486111111,26.59075961111111],[-82.01139341666666,26.590185416666664],[-82.01211494444445,26.58943625],[-82.01130402777778,26.58906711111111],[-82.01089855555556,26.588882555555553],[-82.01048194444445,26.588558194444442],[-82.01019844444444,26.58794422222222],[-82.01005325,26.58612697222222],[-82.01024736111111,26.585622666666666],[-82.010758,26.585168166666666],[-82.01112436111111,26.58486347222222],[-82.01149627777778,26.584628694444444],[-82.01553863888888,26.584367472222223]]},"properties":{"style":"solid","thickness":1}},{"type":"Feature","geometry":{"type":"LineString","coordinates":[[-82.01592422222222,26.58919008333333],[-82.01211494444445,26.58943625]]},"properties":{"style":"solid","thickness":1}},{"type":"Feature","geometry":{"type":"LineString","coordinates":[[-82.00264325,26.59412258333333],[-82.00738563888889,26.593816444444442],[-82.00667655555556,26.58493997222222],[-82.00185680555556,26.58525111111111]]},"properties":{"style":"solid","thickness":1}},{"type":"Feature","geometry":{"type":"LineString","coordinates":[[-82.00702830555555,26.58934325],[-82.00244158333334,26.58963936111111]]},"properties":{"style":"solid","thickness":1}},{"type":"Feature","geometry":{"type":"LineString","coordinates":[[-82.08983977777777,26.573577888888888],[-82.0854093611111,26.5738665]]},"properties":{"style":"solid","thickness":1}},{"type":"Feature","geometry":{"type":"LineString","coordinates":[[-82.08553649999999,26.578354666666666],[-82.09020027777777,26.578050861111112],[-82.08948494444444,26.569174805555555]]},"properties":{"style":"solid","thickness":1}},{"type":"Feature","geometry":{"type":"LineString","coordinates":[[-82.07706391666666,26.578906222222223],[-82.07846305555555,26.578815166666665],[-82.079157,26.57869975],[-82.0805055,26.577979666666668],[-82.08173124999999,26.5767055],[-82.08212444444445,26.575766583333333],[-82.08226758333333,26.57463313888889],[-82.08219441666667,26.573724555555554],[-82.08197144444443,26.572896],[-82.08150963888889,26.572012722222222],[-82.08056463888889,26.57095013888889],[-82.0802256111111,26.570620916666666],[-82.07957005555555,26.570242055555557],[-82.07821497222221,26.569908694444443],[-82.07658275,26.570014916666665],[-82.07581675,26.570205277777777],[-82.075062,26.570535416666665],[-82.07461252777777,26.570775416666667],[-82.07388025,26.571385111111113],[-82.07324819444445,26.572269305555555],[-82.07306,26.572843583333334],[-82.07291113888888,26.57390711111111],[-82.07304608333332,26.5755845],[-82.07388058333333,26.57721638888889],[-82.07439194444444,26.577745166666666],[-82.07497541666666,26.578199],[-82.07554766666667,26.578513055555554],[-82.07570874999999,26.578572833333332],[-82.07706391666666,26.578906222222223]]},"properties":{"style":"solid","thickness":1}},{"type":"Feature","geometry":{"type":"LineString","coordinates":[[-82.06943205555555,26.570480027777776],[-82.0701458611111,26.579356194444443],[-82.06064905555556,26.571050805555554],[-82.06136219444444,26.579927]]},"properties":{"style":"solid","thickness":1}},{"type":"Feature","geometry":{"type":"LineString","coordinates":[[-82.05817516666666,26.580134],[-82.05257841666666,26.580497305555554]]},"properties":{"style":"solid","thickness":1}},{"type":"Feature","geometry":{"type":"LineString","coordinates":[[-82.05545452777777,26.58031063888889],[-82.05474186111111,26.57143438888889]]},"properties":{"style":"solid","thickness":1}},{"type":"Feature","geometry":{"type":"LineString","coordinates":[[-82.04867916666666,26.571827833333334],[-82.04511605555555,26.58098136111111],[-82.04036230555555,26.57236711111111]]},"properties":{"style":"solid","thickness":1}},{"type":"Feature","geometry":{"type":"LineString","coordinates":[[-82.04750994444444,26.574784138888887],[-82.04191344444445,26.575147027777778]]},"properties":{"style":"solid","thickness":1}},{"type":"Feature","geometry":{"type":"LineString","coordinates":[[-81.98792825,26.605753722222225],[-81.98722613888889,26.596947055555553]]},"properties":{"style":"solid","thickness":1}},{"type":"Feature","geometry":{"type":"LineString","coordinates":[[-81.98131925,26.606179361111113],[-81.98061763888889,26.59737269444444]]},"properties":{"style":"solid","thickness":1}},{"type":"Feature","geometry":{"type":"LineString","coordinates":[[-81.98759947222223,26.601629972222224],[-81.98099069444444,26.602055611111112]]},"properties":{"style":"solid","thickness":1}},{"type":"Feature","geometry":{"type":"LineString","coordinates":[[-81.97750775,26.59757286111111],[-81.97393822222223,26.60672461111111],[-81.96918869444444,26.598108027777776]]},"properties":{"style":"solid","thickness":1}},{"type":"Feature","geometry":{"type":"LineString","coordinates":[[-81.97633644444444,26.600528611111113],[-81.97073847222222,26.600888722222223]]},"properties":{"style":"solid","thickness":1}},{"type":"Feature","geometry":{"type":"LineString","coordinates":[[-81.96347441666667,26.602901222222222],[-81.95962558333333,26.59872261111111]]},"properties":{"style":"solid","thickness":1}},{"type":"Feature","geometry":{"type":"LineString","coordinates":[[-81.96592325,26.598317944444442],[-81.96662930555556,26.60719461111111],[-81.96274155555555,26.607444444444447],[-81.96241944444445,26.60732463888889],[-81.96169741666667,26.607090000000003],[-81.96094205555556,26.60643602777778],[-81.96057547222223,26.605757055555557],[-81.96050880555556,26.604918305555557],[-81.96076425,26.60419938888889],[-81.96140847222223,26.603455472222223],[-81.962086,26.603130944444445],[-81.96238588888889,26.602971166666666],[-81.9662735,26.602721333333335]]},"properties":{"style":"solid","thickness":1}},{"type":"Feature","geometry":{"type":"LineString","coordinates":[[-81.95643786111111,26.598927333333332],[-81.9544995,26.607973750000003],[-81.9505288888889,26.59930661111111],[-81.94851230555555,26.608357944444446],[-81.94493086111112,26.59966572222222]]},"properties":{"style":"solid","thickness":1}},{"type":"Feature","geometry":{"type":"LineString","coordinates":[[-81.93794308333334,26.608122305555558],[-81.93869833333333,26.608776416666668],[-81.93885938888889,26.608836361111113],[-81.93988130555556,26.60891136111111],[-81.94072555555556,26.608716750000003],[-81.94116991666667,26.60840727777778],[-81.94160872222223,26.60802788888889],[-81.94194761111112,26.60737388888889],[-81.94182008333334,26.60576630555556],[-81.9413036388889,26.60516713888889],[-81.94097044444445,26.604907500000003],[-81.93977086111111,26.604562861111113],[-81.93842133333334,26.604298111111113],[-81.93745502777779,26.6039385],[-81.93711077777778,26.603539055555558],[-81.93687769444445,26.602570472222222],[-81.93696113888889,26.60165186111111],[-81.93730558333334,26.60106777777778],[-81.93767216666667,26.600763305555557],[-81.93796655555556,26.600533666666667],[-81.93833866666667,26.600299083333336],[-81.93917730555556,26.600034583333336],[-81.93964380555556,26.600004694444447],[-81.94012141666667,26.600114583333333],[-81.94076558333333,26.60035427777778],[-81.94117652777778,26.600608944444446],[-81.9417651388889,26.601133222222224]]},"properties":{"style":"solid","thickness":1}},{"type":"Feature","geometry":{"type":"LineString","coordinates":[[-82.10048491666666,26.585291416666667],[-82.1000276111111,26.579621]]},"properties":{"style":"solid","thickness":1}},{"type":"Feature","geometry":{"type":"LineString","coordinates":[[-82.09636574999999,26.579859666666668],[-82.09682286111111,26.585530111111108]]},"properties":{"style":"solid","thickness":1}},{"type":"Feature","geometry":{"type":"LineString","coordinates":[[-82.09659430555556,26.582694888888888],[-82.10025625,26.582456194444443]]},"properties":{"style":"solid","thickness":1}},{"type":"Feature","geometry":{"type":"LineString","coordinates":[[-82.09301105555555,26.58292836111111],[-82.09316811111111,26.58379188888889],[-82.09349413888889,26.58461636111111],[-82.09397866666666,26.585375222222222],[-82.09460613888888,26.58604408333333],[-82.0953563611111,26.58660147222222],[-82.09620522222222,26.58702947222222],[-82.09712544444444,26.587314305555555],[-82.09808744444445,26.58744683333333],[-82.09906033333333,26.58742277777778],[-82.10001277777778,26.587242916666664],[-82.10091419444444,26.586913055555556],[-82.10173563888888,26.586443777777777],[-82.10245063888888,26.585850166666667],[-82.10303627777778,26.585151277777776],[-82.10347366666666,26.584369638888887],[-82.10374883333333,26.583530333333332],[-82.10385286111111,26.582660333333333],[-82.10378244444443,26.58178761111111],[-82.1035398611111,26.58094022222222],[-82.10313288888888,26.580145388888887],[-82.10257463888888,26.579428666666665],[-82.101883,26.578813083333333],[-82.10108027777777,26.578318444444445],[-82.10019219444443,26.57796061111111],[-82.09924736111111,26.577751111111112],[-82.09827608333333,26.577696666666668],[-82.0973096111111,26.57779902777778],[-82.09637897222221,26.57805488888889],[-82.0955141111111,26.578456055555556],[-82.09474283333333,26.578989611111112],[-82.0940898611111,26.579638444444445],[-82.09357625,26.580381638888888],[-82.09321847222222,26.58119538888889],[-82.09302802777778,26.58205347222222],[-82.09301105555555,26.58292836111111]]},"properties":{"style":"solid","thickness":1}}]}
