{"type":"FeatureCollection","features":[{"type":"Feature","geometry":{"type":"LineString","coordinates":[[-81.7690196111111,26.542999194444445],[-81.76901958333333,26.54483413888889]]},"properties":{"style":"solid","thickness":1}},{"type":"Feature","geometry":{"type":"LineString","coordinates":[[-81.76850958333333,26.542815694444446],[-81.76850955555555,26.54501763888889]]},"properties":{"style":"solid","thickness":1}},{"type":"Feature","geometry":{"type":"LineString","coordinates":[[-81.76799955555555,26.542815694444446],[-81.76799952777777,26.545017611111113]]},"properties":{"style":"solid","thickness":1}},{"type":"Feature","geometry":{"type":"LineString","coordinates":[[-81.7674895,26.542999194444445],[-81.76748947222222,26.54483411111111]]},"properties":{"style":"solid","thickness":1}},{"type":"Feature","geometry":{"type":"LineString","coordinates":[[-81.76697947222222,26.54391663888889],[-81.7669873611111,26.544046722222223],[-81.76701286111111,26.544182722222224],[-81.76705838888888,26.54432202777778],[-81.76712580555555,26.544461361111114],[-81.76721613888888,26.544596694444447],[-81.76732913888888,26.544723694444446],[-81.76746330555555,26.54483791666667],[-81.76761561111111,26.544935222222225],[-81.76778191666666,26.545012444444446],[-81.76795716666666,26.545067472222225],[-81.76813597222223,26.545099583333336],[-81.76831308333334,26.545109361111113],[-81.76848391666667,26.54509852777778],[-81.76864477777778,26.545069694444447],[-81.76879305555555,26.545025861111114],[-81.76892716666667,26.544970222222222],[-81.76904963888889,26.54490391666667],[-81.76916925,26.544821722222224],[-81.76928333333333,26.544722361111113],[-81.76938788888889,26.54460580555556],[-81.76947863888888,26.544472861111114],[-81.76955130555555,26.544325500000003],[-81.76960213888889,26.54416680555556],[-81.76962833333333,26.544000888888892],[-81.76962833333333,26.543832444444448],[-81.76960213888889,26.54366652777778],[-81.76955130555555,26.543507833333337],[-81.76947863888888,26.543360472222226],[-81.76938788888889,26.54322752777778],[-81.76928333333333,26.543110972222223],[-81.76916925,26.543011638888892],[-81.76904963888889,26.54292941666667],[-81.76892716666667,26.542863111111114],[-81.76879305555555,26.542807472222226],[-81.76864477777778,26.54276363888889],[-81.76848391666667,26.542734805555558],[-81.76831311111111,26.542723972222223],[-81.768136,26.54273375],[-81.76795719444445,26.542765833333334],[-81.76778194444444,26.542820861111114],[-81.76761563888888,26.542898083333334],[-81.76746333333334,26.542995416666667],[-81.76732916666667,26.543109611111113],[-81.76721613888888,26.543236611111112],[-81.76712583333334,26.543371972222225],[-81.76705841666667,26.543511277777778],[-81.76701288888889,26.543650583333335],[-81.7669873888889,26.543786555555556],[-81.76697947222222,26.54391663888889]]},"properties":{"style":"solid","thickness":1}},{"type":"Feature","geometry":{"type":"LineString","coordinates":[[-81.99304872222223,26.928764833333336],[-81.99294608333334,26.927481222222223]]},"properties":{"style":"solid","thickness":1}},{"type":"Feature","geometry":{"type":"LineString","coordinates":[[-81.99341700000001,26.928870166666666],[-81.99329380555555,26.927329833333335]]},"properties":{"style":"solid","thickness":1}},{"type":"Feature","geometry":{"type":"LineString","coordinates":[[-81.993775,26.928847166666667],[-81.99365183333333,26.927306833333333]]},"properties":{"style":"solid","thickness":1}},{"type":"Feature","geometry":{"type":"LineString","coordinates":[[-81.99412275,26.928695805555556],[-81.99402011111111,26.927412194444447]]},"properties":{"style":"solid","thickness":1}},{"type":"Feature","geometry":{"type":"LineString","coordinates":[[-81.99442944444445,26.928031],[-81.9944166111111,26.927940361111112],[-81.99439111111111,26.92784638888889],[-81.99435133333334,26.927751],[-81.99429622222222,26.927656555555558],[-81.99422525,26.927565944444446],[-81.99413883333334,26.927482194444444],[-81.99403827777778,26.927408361111112],[-81.99392591666667,26.927347166666667],[-81.99380486111112,26.92730063888889],[-81.99367875,26.927270055555557],[-81.99355147222222,26.927255666666667],[-81.99342658333333,26.927256805555558],[-81.99330727777777,26.927272083333335],[-81.993196,26.92729952777778],[-81.99309436111112,26.92733688888889],[-81.99300333333333,26.92738186111111],[-81.99292108333333,26.927433750000002],[-81.99284172222222,26.92749663888889],[-81.99276722222223,26.92757127777778],[-81.99270033333333,26.927657555555555],[-81.99264408333333,26.92775463888889],[-81.99260130555555,26.927861],[-81.9925745,26.92797430555556],[-81.99256538888889,26.928091555555557],[-81.99257483333334,26.92820938888889],[-81.99260247222222,26.92832427777778],[-81.99264705555555,26.928433000000002],[-81.99270630555556,26.92853277777778],[-81.99277744444444,26.928621694444445],[-81.9928573611111,26.92869852777778],[-81.992943,26.92876288888889],[-81.99303152777777,26.928815],[-81.99312122222223,26.928855833333333],[-81.99321847222222,26.928888722222222],[-81.993325,26.928912694444445],[-81.99343952777778,26.92892561111111],[-81.99356002777778,26.928925500000002],[-81.99368380555556,26.928910666666667],[-81.99380752777778,26.92888013888889],[-81.99392744444445,26.928833750000003],[-81.99403988888889,26.928772222222225],[-81.99414136111112,26.92869727777778],[-81.99422913888888,26.928611333333336],[-81.99430136111111,26.92851738888889],[-81.99435716666667,26.92841863888889],[-81.99439669444445,26.92831813888889],[-81.99442086111111,26.92821863888889],[-81.99443116666667,26.92812236111111],[-81.99442944444445,26.928031]]},"properties":{"style":"solid","thickness":1}},{"type":"Feature","geometry":{"type":"LineString","coordinates":[[-81.978644,26.921962500000003],[-81.99349861111111,26.928090805555556],[-81.97976919444444,26.936054277777778]]},"properties":{"style":"solid","thickness":1}},{"type":"Feature","geometry":{"type":"LineString","coordinates":[[-82.04795688888889,26.907476555555554],[-82.04894911111111,26.908332138888888],[-82.0491606111111,26.908410416666666],[-82.05050216666666,26.908507555555556],[-82.05161013888889,26.908251888888888],[-82.05219305555555,26.90784625],[-82.05276858333333,26.90734911111111],[-82.05321258333333,26.906492555555555],[-82.05304305555555,26.904388027777777],[-82.05236438888889,26.903604166666664],[-82.05192666666666,26.903264583333332],[-82.05035158333332,26.902814666666664],[-82.04857975,26.902469416666666],[-82.04731083333333,26.901999666666665],[-82.04685841666667,26.901477055555553],[-82.04655119444445,26.90020922222222],[-82.04665958333334,26.8990065],[-82.04711094444444,26.89824147222222],[-82.04759177777778,26.897842444444443],[-82.04797788888888,26.897541527777776],[-82.04846608333334,26.897234],[-82.04956655555556,26.89688686111111],[-82.05017888888888,26.89684722222222],[-82.05080594444445,26.89699061111111],[-82.05165186111111,26.89730375],[-82.05219158333333,26.89763675],[-82.05296491666667,26.8983225]]},"properties":{"style":"solid","thickness":1}},{"type":"Feature","geometry":{"type":"LineString","coordinates":[[-82.04294938888889,26.908996166666665],[-82.03711588888889,26.897692083333332],[-82.03335522222223,26.90961622222222]]},"properties":{"style":"solid","thickness":1}},{"type":"Feature","geometry":{"type":"LineString","coordinates":[[-82.02154763888889,26.903112277777776],[-82.02176797222222,26.90585736111111],[-82.02219902777777,26.907393166666665],[-82.02246191666667,26.908112027777776],[-82.02281219444444,26.908641277777775],[-82.02412513888889,26.909660277777775],[-82.02538666666666,26.91003875],[-82.02579494444444,26.910012416666664],[-82.026983,26.90947583333333],[-82.02801752777778,26.90830533333333],[-82.02838169444445,26.907729944444444],[-82.02852702777777,26.90698475],[-82.02870825,26.905409444444444],[-82.02848775,26.90266436111111],[-82.02805663888888,26.901128583333332],[-82.02779372222223,26.90040972222222],[-82.02734138888889,26.899887055555556],[-82.02613058333333,26.8988615],[-82.02486916666666,26.89848302777778],[-82.02446094444444,26.89850938888889],[-82.023273,26.899045944444445],[-82.02213644444444,26.900222999999997],[-82.02187433333333,26.900791777777776],[-82.02172897222222,26.90153697222222],[-82.02154763888889,26.903112277777776]]},"properties":{"style":"solid","thickness":1}},{"type":"Feature","geometry":{"type":"LineString","coordinates":[[-82.01099511111111,26.910966833333333],[-82.01569025,26.91066422222222],[-82.01651866666667,26.905644083333332],[-82.01562944444444,26.906069305555555],[-82.01484963888889,26.90657947222222],[-82.01301247222223,26.90669788888889],[-82.01207922222223,26.906574083333332],[-82.0111166111111,26.906084277777776],[-82.00999327777778,26.90486897222222],[-82.00970111111111,26.90378408333333],[-82.0095911111111,26.902411527777776],[-82.01012277777778,26.901365527777777],[-82.0107565,26.900312944444444],[-82.01104069444445,26.90001872222222],[-82.01161636111111,26.89952172222222],[-82.01262227777778,26.899272944444444],[-82.01374491666667,26.899200583333332],[-82.01457605555555,26.899330944444444],[-82.015626,26.899631166666666],[-82.01660322222222,26.900303972222222],[-82.01672730555555,26.900571888888887]]},"properties":{"style":"solid","thickness":1}},{"type":"Feature","geometry":{"type":"LineString","coordinates":[[-82.00283194444444,26.89999561111111],[-82.00151302777778,26.901460166666666],[-82.00039088888889,26.90282008333333],[-81.9994655,26.90407533333333],[-81.99891175,26.904846777777777],[-81.99847469444444,26.90579463888889],[-81.99834380555555,26.906722833333333],[-81.99830769444445,26.907552944444443],[-81.99843955555555,26.909200027777775],[-81.99879705555556,26.90982083333333],[-81.99924927777778,26.910343583333333],[-81.99970886111112,26.91095783333333],[-82.00191094444445,26.911551916666664],[-82.00313577777777,26.911473055555554],[-82.00441136111111,26.91074711111111],[-82.00460083333333,26.91055094444444],[-82.00535872222223,26.909766333333334],[-82.00544613888889,26.90957675],[-82.00575175,26.908269416666666],[-82.00567844444444,26.90735436111111],[-82.00542297222222,26.90672697222222],[-82.00517486111112,26.90619111111111],[-82.00471527777778,26.90557686111111],[-82.00384744444445,26.904988916666664],[-82.00300163888889,26.90467547222222],[-82.00248397222222,26.904616833333332],[-82.00176952777778,26.904662833333333],[-82.00126655555556,26.904787166666665],[-81.99959008333333,26.905630888888886],[-81.99833650000001,26.906631333333333]]},"properties":{"style":"solid","thickness":1}},{"type":"Feature","geometry":{"type":"LineString","coordinates":[[-81.99390372222223,26.906364666666665],[-81.98757561111111,26.906771527777778]]},"properties":{"style":"solid","thickness":1}},{"type":"Feature","geometry":{"type":"LineString","coordinates":[[-81.97623130555556,26.906028638888888],[-81.97645055555556,26.908773805555555],[-81.97688102777778,26.91030975],[-81.97714363888889,26.911028694444443],[-81.97749372222222,26.911558055555552],[-81.97880630555555,26.91257747222222],[-81.98006772222223,26.91295633333333],[-81.980476,26.91293013888889],[-81.98166430555555,26.912393944444442],[-81.98269933333333,26.911223749999998],[-81.98306372222223,26.910648499999997],[-81.98320936111111,26.909903333333332],[-81.98339122222222,26.90832808333333],[-81.98317180555556,26.905582916666667],[-81.98274127777778,26.904047],[-81.98247863888889,26.90332808333333],[-81.9820265,26.902805277777777],[-81.98081605555556,26.90177933333333],[-81.97955475,26.901400444444445],[-81.9791465,26.901426666666666],[-81.97795830555556,26.90196286111111],[-81.97682125,26.903139555555555],[-81.97655891666666,26.903708249999998],[-81.97641325000001,26.904453388888886],[-81.97623130555556,26.906028638888888]]},"properties":{"style":"solid","thickness":1}},{"type":"Feature","geometry":{"type":"LineString","coordinates":[[-81.97138422222223,26.913421749999998],[-81.9698531111111,26.913519972222222],[-81.96894752777779,26.902173249999997]]},"properties":{"style":"solid","thickness":1}},{"type":"Feature","geometry":{"type":"LineString","coordinates":[[-81.96363291666667,26.90242208333333],[-81.96455988888889,26.91404336111111],[-81.95945616666667,26.91437047222222],[-81.95903327777778,26.91421361111111],[-81.95808541666666,26.913906444444443],[-81.95709380555556,26.91305022222222],[-81.95661258333334,26.912161333333334],[-81.95652505555556,26.911063249999998],[-81.95686041666667,26.910122027777778],[-81.95770611111111,26.909148111111108],[-81.95859558333333,26.90872322222222],[-81.95898925,26.908514055555553],[-81.96409272222222,26.90818697222222]]},"properties":{"style":"solid","thickness":1}},{"type":"Feature","geometry":{"type":"LineString","coordinates":[[-81.94248983333334,26.913892999999998],[-81.94294183333334,26.914415916666666],[-81.94390422222223,26.91490622222222],[-81.94453125,26.915050055555554],[-81.94628838888889,26.915213555555553],[-81.94690086111112,26.91517436111111],[-81.94811119444445,26.914912972222222],[-81.94911011111111,26.914573138888887],[-81.94930697222223,26.914468555555555],[-81.94998505555556,26.913965277777777],[-81.95065583333334,26.9133705],[-81.95175680555556,26.91173647222222],[-81.95215055555556,26.910239694444442],[-81.95199019444445,26.908226555555554],[-81.95169858333334,26.907141555555555],[-81.95122469444445,26.90634411111111],[-81.950554,26.905651277777775],[-81.94999263888889,26.90504338888889],[-81.94911052777778,26.904272083333332],[-81.94826483333334,26.903958333333332],[-81.94741916666668,26.903644555555555],[-81.9466901388889,26.903507249999997],[-81.94485294444445,26.903624805555555],[-81.94384686111111,26.90387311111111],[-81.94305944444444,26.90429136111111],[-81.94217725,26.904807666666667],[-81.94160125,26.90530436111111],[-81.94066794444444,26.90646772222222],[-81.94012102777778,26.907330444444444],[-81.93996058333333,26.907892555555556],[-81.94007705555556,26.909356666666664],[-81.94436405555555,26.9090825]]},"properties":{"style":"solid","thickness":1}},{"type":"Feature","geometry":{"type":"LineString","coordinates":[[-81.93546280555556,26.90422525],[-81.93638694444445,26.915846694444443],[-81.93189550000001,26.916133666666664],[-81.93065602777779,26.916028916666665],[-81.93012383333334,26.91578697222222],[-81.92925630555555,26.915198583333332],[-81.9279513888889,26.914270194444445],[-81.92704027777778,26.91313275],[-81.92676341666667,26.912230694444442],[-81.92652352777779,26.909210944444443],[-81.92666225,26.90837433333333],[-81.92718744444444,26.90723713888889],[-81.92785105555556,26.906550944444444],[-81.92850011111112,26.90568175],[-81.92946991666668,26.904975999999998],[-81.93067291666667,26.90462325],[-81.93138011111111,26.904486111111108],[-81.93546280555556,26.90422525]]},"properties":{"style":"solid","thickness":1}},{"type":"Feature","geometry":{"type":"LineString","coordinates":[[-81.82551752777778,26.12325963888889],[-81.82650138888889,26.124116861111112],[-81.82671130555555,26.1241955],[-81.82804361111111,26.12429475],[-81.82914458333333,26.12404077777778],[-81.82972433333333,26.123636],[-81.83029691666667,26.123139694444443],[-81.83073955555555,26.12228375],[-81.83057525,26.120178694444444],[-81.82990266666667,26.119393694444444],[-81.82946858333332,26.11905338888889],[-81.827905,26.118600944444445],[-81.82614583333333,26.118252916666666],[-81.82488641666666,26.11778111111111],[-81.82443805555555,26.11725775],[-81.8241353611111,26.115989333333335],[-81.82424533333332,26.11478663888889],[-81.82469511111111,26.114022222222225],[-81.82517344444445,26.113623888888892],[-81.82555752777778,26.113323555555557],[-81.826043,26.11301675],[-81.82713672222222,26.11267127777778],[-81.82774497222222,26.112632583333333],[-81.82836752777777,26.112776972222225],[-81.8292071111111,26.113091472222223],[-81.82974255555555,26.113425333333335],[-81.83050933333332,26.11411238888889]]},"properties":{"style":"solid","thickness":1}},{"type":"Feature","geometry":{"type":"LineString","coordinates":[[-81.82054099999999,26.12477161111111],[-81.81476875,26.113457194444447],[-81.81101058333333,26.125376805555558]]},"properties":{"style":"solid","thickness":1}},{"type":"Feature","geometry":{"type":"LineString","coordinates":[[-81.7992953888889,26.11885375],[-81.79950894444444,26.121599500000002],[-81.79993413888889,26.12313613888889],[-81.80019388888888,26.12385547222222],[-81.80054075,26.124385333333333],[-81.80184286111111,26.1254065],[-81.80309513888889,26.125786972222222],[-81.80350069444444,26.125761277777777],[-81.80468175,26.125226472222224],[-81.80571152777777,26.124057444444446],[-81.80607433333333,26.123482583333335],[-81.8062201111111,26.12273752777778],[-81.80640313888888,26.121162305555558],[-81.80618941666667,26.118416583333335],[-81.80576416666666,26.116879972222222],[-81.80550441666666,26.11616063888889],[-81.80505613888889,26.115637194444446],[-81.8038555,26.11460963888889],[-81.80260333333334,26.114229166666668],[-81.80219783333332,26.11425488888889],[-81.80101688888888,26.11478963888889],[-81.79988575,26.115965083333336],[-81.79962433333333,26.116533500000003],[-81.79947852777778,26.117278555555558],[-81.7992953888889,26.11885375]]},"properties":{"style":"solid","thickness":1}},{"type":"Feature","geometry":{"type":"LineString","coordinates":[[-81.78879919444444,26.126692805555557],[-81.79346313888888,26.126397444444446],[-81.79429558333334,26.121378027777777],[-81.79341158333334,26.121801916666666],[-81.79263605555555,26.122310916666667],[-81.79081111111111,26.1224265],[-81.7898843888889,26.12230125],[-81.78892925,26.12180986111111],[-81.78781586111111,26.120592694444444],[-81.78752775,26.11950722222222],[-81.78742111111112,26.11813436111111],[-81.78795119444445,26.117089055555557],[-81.78858266666667,26.11603736111111],[-81.78886547222223,26.11574352777778],[-81.78943822222222,26.11524738888889],[-81.79043780555556,26.11500013888889],[-81.79155297222222,26.114929500000002],[-81.79237825,26.115061166666667],[-81.7934205,26.11536305555556],[-81.79438983333333,26.116037444444444],[-81.79451255555556,26.116305611111112]]},"properties":{"style":"solid","thickness":1}},{"type":"Feature","geometry":{"type":"LineString","coordinates":[[-81.78071233333333,26.11570766666667],[-81.77939955555556,26.11717036111111],[-81.77828238888888,26.118528666666666],[-81.7773608611111,26.119782611111113],[-81.7768093611111,26.120553277777777],[-81.77637344444445,26.121500583333333],[-81.77624166666666,26.122428666666668],[-81.77620419444445,26.123258805555555],[-81.77633202777778,26.12490627777778],[-81.77668588888889,26.125527722222223],[-81.77713408333334,26.12605125],[-81.77758936111111,26.12666627777778],[-81.7797753888889,26.127263833333334],[-81.78099208333333,26.127186861111113],[-81.78226044444445,26.126462805555555],[-81.782449,26.126266916666665],[-81.78320327777777,26.125483388888888],[-81.78329044444445,26.125293944444444],[-81.7835965,26.123986916666667],[-81.78352544444444,26.123071666666668],[-81.78327291666666,26.122443805555555],[-81.7830275,26.1219075],[-81.78257222222223,26.121292472222223],[-81.7817113888889,26.120703111111112],[-81.78087188888888,26.120388305555554],[-81.78035786111111,26.120328861111112],[-81.77964816666666,26.12037375],[-81.77914833333334,26.120497333333333],[-81.77748158333333,26.121338555555557],[-81.77623458333333,26.122337138888888]]},"properties":{"style":"solid","thickness":1}},{"type":"Feature","geometry":{"type":"LineString","coordinates":[[-81.77183233333334,26.122063555555556],[-81.76554627777777,26.12246066666667]]},"properties":{"style":"solid","thickness":1}},{"type":"Feature","geometry":{"type":"LineString","coordinates":[[-81.75428019444445,26.12170011111111],[-81.75449269444445,26.124445944444446],[-81.75491730555555,26.125982694444446],[-81.75517677777778,26.126702138888888],[-81.75552347222222,26.127232111111113],[-81.75682519444445,26.128253666666666],[-81.7580773611111,26.128634527777777],[-81.75848294444444,26.128608944444444],[-81.75966422222223,26.128074527777777],[-81.76069447222223,26.126905833333335],[-81.7610575,26.126331055555557],[-81.76120358333333,26.125586055555555],[-81.76138722222223,26.124010916666666],[-81.76117455555556,26.12126511111111],[-81.76074986111111,26.11972836111111],[-81.76049038888888,26.119008944444445],[-81.76004233333333,26.118485361111112],[-81.75884202777777,26.117457444444444],[-81.75759,26.117076583333333],[-81.75718447222222,26.117102166666665],[-81.75600327777778,26.117636555555556],[-81.75487166666667,26.11881163888889],[-81.75461002777777,26.119379972222223],[-81.75446391666667,26.12012497222222],[-81.75428019444445,26.12170011111111]]},"properties":{"style":"solid","thickness":1}},{"type":"Feature","geometry":{"type":"LineString","coordinates":[[-81.75043483333333,26.125989444444446],[-81.75047730555555,26.126538611111112],[-81.75032408333334,26.127192083333334],[-81.74998225,26.12804138888889],[-81.74961916666666,26.12861611111111],[-81.74903911111112,26.129020583333332],[-81.74824211111111,26.12925475],[-81.74672119444445,26.12935061111111],[-81.74559169444444,26.129237833333335],[-81.74506347222223,26.128995194444446],[-81.74430416666667,26.12839922222222],[-81.744066,26.12795436111111],[-81.74380661111111,26.127234916666666],[-81.74369338888889,26.12577047222222],[-81.74385372222223,26.125208555555556],[-81.74461763888888,26.123228972222222],[-81.74573525,26.121870944444446],[-81.74752713888888,26.1200105],[-81.74968202777778,26.117575333333335],[-81.74329475,26.11797786111111]]},"properties":{"style":"solid","thickness":1}},{"type":"Feature","geometry":{"type":"LineString","coordinates":[[-81.73903655555556,26.118246055555556],[-81.73435797222223,26.13022113888889],[-81.72818819444444,26.118928750000002]]},"properties":{"style":"solid","thickness":1}},{"type":"Feature","geometry":{"type":"LineString","coordinates":[[-81.73750150000001,26.12211361111111],[-81.73020144444445,26.122573]]},"properties":{"style":"solid","thickness":1}},{"type":"Feature","geometry":{"type":"LineString","coordinates":[[-81.72392994444445,26.1191965],[-81.72482663888889,26.130820611111112],[-81.71975675,26.131139222222224],[-81.71933705555556,26.130981666666667],[-81.71839625,26.130672861111112],[-81.71741311111111,26.129814916666668],[-81.71693697222223,26.128925083333336],[-81.71685230555556,26.12782675],[-81.71718733333334,26.126886],[-81.71802933333333,26.12591338888889],[-81.71891363888889,26.125489944444446],[-81.71930511111111,26.12528138888889],[-81.72437475,26.124962805555555]]},"properties":{"style":"solid","thickness":1}},{"type":"Feature","geometry":{"type":"LineString","coordinates":[[-81.71241036111111,26.125714416666668],[-81.7066308888889,26.126077111111112]]},"properties":{"style":"solid","thickness":1}},{"type":"Feature","geometry":{"type":"LineString","coordinates":[[-81.70677772222223,26.131954083333333],[-81.71286166666667,26.13157225],[-81.7119661388889,26.119948083333334]]},"properties":{"style":"solid","thickness":1}},{"type":"Feature","geometry":{"type":"LineString","coordinates":[[-81.76976180555556,26.154678694444442],[-81.76966233333333,26.153394777777777]]},"properties":{"style":"solid","thickness":1}},{"type":"Feature","geometry":{"type":"LineString","coordinates":[[-81.77012741666667,26.154784638888888],[-81.77000802777778,26.153243916666664]]},"properties":{"style":"solid","thickness":1}},{"type":"Feature","geometry":{"type":"LineString","coordinates":[[-81.77048308333333,26.154762194444444],[-81.77036369444444,26.15322147222222]]},"properties":{"style":"solid","thickness":1}},{"type":"Feature","geometry":{"type":"LineString","coordinates":[[-81.77082880555555,26.15461133333333],[-81.77072930555555,26.153327416666666]]},"properties":{"style":"solid","thickness":1}},{"type":"Feature","geometry":{"type":"LineString","coordinates":[[-81.77113472222221,26.153946944444442],[-81.77112213888888,26.153856249999997],[-81.771097,26.15376225],[-81.77105769444444,26.153666777777776],[-81.77100311111111,26.15357225],[-81.77093280555556,26.153481499999998],[-81.77084711111111,26.15339761111111],[-81.7707473611111,26.15332361111111],[-81.77063586111112,26.15326222222222],[-81.77051572222223,26.153215527777775],[-81.77039052777778,26.15318472222222],[-81.7702641111111,26.15317013888889],[-81.77014005555556,26.153171083333334],[-81.77002152777777,26.153186194444444],[-81.76991091666666,26.153213444444443],[-81.76980991666666,26.15325063888889],[-81.76971938888889,26.153295472222222],[-81.76963758333333,26.15334725],[-81.76955866666667,26.153410055555554],[-81.76948447222222,26.15348458333333],[-81.76941788888888,26.15357075],[-81.76936183333333,26.15366775],[-81.76931913888889,26.153774055555555],[-81.76929227777778,26.153887333333333],[-81.76928302777777,26.154004583333332],[-81.76929213888889,26.154122444444443],[-81.76931941666666,26.154237388888887],[-81.76936347222222,26.154346194444443],[-81.76942213888888,26.154446083333333],[-81.7694926111111,26.15453513888889],[-81.7695718611111,26.154612083333333],[-81.76965680555556,26.15467658333333],[-81.7697446388889,26.154728833333333],[-81.76983363888888,26.154769833333333],[-81.76993019444444,26.15480286111111],[-81.77003597222222,26.154826999999997],[-81.77014969444444,26.15484011111111],[-81.77026941666666,26.154840166666666],[-81.7703923888889,26.154825527777778],[-81.77051533333334,26.154795194444443],[-81.77063455555556,26.154749],[-81.77074633333334,26.154687638888888],[-81.77084727777778,26.15461283333333],[-81.77093463888889,26.154527027777775],[-81.77100655555556,26.154433194444444],[-81.77106219444444,26.154334499999997],[-81.77110166666667,26.154234055555555],[-81.77112583333333,26.154134555555554],[-81.77113625,26.154038305555556],[-81.77113472222221,26.153946944444442]]},"properties":{"style":"solid","thickness":1}},{"type":"Feature","geometry":{"type":"LineString","coordinates":[[-81.75546644444445,26.147853138888888],[-81.77021,26.154005305555554],[-81.756557,26.161948305555555]]},"properties":{"style":"solid","thickness":1}}]}
