{"type":"FeatureCollection","features":[{"type":"Feature","geometry":{"type":"LineString","coordinates":[[-81.52181166666666,27.12617563888889],[-81.51983008333333,27.135214583333333],[-81.51587436111112,27.12653677777778],[-81.51381416666666,27.135580416666667],[-81.5102495,27.126878722222223]]},"properties":{"style":"solid","thickness":1}},{"type":"Feature","geometry":{"type":"LineString","coordinates":[[-81.50704644444444,27.127073305555555],[-81.50342294444444,27.136211666666668],[-81.49868719444444,27.127580861111113]]},"properties":{"style":"solid","thickness":1}},{"type":"Feature","geometry":{"type":"LineString","coordinates":[[-81.50585763888888,27.130024666666667],[-81.50023258333333,27.130366194444445]]},"properties":{"style":"solid","thickness":1}},{"type":"Feature","geometry":{"type":"LineString","coordinates":[[-81.49560991666667,27.13668583333333],[-81.49029702777779,27.137007999999998],[-81.49024938888888,27.13637888888889],[-81.49548938888888,27.127845083333334],[-81.49548408333334,27.127775194444446],[-81.48931225,27.128149472222223]]},"properties":{"style":"solid","thickness":1}},{"type":"Feature","geometry":{"type":"LineString","coordinates":[[-81.48654672222223,27.137235277777776],[-81.48123380555556,27.13755711111111],[-81.48118619444445,27.136928],[-81.48642691666667,27.128394555555555],[-81.48642161111111,27.128324666666668],[-81.48024969444445,27.12869852777778]]},"properties":{"style":"solid","thickness":1}},{"type":"Feature","geometry":{"type":"LineString","coordinates":[[-81.47795225,27.137755805555557],[-81.4741751388889,27.13243688888889],[-81.47131102777777,27.138157666666665]]},"properties":{"style":"solid","thickness":1}},{"type":"Feature","geometry":{"type":"LineString","coordinates":[[-81.4741751388889,27.13243688888889],[-81.47392677777778,27.1291515]]},"properties":{"style":"solid","thickness":1}},{"type":"Feature","geometry":{"type":"LineString","coordinates":[[-81.46756566666667,27.017953277777778],[-81.46558166666667,27.026991805555554],[-81.46163375,27.018312194444444],[-81.45957125,27.02735536111111],[-81.45601402777778,27.018652]]},"properties":{"style":"solid","thickness":1}},{"type":"Feature","geometry":{"type":"LineString","coordinates":[[-81.4478625,27.02806286111111],[-81.44926755555556,27.027977999999997],[-81.44996483333334,27.027865666666667],[-81.4513225,27.02715163888889],[-81.45255994444445,27.025883083333333],[-81.45295983333334,27.024946027777776],[-81.45310972222222,27.02381338888889],[-81.45304127777779,27.02290463888889],[-81.45282197222222,27.022075194444444],[-81.45236325,27.021190027777777],[-81.45142041666666,27.020123416666667],[-81.45108186111112,27.01979275],[-81.45042586111111,27.019411027777778],[-81.44906738888889,27.01907175],[-81.44742827777777,27.01917072222222],[-81.44665827777779,27.019357666666664],[-81.44589880555556,27.019684416666667],[-81.44544627777778,27.019922416666667],[-81.44470780555557,27.020528777777777],[-81.44406847222223,27.021410055555556],[-81.4438763888889,27.021983416666664],[-81.44372113888889,27.023046138888887],[-81.4438473888889,27.02472386111111],[-81.44467616666667,27.026359194444442],[-81.44518658333334,27.026890166666664],[-81.44576983333334,27.027346527777777],[-81.44634255555556,27.027663055555553],[-81.44650394444444,27.027723555555554],[-81.4478625,27.02806286111111]]},"properties":{"style":"solid","thickness":1}},{"type":"Feature","geometry":{"type":"LineString","coordinates":[[-81.4361536388889,27.02876938888889],[-81.44091525,27.028482194444443],[-81.44024741666667,27.019604166666667],[-81.43540811111112,27.019896083333332]]},"properties":{"style":"solid","thickness":1}},{"type":"Feature","geometry":{"type":"LineString","coordinates":[[-81.44057869444445,27.02400822222222],[-81.43597336111111,27.024286027777777]]},"properties":{"style":"solid","thickness":1}},{"type":"Feature","geometry":{"type":"LineString","coordinates":[[-81.43244205555555,27.02007488888889],[-81.43045527777778,27.02911288888889],[-81.42650994444445,27.02043236111111],[-81.42444461111111,27.02947497222222],[-81.42089002777779,27.020770777777777]]},"properties":{"style":"solid","thickness":1}},{"type":"Feature","geometry":{"type":"LineString","coordinates":[[-81.41273547222222,27.030179583333332],[-81.41414058333334,27.030095083333332],[-81.4148378888889,27.029982916666665],[-81.41619580555556,27.02926925],[-81.41743366666667,27.028001],[-81.41783383333333,27.027064027777776],[-81.41798411111111,27.025931444444442],[-81.41791591666667,27.025022666666665],[-81.41769686111111,27.024193166666667],[-81.41723838888889,27.023307888888887],[-81.4162958888889,27.022241027777778],[-81.41595744444444,27.021910305555554],[-81.41530152777779,27.021528416666666],[-81.4139431388889,27.021188805555553],[-81.41230397222223,27.021287388888886],[-81.4115338888889,27.021474138888887],[-81.41077430555556,27.021800694444444],[-81.41032169444445,27.022038583333334],[-81.40958305555556,27.022644749999998],[-81.40894341666667,27.02352586111111],[-81.40875116666668,27.024099194444442],[-81.40859555555556,27.02516188888889],[-81.40872130555556,27.026839638888887],[-81.40954958333334,27.028475166666666],[-81.4100598888889,27.02900625],[-81.41064300000001,27.02946275],[-81.41121561111112,27.029779444444443],[-81.41137697222223,27.029839944444443],[-81.41273547222222,27.030179583333332]]},"properties":{"style":"solid","thickness":1}},{"type":"Feature","geometry":{"type":"LineString","coordinates":[[-81.38351341666667,26.64845658333333],[-81.38417475,26.657335666666665]]},"properties":{"style":"solid","thickness":1}},{"type":"Feature","geometry":{"type":"LineString","coordinates":[[-81.37699438888889,26.653272777777776],[-81.3731653611111,26.649078527777778]]},"properties":{"style":"solid","thickness":1}},{"type":"Feature","geometry":{"type":"LineString","coordinates":[[-81.37946755555555,26.648699833333332],[-81.3801286111111,26.65757894444444],[-81.37623805555555,26.657812749999998],[-81.37591641666666,26.657691611111108],[-81.37519530555555,26.657454027777778],[-81.374443,26.65679697222222],[-81.37407972222222,26.6561165],[-81.37401730555555,26.655277555555553],[-81.37427652777777,26.654559694444444],[-81.37492477777778,26.6538185],[-81.37560425,26.65349675],[-81.37590508333332,26.65333822222222],[-81.37979547222221,26.653104444444445]]},"properties":{"style":"solid","thickness":1}},{"type":"Feature","geometry":{"type":"LineString","coordinates":[[-81.36997533333333,26.64927011111111],[-81.37063566666666,26.658149249999997],[-81.36118327777777,26.64979772222222],[-81.36184291666666,26.658676916666664]]},"properties":{"style":"solid","thickness":1}},{"type":"Feature","geometry":{"type":"LineString","coordinates":[[-81.35799322222222,26.649989055555555],[-81.35865261111111,26.65886822222222]]},"properties":{"style":"solid","thickness":1}},{"type":"Feature","geometry":{"type":"LineString","coordinates":[[-81.34985977777777,26.659395166666666],[-81.35460636111111,26.659110777777776],[-81.35394727777778,26.650231583333333],[-81.34912324999999,26.65052061111111]]},"properties":{"style":"solid","thickness":1}},{"type":"Feature","geometry":{"type":"LineString","coordinates":[[-81.35427419444444,26.65463622222222],[-81.34968341666666,26.654911277777778]]},"properties":{"style":"solid","thickness":1}},{"type":"Feature","geometry":{"type":"LineString","coordinates":[[-81.38818202777779,26.509012527777777],[-81.38752122222223,26.50013325]]},"properties":{"style":"solid","thickness":1}},{"type":"Feature","geometry":{"type":"LineString","coordinates":[[-81.38281480555555,26.509265555555555],[-81.38784902777779,26.504537944444444],[-81.38208191666666,26.50046083333333]]},"properties":{"style":"solid","thickness":1}},{"type":"Feature","geometry":{"type":"LineString","coordinates":[[-81.37396094444443,26.509868555555556],[-81.37535974999999,26.509784416666665],[-81.37605394444444,26.509672416666668],[-81.37740597222222,26.508959027777777],[-81.37863869444443,26.50769097222222],[-81.37903738888888,26.506754],[-81.37918733333332,26.505621333333334],[-81.37911977777777,26.504712416666667],[-81.37890197222221,26.50388277777778],[-81.37844588888888,26.50299725],[-81.37750797222222,26.501930027777778],[-81.37717113888888,26.501599166666665],[-81.37651833333332,26.501217055555557],[-81.37516616666666,26.500877055555556],[-81.3735343611111,26.500975194444443],[-81.37276769444443,26.501161777777778],[-81.37201138888888,26.501488166666668],[-81.37156075,26.501725944444445],[-81.37082522222221,26.502332],[-81.37018816666667,26.503213055555555],[-81.36999658333333,26.503786388888887],[-81.3698413611111,26.50484913888889],[-81.36996597222222,26.506527138888888],[-81.37078997222221,26.508163083333333],[-81.37129780555554,26.50869436111111],[-81.3718781111111,26.509151083333332],[-81.37244808333332,26.509467944444445],[-81.37260869444444,26.5095285],[-81.37396094444443,26.509868555555556]]},"properties":{"style":"solid","thickness":1}},{"type":"Feature","geometry":{"type":"LineString","coordinates":[[-81.36056338888888,26.510252333333334],[-81.36105038888888,26.510504],[-81.36160475,26.510611166666667],[-81.3634698611111,26.51049913888889],[-81.36415888888888,26.510317305555557],[-81.36438683333333,26.510233361111112],[-81.36550580555554,26.50953408333333],[-81.36615330555556,26.508792916666668],[-81.36633452777777,26.508079722222224],[-81.36678508333333,26.506788555555556],[-81.36666569444444,26.50518047222222],[-81.36645319444443,26.50442075],[-81.36617336111111,26.5038055],[-81.3658106111111,26.503125027777777],[-81.36497647222221,26.50240263888889],[-81.36344816666666,26.501792166666668],[-81.36242241666666,26.50164311111111],[-81.36156763888889,26.501694444444446],[-81.36049530555555,26.501969527777778],[-81.36012233333332,26.502202611111112],[-81.35982188888889,26.50236111111111]]},"properties":{"style":"solid","thickness":1}},{"type":"Feature","geometry":{"type":"LineString","coordinates":[[-81.35724766666667,26.510802555555557],[-81.35659441666667,26.501993055555555]]},"properties":{"style":"solid","thickness":1}},{"type":"Feature","geometry":{"type":"LineString","coordinates":[[-81.35064208333333,26.511198888888888],[-81.34998933333333,26.50238938888889]]},"properties":{"style":"solid","thickness":1}},{"type":"Feature","geometry":{"type":"LineString","coordinates":[[-81.35694177777778,26.506677472222222],[-81.35033641666666,26.507073805555557]]},"properties":{"style":"solid","thickness":1}},{"type":"Feature","geometry":{"type":"LineString","coordinates":[[-81.34272047222221,26.511744055555557],[-81.347461,26.51145988888889],[-81.34680330555555,26.502580444444444],[-81.34198544444445,26.50286925]]},"properties":{"style":"solid","thickness":1}},{"type":"Feature","geometry":{"type":"LineString","coordinates":[[-81.34712955555555,26.506985222222223],[-81.34254463888888,26.507260055555555]]},"properties":{"style":"solid","thickness":1}},{"type":"Feature","geometry":{"type":"LineString","coordinates":[[-81.62310558333333,26.504869805555554],[-81.61978522222222,26.49615511111111],[-81.61720052777777,26.505235194444445],[-81.61380291666666,26.496525166666668],[-81.61160622222222,26.50558113888889]]},"properties":{"style":"solid","thickness":1}},{"type":"Feature","geometry":{"type":"LineString","coordinates":[[-81.60834288888888,26.505782833333335],[-81.60458038888888,26.500466555555555],[-81.60173844444444,26.506190805555555]]},"properties":{"style":"solid","thickness":1}},{"type":"Feature","geometry":{"type":"LineString","coordinates":[[-81.60458038888888,26.500466555555555],[-81.60432969444444,26.497180916666668]]},"properties":{"style":"solid","thickness":1}},{"type":"Feature","geometry":{"type":"LineString","coordinates":[[-81.59207166666666,26.506365972222223],[-81.59255916666666,26.506616861111112],[-81.59311372222221,26.50672311111111],[-81.59497852777777,26.506608083333333],[-81.59566719444445,26.50642511111111],[-81.59589494444444,26.506340805555556],[-81.59701247222222,26.505639722222224],[-81.59765847222222,26.504897472222222],[-81.59783827777777,26.50418402777778],[-81.59828622222221,26.502892111111112],[-81.5981636111111,26.50128422222222],[-81.59794958333333,26.500524833333333],[-81.59766852777777,26.499910055555556],[-81.59730444444443,26.499230166666667],[-81.5964688611111,26.49850911111111],[-81.59493938888889,26.49790113888889],[-81.59391338888888,26.49775375],[-81.59305875,26.497806472222223],[-81.59198699999999,26.498083277777777],[-81.59161449999999,26.498316972222224],[-81.59131438888889,26.498475972222224]]},"properties":{"style":"solid","thickness":1}},{"type":"Feature","geometry":{"type":"LineString","coordinates":[[-81.58324575,26.50733152777778],[-81.5846443611111,26.507245333333334],[-81.58533833333333,26.507132333333335],[-81.58668905555555,26.506416944444446],[-81.58791944444444,26.505147083333334],[-81.58831641666666,26.50420952777778],[-81.58846430555555,26.50307663888889],[-81.58839511111111,26.502167833333335],[-81.58817580555555,26.5013385],[-81.5877181111111,26.50045363888889],[-81.58677827777777,26.499387805555557],[-81.58644088888889,26.499057416666666],[-81.58578738888889,26.498676305555556],[-81.58443463888888,26.49833825],[-81.58280302777777,26.498438805555555],[-81.58203672222221,26.4986265],[-81.58128105555555,26.498954],[-81.58083083333332,26.499192444444446],[-81.58009641666666,26.499799583333335],[-81.579461,26.500681555555555],[-81.57927044444445,26.501255166666667],[-81.57911713888889,26.502318166666665],[-81.57924480555555,26.50399597222222],[-81.58007175,26.505630694444445],[-81.58058052777777,26.50616125],[-81.58116166666666,26.50661708333333],[-81.58173216666667,26.50693313888889],[-81.58189288888889,26.506993472222224],[-81.58324575,26.50733152777778]]},"properties":{"style":"solid","thickness":1}},{"type":"Feature","geometry":{"type":"LineString","coordinates":[[-81.57598999999999,26.503283333333332],[-81.57156116666667,26.503555944444443]]},"properties":{"style":"solid","thickness":1}},{"type":"Feature","geometry":{"type":"LineString","coordinates":[[-81.57166819444444,26.508044444444444],[-81.57633030555556,26.507757472222224],[-81.57565505555556,26.498879083333335]]},"properties":{"style":"solid","thickness":1}},{"type":"Feature","geometry":{"type":"LineString","coordinates":[[-81.91751883333333,26.329377138888887],[-81.91821933333334,26.338254055555556],[-81.91434063888889,26.338502527777777],[-81.91401933333334,26.33838261111111],[-81.91329911111112,26.33814772222222],[-81.91254580555557,26.337493444444444],[-81.9121803888889,26.33681436111111],[-81.91211425,26.335975583333333],[-81.91236941666668,26.33525675],[-81.91301244444445,26.33451308333333],[-81.91368852777778,26.334188777777776],[-81.91398777777778,26.33402911111111],[-81.91786630555556,26.333780666666666]]},"properties":{"style":"solid","thickness":1}},{"type":"Feature","geometry":{"type":"LineString","coordinates":[[-81.90355783333334,26.339192694444442],[-81.90495416666667,26.33910336111111],[-81.90564683333334,26.338988805555555],[-81.90699358333335,26.33827036111111],[-81.90821866666667,26.336997722222222],[-81.90861247222223,26.336059249999998],[-81.90875702777778,26.334926],[-81.9086853888889,26.334017333333332],[-81.90846413888889,26.3331885],[-81.9080046388889,26.332304666666666],[-81.90706322222223,26.331240916666665],[-81.90672541666667,26.330911277777776],[-81.90607180555556,26.330531611111113],[-81.90472008333334,26.33019661111111],[-81.9030911388889,26.330300833333332],[-81.90232647222223,26.33049022222222],[-81.90157280555556,26.330819444444444],[-81.90112391666668,26.33105888888889],[-81.90039225000001,26.331667694444445],[-81.89976016666667,26.332551111111112],[-81.89957150000001,26.333125166666665],[-81.89942136111112,26.3341885],[-81.89955347222222,26.335866055555556],[-81.90038375,26.337498944444445],[-81.90089325000001,26.33802836111111],[-81.90147480555557,26.338482916666667],[-81.90204536111112,26.338797694444445],[-81.90220602777778,26.338857666666666],[-81.90355783333334,26.339192694444442]]},"properties":{"style":"solid","thickness":1}},{"type":"Feature","geometry":{"type":"LineString","coordinates":[[-81.89595477777779,26.330757166666665],[-81.89665363888889,26.339634166666666],[-81.8871893888889,26.331317166666665],[-81.88788758333334,26.34019422222222]]},"properties":{"style":"solid","thickness":1}},{"type":"Feature","geometry":{"type":"LineString","coordinates":[[-81.88470697222223,26.340397305555555],[-81.87912144444444,26.340753749999998]]},"properties":{"style":"solid","thickness":1}},{"type":"Feature","geometry":{"type":"LineString","coordinates":[[-81.88199180555554,26.34057061111111],[-81.88129405555554,26.331693527777777]]},"properties":{"style":"solid","thickness":1}},{"type":"Feature","geometry":{"type":"LineString","coordinates":[[-81.87586322222222,26.340961583333332],[-81.87209380555555,26.335652277777776],[-81.86926913888888,26.341381944444443]]},"properties":{"style":"solid","thickness":1}},{"type":"Feature","geometry":{"type":"LineString","coordinates":[[-81.87209380555555,26.335652277777776],[-81.87183586111111,26.332367027777778]]},"properties":{"style":"solid","thickness":1}},{"type":"Feature","geometry":{"type":"LineString","coordinates":[[-81.48304891666668,26.28862252777778],[-81.48353527777778,26.28887377777778],[-81.48408869444445,26.288980472222224],[-81.48595008333334,26.288866833333334],[-81.4866376111111,26.28868438888889],[-81.48686502777778,26.28860027777778],[-81.48798111111111,26.28790002777778],[-81.48862661111112,26.28715825],[-81.48880672222222,26.286444916666667],[-81.48925505555556,26.285153305555557],[-81.48913419444445,26.283545305555556],[-81.48892127777778,26.282785722222222],[-81.48864133333333,26.282170722222222],[-81.48827858333334,26.281490527777777],[-81.48744527777778,26.280768833333333],[-81.48591922222222,26.280159666666666],[-81.48489530555555,26.28001147222222],[-81.48404222222223,26.280063555555554],[-81.48297222222223,26.280339555555553],[-81.48260022222222,26.28057297222222],[-81.48230050000001,26.28073172222222]]},"properties":{"style":"solid","thickness":1}},{"type":"Feature","geometry":{"type":"LineString","coordinates":[[-81.47423866666666,26.289581333333334],[-81.47563475,26.289496222222223],[-81.47632752777778,26.289383722222222],[-81.47767636111111,26.28866936111111],[-81.47890563888889,26.287400416666667],[-81.47930275,26.28646313888889],[-81.47945144444445,26.285330333333334],[-81.47938322222222,26.284421444444448],[-81.47916513888889,26.283591944444446],[-81.47870913888889,26.282706722222223],[-81.47777205555556,26.28164013888889],[-81.47743561111112,26.281309472222222],[-81.47678369444445,26.280927833333333],[-81.47543380555555,26.28058875],[-81.47380519444445,26.280688055555554],[-81.47304013888889,26.280875166666664],[-81.47228558333333,26.28120211111111],[-81.471836,26.281440222222223],[-81.4711023888889,26.282046805555556],[-81.47046733333333,26.282928305555554],[-81.47027661111112,26.283501805555556],[-81.47012258333334,26.284564694444445],[-81.47024841666666,26.28624263888889],[-81.47107227777778,26.28787802777778],[-81.47157958333334,26.288408972222225],[-81.47215919444444,26.28886527777778],[-81.47272833333334,26.28918177777778],[-81.47288869444445,26.289242222222224],[-81.47423866666666,26.289581333333334]]},"properties":{"style":"solid","thickness":1}},{"type":"Feature","geometry":{"type":"LineString","coordinates":[[-81.45972347222222,26.28927155555556],[-81.4600651388889,26.28967216666667],[-81.46079461111111,26.29004916666667],[-81.46127044444445,26.29016066666667],[-81.46260469444445,26.290290138888892],[-81.46307005555556,26.290261805555556],[-81.46399030555555,26.290065305555558],[-81.46475016666668,26.289808333333333],[-81.46490005555556,26.289728972222225],[-81.46541677777778,26.289346333333334],[-81.46592825,26.28889377777778],[-81.46676986111112,26.287648555555556],[-81.46707380555556,26.28650630555556],[-81.4669585,26.28496816666667],[-81.46674047222223,26.284138666666667],[-81.46638308333334,26.283528333333336],[-81.46587583333334,26.28299736111111],[-81.4654513888889,26.28253158333333],[-81.46478377777778,26.28194013888889],[-81.46414238888889,26.281698277777778],[-81.46350100000001,26.281456388888888],[-81.46294763888889,26.28134961111111],[-81.46155163888889,26.28143461111111],[-81.46078658333333,26.281621666666666],[-81.46018708333334,26.28193908333333],[-81.45951527777778,26.28233113888889],[-81.45907613888889,26.282709055555554],[-81.45836341666667,26.283595222222225],[-81.45794519444445,26.28425277777778],[-81.45782150000001,26.284681694444448],[-81.45790525,26.285800333333334],[-81.46116266666667,26.285602055555557]]},"properties":{"style":"solid","thickness":1}},{"type":"Feature","geometry":{"type":"LineString","coordinates":[[-81.45441661111111,26.281868833333334],[-81.45508130555555,26.290748],[-81.45166861111112,26.290955555555556],[-81.45072741666667,26.290872333333336],[-81.45032391666668,26.290686166666667],[-81.44966680555557,26.290234472222224],[-81.44867855555556,26.289522],[-81.44799008333334,26.288650833333335],[-81.44778266666667,26.287961111111112],[-81.44761008333333,26.285653916666668],[-81.44771813888889,26.28501525],[-81.44812072222223,26.284147972222225],[-81.448627,26.283625583333336],[-81.44912283333333,26.28296333333333],[-81.44986177777778,26.282426777777776],[-81.45077675,26.282160444444443],[-81.45131438888889,26.282057527777777],[-81.45441661111111,26.281868833333334]]},"properties":{"style":"solid","thickness":1}},{"type":"Feature","geometry":{"type":"LineString","coordinates":[[-81.44484319444445,26.291370444444446],[-81.44417927777778,26.28249122222222],[-81.44037902777778,26.282722083333333]]},"properties":{"style":"solid","thickness":1}},{"type":"Feature","geometry":{"type":"LineString","coordinates":[[-81.7255355,26.06764875],[-81.71996263888889,26.067998944444444]]},"properties":{"style":"solid","thickness":1}},{"type":"Feature","geometry":{"type":"LineString","coordinates":[[-81.72282647222222,26.067819],[-81.72214258333334,26.058941027777777]]},"properties":{"style":"solid","thickness":1}},{"type":"Feature","geometry":{"type":"LineString","coordinates":[[-81.71602836111111,26.05932511111111],[-81.71671180555556,26.06820313888889]]},"properties":{"style":"solid","thickness":1}},{"type":"Feature","geometry":{"type":"LineString","coordinates":[[-81.70719138888889,26.068800666666668],[-81.70858461111112,26.06871327777778],[-81.70927586111111,26.068599666666668],[-81.71062069444444,26.06788308333333],[-81.71184508333333,26.066612111111112],[-81.71223955555556,26.065674166666668],[-81.71238566666666,26.06454111111111],[-81.71231575,26.063632333333334],[-81.71209641666667,26.062803194444445],[-81.7116395,26.061918694444444],[-81.71070208333333,26.06085363888889],[-81.71036558333334,26.06052352777778],[-81.70971416666667,26.060142972222224],[-81.70836616666666,26.059806083333335],[-81.70674083333334,26.059908055555557],[-81.7059776388889,26.060096416666667],[-81.70522516666666,26.060424583333333],[-81.70477691666667,26.060663444444444],[-81.70404591666667,26.061271222222224],[-81.70341383333334,26.062153777777777],[-81.7032246388889,26.062727583333334],[-81.70307302777778,26.06379075],[-81.703202,26.0654685],[-81.70402758333334,26.067102555555554],[-81.704535,26.067632666666665],[-81.70511441666667,26.068088027777776],[-81.70568311111111,26.068403583333332],[-81.70584327777777,26.068463777777776],[-81.70719138888889,26.068800666666668]]},"properties":{"style":"solid","thickness":1}},{"type":"Feature","geometry":{"type":"LineString","coordinates":[[-81.69995875000001,26.064758666666666],[-81.69554697222223,26.065035138888888]]},"properties":{"style":"solid","thickness":1}},{"type":"Feature","geometry":{"type":"LineString","coordinates":[[-81.69565838888889,26.069523694444445],[-81.70030255555555,26.069232666666668],[-81.69962036111112,26.060354583333336]]},"properties":{"style":"solid","thickness":1}},{"type":"Feature","geometry":{"type":"LineString","coordinates":[[-81.69237355555556,26.065233916666667],[-81.68796172222223,26.065510166666666]]},"properties":{"style":"solid","thickness":1}},{"type":"Feature","geometry":{"type":"LineString","coordinates":[[-81.68807286111111,26.069998722222223],[-81.69271705555556,26.069707944444446],[-81.69203541666667,26.060829805555557]]},"properties":{"style":"solid","thickness":1}},{"type":"Feature","geometry":{"type":"LineString","coordinates":[[-81.57227927777777,26.212618666666668],[-81.57160608333334,26.203739916666667]]},"properties":{"style":"solid","thickness":1}},{"type":"Feature","geometry":{"type":"LineString","coordinates":[[-81.56692613888889,26.21287858333333],[-81.57194002777777,26.208144333333333],[-81.56618116666667,26.204074527777777]]},"properties":{"style":"solid","thickness":1}},{"type":"Feature","geometry":{"type":"LineString","coordinates":[[-81.56359872222222,26.213153944444443],[-81.56292619444444,26.204275166666665],[-81.55912869444444,26.204509166666664]]},"properties":{"style":"solid","thickness":1}},{"type":"Feature","geometry":{"type":"LineString","coordinates":[[-81.55602872222222,26.20470013888889],[-81.55243788888889,26.213841416666664],[-81.54773616666667,26.20521061111111]]},"properties":{"style":"solid","thickness":1}},{"type":"Feature","geometry":{"type":"LineString","coordinates":[[-81.5548506111111,26.207652416666665],[-81.54927044444445,26.207995916666665]]},"properties":{"style":"solid","thickness":1}},{"type":"Feature","geometry":{"type":"LineString","coordinates":[[-81.54515227777777,26.214289694444442],[-81.54184611111111,26.205572888888888],[-81.53926175,26.214651888888888],[-81.5358785,26.205939694444442],[-81.53368119444444,26.214994777777775]]},"properties":{"style":"solid","thickness":1}},{"type":"Feature","geometry":{"type":"LineString","coordinates":[[-81.52601686111112,26.214552277777777],[-81.52676716666666,26.215208583333332],[-81.52692747222223,26.215268972222223],[-81.52794561111111,26.215346944444445],[-81.52878766666666,26.215154805555557],[-81.52923161111111,26.214846583333333],[-81.52967027777778,26.214468472222222],[-81.53001033333334,26.213815472222223],[-81.52988897222222,26.21220747222222],[-81.52937647222222,26.211606805555554],[-81.52904533333333,26.211346194444445],[-81.5278511111111,26.210998083333333],[-81.52650716666666,26.21072938888889],[-81.52554544444445,26.210366999999998],[-81.52520380555555,26.209966555555553],[-81.52497497222222,26.208997277777776],[-81.52506144444445,26.20807888888889],[-81.52540677777777,26.207495805555556],[-81.52577319444444,26.20719238888889],[-81.52606738888889,26.20696361111111],[-81.52643908333333,26.206730083333333],[-81.52727577777777,26.206468027777778],[-81.52774080555555,26.206439472222222],[-81.5282163611111,26.206550749999998],[-81.52885747222223,26.206792333333333],[-81.52926608333333,26.207048194444443],[-81.52985080555555,26.207574194444444]]},"properties":{"style":"solid","thickness":1}},{"type":"Feature","geometry":{"type":"LineString","coordinates":[[-81.3668163611111,26.849036694444443],[-81.36615536111111,26.840158027777775],[-81.36233658333333,26.84038672222222]]},"properties":{"style":"solid","thickness":1}},{"type":"Feature","geometry":{"type":"LineString","coordinates":[[-81.35914130555555,26.840578027777777],[-81.35980174999999,26.84945672222222],[-81.35652827777777,26.84965261111111],[-81.35582680555555,26.84969458333333],[-81.35525002777777,26.849307749999998],[-81.35482394444443,26.84884169444444],[-81.35480316666666,26.848562055555554],[-81.35469919444444,26.847163833333333],[-81.35476155555556,26.846949416666664],[-81.35495377777777,26.84637613888889],[-81.35568116666666,26.845630416666665],[-81.35487061111111,26.845257583333332],[-81.35446533333332,26.845071138888887],[-81.35404966666665,26.844744916666667],[-81.35376908333333,26.844129694444444],[-81.35363394444444,26.842312],[-81.35383138888888,26.84180863888889],[-81.35434575,26.841356527777776],[-81.35471463888888,26.84105358333333],[-81.35508872222222,26.840820527777776],[-81.35914130555555,26.840578027777777]]},"properties":{"style":"solid","thickness":1}},{"type":"Feature","geometry":{"type":"LineString","coordinates":[[-81.3595001111111,26.845401888888887],[-81.35568116666666,26.845630416666665]]},"properties":{"style":"solid","thickness":1}},{"type":"Feature","geometry":{"type":"LineString","coordinates":[[-81.34616213888889,26.850272472222223],[-81.35091652777777,26.849988277777776],[-81.35025675,26.84110952777778],[-81.34542477777778,26.84139836111111]]},"properties":{"style":"solid","thickness":1}},{"type":"Feature","geometry":{"type":"LineString","coordinates":[[-81.35058405555554,26.845513944444445],[-81.34598569444444,26.845788805555554]]},"properties":{"style":"solid","thickness":1}},{"type":"Feature","geometry":{"type":"LineString","coordinates":[[-81.34312241666666,26.850454083333336],[-81.34246325,26.841575305555555],[-81.33864438888888,26.841803388888888]]},"properties":{"style":"solid","thickness":1}},{"type":"Feature","geometry":{"type":"LineString","coordinates":[[-81.33610766666666,26.850872944444447],[-81.33544902777777,26.84199413888889],[-81.33163016666666,26.842222027777776]]},"properties":{"style":"solid","thickness":1}},{"type":"Feature","geometry":{"type":"LineString","coordinates":[[-81.69869283333334,26.45652272222222],[-81.69944569444445,26.457178111111112],[-81.69960641666667,26.457238305555556],[-81.70062680555556,26.457315055555554],[-81.70147030555556,26.457121861111112],[-81.70191472222223,26.456813138888887],[-81.70235375,26.4564345],[-81.70269352777778,26.45578111111111],[-81.70256955555556,26.454173305555553],[-81.70205505555556,26.453573277777778],[-81.70172286111111,26.453313055555554],[-81.70052561111112,26.452966416666666],[-81.69917844444444,26.45269936111111],[-81.69821419444445,26.452338138888887],[-81.69787122222223,26.45193811111111],[-81.69764047222223,26.450969138888887],[-81.69772575,26.450050666666666],[-81.69807094444445,26.449467194444445],[-81.69843766666666,26.449163305555555],[-81.69873213888889,26.448934194444444],[-81.69910425,26.44870022222222],[-81.69994233333334,26.448437166666668],[-81.70040827777778,26.448408055555557],[-81.70088497222223,26.44851875],[-81.70152780555556,26.448759555555554],[-81.7019376388889,26.449014916666666],[-81.70252438888889,26.449540166666665]]},"properties":{"style":"solid","thickness":1}},{"type":"Feature","geometry":{"type":"LineString","coordinates":[[-81.69487972222223,26.457673944444444],[-81.68928794444444,26.458022944444444]]},"properties":{"style":"solid","thickness":1}},{"type":"Feature","geometry":{"type":"LineString","coordinates":[[-81.6921615,26.45784361111111],[-81.69147766666667,26.448965694444446]]},"properties":{"style":"solid","thickness":1}},{"type":"Feature","geometry":{"type":"LineString","coordinates":[[-81.68128852777778,26.458521805555556],[-81.68602605555556,26.458226416666665],[-81.68534269444444,26.449348444444446],[-81.68052786111112,26.44964863888889]]},"properties":{"style":"solid","thickness":1}},{"type":"Feature","geometry":{"type":"LineString","coordinates":[[-81.68568166666667,26.45375247222222],[-81.6810996388889,26.454038166666667]]},"properties":{"style":"solid","thickness":1}},{"type":"Feature","geometry":{"type":"LineString","coordinates":[[-81.67511969444445,26.454410805555554],[-81.67128644444445,26.450224388888888]]},"properties":{"style":"solid","thickness":1}},{"type":"Feature","geometry":{"type":"LineString","coordinates":[[-81.67757683333333,26.449832555555556],[-81.67825961111112,26.458710555555555],[-81.67437636111111,26.458952472222222],[-81.67405494444445,26.458832027777778],[-81.67333447222222,26.458595944444443],[-81.67258175,26.457940416666666],[-81.67221736111111,26.457260694444443],[-81.67215288888889,26.456421833333334],[-81.67240983333333,26.455703416666665],[-81.67305505555557,26.45496083333333],[-81.67373252777779,26.454637694444443],[-81.67403241666668,26.454478527777777],[-81.67791552777778,26.45423661111111]]},"properties":{"style":"solid","thickness":1}},{"type":"Feature","geometry":{"type":"LineString","coordinates":[[-81.66327019444445,26.459643805555555],[-81.66466816666667,26.459556833333334],[-81.66536180555556,26.459443444444442],[-81.66671144444445,26.458727277777776],[-81.66794047222223,26.457456722222222],[-81.66833663888889,26.456518944444444],[-81.66848369444445,26.455385944444444],[-81.66841388888889,26.454477166666667],[-81.66819411111112,26.45364797222222],[-81.667736,26.45276336111111],[-81.66679580555557,26.451698027777777],[-81.66645830555557,26.451367833333332],[-81.66580480555557,26.450987055555554],[-81.66445238888889,26.450649777777777],[-81.66282152777778,26.45075125],[-81.66205566666667,26.45093936111111],[-81.66130052777778,26.451267305555554],[-81.66085066666668,26.451506],[-81.66011697222223,26.452113527777776],[-81.65948238888889,26.45299588888889],[-81.65929233333334,26.45356961111111],[-81.65913983333334,26.454632694444445],[-81.65926858333334,26.456310444444444],[-81.66009633333334,26.457944722222223],[-81.66060525,26.458475],[-81.66118647222223,26.458930527777778],[-81.66175697222222,26.45924625],[-81.66191766666667,26.4593065],[-81.66327019444445,26.459643805555555]]},"properties":{"style":"solid","thickness":1}},{"type":"Feature","geometry":{"type":"LineString","coordinates":[[-81.76999841666667,26.545283361111114],[-81.7698605,26.543509583333336]]},"properties":{"style":"solid","thickness":1}},{"type":"Feature","geometry":{"type":"LineString","coordinates":[[-81.76950627777778,26.54552616666667],[-81.76933558333333,26.543330722222223]]},"properties":{"style":"solid","thickness":1}},{"type":"Feature","geometry":{"type":"LineString","coordinates":[[-81.76899775,26.54555813888889],[-81.76882705555555,26.543362722222223]]},"properties":{"style":"solid","thickness":1}},{"type":"Feature","geometry":{"type":"LineString","coordinates":[[-81.76847280555556,26.545379305555556],[-81.76833491666666,26.54360552777778]]},"properties":{"style":"solid","thickness":1}},{"type":"Feature","geometry":{"type":"LineString","coordinates":[[-81.76784447222222,26.544527583333334],[-81.76788222222223,26.544738583333334],[-81.76796127777777,26.54494013888889],[-81.76807905555556,26.54512575],[-81.76823177777777,26.545289472222223],[-81.76841458333334,26.54542602777778],[-81.76862152777778,26.545531055555557],[-81.768846,26.54560113888889],[-81.76908080555556,26.54563402777778],[-81.76931833333333,26.545628694444446],[-81.76955102777778,26.54558530555556],[-81.76977133333334,26.54550525],[-81.76997222222222,26.545391111111112],[-81.77014722222222,26.54524652777778],[-81.77029069444444,26.545076166666668],[-81.77039802777777,26.544885500000003],[-81.77046580555556,26.54468063888889],[-81.77049180555555,26.544468222222225],[-81.77047525,26.54425502777778],[-81.77041661111112,26.544047916666667],[-81.77031777777778,26.543853555555557],[-81.77018197222222,26.54367816666667],[-81.77001355555555,26.543527444444447],[-81.7698178888889,26.543406166666667],[-81.76960130555555,26.54331827777778],[-81.76937075,26.543266555555558],[-81.76913361111112,26.543252722222224],[-81.76889755555555,26.54327716666667],[-81.76867016666667,26.54333913888889],[-81.76845872222222,26.543436638888892],[-81.76827,26.54356652777778],[-81.76811013888889,26.54372463888889],[-81.76798422222222,26.54390588888889],[-81.76789630555555,26.544104444444447],[-81.76784922222222,26.544313916666667],[-81.76784447222222,26.544527583333334]]},"properties":{"style":"solid","thickness":1}}]}
