{"type":"FeatureCollection","features":[{"type":"Feature","geometry":{"type":"LineString","coordinates":[[-81.98939652777779,26.073912472222222],[-82.00237502777777,26.061965027777777]]},"properties":{"style":"solid","thickness":1}},{"type":"Feature","geometry":{"type":"LineString","coordinates":[[-81.84421769444444,26.077018416666668],[-81.85743297222221,26.088570166666667]]},"properties":{"style":"solid","thickness":1}},{"type":"Feature","geometry":{"type":"LineString","coordinates":[[-81.85684769444444,25.957386777777778],[-81.86962386111111,25.945451833333333]]},"properties":{"style":"solid","thickness":1}},{"type":"Feature","geometry":{"type":"LineString","coordinates":[[-81.92952777777778,26.009694444444445],[-81.91626425000001,25.99804197222222]]},"properties":{"style":"solid","thickness":1}},{"type":"Feature","geometry":{"type":"LineString","coordinates":[[-81.90300336111112,25.986388277777777],[-81.88974511111111,25.97473336111111]]},"properties":{"style":"solid","thickness":1}},{"type":"Feature","geometry":{"type":"LineString","coordinates":[[-81.87648947222222,25.963077166666665],[-81.86323647222221,25.95141975]]},"properties":{"style":"solid","thickness":1}},{"type":"Feature","geometry":{"type":"LineString","coordinates":[[-81.92952777777778,26.009694472222222],[-81.94279397222222,26.021345666666665]]},"properties":{"style":"solid","thickness":1}},{"type":"Feature","geometry":{"type":"LineString","coordinates":[[-81.95606277777777,26.03299558333333],[-81.96933422222223,26.04464427777778]]},"properties":{"style":"solid","thickness":1}},{"type":"Feature","geometry":{"type":"LineString","coordinates":[[-81.98260830555556,26.056291722222223],[-81.995885,26.067937916666665]]},"properties":{"style":"solid","thickness":1}},{"type":"Feature","geometry":{"type":"LineString","coordinates":[[-81.850825,26.082794444444446],[-81.86373363888889,26.070813972222222]]},"properties":{"style":"solid","thickness":1}},{"type":"Feature","geometry":{"type":"LineString","coordinates":[[-81.87663963888889,26.058832333333335],[-81.889543,26.046849555555557]]},"properties":{"style":"solid","thickness":1}},{"type":"Feature","geometry":{"type":"LineString","coordinates":[[-81.90244372222223,26.034865583333335],[-81.91534183333334,26.022880444444443]]},"properties":{"style":"solid","thickness":1}},{"type":"Feature","geometry":{"type":"LineString","coordinates":[[-82.04490205555555,26.054061416666666],[-82.04049163888888,26.054348416666667]]},"properties":{"style":"solid","thickness":1}},{"type":"Feature","geometry":{"type":"LineString","coordinates":[[-82.04061619444444,26.058836555555555],[-82.04525891666667,26.058534444444444],[-82.04455080555556,26.049658305555557]]},"properties":{"style":"solid","thickness":1}},{"type":"Feature","geometry":{"type":"LineString","coordinates":[[-82.0329556388889,26.059334694444445],[-82.03767577777778,26.059027805555555],[-82.03696827777777,26.050151638888888],[-82.03217111111111,26.05046352777778]]},"properties":{"style":"solid","thickness":1}},{"type":"Feature","geometry":{"type":"LineString","coordinates":[[-82.03731922222222,26.054554777777778],[-82.03275402777777,26.05485161111111]]},"properties":{"style":"solid","thickness":1}},{"type":"Feature","geometry":{"type":"LineString","coordinates":[[-82.02993783333334,26.059530833333334],[-82.02551694444445,26.05089591666667],[-82.02266411111111,26.060003305555558]]},"properties":{"style":"solid","thickness":1}},{"type":"Feature","geometry":{"type":"LineString","coordinates":[[-82.01500852777778,26.05958688888889],[-82.01576055555556,26.060240611111112],[-82.01592086111111,26.060300472222224],[-82.01693794444445,26.060374972222224],[-82.01777799999999,26.060179944444446],[-82.01822005555556,26.05987025],[-82.01865652777778,26.05949066666667],[-82.01899338888889,26.05883652777778],[-82.0188655,26.05722902777778],[-82.01835119444445,26.05663011111111],[-82.01801944444445,26.05637063888889],[-82.01682541666666,26.05602661111111],[-82.01548219444444,26.0557625],[-82.01452030555555,26.05540338888889],[-82.01417744444444,26.05500413888889],[-82.01394488888889,26.054035666666667],[-82.01402741666666,26.053117027777777],[-82.01436983333333,26.052532805555558],[-82.01473447222222,26.05222813888889],[-82.01502730555555,26.05199838888889],[-82.01539752777778,26.051763611111113],[-82.01623197222223,26.051498694444444],[-82.01669622222222,26.051468583333335],[-82.01717158333334,26.051578222222222],[-82.01781283333334,26.05181763888889],[-82.01822194444445,26.052072083333336],[-82.01880805555555,26.052596083333334]]},"properties":{"style":"solid","thickness":1}},{"type":"Feature","geometry":{"type":"LineString","coordinates":[[-82.01050619444445,26.05187013888889],[-82.01121172222223,26.060746416666667]]},"properties":{"style":"solid","thickness":1}},{"type":"Feature","geometry":{"type":"LineString","coordinates":[[-81.97789969444445,25.995935944444444],[-81.97348505555556,25.987299472222222],[-81.97062975,25.996405777777778]]},"properties":{"style":"solid","thickness":1}},{"type":"Feature","geometry":{"type":"LineString","coordinates":[[-81.96667966666666,25.98773911111111],[-81.96738147222223,25.996615583333334]]},"properties":{"style":"solid","thickness":1}},{"type":"Feature","geometry":{"type":"LineString","coordinates":[[-81.96289572222223,25.996905194444444],[-81.95763655555555,25.997244555555557],[-81.95758686111111,25.9966155],[-81.96274111111111,25.98806363888889],[-81.96273561111111,25.98799375],[-81.9566261388889,25.988387972222224]]},"properties":{"style":"solid","thickness":1}},{"type":"Feature","geometry":{"type":"LineString","coordinates":[[-81.95376472222223,25.98857252777778],[-81.95021177777778,25.997723305555557],[-81.94548977777778,25.989105916666666]]},"properties":{"style":"solid","thickness":1}},{"type":"Feature","geometry":{"type":"LineString","coordinates":[[-81.95259888888889,25.991527944444446],[-81.94703058333334,25.991886861111112]]},"properties":{"style":"solid","thickness":1}},{"type":"Feature","geometry":{"type":"LineString","coordinates":[[-81.94258888888889,25.9937185],[-81.93818052777779,25.99400236111111]]},"properties":{"style":"solid","thickness":1}},{"type":"Feature","geometry":{"type":"LineString","coordinates":[[-81.93830108333334,25.99849052777778],[-81.9429416388889,25.998191722222224],[-81.94224166666667,25.98931513888889]]},"properties":{"style":"solid","thickness":1}},{"type":"Feature","geometry":{"type":"LineString","coordinates":[[-81.90827402777778,25.936126055555555],[-81.91298944444445,25.93582327777778],[-81.91229211111111,25.926946611111113],[-81.90749975,25.927254333333334]]},"properties":{"style":"solid","thickness":1}},{"type":"Feature","geometry":{"type":"LineString","coordinates":[[-81.91263802777779,25.931350000000002],[-81.9080773888889,25.93164286111111]]},"properties":{"style":"solid","thickness":1}},{"type":"Feature","geometry":{"type":"LineString","coordinates":[[-81.90456250000001,25.927442861111114],[-81.90263097222223,25.936488222222223],[-81.89868794444445,25.92781975],[-81.89667866666667,25.936869972222222],[-81.89312255555556,25.928176583333336]]},"properties":{"style":"solid","thickness":1}},{"type":"Feature","geometry":{"type":"LineString","coordinates":[[-81.88987605555556,25.928384611111113],[-81.89057169444445,25.93726141666667],[-81.88717033333334,25.937479305555556],[-81.88623175000001,25.937398916666666],[-81.88582880555556,25.93721397222222],[-81.88517205555556,25.936764305555556],[-81.88418419444446,25.93605486111111],[-81.88349461111112,25.935185805555555],[-81.88328527777777,25.93449672222222],[-81.88310463888888,25.93219016666667],[-81.88320997222222,25.931551194444445],[-81.88360811111112,25.930682750000003],[-81.8841108888889,25.930158833333333],[-81.88460269444445,25.929495111111112],[-81.88533736111111,25.928956333333335],[-81.88624852777778,25.92868725],[-81.8867841388889,25.928582694444447],[-81.88987605555556,25.928384611111113]]},"properties":{"style":"solid","thickness":1}},{"type":"Feature","geometry":{"type":"LineString","coordinates":[[-81.88036758333332,25.937914833333334],[-81.87981494444443,25.930855305555557],[-81.87971027777778,25.93051077777778],[-81.87911447222221,25.929846444444447],[-81.87869516666666,25.92945180555556],[-81.87805488888888,25.92921177777778],[-81.87719913888888,25.929196305555557],[-81.8759623611111,25.929275416666666],[-81.87527213888889,25.929389833333335],[-81.87437188888889,25.92979863888889],[-81.87386905555555,25.93032252777778],[-81.87359266666667,25.930761694444445],[-81.87348727777777,25.93140063888889],[-81.8740286111111,25.938320416666667]]},"properties":{"style":"solid","thickness":1}},{"type":"Feature","geometry":{"type":"LineString","coordinates":[[-81.86699383333332,25.938770166666668],[-81.86640919444444,25.931291194444444],[-81.86645372222222,25.930866861111113],[-81.86680744444443,25.93042277777778],[-81.86724391666667,25.930043666666666],[-81.86754219444444,25.92988411111111],[-81.86800052777777,25.929784555555557],[-81.86877352777778,25.929735166666667],[-81.86924277777777,25.92977538888889],[-81.86997674999999,25.930220194444445],[-81.87014774999999,25.93042]]},"properties":{"style":"solid","thickness":1}},{"type":"Feature","geometry":{"type":"LineString","coordinates":[[-81.83615358333333,26.067158],[-81.83684602777777,26.076035138888887],[-81.83344044444443,26.076251777777777],[-81.83250075,26.076171055555555],[-81.83209741666666,26.07598597222222],[-81.83144008333333,26.075536055555556],[-81.83045133333333,26.074826194444444],[-81.82976133333332,26.07395688888889],[-81.82955205555555,26.07326775],[-81.82937224999999,26.070961055555554],[-81.829478,26.070322138888887],[-81.829877,26.069453833333334],[-81.83038063888888,26.068930083333335],[-81.8308733611111,26.068266555555557],[-81.83160913888888,26.06772802777778],[-81.83252152777777,26.06745927777778],[-81.83305783333333,26.067354916666666],[-81.83615358333333,26.067158]]},"properties":{"style":"solid","thickness":1}},{"type":"Feature","geometry":{"type":"LineString","coordinates":[[-81.82662927777777,26.076684805555555],[-81.82607919444445,26.069624972222222],[-81.82597455555555,26.069280416666665],[-81.82537833333333,26.068615833333332],[-81.82495869444445,26.068221027777778],[-81.82431777777778,26.067980777777777],[-81.82346097222222,26.06796497222222],[-81.82222266666666,26.068043638888888],[-81.82153155555555,26.068157777777778],[-81.82063005555555,26.068566277777776],[-81.82012638888888,26.069089972222223],[-81.81984944444444,26.069529027777776],[-81.81974363888888,26.070167972222222],[-81.82028247222222,26.077088]]},"properties":{"style":"solid","thickness":1}},{"type":"Feature","geometry":{"type":"LineString","coordinates":[[-81.81668341666666,26.07282086111111],[-81.81227172222222,26.07310086111111]]},"properties":{"style":"solid","thickness":1}},{"type":"Feature","geometry":{"type":"LineString","coordinates":[[-81.81238758333333,26.077589166666666],[-81.81703163888889,26.077294416666668],[-81.81634066666666,26.068417166666666]]},"properties":{"style":"solid","thickness":1}},{"type":"Feature","geometry":{"type":"LineString","coordinates":[[-81.80875594444444,26.0688985],[-81.80944633333333,26.077775777777777],[-81.80619547222221,26.077981944444446],[-81.80549883333333,26.07802611111111],[-81.80492441666667,26.077641055555556],[-81.80449938888889,26.077176305555554],[-81.80447763888888,26.076896694444443],[-81.80436897222222,26.075498694444445],[-81.80443008333333,26.075284083333333],[-81.80461880555555,26.074710166666666],[-81.80533847222222,26.073962083333335],[-81.80453188888889,26.07359177777778],[-81.80412858333334,26.07340661111111],[-81.80371441666666,26.07308163888889],[-81.80343333333333,26.07246725],[-81.80329208333333,26.07064986111111],[-81.80348624999999,26.07014583333333],[-81.80399541666667,26.069692083333333],[-81.80436066666667,26.069387944444443],[-81.80473136111111,26.06915372222222],[-81.80875594444444,26.0688985]]},"properties":{"style":"solid","thickness":1}},{"type":"Feature","geometry":{"type":"LineString","coordinates":[[-81.80913102777778,26.073721583333334],[-81.80533847222222,26.073962083333335]]},"properties":{"style":"solid","thickness":1}},{"type":"Feature","geometry":{"type":"LineString","coordinates":[[-81.79512694444445,26.078683333333334],[-81.79652019444444,26.07859511111111],[-81.79721138888888,26.078481083333333],[-81.79855574999999,26.077763722222222],[-81.79977927777777,26.07649202777778],[-81.80017308333333,26.075553916666667],[-81.80031838888888,26.074420777777778],[-81.80024777777777,26.073512083333334],[-81.80002780555556,26.072683083333335],[-81.79957022222221,26.071798916666665],[-81.79863197222222,26.070734444444444],[-81.79829522222222,26.070404555555555],[-81.79764347222222,26.07002438888889],[-81.79629516666667,26.069688333333332],[-81.79466983333333,26.069791277777778],[-81.79390672222222,26.06998011111111],[-81.79315444444444,26.070308722222222],[-81.79270636111112,26.070547833333332],[-81.79197577777778,26.07115602777778],[-81.79134430555555,26.072038944444444],[-81.79115552777778,26.072612833333334],[-81.79100469444444,26.073676055555556],[-81.79113491666666,26.075353666666665],[-81.79196175,26.076987166666665],[-81.79246955555556,26.077516972222224],[-81.79304936111112,26.077971972222223],[-81.79361830555555,26.078287166666666],[-81.79377855555555,26.078347277777777],[-81.79512694444445,26.078683333333334]]},"properties":{"style":"solid","thickness":1}},{"type":"Feature","geometry":{"type":"LineString","coordinates":[[-81.60617188888888,26.307247361111113],[-81.607568,26.307160972222224],[-81.60826072222221,26.307047861111112],[-81.6096088611111,26.306332277777777],[-81.61083683333332,26.30506227777778],[-81.61123291666667,26.304124694444447],[-81.61138033333333,26.302991805555557],[-81.61131108333333,26.30208302777778],[-81.61109202777777,26.301253777777777],[-81.61063497222221,26.30036902777778],[-81.6096966111111,26.299303361111114],[-81.60935975,26.29897302777778],[-81.60870733333333,26.29859202777778],[-81.60735691666666,26.298254194444446],[-81.60572825,26.298355],[-81.6049633611111,26.298542805555556],[-81.60420908333333,26.29887041666667],[-81.60375972222222,26.29910891666667],[-81.60302675,26.29971613888889],[-81.6023926111111,26.300598194444444],[-81.60220252777778,26.301171833333335],[-81.60204969444443,26.302234805555557],[-81.60217744444444,26.30391252777778],[-81.60300322222221,26.305547083333334],[-81.60351119444444,26.306077527777777],[-81.60409138888889,26.306533277777778],[-81.60466094444443,26.306849222222223],[-81.60482138888888,26.30690952777778],[-81.60617188888888,26.307247361111113]]},"properties":{"style":"solid","thickness":1}},{"type":"Feature","geometry":{"type":"LineString","coordinates":[[-81.59892830555555,26.303200444444446],[-81.59450741666666,26.303473722222222]]},"properties":{"style":"solid","thickness":1}},{"type":"Feature","geometry":{"type":"LineString","coordinates":[[-81.59461511111111,26.307962083333333],[-81.59926886111111,26.30767438888889],[-81.5985931111111,26.298796388888892]]},"properties":{"style":"solid","thickness":1}},{"type":"Feature","geometry":{"type":"LineString","coordinates":[[-81.59099255555554,26.29926616666667],[-81.59166772222221,26.308144194444445],[-81.58825497222222,26.308355000000002],[-81.58731358333333,26.308272666666667],[-81.58690980555555,26.30808688888889],[-81.58625211111111,26.307635861111113],[-81.58526291666666,26.30692436111111],[-81.58457336111111,26.30605388888889],[-81.58436511111111,26.305364416666666],[-81.58418980555555,26.303057527777778],[-81.58429711111111,26.302418777777778],[-81.58469872222221,26.301551194444446],[-81.58520444444444,26.301028333333335],[-81.58569952777778,26.300365666666668],[-81.58643791666667,26.299828416666667],[-81.58735266666666,26.299561222222223],[-81.58789025,26.29945780555556],[-81.59099255555554,26.29926616666667]]},"properties":{"style":"solid","thickness":1}},{"type":"Feature","geometry":{"type":"LineString","coordinates":[[-81.57592233333332,26.309116111111113],[-81.57731849999999,26.30903],[-81.57801127777778,26.308917027777778],[-81.57935963888889,26.308201750000002],[-81.58058794444445,26.306931972222223],[-81.58098427777777,26.3059945],[-81.581132,26.30486163888889],[-81.58106294444444,26.30395286111111],[-81.5808441111111,26.303123555555555],[-81.58038727777777,26.302238694444444],[-81.57944919444444,26.301172833333332],[-81.57911238888889,26.300842444444445],[-81.57846008333333,26.300461305555555],[-81.57710974999999,26.300123194444446],[-81.57548102777777,26.30022363888889],[-81.57471605555556,26.300411305555556],[-81.57396169444444,26.30073875],[-81.57351225,26.300977166666666],[-81.5727791111111,26.301584222222225],[-81.57214474999999,26.30246613888889],[-81.57195449999999,26.30303975],[-81.57180138888889,26.30410266666667],[-81.57192869444444,26.305780444444444],[-81.57275408333334,26.30741516666667],[-81.57326191666667,26.30794572222222],[-81.573842,26.308401583333335],[-81.57441147222222,26.30871763888889],[-81.57457191666666,26.308777972222224],[-81.57592233333332,26.309116111111113]]},"properties":{"style":"solid","thickness":1}},{"type":"Feature","geometry":{"type":"LineString","coordinates":[[-81.5690191111111,26.309541666666668],[-81.56526502777777,26.30422452777778],[-81.56242608333334,26.30994777777778]]},"properties":{"style":"solid","thickness":1}},{"type":"Feature","geometry":{"type":"LineString","coordinates":[[-81.56526502777777,26.30422452777778],[-81.56501591666667,26.300938916666667]]},"properties":{"style":"solid","thickness":1}},{"type":"Feature","geometry":{"type":"LineString","coordinates":[[-82.0326565,26.041218222222223],[-82.03268655555556,26.04159566666667],[-82.03258236111111,26.04204505555556],[-82.03234891666666,26.042629333333334],[-82.03210044444444,26.043024861111114],[-82.03170266666666,26.043303666666667],[-82.0311556111111,26.04346566666667],[-82.03011105555555,26.04353355555556],[-82.02933502777778,26.04345752777778],[-82.02897180555556,26.043291444444446],[-82.02844927777778,26.04288277777778],[-82.02828497222222,26.04257727777778],[-82.02810563888889,26.042083083333335],[-82.0280255,26.041076583333336],[-82.02813469444445,26.04069011111111],[-82.02865622222222,26.039328333333334],[-82.02942172222222,26.038393333333335],[-82.03064955555556,26.03711213888889],[-82.03212586111111,26.035435361111112],[-82.02773902777777,26.035720472222224]]},"properties":{"style":"solid","thickness":1}},{"type":"Feature","geometry":{"type":"LineString","coordinates":[[-82.02460472222222,26.043828083333334],[-82.02356013888888,26.043895916666667],[-82.02293938888889,26.036095500000002]]},"properties":{"style":"solid","thickness":1}},{"type":"Feature","geometry":{"type":"LineString","coordinates":[[-81.96252958333334,25.978383583333333],[-81.96255941666666,25.978761027777775],[-81.962455,25.979210388888887],[-81.96222133333333,25.979794555555554],[-81.96197275,25.98018997222222],[-81.96157502777778,25.980468555555554],[-81.96102813888889,25.98063033333333],[-81.95998411111111,25.980697694444444],[-81.95920852777778,25.980621277777775],[-81.95884561111112,25.980455027777776],[-81.95832361111111,25.98004608333333],[-81.95815958333334,25.979740527777775],[-81.95798061111111,25.97924622222222],[-81.95790113888889,25.978239666666664],[-81.95801052777779,25.97785325],[-81.95853258333334,25.97649172222222],[-81.95929822222223,25.975557111111108],[-81.96052619444444,25.974276472222222],[-81.96200269444445,25.972600416666666],[-81.95761802777778,25.97288338888889]]},"properties":{"style":"solid","thickness":1}},{"type":"Feature","geometry":{"type":"LineString","coordinates":[[-81.95448052777778,25.980989527777776],[-81.95343647222222,25.98105686111111],[-81.95282072222223,25.973256083333332]]},"properties":{"style":"solid","thickness":1}},{"type":"Feature","geometry":{"type":"LineString","coordinates":[[-81.89442919444446,25.918157361111113],[-81.89445877777779,25.918534833333336],[-81.89435416666667,25.91898413888889],[-81.89412027777779,25.919568194444444],[-81.89387158333334,25.9199635],[-81.89347391666668,25.92024191666667],[-81.89292722222223,25.92040341666667],[-81.89188366666667,25.920470305555558],[-81.89110855555556,25.92039352777778],[-81.89074591666667,25.920227083333334],[-81.89022441666667,25.91981788888889],[-81.89006061111112,25.91951225],[-81.88988205555556,25.91901786111111],[-81.88980316666667,25.91801127777778],[-81.88991275000001,25.91762488888889],[-81.89043533333334,25.91626361111111],[-81.89120111111112,25.915329333333332],[-81.89242919444445,25.914049277777778],[-81.89390591666667,25.912373916666667],[-81.88952333333334,25.912654805555555]]},"properties":{"style":"solid","thickness":1}},{"type":"Feature","geometry":{"type":"LineString","coordinates":[[-81.88638272222222,25.92075952777778],[-81.88533916666667,25.92082636111111],[-81.88472825000001,25.91302522222222]]},"properties":{"style":"solid","thickness":1}},{"type":"Feature","geometry":{"type":"LineString","coordinates":[[-81.81843183333334,26.059977555555555],[-81.817387,26.060043916666668],[-81.8167798611111,26.052242583333335]]},"properties":{"style":"solid","thickness":1}},{"type":"Feature","geometry":{"type":"LineString","coordinates":[[-81.81201833333333,26.056717666666668],[-81.80999838888889,26.056845833333334],[-81.80887530555555,26.0559055],[-81.80870666666667,26.05553686111111],[-81.80854288888888,26.055231111111112],[-81.80848419444445,26.05447613888889],[-81.80871877777777,26.05389225],[-81.80909266666666,26.0532995],[-81.809491,26.053021333333334],[-81.80975491666666,26.052814916666666],[-81.81029744444444,26.052590833333333],[-81.81155116666666,26.05251127777778],[-81.81212305555555,26.05266463888889],[-81.81256541666666,26.052952694444446],[-81.81294794444445,26.053371000000002],[-81.81319605555555,26.053861055555558],[-81.81329997222223,26.05429702777778],[-81.81334891666667,26.054926166666668],[-81.81330372222222,26.05524513888889],[-81.81312413888888,26.05563588888889],[-81.81286019444444,26.055842333333334],[-81.81201833333333,26.056717666666668],[-81.81268436111111,26.057181194444446],[-81.81307177777778,26.057662416666666],[-81.81323555555555,26.05796813888889],[-81.81331388888889,26.05897475],[-81.81302433333333,26.059751833333333],[-81.81283005555555,26.059953833333335],[-81.81222272222222,26.060245277777778],[-81.81181947222223,26.060460527777778],[-81.81091397222222,26.060518000000002],[-81.81027238888889,26.060369027777778],[-81.80931305555555,26.059734416666668],[-81.80914927777778,26.059428694444446],[-81.80906122222223,26.05829625],[-81.80922125,26.057653833333333],[-81.80928602777777,26.0575865],[-81.80961472222222,26.05731275],[-81.80999838888889,26.056845833333334]]},"properties":{"style":"solid","thickness":1}},{"type":"Feature","geometry":{"type":"LineString","coordinates":[[-81.62394205555555,26.28843177777778],[-81.62404049999999,26.28907127777778],[-81.6242536111111,26.289736333333334],[-81.62459697222222,26.29040377777778],[-81.62507863888888,26.29104391666667],[-81.62569541666666,26.29162313888889],[-81.62643102777777,26.292108333333335],[-81.62725624999999,26.29247216666667],[-81.62813274999999,26.29269766666667],[-81.62901866666667,26.292780944444445],[-81.62987491666667,26.292730666666667],[-81.63067022222222,26.292565222222223],[-81.63138344444444,26.292308583333334],[-81.63200388888889,26.291986],[-81.63256905555555,26.291589361111114],[-81.63310138888889,26.29109041666667],[-81.6335708888889,26.290488638888892],[-81.63394500000001,26.289792555555557],[-81.63419302777778,26.289021416666667],[-81.63429136111112,26.288204583333336],[-81.63422822222223,26.287378444444446],[-81.63400661111112,26.286581472222224],[-81.6336436388889,26.28584827777778],[-81.63316722222221,26.285205027777778],[-81.63261063888888,26.28466691666667],[-81.63200747222221,26.284238472222224],[-81.63138738888888,26.28391541666667],[-81.63072380555555,26.283672527777778],[-81.62997833333333,26.28350641666667],[-81.62916544444444,26.28344077777778],[-81.62830969444444,26.28349675],[-81.6274448611111,26.28368863888889],[-81.62661097222221,26.28402027777778],[-81.62584886111111,26.284482583333336],[-81.62519397222222,26.28505402777778],[-81.62467102777777,26.285703944444446],[-81.62429119444444,26.286397500000003],[-81.62405247222222,26.287101055555556],[-81.62394238888888,26.287786166666667],[-81.62394205555555,26.28843177777778]]},"properties":{"style":"solid","thickness":1}},{"type":"Feature","geometry":{"type":"LineString","coordinates":[[-81.62993561111111,26.298906583333334],[-81.62996333333332,26.297794111111113],[-81.63011947222222,26.296652222222225],[-81.63041369444444,26.295498277777778],[-81.63085194444444,26.294352194444446],[-81.63143547222222,26.2932355],[-81.6321601111111,26.29217030555556],[-81.63301638888888,26.291177861111112],[-81.63398958333335,26.290277250000003],[-81.63506077777778,26.289484194444444],[-81.63620788888889,26.288810083333335],[-81.63740722222222,26.28826163888889],[-81.63863491666667,26.287840722222224],[-81.63986827777778,26.28754477777778],[-81.64108688888889,26.287367444444445]]},"properties":{"style":"solid","thickness":1}},{"type":"Feature","geometry":{"type":"LineString","coordinates":[[-81.62993561111111,26.298906583333334],[-81.62973897222221,26.29780802777778],[-81.62941074999999,26.296696222222224],[-81.62894383333332,26.295589500000002],[-81.62833547222222,26.294508333333336],[-81.62758769444444,26.29347427777778],[-81.62670794444443,26.29250863888889],[-81.62570886111111,26.291631333333335],[-81.62460794444443,26.290859416666667],[-81.62342627777777,26.290206166666668],[-81.62218752777777,26.289680111111114],[-81.6209161111111,26.289285000000003],[-81.619636,26.289019694444445],[-81.61836927777777,26.288878888888892],[-81.61713516666666,26.288853777777778]]},"properties":{"style":"solid","thickness":1}},{"type":"Feature","geometry":{"type":"LineString","coordinates":[[-81.61713516666666,26.288853777777778],[-81.61835383333333,26.28867663888889],[-81.61958727777777,26.28838086111111],[-81.62081502777777,26.28796011111111],[-81.62201441666666,26.28741177777778],[-81.62316158333333,26.286737805555557],[-81.62423280555555,26.28594480555556],[-81.62520605555555,26.285044250000002],[-81.62606230555555,26.284051861111113],[-81.62678697222222,26.282986694444443],[-81.62737044444444,26.281869999999998],[-81.62780869444444,26.280723916666666],[-81.62810291666666,26.27956997222222],[-81.62825902777777,26.27842808333333],[-81.62828677777777,26.277315638888886]]},"properties":{"style":"solid","thickness":1}},{"type":"Feature","geometry":{"type":"LineString","coordinates":[[-81.62828677777777,26.277315638888886],[-81.62848333333332,26.278414166666664],[-81.62881152777777,26.279526],[-81.6292783611111,26.280632722222222],[-81.62988666666666,26.28171386111111],[-81.63063438888888,26.282747916666665],[-81.6315141111111,26.28371352777778],[-81.63251313888888,26.284590805555556],[-81.63361408333334,26.28536263888889],[-81.63479572222222,26.286015833333334],[-81.63603452777778,26.286541777777778],[-81.63730594444445,26.286936750000002],[-81.63858605555556,26.287201916666668],[-81.63985280555556,26.287342527777778],[-81.64108688888889,26.287367444444445]]},"properties":{"style":"solid","thickness":1}},{"type":"Feature","geometry":{"type":"LineString","coordinates":[[-81.76784447222222,26.544527583333334],[-81.76786244444445,26.544656805555558],[-81.76789841666667,26.54479077777778],[-81.76795461111111,26.544926833333335],[-81.76803263888888,26.545061500000003],[-81.76813316666667,26.545190805555556],[-81.76825569444445,26.545310333333337],[-81.76839830555555,26.54541577777778],[-81.76855772222223,26.54550327777778],[-81.76872952777778,26.545569833333335],[-81.76890852777778,26.545613722222225],[-81.76908927777778,26.545634500000002],[-81.7692666388889,26.545633138888892],[-81.76943613888889,26.54561163888889],[-81.76959427777777,26.545572805555558],[-81.76973872222221,26.54551977777778],[-81.76986813888888,26.545455888888892],[-81.76998511111111,26.545382111111113],[-81.77009797222222,26.54529266666667],[-81.77020402777778,26.545186444444447],[-81.77029925,26.545063666666668],[-81.77037941666667,26.54492541666667],[-81.77044044444445,26.544773944444447],[-81.77047883333333,26.54461252777778],[-81.77049208333334,26.544445444444445],[-81.77047902777778,26.54427752777778],[-81.77044005555555,26.544113722222225],[-81.77037705555556,26.543958694444445],[-81.77029316666666,26.543816333333336],[-81.77019238888889,26.543689472222223],[-81.77007908333333,26.543579805555556],[-81.76995763888888,26.543487916666667],[-81.76983202777778,26.543413444444447],[-81.76970477777778,26.54335502777778],[-81.76956675,26.543307944444447],[-81.7694155,26.543273555555558],[-81.76925288888889,26.543254861111112],[-81.76908172222223,26.543254805555556],[-81.76890588888888,26.54327563888889],[-81.76873011111111,26.543318861111114],[-81.76855966666666,26.543384722222225],[-81.76839983333333,26.54347213888889],[-81.7682555,26.543578722222225],[-81.76813058333333,26.543701000000002],[-81.76802775,26.543834694444445],[-81.76794819444444,26.543975333333336],[-81.76789177777778,26.544118472222223],[-81.76785716666667,26.544260222222224],[-81.76784227777777,26.54439738888889],[-81.76784447222222,26.544527583333334]]},"properties":{"style":"solid","thickness":1}},{"type":"Feature","geometry":{"type":"LineString","coordinates":[[-81.76994972222222,26.545314416666667],[-81.76980747222223,26.54348488888889]]},"properties":{"style":"solid","thickness":1}},{"type":"Feature","geometry":{"type":"LineString","coordinates":[[-81.76945541666666,26.545529361111114],[-81.76928472222222,26.543333944444445]]},"properties":{"style":"solid","thickness":1}},{"type":"Feature","geometry":{"type":"LineString","coordinates":[[-81.76894688888889,26.545561361111112],[-81.76877619444444,26.54336591666667]]},"properties":{"style":"solid","thickness":1}},{"type":"Feature","geometry":{"type":"LineString","coordinates":[[-81.76842411111112,26.54541038888889],[-81.7682818888889,26.543580861111113]]},"properties":{"style":"solid","thickness":1}}]}
