{"type":"FeatureCollection","features":[{"type":"Feature","geometry":{"type":"LineString","coordinates":[[-81.61681205555554,26.33328275],[-81.59822122222222,26.333888888888886]]},"properties":{"style":"solid","thickness":1}},{"type":"Feature","geometry":{"type":"LineString","coordinates":[[-81.50337191666667,26.42558225],[-81.50402811111111,26.442334416666668]]},"properties":{"style":"solid","thickness":1}},{"type":"Feature","geometry":{"type":"LineString","coordinates":[[-81.62460541666665,26.52705725],[-81.60598344444443,26.527664388888887]]},"properties":{"style":"solid","thickness":1}},{"type":"Feature","geometry":{"type":"LineString","coordinates":[[-81.61140277777777,26.430475],[-81.61073233333333,26.4137705]]},"properties":{"style":"solid","thickness":1}},{"type":"Feature","geometry":{"type":"LineString","coordinates":[[-81.61006205555555,26.397065972222222],[-81.60939197222221,26.380361361111113]]},"properties":{"style":"solid","thickness":1}},{"type":"Feature","geometry":{"type":"LineString","coordinates":[[-81.60872208333333,26.363656722222224],[-81.60805238888888,26.346952055555555]]},"properties":{"style":"solid","thickness":1}},{"type":"Feature","geometry":{"type":"LineString","coordinates":[[-81.5037,26.433958333333333],[-81.52225486111111,26.433364]]},"properties":{"style":"solid","thickness":1}},{"type":"Feature","geometry":{"type":"LineString","coordinates":[[-81.54080955555555,26.432767277777778],[-81.55936408333334,26.432168166666667]]},"properties":{"style":"solid","thickness":1}},{"type":"Feature","geometry":{"type":"LineString","coordinates":[[-81.57791841666666,26.43156663888889],[-81.59647255555555,26.430962722222223]]},"properties":{"style":"solid","thickness":1}},{"type":"Feature","geometry":{"type":"LineString","coordinates":[[-81.61140277777777,26.430475],[-81.61207330555555,26.447179444444444]]},"properties":{"style":"solid","thickness":1}},{"type":"Feature","geometry":{"type":"LineString","coordinates":[[-81.61274399999999,26.463883833333334],[-81.61341491666666,26.480588194444444]]},"properties":{"style":"solid","thickness":1}},{"type":"Feature","geometry":{"type":"LineString","coordinates":[[-81.61408597222221,26.497292472222224],[-81.61475725,26.513996722222224]]},"properties":{"style":"solid","thickness":1}},{"type":"Feature","geometry":{"type":"LineString","coordinates":[[-81.68507472222223,26.505516055555557],[-81.68575833333334,26.514393972222223],[-81.68187319444445,26.514636055555556],[-81.68155163888889,26.51451561111111],[-81.68083077777779,26.514279555555557],[-81.68007766666668,26.513624055555557],[-81.67971308333334,26.51294438888889],[-81.67964852777779,26.512105527777777],[-81.67990552777778,26.511387111111112],[-81.68055102777778,26.5106445],[-81.68122880555556,26.510321305555557],[-81.68152886111112,26.510162138888887],[-81.68541383333334,26.509920055555554]]},"properties":{"style":"solid","thickness":1}},{"type":"Feature","geometry":{"type":"LineString","coordinates":[[-81.67598422222223,26.50608233333333],[-81.67239344444445,26.515226305555554],[-81.66767061111112,26.506599694444443]]},"properties":{"style":"solid","thickness":1}},{"type":"Feature","geometry":{"type":"LineString","coordinates":[[-81.67480608333334,26.509035527777776],[-81.66921175,26.50938366666667]]},"properties":{"style":"solid","thickness":1}},{"type":"Feature","geometry":{"type":"LineString","coordinates":[[-81.66440730555556,26.50680263888889],[-81.66508930555555,26.51568066666667],[-81.66120411111112,26.515922194444446],[-81.66088255555556,26.515801694444445],[-81.66016175,26.515565555555554],[-81.65940875000001,26.514909944444444],[-81.65904425000001,26.514230194444444],[-81.65897986111112,26.513391333333335],[-81.659237,26.512672944444443],[-81.65988263888889,26.511930444444445],[-81.6605605,26.51160736111111],[-81.66086055555556,26.51144822222222],[-81.66474561111112,26.511206722222223]]},"properties":{"style":"solid","thickness":1}},{"type":"Feature","geometry":{"type":"LineString","coordinates":[[-81.65523888888889,26.507372444444446],[-81.65592022222222,26.5162505],[-81.65250119444445,26.516462833333332],[-81.65155802777778,26.516380916666666],[-81.65115341666667,26.516195305555556],[-81.65049422222222,26.515744555555557],[-81.64950280555556,26.51503347222222],[-81.64881147222223,26.51416327777778],[-81.64860247222222,26.513473861111112],[-81.64842558333333,26.511166972222224],[-81.64853272222223,26.510528166666667],[-81.64893461111112,26.509660361111113],[-81.64944100000001,26.50913725],[-81.64993663888889,26.508474333333332],[-81.65067611111111,26.50793675],[-81.65159241666667,26.50766913888889],[-81.65213094444445,26.507565472222222],[-81.65523888888889,26.507372444444446]]},"properties":{"style":"solid","thickness":1}},{"type":"Feature","geometry":{"type":"LineString","coordinates":[[-81.64092308333333,26.51718125],[-81.64566313888889,26.51688725],[-81.64498261111112,26.508009138888887],[-81.64016522222222,26.508307944444443]]},"properties":{"style":"solid","thickness":1}},{"type":"Feature","geometry":{"type":"LineString","coordinates":[[-81.64532019444445,26.51241325],[-81.64073572222223,26.51269761111111]]},"properties":{"style":"solid","thickness":1}},{"type":"Feature","geometry":{"type":"LineString","coordinates":[[-81.68065661111112,26.426601194444444],[-81.67623094444446,26.426877027777778]]},"properties":{"style":"solid","thickness":1}},{"type":"Feature","geometry":{"type":"LineString","coordinates":[[-81.6763418888889,26.431365500000002],[-81.68100069444445,26.431075166666666],[-81.68031794444445,26.42219713888889]]},"properties":{"style":"solid","thickness":1}},{"type":"Feature","geometry":{"type":"LineString","coordinates":[[-81.67278680555556,26.42266641666667],[-81.66919836111111,26.431810416666668],[-81.66447916666667,26.423183611111114]]},"properties":{"style":"solid","thickness":1}},{"type":"Feature","geometry":{"type":"LineString","coordinates":[[-81.67160944444444,26.425619611111113],[-81.66601911111111,26.42596763888889]]},"properties":{"style":"solid","thickness":1}},{"type":"Feature","geometry":{"type":"LineString","coordinates":[[-81.66121819444444,26.4233865],[-81.6618995,26.432264611111112],[-81.65801708333333,26.432506055555557],[-81.65769577777779,26.432385555555555],[-81.6569755,26.43214938888889],[-81.65622302777778,26.43149375],[-81.65585883333334,26.430814],[-81.6557945,26.429975111111112],[-81.65605147222223,26.42925675],[-81.65669666666668,26.428514250000003],[-81.65737402777778,26.428191166666668],[-81.6576738888889,26.42803205555556],[-81.6615561388889,26.427790611111114]]},"properties":{"style":"solid","thickness":1}},{"type":"Feature","geometry":{"type":"LineString","coordinates":[[-81.652737,26.43283427777778],[-81.64714627777778,26.433181555555556]]},"properties":{"style":"solid","thickness":1}},{"type":"Feature","geometry":{"type":"LineString","coordinates":[[-81.65001927777779,26.433003111111113],[-81.64933888888889,26.424124944444447]]},"properties":{"style":"solid","thickness":1}},{"type":"Feature","geometry":{"type":"LineString","coordinates":[[-81.6383718888889,26.433726166666666],[-81.63976958333333,26.43363947222222],[-81.64046305555556,26.433526194444443],[-81.64181258333333,26.43281027777778],[-81.64304161111112,26.431539944444445],[-81.6434378888889,26.430602222222223],[-81.64358519444446,26.42946925],[-81.64351558333334,26.428560444444447],[-81.64329605555557,26.427731222222224],[-81.64283822222222,26.42684652777778],[-81.64189850000001,26.425781],[-81.64156113888889,26.42545075],[-81.64090788888889,26.425069861111112],[-81.63955583333335,26.424732333333335],[-81.63792530555556,26.424833500000002],[-81.63715955555556,26.425021472222223],[-81.63640452777778,26.42534927777778],[-81.63595469444445,26.42558788888889],[-81.63522105555556,26.426195305555556],[-81.63458641666668,26.42707752777778],[-81.63439627777778,26.42765125],[-81.63424355555556,26.428714305555555],[-81.63437191666668,26.430392083333334],[-81.63519911111112,26.43202652777778],[-81.63570780555557,26.43255688888889],[-81.63628877777778,26.43301252777778],[-81.63685908333333,26.433328333333336],[-81.63701972222223,26.433388611111113],[-81.6383718888889,26.433726166666666]]},"properties":{"style":"solid","thickness":1}},{"type":"Feature","geometry":{"type":"LineString","coordinates":[[-81.67555597222223,26.347234138888886],[-81.67695258333333,26.347147055555553],[-81.67764552777778,26.34703358333333],[-81.67899380555556,26.34631733333333],[-81.6802215,26.34504663888889],[-81.68061719444445,26.344108833333333],[-81.68076400000001,26.342975805555554],[-81.68069416666667,26.342067027777777],[-81.68047452777778,26.341237805555554],[-81.68001677777778,26.34035322222222],[-81.6790773888889,26.33928797222222],[-81.67874019444444,26.338957777777775],[-81.67808730555556,26.338577055555554],[-81.67673616666667,26.33823988888889],[-81.67510688888889,26.338341472222222],[-81.67434177777778,26.338529666666666],[-81.67358738888889,26.33885763888889],[-81.67313800000001,26.339096388888887],[-81.67240508333335,26.339703999999998],[-81.67177122222223,26.340586416666664],[-81.6715813888889,26.341160166666665],[-81.67142911111111,26.342223277777777],[-81.67155791666667,26.343901027777775],[-81.67238502777778,26.345535277777778],[-81.6728935,26.346065499999998],[-81.67347419444445,26.346521],[-81.67404416666668,26.346836694444445],[-81.67420472222223,26.346896916666665],[-81.67555597222223,26.347234138888886]]},"properties":{"style":"solid","thickness":1}},{"type":"Feature","geometry":{"type":"LineString","coordinates":[[-81.66796908333333,26.33878633333333],[-81.66865041666667,26.3476645],[-81.66539158333335,26.34786747222222],[-81.66469327777779,26.34791097222222],[-81.66411794444446,26.347525333333333],[-81.66369247222222,26.34706013888889],[-81.66367102777778,26.346780527777778],[-81.66356377777778,26.345382388888886],[-81.66362527777778,26.34516783333333],[-81.66381513888889,26.344594083333334],[-81.66453741666668,26.343846694444444],[-81.66372936111112,26.343475555555553],[-81.66332533333333,26.34329],[-81.66291058333334,26.34296461111111],[-81.66262958333334,26.342349944444443],[-81.66249016666667,26.34053236111111],[-81.66268541666668,26.340028527777775],[-81.66319633333335,26.339575277777776],[-81.66356283333334,26.339271472222222],[-81.66393466666668,26.33903761111111],[-81.66796908333333,26.33878633333333]]},"properties":{"style":"solid","thickness":1}},{"type":"Feature","geometry":{"type":"LineString","coordinates":[[-81.66833925,26.34360988888889],[-81.66453741666668,26.343846694444444]]},"properties":{"style":"solid","thickness":1}},{"type":"Feature","geometry":{"type":"LineString","coordinates":[[-81.65912436111111,26.339337055555553],[-81.6571668888889,26.348379444444443],[-81.65322783333333,26.339703916666664],[-81.65119230555555,26.348751027777777],[-81.64764161111111,26.34005125]]},"properties":{"style":"solid","thickness":1}},{"type":"Feature","geometry":{"type":"LineString","coordinates":[[-81.64032933333334,26.349426027777778],[-81.64506250000001,26.349132027777777],[-81.64438297222223,26.34025375],[-81.63957258333333,26.340552555555554]]},"properties":{"style":"solid","thickness":1}},{"type":"Feature","geometry":{"type":"LineString","coordinates":[[-81.64472005555557,26.344657944444442],[-81.64014225000001,26.344942277777776]]},"properties":{"style":"solid","thickness":1}},{"type":"Feature","geometry":{"type":"LineString","coordinates":[[-81.63256997222221,26.349907666666667],[-81.63730319444446,26.349613916666666],[-81.63662425000001,26.34073561111111],[-81.63181380555555,26.341034138888887]]},"properties":{"style":"solid","thickness":1}},{"type":"Feature","geometry":{"type":"LineString","coordinates":[[-81.63696102777779,26.345139805555554],[-81.63238319444444,26.345423916666665]]},"properties":{"style":"solid","thickness":1}},{"type":"Feature","geometry":{"type":"LineString","coordinates":[[-81.51295577777778,26.46200647222222],[-81.51769388888889,26.461716694444444],[-81.51702344444445,26.452837916666667],[-81.51220802777777,26.453132444444442]]},"properties":{"style":"solid","thickness":1}},{"type":"Feature","geometry":{"type":"LineString","coordinates":[[-81.51735599999999,26.45724236111111],[-81.51277344444445,26.45752263888889]]},"properties":{"style":"solid","thickness":1}},{"type":"Feature","geometry":{"type":"LineString","coordinates":[[-81.50344788888889,26.46216611111111],[-81.503935,26.462417305555554],[-81.50448927777778,26.462523916666665],[-81.50635347222222,26.46241002777778],[-81.507042,26.46222747222222],[-81.50726975,26.462143333333334],[-81.50838738888889,26.461442916666666],[-81.50903372222223,26.460701083333333],[-81.509214,26.459987722222223],[-81.50966275,26.458696083333333],[-81.50954144444445,26.457088111111112],[-81.50932808333333,26.45632858333333],[-81.50904761111111,26.45571361111111],[-81.50868419444444,26.455033472222222],[-81.5078495,26.454311916666665],[-81.50632105555556,26.45370297222222],[-81.50529555555555,26.453554916666665],[-81.50444119444444,26.45360711111111],[-81.50336963888888,26.453883277777777],[-81.50299711111111,26.45411672222222],[-81.50269697222222,26.454275527777778]]},"properties":{"style":"solid","thickness":1}},{"type":"Feature","geometry":{"type":"LineString","coordinates":[[-81.49954805555555,26.453905944444443],[-81.49594502777778,26.463045555555556],[-81.49123741666666,26.454413111111112]]},"properties":{"style":"solid","thickness":1}},{"type":"Feature","geometry":{"type":"LineString","coordinates":[[-81.49836597222222,26.456857694444444],[-81.49277363888889,26.457198972222223]]},"properties":{"style":"solid","thickness":1}},{"type":"Feature","geometry":{"type":"LineString","coordinates":[[-81.48797527777778,26.454612055555554],[-81.48600252777779,26.463651944444443],[-81.48207233333333,26.45497183333333],[-81.48002144444445,26.464016388888886],[-81.47648005555556,26.45531247222222]]},"properties":{"style":"solid","thickness":1}},{"type":"Feature","geometry":{"type":"LineString","coordinates":[[-81.46836988888889,26.46472563888889],[-81.46976808333334,26.46464058333333],[-81.47046191666666,26.464528138888888],[-81.47181283333333,26.463813833333333],[-81.47304405555556,26.462544944444442],[-81.47344180555555,26.461607722222222],[-81.47359080555556,26.460474916666666],[-81.4735225,26.459566055555555],[-81.47330413888889,26.458736555555554],[-81.47284747222223,26.457851305555554],[-81.47190905555556,26.456784694444444],[-81.47157211111112,26.456454055555554],[-81.47091922222222,26.456072388888888],[-81.46956730555556,26.455733249999998],[-81.46793619444445,26.455832472222223],[-81.46717,26.456019555555557],[-81.46641425,26.456346444444442],[-81.46596397222223,26.45658452777778],[-81.46522922222222,26.45719108333333],[-81.46459313888889,26.458072555555553],[-81.46440211111111,26.458646027777778],[-81.46424777777779,26.459708888888887],[-81.46437372222222,26.461386805555556],[-81.46519875,26.46302222222222],[-81.46570680555556,26.463553194444444],[-81.46628727777778,26.464009527777776],[-81.46685725,26.464326027777776],[-81.46701786111112,26.46438647222222],[-81.46836988888889,26.46472563888889]]},"properties":{"style":"solid","thickness":1}},{"type":"Feature","geometry":{"type":"LineString","coordinates":[[-81.3834183888889,26.639442166666665],[-81.38286141666666,26.631961472222223],[-81.38290797222221,26.631537305555558],[-81.38326569444443,26.631094444444447],[-81.38370641666667,26.630716805555554],[-81.38400716666668,26.63055825],[-81.38446872222222,26.63046027777778],[-81.38524661111111,26.630413472222223],[-81.38571858333334,26.630455305555557],[-81.38645513888889,26.630902583333334],[-81.38662636111111,26.631102972222223]]},"properties":{"style":"solid","thickness":1}},{"type":"Feature","geometry":{"type":"LineString","coordinates":[[-81.37964563888889,26.63075027777778],[-81.37602763888889,26.639886416666666],[-81.37132191666666,26.63125038888889]]},"properties":{"style":"solid","thickness":1}},{"type":"Feature","geometry":{"type":"LineString","coordinates":[[-81.37845869444443,26.63370088888889],[-81.37285755555556,26.634037416666665]]},"properties":{"style":"solid","thickness":1}},{"type":"Feature","geometry":{"type":"LineString","coordinates":[[-81.36805463888888,26.631446555555556],[-81.3687146111111,26.64032561111111],[-81.36544708333332,26.64052172222222],[-81.36474688888889,26.640563722222222],[-81.36417113888888,26.640176916666665],[-81.36374577777777,26.639710861111112],[-81.36372499999999,26.63943122222222],[-81.36362113888889,26.638032944444443],[-81.3636833611111,26.637818527777778],[-81.36387519444443,26.637245222222223],[-81.36460122222222,26.63649938888889],[-81.36379208333332,26.636126583333333],[-81.36338752777777,26.635940194444444],[-81.36297258333333,26.635613944444444],[-81.36269247222222,26.63499872222222],[-81.36255744444443,26.633180972222224],[-81.36275447222222,26.632677583333333],[-81.36326786111111,26.632225416666667],[-81.36363605555555,26.63192241666667],[-81.36400944444443,26.631689333333334],[-81.36805463888888,26.631446555555556]]},"properties":{"style":"solid","thickness":1}},{"type":"Feature","geometry":{"type":"LineString","coordinates":[[-81.36841319444444,26.63627061111111],[-81.36460122222222,26.63649938888889]]},"properties":{"style":"solid","thickness":1}},{"type":"Feature","geometry":{"type":"LineString","coordinates":[[-81.35918627777777,26.63197866666667],[-81.35720038888888,26.641016333333333],[-81.353274,26.632333083333332],[-81.35120983333333,26.641375333333333],[-81.34767283333333,26.63266863888889]]},"properties":{"style":"solid","thickness":1}},{"type":"Feature","geometry":{"type":"LineString","coordinates":[[-81.34448327777777,26.63285961111111],[-81.34086244444444,26.64199483333333],[-81.33615927777777,26.633357694444445]]},"properties":{"style":"solid","thickness":1}},{"type":"Feature","geometry":{"type":"LineString","coordinates":[[-81.34329541666666,26.635809944444443],[-81.33769408333333,26.636145083333332]]},"properties":{"style":"solid","thickness":1}},{"type":"Feature","geometry":{"type":"LineString","coordinates":[[-81.31423180555555,26.625845527777777],[-81.31476808333333,26.627623166666666],[-81.31602738888888,26.629076222222224],[-81.31781391666667,26.629978666666666],[-81.31984972222222,26.630190111111112],[-81.32181819444445,26.629677694444446],[-81.32341308333334,26.628521111111112],[-81.32438636111111,26.626900250000002],[-81.32458669444443,26.625067222222224],[-81.32398288888888,26.62330713888889],[-81.32266894444444,26.62189375],[-81.32084922222222,26.621046833333335],[-81.31880669444445,26.62089813888889],[-81.31685902777778,26.621470777777777],[-81.31530913888889,26.622675666666666],[-81.31439802777777,26.62432547222222],[-81.31423180555555,26.625845527777777]]},"properties":{"style":"solid","thickness":1}},{"type":"Feature","geometry":{"type":"LineString","coordinates":[[-81.32021455555555,26.63633258333333],[-81.31946761111111,26.633538194444444],[-81.31796080555556,26.631003361111112],[-81.31579155555555,26.62889188888889],[-81.31310002777778,26.627340222222223],[-81.31006022222222,26.626448583333335],[-81.30740408333332,26.626252666666666]]},"properties":{"style":"solid","thickness":1}},{"type":"Feature","geometry":{"type":"LineString","coordinates":[[-81.30740408333332,26.626252666666666],[-81.31051327777777,26.625581611111112],[-81.31333366666667,26.624227555555557],[-81.31568297222222,26.622278],[-81.31740930555556,26.619859],[-81.31840113888889,26.61712686111111],[-81.31861891666667,26.614739611111112]]},"properties":{"style":"solid","thickness":1}},{"type":"Feature","geometry":{"type":"LineString","coordinates":[[-81.31861891666667,26.614739611111112],[-81.31936572222222,26.61753402777778],[-81.32087238888889,26.620068833333335],[-81.32304158333334,26.622180222222223],[-81.3257331111111,26.62373172222222],[-81.32877297222223,26.62462302777778],[-81.3314291111111,26.624818555555557]]},"properties":{"style":"solid","thickness":1}},{"type":"Feature","geometry":{"type":"LineString","coordinates":[[-81.3314291111111,26.624818555555557],[-81.32832005555555,26.625490055555556],[-81.32549980555555,26.626844416666668],[-81.32315058333333,26.628794111111112],[-81.32142422222222,26.631213194444445],[-81.32043233333333,26.633945333333333],[-81.32021455555555,26.63633258333333]]},"properties":{"style":"solid","thickness":1}},{"type":"Feature","geometry":{"type":"LineString","coordinates":[[-81.66388930555556,26.412821555555553],[-81.66391827777778,26.413199027777775],[-81.66381233333334,26.413648138888888],[-81.66357630555557,26.414231777777776],[-81.66332580555556,26.414626666666667],[-81.66292588888889,26.414904416666666],[-81.66237655555557,26.415065027777775],[-81.66132847222222,26.41513022222222],[-81.66055019444445,26.415052222222222],[-81.66018636111112,26.414885194444444],[-81.65966347222223,26.414475194444442],[-81.65949958333334,26.414169305555554],[-81.65932122222223,26.413674694444442],[-81.65924402777779,26.412668027777777],[-81.65935480555557,26.41228183333333],[-81.65988227777778,26.410921499999997],[-81.66065313888889,26.409988499999997],[-81.66188894444446,26.408710527777778],[-81.66337522222223,26.40703761111111],[-81.65897355555556,26.407311472222222]]},"properties":{"style":"solid","thickness":1}},{"type":"Feature","geometry":{"type":"LineString","coordinates":[[-81.65608300000001,26.41355997222222],[-81.65605172222223,26.414067638888888],[-81.65593608333334,26.414390916666665],[-81.65549041666667,26.414987555555555],[-81.65509047222223,26.415265305555554],[-81.65469052777779,26.415543027777776],[-81.65407130555556,26.415707944444442],[-81.65372194444446,26.415729666666664],[-81.65294369444445,26.41565161111111],[-81.65228105555556,26.415250277777776],[-81.65182808333334,26.414835916666664],[-81.65172925,26.41446275],[-81.65163283333334,26.413204416666666],[-81.65188338888889,26.412809555555555],[-81.65233872222223,26.41233875],[-81.65292897222223,26.41179633333333],[-81.65341808333334,26.411765944444443]]},"properties":{"style":"solid","thickness":1}},{"type":"Feature","geometry":{"type":"LineString","coordinates":[[-81.65292897222223,26.41179633333333],[-81.65205677777779,26.411408027777778],[-81.651758,26.41117372222222],[-81.6513748888889,26.410755027777775],[-81.65129055555556,26.41057061111111],[-81.65117730555556,26.41000872222222],[-81.65116283333334,26.40981997222222],[-81.65119411111111,26.409312305555556],[-81.65130494444445,26.40892611111111],[-81.65162052777778,26.408464],[-81.6520156388889,26.40812336111111],[-81.6526853888889,26.407702444444443],[-81.65429236111112,26.407602555555552],[-81.65479591666667,26.407760888888888],[-81.65560305555556,26.40821644444444],[-81.65575244444445,26.40833358333333],[-81.65601030555555,26.40894972222222],[-81.65602958333334,26.40920138888889]]},"properties":{"style":"solid","thickness":1}},{"type":"Feature","geometry":{"type":"LineString","coordinates":[[-81.66943377777778,26.49856752777778],[-81.66946277777778,26.498945000000003],[-81.66935677777778,26.499394111111112],[-81.66912061111111,26.49997775],[-81.66886991666667,26.500372638888887],[-81.66846972222223,26.50065038888889],[-81.66792000000001,26.50081102777778],[-81.6668711388889,26.500876277777778],[-81.66609230555557,26.50079827777778],[-81.66572816666667,26.500631277777778],[-81.6652048888889,26.500221305555556],[-81.66504086111112,26.499915444444447],[-81.66486236111112,26.499420805555555],[-81.66478502777778,26.498414166666667],[-81.66489588888889,26.498028],[-81.66542369444446,26.49666763888889],[-81.66619508333333,26.49573463888889],[-81.66743175,26.49445663888889],[-81.66891905555556,26.492783694444444],[-81.66451411111112,26.493057722222222]]},"properties":{"style":"solid","thickness":1}},{"type":"Feature","geometry":{"type":"LineString","coordinates":[[-81.66162172222222,26.499306222222224],[-81.66159044444446,26.49981388888889],[-81.66147475000001,26.500137166666665],[-81.66102875,26.500733833333335],[-81.66062852777779,26.501011555555557],[-81.66022830555556,26.501289305555556],[-81.6596086388889,26.50145425],[-81.65925902777778,26.501475972222224],[-81.65848019444445,26.501397944444445],[-81.65781705555555,26.50099663888889],[-81.65736372222223,26.500582305555554],[-81.65726483333334,26.500209166666668],[-81.65716825000001,26.498950861111112],[-81.65741897222223,26.498555972222224],[-81.6578746388889,26.498085166666666],[-81.65846530555557,26.49754275],[-81.65895475,26.497512333333333]]},"properties":{"style":"solid","thickness":1}},{"type":"Feature","geometry":{"type":"LineString","coordinates":[[-81.65846530555557,26.49754275],[-81.65759241666667,26.497154472222224],[-81.65729341666668,26.496920194444446],[-81.65691002777778,26.4965015],[-81.65682561111112,26.49631711111111],[-81.65671222222223,26.495755222222222],[-81.65669775,26.495566472222222],[-81.65672905555556,26.495058805555555],[-81.65683991666667,26.494672611111113],[-81.65715572222223,26.4942105],[-81.65755111111112,26.493869833333335],[-81.65822133333334,26.49344891666667],[-81.6598295,26.493348972222222],[-81.66033341666667,26.49350727777778],[-81.66114119444445,26.493962805555558],[-81.66129069444445,26.494079944444444],[-81.66154875000001,26.494696055555558],[-81.66156808333334,26.494947694444445]]},"properties":{"style":"solid","thickness":1}},{"type":"Feature","geometry":{"type":"LineString","coordinates":[[-81.49547658333333,26.44927725],[-81.49442808333333,26.44934125],[-81.49384058333334,26.44153902777778]]},"properties":{"style":"solid","thickness":1}},{"type":"Feature","geometry":{"type":"LineString","coordinates":[[-81.48905077777778,26.446003083333334],[-81.48702375,26.446126694444445],[-81.48589952777778,26.445183888888888],[-81.48573133333333,26.444814861111112],[-81.4855678888889,26.444508777777777],[-81.48551108333334,26.443753722222223],[-81.48574805555556,26.443170388888888],[-81.48612483333334,26.442578527777776],[-81.48652527777777,26.442301277777776],[-81.48679066666666,26.442095472222224],[-81.4873356111111,26.441872611111112],[-81.48859372222222,26.44179588888889],[-81.48916708333333,26.441950555555557],[-81.48961013888889,26.442239583333333],[-81.48999277777777,26.442658722222223],[-81.49024033333333,26.443149305555554],[-81.49034338888889,26.4435855],[-81.49039075,26.444214694444444],[-81.49034452777778,26.444533555555555],[-81.49016325,26.44492388888889],[-81.48989786111112,26.445129694444443],[-81.48905077777778,26.446003083333334],[-81.48971772222222,26.446468083333333],[-81.4901051111111,26.44695013888889],[-81.49026858333333,26.447256222222222],[-81.49034436111111,26.448262972222224],[-81.49005169444445,26.449039333333335],[-81.48985622222223,26.449240888888887],[-81.48924605555555,26.449530944444444],[-81.48884086111111,26.44974527777778],[-81.48793216666667,26.449800694444445],[-81.48728886111111,26.449650277777778],[-81.4863281111111,26.449013555555556],[-81.4861646388889,26.44870747222222],[-81.48607941666667,26.44757488888889],[-81.48624177777778,26.446932888888888],[-81.48630694444445,26.446865694444444],[-81.4866375,26.446592722222224],[-81.48702375,26.446126694444445]]},"properties":{"style":"solid","thickness":1}},{"type":"Feature","geometry":{"type":"LineString","coordinates":[[-81.66283936111111,26.330564833333334],[-81.66286830555556,26.330942333333333],[-81.66276244444445,26.331391444444446],[-81.66252655555556,26.331975083333333],[-81.66227622222223,26.33236997222222],[-81.66187658333334,26.332647722222223],[-81.66132763888889,26.332808333333332],[-81.66028027777779,26.332873527777778],[-81.65950258333334,26.3327955],[-81.65913900000001,26.332628472222222],[-81.65861647222223,26.332218472222223],[-81.65845272222222,26.331912583333335],[-81.6582745,26.331417944444443],[-81.65819733333333,26.330411277777777],[-81.65830805555557,26.330025083333332],[-81.65883516666668,26.32866472222222],[-81.65960550000001,26.32773172222222],[-81.66084044444445,26.326453722222222],[-81.66232566666667,26.32478083333333],[-81.65792708333333,26.32505463888889]]},"properties":{"style":"solid","thickness":1}},{"type":"Feature","geometry":{"type":"LineString","coordinates":[[-81.65503852777778,26.33130322222222],[-81.65500727777778,26.33181088888889],[-81.65489172222223,26.332134166666666],[-81.65444636111111,26.332730833333333],[-81.65404669444445,26.333008555555555],[-81.65364702777778,26.333286277777777],[-81.65302825,26.333451194444443],[-81.6526791388889,26.333472916666665],[-81.65190141666668,26.33339486111111],[-81.65123927777779,26.3329935],[-81.65078661111112,26.33257913888889],[-81.65068786111112,26.332205972222223],[-81.6505915,26.33094763888889],[-81.65084188888889,26.33055277777778],[-81.65129691666667,26.330081944444444],[-81.65188677777779,26.32953952777778],[-81.65237552777778,26.329509138888888]]},"properties":{"style":"solid","thickness":1}},{"type":"Feature","geometry":{"type":"LineString","coordinates":[[-81.65188677777779,26.32953952777778],[-81.65101516666667,26.329151222222222],[-81.65071661111112,26.328916916666667],[-81.65033377777779,26.328498194444443],[-81.6502495,26.328313805555556],[-81.65013633333334,26.327751888888887],[-81.65012186111112,26.327563138888888],[-81.6501531388889,26.327055444444444],[-81.6502638888889,26.32666927777778],[-81.65057925,26.32620713888889],[-81.65097408333334,26.3258665],[-81.65164336111111,26.325445583333334],[-81.65324922222223,26.325345694444444],[-81.65375241666668,26.325504055555555],[-81.65455897222223,26.32595961111111],[-81.65470827777779,26.32607675],[-81.65496591666667,26.32669288888889],[-81.65498519444445,26.326944555555556]]},"properties":{"style":"solid","thickness":1}},{"type":"Feature","geometry":{"type":"LineString","coordinates":[[-81.76784447222222,26.544527583333334],[-81.76786244444445,26.544656805555558],[-81.76789841666667,26.54479077777778],[-81.76795461111111,26.544926833333335],[-81.76803263888888,26.545061500000003],[-81.76813316666667,26.545190805555556],[-81.76825569444445,26.545310333333337],[-81.76839830555555,26.54541577777778],[-81.76855772222223,26.54550327777778],[-81.76872952777778,26.545569833333335],[-81.76890852777778,26.545613722222225],[-81.76908927777778,26.545634500000002],[-81.7692666388889,26.545633138888892],[-81.76943613888889,26.54561163888889],[-81.76959427777777,26.545572805555558],[-81.76973872222221,26.54551977777778],[-81.76986813888888,26.545455888888892],[-81.76998511111111,26.545382111111113],[-81.77009797222222,26.54529266666667],[-81.77020402777778,26.545186444444447],[-81.77029925,26.545063666666668],[-81.77037941666667,26.54492541666667],[-81.77044044444445,26.544773944444447],[-81.77047883333333,26.54461252777778],[-81.77049208333334,26.544445444444445],[-81.77047902777778,26.54427752777778],[-81.77044005555555,26.544113722222225],[-81.77037705555556,26.543958694444445],[-81.77029316666666,26.543816333333336],[-81.77019238888889,26.543689472222223],[-81.77007908333333,26.543579805555556],[-81.76995763888888,26.543487916666667],[-81.76983202777778,26.543413444444447],[-81.76970477777778,26.54335502777778],[-81.76956675,26.543307944444447],[-81.7694155,26.543273555555558],[-81.76925288888889,26.543254861111112],[-81.76908172222223,26.543254805555556],[-81.76890588888888,26.54327563888889],[-81.76873011111111,26.543318861111114],[-81.76855966666666,26.543384722222225],[-81.76839983333333,26.54347213888889],[-81.7682555,26.543578722222225],[-81.76813058333333,26.543701000000002],[-81.76802775,26.543834694444445],[-81.76794819444444,26.543975333333336],[-81.76789177777778,26.544118472222223],[-81.76785716666667,26.544260222222224],[-81.76784227777777,26.54439738888889],[-81.76784447222222,26.544527583333334]]},"properties":{"style":"solid","thickness":1}},{"type":"Feature","geometry":{"type":"LineString","coordinates":[[-81.76994972222222,26.545314416666667],[-81.76980747222223,26.54348488888889]]},"properties":{"style":"solid","thickness":1}},{"type":"Feature","geometry":{"type":"LineString","coordinates":[[-81.76945541666666,26.545529361111114],[-81.76928472222222,26.543333944444445]]},"properties":{"style":"solid","thickness":1}},{"type":"Feature","geometry":{"type":"LineString","coordinates":[[-81.76894688888889,26.545561361111112],[-81.76877619444444,26.54336591666667]]},"properties":{"style":"solid","thickness":1}},{"type":"Feature","geometry":{"type":"LineString","coordinates":[[-81.76842411111112,26.54541038888889],[-81.7682818888889,26.543580861111113]]},"properties":{"style":"solid","thickness":1}}]}
