{"type":"FeatureCollection","features":[{"type":"Feature","geometry":{"type":"LineString","coordinates":[[-82.033423,26.497224444444445],[-82.034178,26.497878055555557],[-82.03433894444444,26.497937888888888],[-82.03535991666666,26.498012222222222],[-82.03620316666667,26.497817055555558],[-82.03664683333334,26.49750727777778],[-82.03708491666667,26.49712763888889],[-82.03742291666667,26.496473416666667],[-82.03729422222222,26.494865944444445],[-82.03677783333333,26.49426713888889],[-82.03644475,26.494007694444445],[-82.03524608333333,26.493663861111113],[-82.03389769444445,26.493399972222225],[-82.03293205555555,26.493041027777778],[-82.03258780555555,26.492641805555557],[-82.03235416666666,26.49167338888889],[-82.03243680555555,26.49075475],[-82.03278041666667,26.490170444444445],[-82.0331463888889,26.489865722222223],[-82.03344030555556,26.489635916666668],[-82.0338118611111,26.489401083333334],[-82.03464944444444,26.48913602777778],[-82.03511547222222,26.489105833333333],[-82.03559269444445,26.489215416666667],[-82.03623641666667,26.489454694444447],[-82.03664713888888,26.48970911111111],[-82.03723561111111,26.490232972222223]]},"properties":{"style":"solid","thickness":1}},{"type":"Feature","geometry":{"type":"LineString","coordinates":[[-82.02409688888889,26.498741722222224],[-82.02549505555555,26.498651194444445],[-82.02618855555555,26.498536055555558],[-82.02753641666666,26.497816500000003],[-82.02876186111111,26.496542833333333],[-82.02915525,26.495604055555557],[-82.02929880555556,26.494470694444445],[-82.02922613888889,26.49356211111111],[-82.02900369444444,26.492733472222223],[-82.02854266666667,26.491850055555556],[-82.02759883333333,26.49078711111111],[-82.02726019444444,26.490457777777777],[-82.02660530555555,26.49007866666667],[-82.02525136111112,26.489744805555556],[-82.02362027777778,26.48985038888889],[-82.02285475,26.490040444444446],[-82.02210036111111,26.490370277777778],[-82.02165111111111,26.490610111111113],[-82.02091908333334,26.49121952777778],[-82.02028705555556,26.492103444444446],[-82.02009872222222,26.49267766666667],[-82.01994947222222,26.493741111111113],[-82.02008352777777,26.49541852777778],[-82.02091666666666,26.497050694444447],[-82.02142738888888,26.497579666666667],[-82.02201025,26.498033722222225],[-82.02258191666667,26.498348],[-82.02274286111111,26.498407833333335],[-82.02409688888889,26.498741722222224]]},"properties":{"style":"solid","thickness":1}},{"type":"Feature","geometry":{"type":"LineString","coordinates":[[-82.01718361111111,26.499189027777778],[-82.01647452777777,26.49031275]]},"properties":{"style":"solid","thickness":1}},{"type":"Feature","geometry":{"type":"LineString","coordinates":[[-82.01181827777778,26.499465694444446],[-82.01682627777778,26.494715944444444],[-82.01103752777777,26.490664305555555]]},"properties":{"style":"solid","thickness":1}},{"type":"Feature","geometry":{"type":"LineString","coordinates":[[-82.00777527777778,26.49087516666667],[-82.00848372222222,26.499751472222222]]},"properties":{"style":"solid","thickness":1}},{"type":"Feature","geometry":{"type":"LineString","coordinates":[[-81.99970605555556,26.50031838888889],[-82.00444444444445,26.500012416666667],[-82.00373633333334,26.491136083333334],[-81.99892061111112,26.491447055555557]]},"properties":{"style":"solid","thickness":1}},{"type":"Feature","geometry":{"type":"LineString","coordinates":[[-82.00408758333333,26.495539305555557],[-81.99950472222223,26.495835250000003]]},"properties":{"style":"solid","thickness":1}},{"type":"Feature","geometry":{"type":"LineString","coordinates":[[-81.91697941666668,26.399369416666666],[-81.91363994444445,26.39066147222222],[-81.91108069444445,26.39974697222222],[-81.90766402777778,26.39104386111111],[-81.90549238888889,26.400104444444445]]},"properties":{"style":"solid","thickness":1}},{"type":"Feature","geometry":{"type":"LineString","coordinates":[[-81.9015328888889,26.391435944444446],[-81.90223252777778,26.400312888888887]]},"properties":{"style":"solid","thickness":1}},{"type":"Feature","geometry":{"type":"LineString","coordinates":[[-81.8974971388889,26.39169386111111],[-81.89819650000001,26.400570833333333],[-81.8887271388889,26.39225397222222],[-81.88942583333333,26.40113097222222]]},"properties":{"style":"solid","thickness":1}},{"type":"Feature","geometry":{"type":"LineString","coordinates":[[-81.88624352777778,26.40133408333333],[-81.88554508333334,26.392457055555553],[-81.88174213888888,26.392699694444445]]},"properties":{"style":"solid","thickness":1}},{"type":"Feature","geometry":{"type":"LineString","coordinates":[[-81.87452325,26.402081499999998],[-81.87925794444443,26.401779694444443],[-81.87856005555555,26.392902638888888],[-81.87374808333333,26.393209388888888]]},"properties":{"style":"solid","thickness":1}},{"type":"Feature","geometry":{"type":"LineString","coordinates":[[-81.87890625,26.397306222222223],[-81.87432694444443,26.39759813888889]]},"properties":{"style":"solid","thickness":1}},{"type":"Feature","geometry":{"type":"LineString","coordinates":[[-81.98150422222223,26.457455555555555],[-81.97707813888888,26.45774075]]},"properties":{"style":"solid","thickness":1}},{"type":"Feature","geometry":{"type":"LineString","coordinates":[[-81.97720086111111,26.46222897222222],[-81.98186008333333,26.46192875],[-81.98115394444444,26.45305225]]},"properties":{"style":"solid","thickness":1}},{"type":"Feature","geometry":{"type":"LineString","coordinates":[[-81.96951305555555,26.462723999999998],[-81.97425,26.462419027777777],[-81.97354444444444,26.453542499999998],[-81.96873022222222,26.453852444444443]]},"properties":{"style":"solid","thickness":1}},{"type":"Feature","geometry":{"type":"LineString","coordinates":[[-81.97389441666667,26.457945833333333],[-81.96931297222223,26.458240777777778]]},"properties":{"style":"solid","thickness":1}},{"type":"Feature","geometry":{"type":"LineString","coordinates":[[-81.96174752777777,26.46322361111111],[-81.96648452777778,26.46291888888889],[-81.96577955555556,26.454042333333334],[-81.96096527777777,26.454352027777777]]},"properties":{"style":"solid","thickness":1}},{"type":"Feature","geometry":{"type":"LineString","coordinates":[[-81.96612925000001,26.458445666666666],[-81.96154775000001,26.458740388888888]]},"properties":{"style":"solid","thickness":1}},{"type":"Feature","geometry":{"type":"LineString","coordinates":[[-81.95398194444445,26.463722805555555],[-81.95871897222223,26.463418333333333],[-81.95801458333334,26.45454175],[-81.95320027777778,26.454851166666668]]},"properties":{"style":"solid","thickness":1}},{"type":"Feature","geometry":{"type":"LineString","coordinates":[[-81.958364,26.458945083333333],[-81.95378247222223,26.459239555555556]]},"properties":{"style":"solid","thickness":1}},{"type":"Feature","geometry":{"type":"LineString","coordinates":[[-81.95024955555556,26.455040722222222],[-81.95095336111112,26.46391736111111],[-81.94753647222223,26.464136805555555],[-81.9465935,26.46405686111111],[-81.94618861111111,26.46387208333333],[-81.94552858333334,26.463422722222223],[-81.94453577777779,26.462713694444442],[-81.94384252777778,26.461844916666667],[-81.94363186111111,26.461155944444442],[-81.94344911111112,26.458849416666666],[-81.94355458333334,26.458210388888887],[-81.94395405555557,26.457341749999998],[-81.94445886111112,26.456817583333333],[-81.94495258333333,26.45615363888889],[-81.94569030555556,26.455614527777776],[-81.94660552777778,26.455344999999998],[-81.94714352777778,26.455240194444443],[-81.95024955555556,26.455040722222222]]},"properties":{"style":"solid","thickness":1}},{"type":"Feature","geometry":{"type":"LineString","coordinates":[[-81.74450338888889,26.42142052777778],[-81.74484644444445,26.421820444444446],[-81.74557766666666,26.422195972222223],[-81.74605433333333,26.422306527777778],[-81.74739038888889,26.422433333333334],[-81.74785622222223,26.422404055555557],[-81.74877702777778,26.422205722222223],[-81.74953713888888,26.421947222222222],[-81.749687,26.421867583333334],[-81.7502033611111,26.421483916666666],[-81.75071430555556,26.421030333333334],[-81.75155380555556,26.419783444444445],[-81.75185527777778,26.418640611111112],[-81.75173605555555,26.41710275],[-81.75151575,26.416273666666665],[-81.75115647222222,26.415664055555553],[-81.75064730555556,26.415134111111108],[-81.75022122222222,26.414669194444443],[-81.74955141666666,26.41407908333333],[-81.74890869444445,26.413838499999997],[-81.74826597222223,26.413597916666664],[-81.74771172222222,26.413492249999997],[-81.74631436111112,26.413580027777776],[-81.74554886111112,26.41376861111111],[-81.74494947222222,26.41408722222222],[-81.74427786111112,26.414480638888886],[-81.74383913888889,26.41485938888889],[-81.74312777777777,26.41574697222222],[-81.74271072222223,26.41640536111111],[-81.74258791666666,26.41683452777778],[-81.74267455555555,26.417952972222224],[-81.74593519444444,26.417748194444446]]},"properties":{"style":"solid","thickness":1}},{"type":"Feature","geometry":{"type":"LineString","coordinates":[[-81.73985955555555,26.422906222222224],[-81.73931294444445,26.415846],[-81.73920825,26.415501361111108],[-81.73861069444445,26.414836444444443],[-81.73819008333334,26.41444136111111],[-81.73754736111111,26.41420075],[-81.736688,26.414184416666664],[-81.73544588888889,26.41426236111111],[-81.7347526111111,26.41437611111111],[-81.73384805555555,26.414784055555554],[-81.7333425,26.41530747222222],[-81.73306441666666,26.41574636111111],[-81.73295780555556,26.416385249999998],[-81.73349322222222,26.423305694444444]]},"properties":{"style":"solid","thickness":1}},{"type":"Feature","geometry":{"type":"LineString","coordinates":[[-81.73023241666667,26.423510166666667],[-81.72954580555556,26.414632416666667],[-81.72574180555556,26.41487088888889]]},"properties":{"style":"solid","thickness":1}},{"type":"Feature","geometry":{"type":"LineString","coordinates":[[-81.72324488888889,26.423948111111113],[-81.72255883333334,26.415070333333333],[-81.71875480555556,26.415308611111108]]},"properties":{"style":"solid","thickness":1}},{"type":"Feature","geometry":{"type":"LineString","coordinates":[[-81.71591186111111,26.419911861111114],[-81.71148655555555,26.420188833333334]]},"properties":{"style":"solid","thickness":1}},{"type":"Feature","geometry":{"type":"LineString","coordinates":[[-81.71159894444445,26.42467727777778],[-81.71625733333333,26.424385722222222],[-81.71557180555556,26.415507916666666]]},"properties":{"style":"solid","thickness":1}},{"type":"Feature","geometry":{"type":"LineString","coordinates":[[-81.80468055555555,26.386815249999998],[-81.80543355555555,26.387470055555553],[-81.80559425,26.387530138888888],[-81.80661408333333,26.387606138888888],[-81.80745691666667,26.387412333333334],[-81.80790077777777,26.38710325],[-81.80833916666667,26.386724305555553],[-81.80867816666667,26.38607063888889],[-81.80855275,26.384462916666667],[-81.80803802777777,26.383863277777778],[-81.80770580555556,26.383603305555557],[-81.80650897222222,26.383257555555556],[-81.8051623611111,26.3829915],[-81.8041983611111,26.382631],[-81.80385525,26.382231222222224],[-81.80362375,26.38126241666667],[-81.8037081111111,26.380343888888888],[-81.80405255555556,26.37976013888889],[-81.80441877777777,26.379456],[-81.80471286111111,26.379226666666668],[-81.80508455555555,26.378992416666666],[-81.8059218611111,26.378728722222224],[-81.8063875,26.37869925],[-81.80686402777778,26.378809611111112],[-81.80750666666667,26.379049916666666],[-81.80791649999999,26.379304972222222],[-81.80850336111111,26.379829805555556]]},"properties":{"style":"solid","thickness":1}},{"type":"Feature","geometry":{"type":"LineString","coordinates":[[-81.80087083333333,26.387969333333334],[-81.79528275,26.38832247222222]]},"properties":{"style":"solid","thickness":1}},{"type":"Feature","geometry":{"type":"LineString","coordinates":[[-81.79815441666666,26.388141027777777],[-81.79746283333333,26.379263555555557]]},"properties":{"style":"solid","thickness":1}},{"type":"Feature","geometry":{"type":"LineString","coordinates":[[-81.78888077777778,26.38423111111111],[-81.78504575,26.38004775]]},"properties":{"style":"solid","thickness":1}},{"type":"Feature","geometry":{"type":"LineString","coordinates":[[-81.79133191666666,26.37965088888889],[-81.79202302777777,26.38852838888889],[-81.78814238888889,26.388773416666666],[-81.78782105555555,26.388653194444444],[-81.78710080555555,26.388417694444446],[-81.78634788888888,26.387762777777777],[-81.78598305555555,26.387083333333333],[-81.78591777777777,26.386244527777777],[-81.78617386111111,26.385525916666666],[-81.78681794444444,26.384782805555556],[-81.78749469444445,26.38445911111111],[-81.78779425,26.38429972222222],[-81.79167475,26.384054694444444]]},"properties":{"style":"solid","thickness":1}},{"type":"Feature","geometry":{"type":"LineString","coordinates":[[-81.78255425,26.389126083333334],[-81.78186383333333,26.380248527777777]]},"properties":{"style":"solid","thickness":1}},{"type":"Feature","geometry":{"type":"LineString","coordinates":[[-81.77719347222222,26.389393916666666],[-81.78220630555556,26.38465236111111],[-81.77643130555555,26.38059116666667]]},"properties":{"style":"solid","thickness":1}},{"type":"Feature","geometry":{"type":"LineString","coordinates":[[-81.7738615,26.389674222222222],[-81.77317175,26.38079663888889],[-81.76936894444444,26.381036277777778]]},"properties":{"style":"solid","thickness":1}},{"type":"Feature","geometry":{"type":"LineString","coordinates":[[-81.76988069444444,26.543526972222224],[-81.76988072222223,26.545361916666668]]},"properties":{"style":"solid","thickness":1}},{"type":"Feature","geometry":{"type":"LineString","coordinates":[[-81.76937066666666,26.543343472222222],[-81.76937066666666,26.54554538888889]]},"properties":{"style":"solid","thickness":1}},{"type":"Feature","geometry":{"type":"LineString","coordinates":[[-81.76886063888888,26.543343472222222],[-81.76886063888888,26.54554538888889]]},"properties":{"style":"solid","thickness":1}},{"type":"Feature","geometry":{"type":"LineString","coordinates":[[-81.76835061111112,26.543526972222224],[-81.76835061111112,26.545361916666668]]},"properties":{"style":"solid","thickness":1}},{"type":"Feature","geometry":{"type":"LineString","coordinates":[[-81.76784058333334,26.544444444444448],[-81.76784847222223,26.54457452777778],[-81.76787397222222,26.5447105],[-81.7679195,26.544849805555558],[-81.76798691666667,26.54498913888889],[-81.76807725,26.5451245],[-81.76819025,26.545251500000003],[-81.76832441666667,26.545365694444445],[-81.76847672222222,26.545463027777778],[-81.76864305555556,26.545540222222225],[-81.76881830555556,26.54559525],[-81.76899708333333,26.545627361111112],[-81.76917422222222,26.54563713888889],[-81.76934502777777,26.545626305555558],[-81.76950588888889,26.545597472222223],[-81.76965416666667,26.545553611111114],[-81.76978827777778,26.545497972222226],[-81.76991075,26.545431694444446],[-81.77003036111111,26.545349472222224],[-81.77014444444444,26.54525013888889],[-81.77024899999999,26.54513355555556],[-81.77033975,26.545000611111114],[-81.77041241666666,26.544853250000003],[-81.77046325,26.544694583333335],[-81.77048944444445,26.54452863888889],[-81.77048944444445,26.544360222222224],[-81.77046325,26.544194305555557],[-81.77041241666666,26.544035611111113],[-81.77033975,26.543888250000002],[-81.77024899999999,26.543755305555557],[-81.77014444444444,26.543638750000003],[-81.77003036111111,26.54353938888889],[-81.76991075,26.543457194444446],[-81.76978827777778,26.54339088888889],[-81.76965416666667,26.543335250000002],[-81.76950588888889,26.54329141666667],[-81.76934502777777,26.543262583333334],[-81.76917422222222,26.543251750000003],[-81.76899708333333,26.54326152777778],[-81.76881830555556,26.54329363888889],[-81.76864305555556,26.54334863888889],[-81.76847675,26.543425861111114],[-81.76832441666667,26.543523194444447],[-81.76819027777778,26.54363738888889],[-81.76807725,26.543764388888892],[-81.76798694444444,26.54389975],[-81.76791952777778,26.544039055555558],[-81.76787399999999,26.54417838888889],[-81.76784847222223,26.544314361111113],[-81.76784058333334,26.544444444444448]]},"properties":{"style":"solid","thickness":1}}]}
