{"type":"FeatureCollection","features":[{"type":"Feature","geometry":{"type":"LineString","coordinates":[[-81.90182611111112,26.746043944444445],[-81.91765844444446,26.737235277777778]]},"properties":{"style":"solid","thickness":1}},{"type":"Feature","geometry":{"type":"LineString","coordinates":[[-81.93348833333334,26.72842483333333],[-81.94931580555556,26.71961261111111]]},"properties":{"style":"solid","thickness":1}},{"type":"Feature","geometry":{"type":"LineString","coordinates":[[-81.96514086111111,26.71079863888889],[-81.9809635,26.70198288888889]]},"properties":{"style":"solid","thickness":1}},{"type":"Feature","geometry":{"type":"LineString","coordinates":[[-81.99611055555556,26.702064888888888],[-82.01045877777777,26.712723333333333]]},"properties":{"style":"solid","thickness":1}},{"type":"Feature","geometry":{"type":"LineString","coordinates":[[-82.02480966666667,26.723380305555555],[-82.03916319444444,26.734035833333333]]},"properties":{"style":"solid","thickness":1}},{"type":"Feature","geometry":{"type":"LineString","coordinates":[[-82.05351938888889,26.74468988888889],[-82.06787824999999,26.75534247222222]]},"properties":{"style":"solid","thickness":1}},{"type":"Feature","geometry":{"type":"LineString","coordinates":[[-82.08223975,26.765993583333334],[-82.09660388888888,26.776643222222223]]},"properties":{"style":"solid","thickness":1}},{"type":"Feature","geometry":{"type":"LineString","coordinates":[[-82.11097069444443,26.78729141666667],[-82.12534016666666,26.79793811111111]]},"properties":{"style":"solid","thickness":1}},{"type":"Feature","geometry":{"type":"LineString","coordinates":[[-82.13971227777779,26.80858336111111],[-82.15408705555556,26.819227138888888]]},"properties":{"style":"solid","thickness":1}},{"type":"Feature","geometry":{"type":"LineString","coordinates":[[-82.16846447222223,26.829869444444444],[-82.18284458333333,26.840510249999998]]},"properties":{"style":"solid","thickness":1}},{"type":"Feature","geometry":{"type":"LineString","coordinates":[[-82.19722730555556,26.85114961111111],[-82.21161272222223,26.861787500000002]]},"properties":{"style":"solid","thickness":1}},{"type":"Feature","geometry":{"type":"LineString","coordinates":[[-82.22600077777778,26.872423916666666],[-82.2403915,26.883058833333333]]},"properties":{"style":"solid","thickness":1}},{"type":"Feature","geometry":{"type":"LineString","coordinates":[[-82.25478488888889,26.893692305555554],[-82.26918091666667,26.904324277777775]]},"properties":{"style":"solid","thickness":1}},{"type":"Feature","geometry":{"type":"LineString","coordinates":[[-82.28357961111111,26.914954777777776],[-82.29798097222222,26.925583805555558]]},"properties":{"style":"solid","thickness":1}},{"type":"Feature","geometry":{"type":"LineString","coordinates":[[-82.31238499999999,26.936211361111113],[-82.32679166666667,26.946837444444444]]},"properties":{"style":"solid","thickness":1}},{"type":"Feature","geometry":{"type":"LineString","coordinates":[[-81.93484513888889,26.826940916666665],[-81.92530377777778,26.81257561111111]]},"properties":{"style":"solid","thickness":1}},{"type":"Feature","geometry":{"type":"LineString","coordinates":[[-81.91576477777778,26.798209611111112],[-81.90622816666668,26.783842944444444]]},"properties":{"style":"solid","thickness":1}},{"type":"Feature","geometry":{"type":"LineString","coordinates":[[-81.89669391666668,26.76947558333333],[-81.88716205555556,26.755107555555554]]},"properties":{"style":"solid","thickness":1}},{"type":"Feature","geometry":{"type":"LineString","coordinates":[[-81.87950608333333,26.739868194444444],[-81.87194277777778,26.724586249999998]]},"properties":{"style":"solid","thickness":1}},{"type":"Feature","geometry":{"type":"LineString","coordinates":[[-81.86438144444443,26.70930386111111],[-81.85682213888889,26.69402102777778]]},"properties":{"style":"solid","thickness":1}},{"type":"Feature","geometry":{"type":"LineString","coordinates":[[-81.84926483333332,26.678737722222223],[-81.84170952777777,26.663453999999998]]},"properties":{"style":"solid","thickness":1}},{"type":"Feature","geometry":{"type":"LineString","coordinates":[[-81.83415622222222,26.648169833333334],[-81.82660494444444,26.63288522222222]]},"properties":{"style":"solid","thickness":1}},{"type":"Feature","geometry":{"type":"LineString","coordinates":[[-81.81905563888888,26.617600166666666],[-81.81150833333334,26.60231466666667]]},"properties":{"style":"solid","thickness":1}},{"type":"Feature","geometry":{"type":"LineString","coordinates":[[-81.80396302777777,26.587028749999998],[-81.79641972222223,26.57174236111111]]},"properties":{"style":"solid","thickness":1}},{"type":"Feature","geometry":{"type":"LineString","coordinates":[[-81.78887841666666,26.556455555555555],[-81.78133911111111,26.541168333333335]]},"properties":{"style":"solid","thickness":1}},{"type":"Feature","geometry":{"type":"LineString","coordinates":[[-81.98961761111111,26.705555805555555],[-81.98949352777778,26.688833055555556]]},"properties":{"style":"solid","thickness":1}},{"type":"Feature","geometry":{"type":"LineString","coordinates":[[-81.95239500000001,26.837024166666666],[-81.93638216666668,26.845586444444443]]},"properties":{"style":"solid","thickness":1}},{"type":"Feature","geometry":{"type":"LineString","coordinates":[[-82.33828866666666,26.944487833333334],[-82.32643291666666,26.957400749999998]]},"properties":{"style":"solid","thickness":1}},{"type":"Feature","geometry":{"type":"LineString","coordinates":[[-81.88264005555556,26.761960055555555],[-81.89080386111112,26.74692866666667]]},"properties":{"style":"solid","thickness":1}},{"type":"Feature","geometry":{"type":"LineString","coordinates":[[-81.76988069444444,26.543526972222224],[-81.76988072222223,26.545361916666668]]},"properties":{"style":"solid","thickness":1}},{"type":"Feature","geometry":{"type":"LineString","coordinates":[[-81.76937066666666,26.543343472222222],[-81.76937066666666,26.54554538888889]]},"properties":{"style":"solid","thickness":1}},{"type":"Feature","geometry":{"type":"LineString","coordinates":[[-81.76886063888888,26.543343472222222],[-81.76886063888888,26.54554538888889]]},"properties":{"style":"solid","thickness":1}},{"type":"Feature","geometry":{"type":"LineString","coordinates":[[-81.76835061111112,26.543526972222224],[-81.76835061111112,26.545361916666668]]},"properties":{"style":"solid","thickness":1}},{"type":"Feature","geometry":{"type":"LineString","coordinates":[[-81.76784058333334,26.544444444444448],[-81.76784847222223,26.54457452777778],[-81.76787397222222,26.5447105],[-81.7679195,26.544849805555558],[-81.76798691666667,26.54498913888889],[-81.76807725,26.5451245],[-81.76819025,26.545251500000003],[-81.76832441666667,26.545365694444445],[-81.76847672222222,26.545463027777778],[-81.76864305555556,26.545540222222225],[-81.76881830555556,26.54559525],[-81.76899708333333,26.545627361111112],[-81.76917422222222,26.54563713888889],[-81.76934502777777,26.545626305555558],[-81.76950588888889,26.545597472222223],[-81.76965416666667,26.545553611111114],[-81.76978827777778,26.545497972222226],[-81.76991075,26.545431694444446],[-81.77003036111111,26.545349472222224],[-81.77014444444444,26.54525013888889],[-81.77024899999999,26.54513355555556],[-81.77033975,26.545000611111114],[-81.77041241666666,26.544853250000003],[-81.77046325,26.544694583333335],[-81.77048944444445,26.54452863888889],[-81.77048944444445,26.544360222222224],[-81.77046325,26.544194305555557],[-81.77041241666666,26.544035611111113],[-81.77033975,26.543888250000002],[-81.77024899999999,26.543755305555557],[-81.77014444444444,26.543638750000003],[-81.77003036111111,26.54353938888889],[-81.76991075,26.543457194444446],[-81.76978827777778,26.54339088888889],[-81.76965416666667,26.543335250000002],[-81.76950588888889,26.54329141666667],[-81.76934502777777,26.543262583333334],[-81.76917422222222,26.543251750000003],[-81.76899708333333,26.54326152777778],[-81.76881830555556,26.54329363888889],[-81.76864305555556,26.54334863888889],[-81.76847675,26.543425861111114],[-81.76832441666667,26.543523194444447],[-81.76819027777778,26.54363738888889],[-81.76807725,26.543764388888892],[-81.76798694444444,26.54389975],[-81.76791952777778,26.544039055555558],[-81.76787399999999,26.54417838888889],[-81.76784847222223,26.544314361111113],[-81.76784058333334,26.544444444444448]]},"properties":{"style":"solid","thickness":1}},{"type":"Feature","geometry":{"type":"LineString","coordinates":[[-81.92446244444444,26.84592236111111],[-81.9251666388889,26.854798722222224],[-81.921738,26.85501752777778],[-81.92079183333334,26.85493738888889],[-81.92038558333334,26.854752555555557],[-81.9197233888889,26.854303083333335],[-81.91872736111111,26.853593916666668],[-81.91803194444445,26.852725055555556],[-81.91782069444444,26.852036083333335],[-81.91763786111112,26.84972961111111],[-81.91774386111112,26.84909063888889],[-81.91814488888889,26.848222083333333],[-81.91865152777778,26.847698055555554],[-81.91914708333334,26.84703422222222],[-81.91988747222223,26.846495277777777],[-81.92080586111112,26.846225944444445],[-81.92134575,26.84612125],[-81.92446244444444,26.84592236111111]]},"properties":{"style":"solid","thickness":1}},{"type":"Feature","geometry":{"type":"LineString","coordinates":[[-81.90934805555555,26.8558075],[-81.91075069444445,26.855718111111113],[-81.91144647222222,26.85560352777778],[-81.91279927777778,26.854885083333336],[-81.91402983333334,26.853612472222224],[-81.91442536111111,26.852674055555557],[-81.91457052777778,26.85154086111111],[-81.91449852777778,26.85063225],[-81.91427622222223,26.84980347222222],[-81.9138146388889,26.848919694444444],[-81.91286891666667,26.847856055555553],[-81.91252955555557,26.847526444444444],[-81.91187297222223,26.847146833333333],[-81.9105151388889,26.846811888888887],[-81.90887886111112,26.846916138888886],[-81.90811072222223,26.84710558333333],[-81.90735366666667,26.847434805555555],[-81.90690277777779,26.847674249999997],[-81.90616783333334,26.848283055555555],[-81.90553294444445,26.849166444444442],[-81.90534344444445,26.84974047222222],[-81.90519269444445,26.85080375],[-81.90532547222223,26.852481194444447],[-81.90615958333333,26.854113972222223],[-81.9066713888889,26.854643333333335],[-81.90725561111111,26.855097833333335],[-81.90782875000001,26.855412555555557],[-81.90799011111112,26.855472527777778],[-81.90934805555555,26.8558075]]},"properties":{"style":"solid","thickness":1}},{"type":"Feature","geometry":{"type":"LineString","coordinates":[[-81.90171030555557,26.84737272222222],[-81.90241272222222,26.856249194444445],[-81.89898400000001,26.856467444444444],[-81.89803783333333,26.856387166666668],[-81.8976316388889,26.85620227777778],[-81.89696952777778,26.855752694444448],[-81.89597363888889,26.85504336111111],[-81.8952783888889,26.85417441666667],[-81.89506725000001,26.853485388888892],[-81.8948848888889,26.85117888888889],[-81.894991,26.850539944444446],[-81.89539219444445,26.84967147222222],[-81.89589894444445,26.849147499999997],[-81.89639466666668,26.84848375],[-81.89713516666667,26.847944916666666],[-81.89805361111112,26.84767572222222],[-81.89859352777779,26.84757113888889],[-81.90171030555557,26.84737272222222]]},"properties":{"style":"solid","thickness":1}},{"type":"Feature","geometry":{"type":"LineString","coordinates":[[-81.89142488888889,26.848027194444445],[-81.89212652777779,26.856903722222224]]},"properties":{"style":"solid","thickness":1}},{"type":"Feature","geometry":{"type":"LineString","coordinates":[[-81.88807436111112,26.857161361111114],[-81.88737302777778,26.848284805555554]]},"properties":{"style":"solid","thickness":1}},{"type":"Feature","geometry":{"type":"LineString","coordinates":[[-81.88269188888889,26.85743313888889],[-81.88772091666668,26.85268813888889],[-81.88191858333333,26.848631416666667]]},"properties":{"style":"solid","thickness":1}},{"type":"Feature","geometry":{"type":"LineString","coordinates":[[-81.87752855555554,26.7480805],[-81.87822849999999,26.75695725],[-81.87433555555555,26.757204583333333],[-81.87401308333332,26.757084583333334],[-81.87329033333333,26.7568495],[-81.87253452777777,26.756195055555555],[-81.87216799999999,26.75551586111111],[-81.87210191666667,26.75467711111111],[-81.87235824999999,26.75395838888889],[-81.87300388888889,26.753214916666668],[-81.87368255555555,26.752890833333332],[-81.87398297222222,26.75273125],[-81.87787574999999,26.752483916666666]]},"properties":{"style":"solid","thickness":1}},{"type":"Feature","geometry":{"type":"LineString","coordinates":[[-81.86429169444443,26.757842222222223],[-81.86904113888889,26.757540805555557],[-81.86834191666667,26.748664027777778],[-81.86351497222222,26.74897038888889]]},"properties":{"style":"solid","thickness":1}},{"type":"Feature","geometry":{"type":"LineString","coordinates":[[-81.86868874999999,26.753067472222224],[-81.86409522222222,26.753359]]},"properties":{"style":"solid","thickness":1}},{"type":"Feature","geometry":{"type":"LineString","coordinates":[[-81.86125513888888,26.75803486111111],[-81.85564922222221,26.75839036111111]]},"properties":{"style":"solid","thickness":1}},{"type":"Feature","geometry":{"type":"LineString","coordinates":[[-81.85853005555555,26.758207694444444],[-81.85783163888888,26.74933088888889]]},"properties":{"style":"solid","thickness":1}},{"type":"Feature","geometry":{"type":"LineString","coordinates":[[-81.84794741666666,26.757965194444445],[-81.8487031111111,26.75861975],[-81.84886433333332,26.758679805555555],[-81.8498875,26.758755472222223],[-81.85073299999999,26.758561416666666],[-81.85117816666666,26.75825222222222],[-81.85161786111111,26.75787313888889],[-81.85195769444444,26.75721941666667],[-81.85183130555555,26.755611805555557],[-81.85131469444444,26.755012333333333],[-81.85098127777778,26.754752472222222],[-81.84978044444443,26.754407083333334],[-81.84842938888889,26.754141444444443],[-81.84746211111111,26.75378125],[-81.84711775,26.753381583333333],[-81.84688513888888,26.752412888888887],[-81.84696944444444,26.75149438888889],[-81.84731477777777,26.750910555555556],[-81.84768208333332,26.750606305555557],[-81.84797702777777,26.75037688888889],[-81.84834983333333,26.750142555555556],[-81.84918975,26.74987861111111],[-81.84965688888889,26.749849],[-81.850135,26.749959222222223],[-81.85077983333333,26.750199333333335],[-81.85119108333333,26.75045425],[-81.85178002777778,26.750978888888888]]},"properties":{"style":"solid","thickness":1}},{"type":"Feature","geometry":{"type":"LineString","coordinates":[[-81.83937619444444,26.759420972222223],[-81.84412577777778,26.759120361111112],[-81.84342847222221,26.750243472222223],[-81.83860138888889,26.750548972222223]]},"properties":{"style":"solid","thickness":1}},{"type":"Feature","geometry":{"type":"LineString","coordinates":[[-81.8437743611111,26.754646972222222],[-81.83918069444444,26.754937722222223]]},"properties":{"style":"solid","thickness":1}},{"type":"Feature","geometry":{"type":"LineString","coordinates":[[-82.00154680555555,26.682932472222223],[-82.00294727777778,26.682842194444447],[-82.00364191666667,26.682727166666666],[-82.00499208333333,26.682007833333333],[-82.00621975,26.68073438888889],[-82.00661394444444,26.679795694444447],[-82.00675797222222,26.678662361111112],[-82.00668536111111,26.677753777777777],[-82.00646272222222,26.67692513888889],[-82.00600111111112,26.67604163888889],[-82.00505597222222,26.67497855555556],[-82.0047168611111,26.67464916666667],[-82.00406097222222,26.674269972222223],[-82.00270491666667,26.67393588888889],[-82.00107119444445,26.674041222222222],[-82.00030438888889,26.67423116666667],[-81.99954875,26.67456086111111],[-81.99909869444444,26.67480063888889],[-81.99836536111111,26.67540988888889],[-81.99773213888889,26.676293722222223],[-81.99754338888889,26.67686788888889],[-81.99739372222223,26.677931305555557],[-81.99752763888888,26.679608722222223],[-81.99836180555556,26.681240972222223],[-81.99887325,26.68177002777778],[-81.99945694444445,26.682224166666668],[-82.00002947222222,26.68253852777778],[-82.00019066666667,26.68259838888889],[-82.00154680555555,26.682932472222223]]},"properties":{"style":"solid","thickness":1}},{"type":"Feature","geometry":{"type":"LineString","coordinates":[[-81.99462233333334,26.683378694444446],[-81.99126872222222,26.674672805555556],[-81.98870922222223,26.683759472222224],[-81.98527825000001,26.675058444444446],[-81.98310733333334,26.684119972222224]]},"properties":{"style":"solid","thickness":1}},{"type":"Feature","geometry":{"type":"LineString","coordinates":[[-81.97219780555555,26.683627138888887],[-81.97254241666667,26.6840265],[-81.97327605555556,26.68440086111111],[-81.97375402777779,26.684510638888888],[-81.97509341666667,26.684635305555556],[-81.97556025,26.684605305555557],[-81.97648277777778,26.6844055],[-81.97724411111112,26.684145805555556],[-81.97739416666667,26.684065888888888],[-81.97791094444445,26.683681416666666],[-81.97842216666668,26.683227055555555],[-81.97926111111111,26.681978833333336],[-81.97956102777778,26.680835555555557],[-81.9794385,26.679297916666666],[-81.97921605555555,26.678469222222223],[-81.97885472222222,26.677860194444445],[-81.97834336111111,26.677331083333335],[-81.97791538888889,26.676866833333335],[-81.97724286111111,26.676277833333334],[-81.97659819444445,26.676038277777778],[-81.97595352777778,26.675798722222222],[-81.97539780555556,26.675693944444447],[-81.97399741666666,26.675783972222224],[-81.97323055555556,26.67597375],[-81.97263041666668,26.676293333333334],[-81.97195805555556,26.67668777777778],[-81.97151908333333,26.67706725],[-81.97080783333334,26.677955944444445],[-81.97039111111111,26.678614972222224],[-81.9702688888889,26.679044333333334],[-81.97035791666667,26.68016261111111],[-81.97362561111112,26.67995263888889]]},"properties":{"style":"solid","thickness":1}},{"type":"Feature","geometry":{"type":"LineString","coordinates":[[-81.96691763888889,26.676238833333336],[-81.96334472222223,26.68539],[-81.95859300000001,26.676773222222224]]},"properties":{"style":"solid","thickness":1}},{"type":"Feature","geometry":{"type":"LineString","coordinates":[[-81.96574525,26.67919438888889],[-81.9601435,26.679553972222223]]},"properties":{"style":"solid","thickness":1}},{"type":"Feature","geometry":{"type":"LineString","coordinates":[[-81.95567536111112,26.68138613888889],[-81.9512405,26.68167052777778]]},"properties":{"style":"solid","thickness":1}},{"type":"Feature","geometry":{"type":"LineString","coordinates":[[-81.95136247222223,26.686158694444444],[-81.95603091666666,26.685859305555557],[-81.95532536111111,26.676982861111114]]},"properties":{"style":"solid","thickness":1}},{"type":"Feature","geometry":{"type":"LineString","coordinates":[[-82.38991613888889,26.941071805555556],[-82.38543377777779,26.93244891666667],[-82.3825878611111,26.941562944444446]]},"properties":{"style":"solid","thickness":1}},{"type":"Feature","geometry":{"type":"LineString","coordinates":[[-82.37857374999999,26.932908472222223],[-82.3793135,26.94178225]]},"properties":{"style":"solid","thickness":1}},{"type":"Feature","geometry":{"type":"LineString","coordinates":[[-82.36972419444444,26.942424083333332],[-82.37112752777777,26.942330194444445],[-82.3718233611111,26.94221336111111],[-82.37317427777778,26.94149061111111],[-82.37440063888889,26.940214083333334],[-82.37479272222221,26.939274416666667],[-82.37493344444444,26.938140805555555],[-82.37485774999999,26.937232472222224],[-82.37463197222222,26.936404444444445],[-82.37416647222221,26.935522194444445],[-82.37321580555555,26.93446163888889],[-82.37287488888889,26.93413313888889],[-82.37221630555555,26.93375563888889],[-82.37085613888888,26.933425083333333],[-82.36921905555555,26.93353461111111],[-82.36845113888889,26.9337265],[-82.36769483333333,26.93405813888889],[-82.36724455555554,26.934299055555556],[-82.36651152777777,26.93491016666667],[-82.36587972222222,26.935795555555554],[-82.3656923611111,26.936370194444443],[-82.36554575,26.937433916666667],[-82.36568533333333,26.93911086111111],[-82.36652661111111,26.94074088888889],[-82.36704091666665,26.941268583333333],[-82.3676273611111,26.941721194444444],[-82.36820219444444,26.942034055555556],[-82.36836394444444,26.9420935],[-82.36972419444444,26.942424083333332]]},"properties":{"style":"solid","thickness":1}},{"type":"Feature","geometry":{"type":"LineString","coordinates":[[-82.36278552777777,26.94288811111111],[-82.36204705555555,26.934014222222224],[-82.35822716666667,26.93426952777778]]},"properties":{"style":"solid","thickness":1}},{"type":"Feature","geometry":{"type":"LineString","coordinates":[[-82.3551088611111,26.93447788888889],[-82.35155880555556,26.943638166666666],[-82.34676738888888,26.935034861111113]]},"properties":{"style":"solid","thickness":1}},{"type":"Feature","geometry":{"type":"LineString","coordinates":[[-82.35394383333333,26.937436416666667],[-82.34833072222222,26.937811222222223]]},"properties":{"style":"solid","thickness":1}},{"type":"Feature","geometry":{"type":"LineString","coordinates":[[-81.77884766666666,26.524666749999998],[-81.77192927777777,26.52510225],[-81.76935583333334,26.53013861111111],[-81.77323516666667,26.535320833333333],[-81.77913666666666,26.534949333333333],[-81.78217577777778,26.529331638888888],[-81.77884766666666,26.524666749999998]]},"properties":{"style":"solid","thickness":1}},{"type":"Feature","geometry":{"type":"LineString","coordinates":[[-81.77884766666666,26.524666749999998],[-81.77861977777778,26.521738027777776],[-81.77170155555555,26.522173499999997],[-81.77192927777777,26.52510225]]},"properties":{"style":"solid","thickness":1}},{"type":"Feature","geometry":{"type":"LineString","coordinates":[[-81.76935583333334,26.53013861111111],[-81.7665261111111,26.531880083333334],[-81.7705,26.536964444444447],[-81.77323516666667,26.535320833333333]]},"properties":{"style":"solid","thickness":1}},{"type":"Feature","geometry":{"type":"LineString","coordinates":[[-81.77913666666666,26.534949333333333],[-81.78209966666667,26.53623427777778],[-81.78524752777777,26.53070161111111],[-81.78217577777778,26.529331638888888]]},"properties":{"style":"solid","thickness":1}},{"type":"Feature","geometry":{"type":"LineString","coordinates":[[-81.77289433333333,26.53488241666667],[-81.77138019444445,26.536449222222224]]},"properties":{"style":"solid","thickness":1}},{"type":"Feature","geometry":{"type":"LineString","coordinates":[[-81.7725535,26.53444402777778],[-81.77027516666666,26.536702694444447]]},"properties":{"style":"solid","thickness":1}},{"type":"Feature","geometry":{"type":"LineString","coordinates":[[-81.77220552777777,26.533914083333336],[-81.76993433333334,26.53626427777778]]},"properties":{"style":"solid","thickness":1}},{"type":"Feature","geometry":{"type":"LineString","coordinates":[[-81.77186469444445,26.533475666666668],[-81.7695935,26.535825861111114]]},"properties":{"style":"solid","thickness":1}},{"type":"Feature","geometry":{"type":"LineString","coordinates":[[-81.77151675,26.53294575],[-81.76924555555556,26.53529591666667]]},"properties":{"style":"solid","thickness":1}},{"type":"Feature","geometry":{"type":"LineString","coordinates":[[-81.77117591666666,26.53250733333333],[-81.76890472222222,26.5348575]]},"properties":{"style":"solid","thickness":1}},{"type":"Feature","geometry":{"type":"LineString","coordinates":[[-81.77073336111111,26.532075305555555],[-81.76846213888889,26.534425472222225]]},"properties":{"style":"solid","thickness":1}},{"type":"Feature","geometry":{"type":"LineString","coordinates":[[-81.77038541666667,26.531545388888887],[-81.76811422222222,26.53389552777778]]},"properties":{"style":"solid","thickness":1}},{"type":"Feature","geometry":{"type":"LineString","coordinates":[[-81.77004458333333,26.531106972222222],[-81.76777338888888,26.53345711111111]]},"properties":{"style":"solid","thickness":1}},{"type":"Feature","geometry":{"type":"LineString","coordinates":[[-81.76969666666666,26.530577027777777],[-81.76743258333333,26.533018694444443]]},"properties":{"style":"solid","thickness":1}},{"type":"Feature","geometry":{"type":"LineString","coordinates":[[-81.76935583333334,26.53013861111111],[-81.76709175,26.532580277777775]]},"properties":{"style":"solid","thickness":1}},{"type":"Feature","geometry":{"type":"LineString","coordinates":[[-81.76740627777778,26.531364888888888],[-81.76664208333334,26.532056722222222]]},"properties":{"style":"solid","thickness":1}},{"type":"Feature","geometry":{"type":"LineString","coordinates":[[-81.78228180555556,26.53594688888889],[-81.78199791666667,26.536240694444444]]},"properties":{"style":"solid","thickness":1}},{"type":"Feature","geometry":{"type":"LineString","coordinates":[[-81.78335313888888,26.533948000000002],[-81.78146777777778,26.53599816666667]]},"properties":{"style":"solid","thickness":1}},{"type":"Feature","geometry":{"type":"LineString","coordinates":[[-81.78452619444444,26.531942694444442],[-81.78093052777778,26.535664111111114]]},"properties":{"style":"solid","thickness":1}},{"type":"Feature","geometry":{"type":"LineString","coordinates":[[-81.78503691666667,26.530622916666665],[-81.78029866666667,26.535428000000003]]},"properties":{"style":"solid","thickness":1}},{"type":"Feature","geometry":{"type":"LineString","coordinates":[[-81.78440505555555,26.530386805555555],[-81.77976855555555,26.535185472222224]]},"properties":{"style":"solid","thickness":1}},{"type":"Feature","geometry":{"type":"LineString","coordinates":[[-81.78386780555556,26.530052777777776],[-81.77913666666666,26.534949333333333]]},"properties":{"style":"solid","thickness":1}},{"type":"Feature","geometry":{"type":"LineString","coordinates":[[-81.78333772222221,26.52981025],[-81.78012058333333,26.533139916666666]]},"properties":{"style":"solid","thickness":1}},{"type":"Feature","geometry":{"type":"LineString","coordinates":[[-81.78270586111111,26.529574138888886],[-81.78109730555555,26.531239]]},"properties":{"style":"solid","thickness":1}},{"type":"Feature","geometry":{"type":"LineString","coordinates":[[-81.77881919444444,26.524300666666665],[-81.77844072222221,26.524692388888887]]},"properties":{"style":"solid","thickness":1}},{"type":"Feature","geometry":{"type":"LineString","coordinates":[[-81.77876222222223,26.52356847222222],[-81.77762677777778,26.52474363888889]]},"properties":{"style":"solid","thickness":1}},{"type":"Feature","geometry":{"type":"LineString","coordinates":[[-81.77869811111111,26.522744777777778],[-81.77671111111111,26.524801277777776]]},"properties":{"style":"solid","thickness":1}},{"type":"Feature","geometry":{"type":"LineString","coordinates":[[-81.77864113888889,26.522012583333332],[-81.77589719444444,26.524852527777778]]},"properties":{"style":"solid","thickness":1}},{"type":"Feature","geometry":{"type":"LineString","coordinates":[[-81.77800933333333,26.521776444444445],[-81.77498152777778,26.524910166666665]]},"properties":{"style":"solid","thickness":1}},{"type":"Feature","geometry":{"type":"LineString","coordinates":[[-81.77719544444444,26.521827694444443],[-81.77416758333334,26.524961388888887]]},"properties":{"style":"solid","thickness":1}},{"type":"Feature","geometry":{"type":"LineString","coordinates":[[-81.77627980555556,26.52188536111111],[-81.77325191666667,26.525019027777777]]},"properties":{"style":"solid","thickness":1}},{"type":"Feature","geometry":{"type":"LineString","coordinates":[[-81.77546588888889,26.521936583333332],[-81.77243797222222,26.52507025]]},"properties":{"style":"solid","thickness":1}},{"type":"Feature","geometry":{"type":"LineString","coordinates":[[-81.77455025,26.521994222222222],[-81.77190080555556,26.524736166666667]]},"properties":{"style":"solid","thickness":1}},{"type":"Feature","geometry":{"type":"LineString","coordinates":[[-81.77373633333333,26.522045444444444],[-81.77184388888888,26.52400397222222]]},"properties":{"style":"solid","thickness":1}},{"type":"Feature","geometry":{"type":"LineString","coordinates":[[-81.77282066666666,26.52210308333333],[-81.77177983333333,26.52318025]]},"properties":{"style":"solid","thickness":1}},{"type":"Feature","geometry":{"type":"LineString","coordinates":[[-81.77200677777778,26.522154305555553],[-81.77172288888889,26.522448083333334]]},"properties":{"style":"solid","thickness":1}},{"type":"Feature","geometry":{"type":"LineString","coordinates":[[-81.81405827777778,26.517205083333334],[-81.81021780555555,26.513022444444445]]},"properties":{"style":"solid","thickness":1}},{"type":"Feature","geometry":{"type":"LineString","coordinates":[[-81.81651119444444,26.512624416666668],[-81.81720513888888,26.52150175],[-81.81332005555555,26.5217475],[-81.81299833333333,26.52162733333333],[-81.81227716666666,26.521391972222222],[-81.81152322222222,26.520737166666667],[-81.81115780555555,26.520057833333333],[-81.81109227777777,26.519219027777776],[-81.81134847222222,26.51850036111111],[-81.81199316666667,26.51775713888889],[-81.8126706111111,26.517433333333333],[-81.81297047222222,26.51727386111111],[-81.81685541666667,26.51702813888889]]},"properties":{"style":"solid","thickness":1}},{"type":"Feature","geometry":{"type":"LineString","coordinates":[[-81.80330322222223,26.521467416666667],[-81.8040571111111,26.52212225],[-81.80421797222222,26.522182333333333],[-81.805239,26.522258305555553],[-81.80608283333333,26.5220645],[-81.80652719444444,26.521755444444445],[-81.80696613888888,26.521376472222222],[-81.8073055,26.520722805555554],[-81.80717997222222,26.51911511111111],[-81.80666463888889,26.518515472222223],[-81.806332,26.5182555],[-81.80513375,26.517909749999998],[-81.80378558333334,26.517643694444445],[-81.80282044444444,26.517283194444442],[-81.80247691666666,26.516883416666666],[-81.80224513888889,26.51591463888889],[-81.8023296111111,26.51499611111111],[-81.80267444444443,26.514412361111113],[-81.80304111111111,26.514108222222223],[-81.80333555555555,26.51387888888889],[-81.80370766666667,26.513644638888888],[-81.80454594444444,26.513380944444446],[-81.80501213888888,26.513351472222222],[-81.80548922222222,26.513461833333334],[-81.80613263888888,26.51370213888889],[-81.80654294444444,26.513957194444444],[-81.8071305,26.514482027777778]]},"properties":{"style":"solid","thickness":1}},{"type":"Feature","geometry":{"type":"LineString","coordinates":[[-81.799489,26.5226215],[-81.79615466666667,26.51391088888889],[-81.79358352777777,26.522994277777777],[-81.79017194444444,26.514288416666666],[-81.78798883333333,26.523347194444444]]},"properties":{"style":"solid","thickness":1}},{"type":"Feature","geometry":{"type":"LineString","coordinates":[[-81.87983533333333,26.732083611111108],[-81.87950608333333,26.739868194444444],[-81.8723605,26.73544963888889]]},"properties":{"style":"solid","thickness":1}},{"type":"Feature","geometry":{"type":"LineString","coordinates":[[-81.99952027777778,26.709227944444443],[-81.99611055555556,26.702064888888888],[-82.0046718611111,26.70331436111111]]},"properties":{"style":"solid","thickness":1}}]}
