{"type":"FeatureCollection","features":[{"type":"Feature","geometry":{"type":"LineString","coordinates":[[-81.54054572222222,26.241908194444445],[-81.53988766666666,26.225202888888887]]},"properties":{"style":"solid","thickness":1}},{"type":"Feature","geometry":{"type":"LineString","coordinates":[[-81.41072961111112,26.33839788888889],[-81.392137,26.338979277777778]]},"properties":{"style":"solid","thickness":1}},{"type":"Feature","geometry":{"type":"LineString","coordinates":[[-81.25524713888889,26.25078363888889],[-81.25462513888888,26.234077444444445]]},"properties":{"style":"solid","thickness":1}},{"type":"Feature","geometry":{"type":"LineString","coordinates":[[-81.39758055555556,26.238063888888888],[-81.37905608333332,26.238638972222223]]},"properties":{"style":"solid","thickness":1}},{"type":"Feature","geometry":{"type":"LineString","coordinates":[[-81.36053144444443,26.239211694444446],[-81.34200666666666,26.239782]]},"properties":{"style":"solid","thickness":1}},{"type":"Feature","geometry":{"type":"LineString","coordinates":[[-81.32348169444444,26.240349944444446],[-81.30495658333334,26.240915472222223]]},"properties":{"style":"solid","thickness":1}},{"type":"Feature","geometry":{"type":"LineString","coordinates":[[-81.28643127777778,26.24147863888889],[-81.2679058611111,26.24203938888889]]},"properties":{"style":"solid","thickness":1}},{"type":"Feature","geometry":{"type":"LineString","coordinates":[[-81.39758055555556,26.238063888888888],[-81.41610486111112,26.237486416666666]]},"properties":{"style":"solid","thickness":1}},{"type":"Feature","geometry":{"type":"LineString","coordinates":[[-81.434629,26.236906583333333],[-81.45315294444444,26.236324333333336]]},"properties":{"style":"solid","thickness":1}},{"type":"Feature","geometry":{"type":"LineString","coordinates":[[-81.47167675,26.235739722222224],[-81.4902003611111,26.235152722222224]]},"properties":{"style":"solid","thickness":1}},{"type":"Feature","geometry":{"type":"LineString","coordinates":[[-81.50872380555556,26.234563305555557],[-81.52724708333334,26.23397152777778]]},"properties":{"style":"solid","thickness":1}},{"type":"Feature","geometry":{"type":"LineString","coordinates":[[-81.40143333333334,26.33868888888889],[-81.40079327777778,26.321983305555555]]},"properties":{"style":"solid","thickness":1}},{"type":"Feature","geometry":{"type":"LineString","coordinates":[[-81.4001533888889,26.305277694444445],[-81.39951366666668,26.28857202777778]]},"properties":{"style":"solid","thickness":1}},{"type":"Feature","geometry":{"type":"LineString","coordinates":[[-81.39887411111111,26.271866305555555],[-81.39823472222223,26.255160555555555]]},"properties":{"style":"solid","thickness":1}},{"type":"Feature","geometry":{"type":"LineString","coordinates":[[-81.46064119444445,26.350987444444446],[-81.46112775,26.35123877777778],[-81.46168144444445,26.351345555555557],[-81.46354388888889,26.351232222222222],[-81.46423183333333,26.35104986111111],[-81.4644593888889,26.35096577777778],[-81.46557622222223,26.350265694444445],[-81.46622219444444,26.349524055555555],[-81.46640255555556,26.348810722222222],[-81.46685136111111,26.347519194444445],[-81.46673075,26.345911166666667],[-81.46651786111111,26.345151555555553],[-81.4662378888889,26.3445365],[-81.46587505555556,26.343856249999998],[-81.46504141666666,26.343134444444445],[-81.46351466666667,26.342525027777775],[-81.46249019444444,26.342376694444443],[-81.46163663888889,26.342428638888887],[-81.46056602777779,26.34270447222222],[-81.46019377777777,26.34293783333333],[-81.45989386111111,26.343096527777778]]},"properties":{"style":"solid","thickness":1}},{"type":"Feature","geometry":{"type":"LineString","coordinates":[[-81.45674811111111,26.342726027777775],[-81.45314522222222,26.351864694444444],[-81.44844527777778,26.34323075]]},"properties":{"style":"solid","thickness":1}},{"type":"Feature","geometry":{"type":"LineString","coordinates":[[-81.45556608333334,26.34567747222222],[-81.449979,26.34601711111111]]},"properties":{"style":"solid","thickness":1}},{"type":"Feature","geometry":{"type":"LineString","coordinates":[[-81.44585055555557,26.352307944444444],[-81.44518619444445,26.34342872222222]]},"properties":{"style":"solid","thickness":1}},{"type":"Feature","geometry":{"type":"LineString","coordinates":[[-81.44049069444445,26.35256313888889],[-81.44551575,26.347833388888887],[-81.43975436111111,26.343758527777776]]},"properties":{"style":"solid","thickness":1}},{"type":"Feature","geometry":{"type":"LineString","coordinates":[[-81.43649527777778,26.34395633333333],[-81.43715897222222,26.352835583333334],[-81.42772666666667,26.34448808333333],[-81.42838972222222,26.35336738888889]]},"properties":{"style":"solid","thickness":1}},{"type":"Feature","geometry":{"type":"LineString","coordinates":[[-81.42462272222222,26.344676194444443],[-81.42101727777778,26.353814055555556],[-81.4163196388889,26.345179055555555]]},"properties":{"style":"solid","thickness":1}},{"type":"Feature","geometry":{"type":"LineString","coordinates":[[-81.4234398888889,26.34762738888889],[-81.41785261111112,26.34796575]]},"properties":{"style":"solid","thickness":1}},{"type":"Feature","geometry":{"type":"LineString","coordinates":[[-81.4178091388889,26.216459305555556],[-81.41847077777778,26.225338722222222],[-81.41505991666668,26.225545444444442],[-81.41411927777779,26.22546197222222],[-81.41371605555557,26.22527569444444],[-81.41305944444446,26.22482386111111],[-81.41207197222222,26.22411111111111],[-81.41138413888889,26.223239749999998],[-81.41117705555556,26.22254997222222],[-81.41100527777779,26.22024272222222],[-81.41111344444445,26.21960408333333],[-81.41151608333334,26.218736916666664],[-81.41202225,26.218214611111108],[-81.412518,26.2175525],[-81.41325669444446,26.21701611111111],[-81.41417122222222,26.216749999999998],[-81.41470861111112,26.21664722222222],[-81.4178091388889,26.216459305555556]]},"properties":{"style":"solid","thickness":1}},{"type":"Feature","geometry":{"type":"LineString","coordinates":[[-81.40757736111112,26.217079166666664],[-81.40823819444445,26.22595861111111]]},"properties":{"style":"solid","thickness":1}},{"type":"Feature","geometry":{"type":"LineString","coordinates":[[-81.40354661111111,26.217323138888887],[-81.40420716666667,26.226202638888886],[-81.40095130555557,26.226399638888886],[-81.40025361111111,26.226441833333332],[-81.39967977777779,26.22605513888889],[-81.39925580555557,26.225589166666666],[-81.399235,26.225309499999998],[-81.39913102777778,26.223911166666664],[-81.39919294444445,26.223696722222222],[-81.39938391666668,26.223123305555553],[-81.40010711111111,26.222377249999997],[-81.39930075000001,26.222004638888887],[-81.39889755555556,26.22181833333333],[-81.39848400000001,26.221492194444444],[-81.39820466666667,26.220876999999998],[-81.39806952777778,26.219059138888888],[-81.39826569444445,26.218555666666663],[-81.39877711111112,26.21810333333333],[-81.3991438888889,26.21780022222222],[-81.39951586111111,26.217567027777775],[-81.40354661111111,26.217323138888887]]},"properties":{"style":"solid","thickness":1}},{"type":"Feature","geometry":{"type":"LineString","coordinates":[[-81.40390547222223,26.222147444444442],[-81.40010711111111,26.222377249999997]]},"properties":{"style":"solid","thickness":1}},{"type":"Feature","geometry":{"type":"LineString","coordinates":[[-81.39536980555556,26.226737166666666],[-81.39484502777779,26.219675499999997],[-81.39474152777778,26.219330611111108],[-81.39414697222223,26.21866422222222],[-81.39372822222222,26.218268166666665],[-81.39308733333334,26.21802597222222],[-81.39222947222223,26.218007583333332],[-81.39098922222223,26.218082527777778],[-81.39029677777778,26.21819461111111],[-81.38939255555556,26.218600416666664],[-81.38888627777779,26.21912261111111],[-81.3886073888889,26.21956086111111],[-81.38849908333334,26.22019947222222],[-81.38901308333334,26.227121333333333]]},"properties":{"style":"solid","thickness":1}},{"type":"Feature","geometry":{"type":"LineString","coordinates":[[-81.38542500000001,26.222843249999997],[-81.38100644444444,26.22311]]},"properties":{"style":"solid","thickness":1}},{"type":"Feature","geometry":{"type":"LineString","coordinates":[[-81.38110588888888,26.227598777777775],[-81.38575719444445,26.22731797222222],[-81.38509805555556,26.218438416666665]]},"properties":{"style":"solid","thickness":1}},{"type":"Feature","geometry":{"type":"LineString","coordinates":[[-81.5746871111111,26.213089611111112],[-81.57411975,26.20560911111111],[-81.57416544444445,26.20518486111111],[-81.57452111111111,26.2047415],[-81.57495961111111,26.20436322222222],[-81.575259,26.204204277777777],[-81.57571866666666,26.204105666666667],[-81.57649366666666,26.204057833333334],[-81.57696397222222,26.204099027777776],[-81.57769858333333,26.204545333333332],[-81.57786949999999,26.204745499999998]]},"properties":{"style":"solid","thickness":1}},{"type":"Feature","geometry":{"type":"LineString","coordinates":[[-81.57083625,26.204406972222223],[-81.57150941666666,26.213285694444444]]},"properties":{"style":"solid","thickness":1}},{"type":"Feature","geometry":{"type":"LineString","coordinates":[[-81.56434997222222,26.20923197222222],[-81.56052880555555,26.205042499999998]]},"properties":{"style":"solid","thickness":1}},{"type":"Feature","geometry":{"type":"LineString","coordinates":[[-81.56680627777777,26.204655527777778],[-81.56747913888888,26.21353427777778],[-81.56360388888889,26.213773194444443],[-81.56328327777777,26.2136525],[-81.56256452777778,26.213415833333332],[-81.56181402777777,26.212759694444443],[-81.56145105555555,26.212079694444444],[-81.56138752777777,26.211240749999998],[-81.56164458333333,26.210522527777776],[-81.56228916666666,26.209780444444444],[-81.56296552777778,26.209457805555555],[-81.56326494444444,26.20929886111111],[-81.56714005555556,26.209059944444444]]},"properties":{"style":"solid","thickness":1}},{"type":"Feature","geometry":{"type":"LineString","coordinates":[[-81.55742880555555,26.2052335],[-81.55383813888889,26.214374805555554],[-81.54913625,26.205744083333332]]},"properties":{"style":"solid","thickness":1}},{"type":"Feature","geometry":{"type":"LineString","coordinates":[[-81.55625075,26.208185805555555],[-81.55067058333333,26.208529388888888]]},"properties":{"style":"solid","thickness":1}},{"type":"Feature","geometry":{"type":"LineString","coordinates":[[-81.54611372222222,26.205930055555555],[-81.5400418888889,26.215223583333334]]},"properties":{"style":"solid","thickness":1}},{"type":"Feature","geometry":{"type":"LineString","coordinates":[[-81.5465525,26.214823194444445],[-81.53906111111111,26.206363749999998]]},"properties":{"style":"solid","thickness":1}},{"type":"Feature","geometry":{"type":"LineString","coordinates":[[-81.28164505555556,26.225847555555553],[-81.27637341666667,26.226161972222222],[-81.27632727777778,26.225532666666666],[-81.28154158333334,26.217005138888887],[-81.28153647222221,26.216935222222222],[-81.27541252777777,26.21730047222222]]},"properties":{"style":"solid","thickness":1}},{"type":"Feature","geometry":{"type":"LineString","coordinates":[[-81.27254433333333,26.217471472222222],[-81.26893105555556,26.226605499999998],[-81.26424977777778,26.21796558333333]]},"properties":{"style":"solid","thickness":1}},{"type":"Feature","geometry":{"type":"LineString","coordinates":[[-81.27135897222222,26.220421388888887],[-81.26577747222223,26.220753888888886]]},"properties":{"style":"solid","thickness":1}},{"type":"Feature","geometry":{"type":"LineString","coordinates":[[-81.26164366666667,26.227039444444443],[-81.25835830555556,26.218316277777777],[-81.25575172222223,26.22739],[-81.25238925,26.218671333333333],[-81.25016983333333,26.227721916666663]]},"properties":{"style":"solid","thickness":1}},{"type":"Feature","geometry":{"type":"LineString","coordinates":[[-81.243796,26.22360622222222],[-81.23998594444444,26.219408277777777]]},"properties":{"style":"solid","thickness":1}},{"type":"Feature","geometry":{"type":"LineString","coordinates":[[-81.24626513888889,26.21903533333333],[-81.24691372222222,26.227915416666665],[-81.2430373888889,26.228145666666666],[-81.24271708333333,26.228024249999997],[-81.24199891666667,26.227786],[-81.24125013888889,26.22712822222222],[-81.240889,26.226447416666666],[-81.24082775,26.22560833333333],[-81.24108680555555,26.224890694444444],[-81.2417335,26.224150055555555],[-81.24241077777778,26.223828944444442],[-81.24271066666667,26.223670666666663],[-81.24658686111111,26.223440416666666]]},"properties":{"style":"solid","thickness":1}},{"type":"Feature","geometry":{"type":"LineString","coordinates":[[-81.23680755555556,26.21959697222222],[-81.23745544444445,26.22847708333333]]},"properties":{"style":"solid","thickness":1}},{"type":"Feature","geometry":{"type":"LineString","coordinates":[[-81.47800919444444,26.624738555555556],[-81.47867755555556,26.633617083333334],[-81.47541041666666,26.633815694444444],[-81.47471030555556,26.63385825],[-81.47413422222222,26.633471888888888],[-81.47370844444444,26.633006166666668],[-81.47368738888889,26.632726527777777],[-81.47358219444445,26.631328333333332],[-81.47364422222222,26.63111386111111],[-81.4738355,26.630540416666665],[-81.47456075,26.629794027777777],[-81.47375133333334,26.629421861111112],[-81.47334661111111,26.62923575],[-81.4729313888889,26.628909833333335],[-81.47265069444444,26.628294833333335],[-81.47251394444444,26.626477194444444],[-81.4727105,26.62597363888889],[-81.47322341666667,26.625521083333332],[-81.47359130555556,26.625217805555558],[-81.47396444444445,26.624984444444443],[-81.47800919444444,26.624738555555556]]},"properties":{"style":"solid","thickness":1}},{"type":"Feature","geometry":{"type":"LineString","coordinates":[[-81.47837230555555,26.629562333333332],[-81.47456075,26.629794027777777]]},"properties":{"style":"solid","thickness":1}},{"type":"Feature","geometry":{"type":"LineString","coordinates":[[-81.46980955555556,26.634156027777777],[-81.46927852777777,26.62709513888889],[-81.46917447222222,26.626750305555557],[-81.46857741666666,26.626084277777778],[-81.46815694444444,26.625688444444446],[-81.46751363888889,26.625446583333336],[-81.46665275000001,26.625428638888888],[-81.46540822222222,26.625504222222222],[-81.46471341666667,26.625616611111113],[-81.46380627777778,26.626022833333334],[-81.46329855555555,26.62654527777778],[-81.46301891666667,26.62698361111111],[-81.46291063888889,26.62762225],[-81.46343075,26.63454336111111]]},"properties":{"style":"solid","thickness":1}},{"type":"Feature","geometry":{"type":"LineString","coordinates":[[-81.45367541666667,26.634713777777776],[-81.45416313888889,26.63496511111111],[-81.45471819444445,26.635071916666668],[-81.45658516666667,26.634958694444443],[-81.45727477777778,26.634776416666668],[-81.45750291666667,26.63469236111111],[-81.4586225,26.63399238888889],[-81.45927011111111,26.633250805555555],[-81.45945097222223,26.632537527777778],[-81.45990094444444,26.63124611111111],[-81.45978016666668,26.629638166666666],[-81.45956683333334,26.628878611111112],[-81.45928619444445,26.628263583333332],[-81.45892255555556,26.627583333333334],[-81.45808694444445,26.626861527777777],[-81.45655652777778,26.626252083333334],[-81.45552955555556,26.626103666666666],[-81.45467391666666,26.626155555555556],[-81.45360066666667,26.626431333333333],[-81.4532275,26.62666463888889],[-81.45292683333334,26.626823333333334]]},"properties":{"style":"solid","thickness":1}},{"type":"Feature","geometry":{"type":"LineString","coordinates":[[-81.44969566666667,26.62645736111111],[-81.44771694444445,26.635496277777776],[-81.44378394444445,26.62681552777778],[-81.44172697222223,26.635859055555557],[-81.43818333333334,26.627154611111113]]},"properties":{"style":"solid","thickness":1}},{"type":"Feature","geometry":{"type":"LineString","coordinates":[[-81.43558138888889,26.63623102777778],[-81.43505244444445,26.629170000000002],[-81.43494847222223,26.62882516666667],[-81.43435161111111,26.628158972222224],[-81.43393125,26.627763055555555],[-81.43328802777778,26.627521055555555],[-81.4324271388889,26.627502888888888],[-81.43118252777778,26.627578166666666],[-81.43048769444445,26.627690416666667],[-81.42958041666667,26.62809641666667],[-81.42907252777778,26.62861872222222],[-81.42879277777779,26.629057],[-81.42868430555556,26.62969561111111],[-81.42920236111111,26.636616805555555]]},"properties":{"style":"solid","thickness":1}},{"type":"Feature","geometry":{"type":"LineString","coordinates":[[-81.40714880555556,26.622979444444447],[-81.40724633333333,26.623619055555555],[-81.40745880555556,26.62428438888889],[-81.40780191666667,26.624952305555556],[-81.40828375000001,26.62559311111111],[-81.40890122222223,26.62617325],[-81.40963802777779,26.626659555555555],[-81.41046494444446,26.62702461111111],[-81.41134352777779,26.627251444444443],[-81.41223183333334,26.627336055555556],[-81.41309063888889,26.627287083333332],[-81.41388852777779,26.62712286111111],[-81.41460430555556,26.626867305555557],[-81.4152271388889,26.626545694444445],[-81.41579466666667,26.626149972222223],[-81.4163295,26.625651861111113],[-81.41680147222223,26.625050833333333],[-81.41717797222223,26.62435536111111],[-81.41742816666667,26.623584666666666],[-81.41752827777778,26.622768027777777],[-81.41746652777778,26.62194186111111],[-81.41724577777778,26.621144583333333],[-81.41688313888889,26.62041088888889],[-81.41640655555557,26.619766944444446],[-81.41584941666667,26.61922802777778],[-81.41524530555556,26.618798694444443],[-81.41462402777778,26.618474722222224],[-81.413959,26.618230833333335],[-81.41321169444446,26.618063583333335],[-81.41239661111112,26.617996722222223],[-81.41153827777778,26.61805138888889],[-81.41067061111112,26.618241944444446],[-81.40983369444444,26.61857227777778],[-81.40906852777778,26.61903338888889],[-81.40841069444446,26.619603833333333],[-81.40788500000001,26.62025291666667],[-81.40750277777778,26.620945833333334],[-81.40726205555556,26.62164897222222],[-81.4071503888889,26.622333861111112],[-81.40714880555556,26.622979444444447]]},"properties":{"style":"solid","thickness":1}},{"type":"Feature","geometry":{"type":"LineString","coordinates":[[-81.41313988888889,26.633462666666667],[-81.41316980555555,26.632350333333335],[-81.41332852777778,26.63120875],[-81.41362575000001,26.630055333333335],[-81.41406744444446,26.62890997222222],[-81.41465472222222,26.62779425],[-81.41538347222223,26.62673025],[-81.41624405555557,26.625739166666666],[-81.41722177777778,26.624840111111112],[-81.41829752777778,26.624048722222224],[-81.41944919444445,26.623376416666666],[-81.420653,26.622829833333334],[-81.42188502777778,26.622410805555557],[-81.4231225,26.62211675],[-81.42434494444444,26.621941305555556]]},"properties":{"style":"solid","thickness":1}},{"type":"Feature","geometry":{"type":"LineString","coordinates":[[-81.41313988888889,26.633462666666667],[-81.41294477777778,26.632363916666666],[-81.41261766666668,26.631251666666667],[-81.41215152777778,26.630144305555557],[-81.41154344444445,26.629062305555557],[-81.41079544444445,26.62802713888889],[-81.40991497222223,26.62706025],[-81.40891469444445,26.62618147222222],[-81.40781202777778,26.625407944444444],[-81.40662822222222,26.62475291666667],[-81.4053868888889,26.62422502777778],[-81.40411258333334,26.623827972222223],[-81.40282927777778,26.62356075],[-81.40155916666667,26.623418027777777],[-81.40032155555556,26.623391027777778]]},"properties":{"style":"solid","thickness":1}},{"type":"Feature","geometry":{"type":"LineString","coordinates":[[-81.40032155555556,26.623391027777778],[-81.40154408333333,26.623215777777776],[-81.40278161111112,26.62292188888889],[-81.40401369444444,26.62250302777778],[-81.40521755555557,26.621956583333333],[-81.40636930555556,26.621284361111112],[-81.40744508333334,26.620493055555556],[-81.40842280555556,26.619594055555556],[-81.40928341666667,26.618603027777777],[-81.41001213888889,26.617539027777777],[-81.41059941666667,26.616423333333334],[-81.41104105555556,26.615277972222223],[-81.41133830555556,26.614124555555556],[-81.41149700000001,26.612982972222223],[-81.41152691666667,26.61187063888889]]},"properties":{"style":"solid","thickness":1}},{"type":"Feature","geometry":{"type":"LineString","coordinates":[[-81.41152691666667,26.61187063888889],[-81.41172200000001,26.61296938888889],[-81.41204902777778,26.614081666666667],[-81.41251511111112,26.61518902777778],[-81.41312313888889,26.616271027777778],[-81.41387105555556,26.617306166666665],[-81.41475150000001,26.618273055555555],[-81.41575177777779,26.619151777777777],[-81.41685441666667,26.61992525],[-81.41803825000001,26.620580194444447],[-81.41927958333333,26.621107972222223],[-81.42055394444445,26.62150488888889],[-81.42183725000001,26.621771944444443],[-81.42310736111112,26.6219145],[-81.42434494444444,26.621941305555556]]},"properties":{"style":"solid","thickness":1}},{"type":"Feature","geometry":{"type":"LineString","coordinates":[[-81.44669530555556,26.33518875],[-81.44564780555557,26.335252388888886],[-81.44506408333334,26.32744986111111]]},"properties":{"style":"solid","thickness":1}},{"type":"Feature","geometry":{"type":"LineString","coordinates":[[-81.44202591666667,26.335598777777776],[-81.43664877777778,26.335925166666666],[-81.43982227777778,26.32770497222222]]},"properties":{"style":"solid","thickness":1}},{"type":"Feature","geometry":{"type":"LineString","coordinates":[[-81.26588713888889,26.211737305555555],[-81.26591477777778,26.212114888888888],[-81.2658075,26.212563694444444],[-81.26556988888889,26.213146694444443],[-81.26531847222222,26.21354088888889],[-81.26491827777778,26.213817555555554],[-81.2643693888889,26.213976638888887],[-81.2633228888889,26.214038944444443],[-81.26254625,26.213958777777776],[-81.26218361111111,26.213790749999998],[-81.26166302777777,26.213379305555556],[-81.26150047222222,26.21307297222222],[-81.26132411111111,26.212577833333334],[-81.26125044444444,26.211570972222223],[-81.26136236111111,26.211185083333334],[-81.26189355555556,26.209826166666666],[-81.26266625,26.208895305555554],[-81.26390422222222,26.20762072222222],[-81.26539361111111,26.205951916666667],[-81.26099866666667,26.206213583333334]]},"properties":{"style":"solid","thickness":1}},{"type":"Feature","geometry":{"type":"LineString","coordinates":[[-81.25809188888888,26.212454194444444],[-81.25805894444444,26.212961777777778],[-81.25794244444444,26.213284722222223],[-81.2574955,26.213880166666666],[-81.25709530555555,26.214156777777777],[-81.25669511111111,26.214433416666665],[-81.25607641666667,26.21459663888889],[-81.25572758333334,26.21461738888889],[-81.25495094444445,26.214537166666666],[-81.25429086111112,26.214133999999998],[-81.25384005555556,26.21371838888889],[-81.25374269444444,26.213344944444444],[-81.25365069444445,26.212086361111112],[-81.25390216666666,26.211692166666666],[-81.25435830555556,26.21122261111111],[-81.25494938888889,26.210681833333332],[-81.25543772222223,26.210652777777778]]},"properties":{"style":"solid","thickness":1}},{"type":"Feature","geometry":{"type":"LineString","coordinates":[[-81.25494938888889,26.210681833333332],[-81.25408,26.21029111111111],[-81.25378255555556,26.21005597222222],[-81.25340155555556,26.209636222222223],[-81.25331797222222,26.209451583333333],[-81.25320683333334,26.208889361111112],[-81.25319302777778,26.208700555555556],[-81.253226,26.20819297222222],[-81.25333791666667,26.207807083333332],[-81.25365452777778,26.20734583333333],[-81.25405011111111,26.207006277777776],[-81.25472013888889,26.206587194444445],[-81.25632463888888,26.206491749999998],[-81.25682677777777,26.2066515],[-81.25763097222222,26.20710927777778],[-81.25777969444445,26.207226833333333],[-81.258035,26.207843666666665],[-81.25805341666667,26.20809538888889]]},"properties":{"style":"solid","thickness":1}},{"type":"Feature","geometry":{"type":"LineString","coordinates":[[-81.40587708333334,26.210086694444445],[-81.40590516666667,26.210464249999998],[-81.40579841666667,26.210913194444444],[-81.40556152777778,26.211496416666666],[-81.40531058333333,26.21189086111111],[-81.40491072222223,26.21216788888889],[-81.40436202777778,26.212327527777777],[-81.40331561111111,26.21239086111111],[-81.4025388888889,26.212311444444445],[-81.40217605555556,26.212143777777776],[-81.40165497222223,26.211732833333333],[-81.40149205555556,26.211426666666664],[-81.40131508333334,26.210931694444444],[-81.40124022222223,26.20992486111111],[-81.40135166666667,26.20953886111111],[-81.40188122222223,26.208179444444443],[-81.40265280555556,26.207247805555554],[-81.40388927777778,26.205972],[-81.4053766388889,26.20430175],[-81.40098202777779,26.204567722222222]]},"properties":{"style":"solid","thickness":1}},{"type":"Feature","geometry":{"type":"LineString","coordinates":[[-81.39808275,26.210811166666666],[-81.39805041666668,26.211318805555553],[-81.39793427777778,26.211641888888888],[-81.39748805555556,26.21223775],[-81.39708822222222,26.21251475],[-81.39668836111112,26.212791777777777],[-81.39606986111112,26.21295561111111],[-81.39572105555557,26.212976694444443],[-81.39494433333334,26.21289722222222],[-81.39428375,26.21249472222222],[-81.39383247222223,26.212079527777778],[-81.3937346388889,26.211706194444442],[-81.3936411388889,26.210447666666667],[-81.3938921388889,26.210053249999998],[-81.39434772222224,26.20958322222222],[-81.39493813888889,26.20904186111111],[-81.39542644444445,26.209012333333334]]},"properties":{"style":"solid","thickness":1}},{"type":"Feature","geometry":{"type":"LineString","coordinates":[[-81.39493813888889,26.20904186111111],[-81.39406830555556,26.208652],[-81.39377058333334,26.208417166666667],[-81.39338905555556,26.20799775],[-81.39330527777778,26.207813194444444],[-81.39319344444445,26.207251083333333],[-81.39317941666667,26.207062305555556],[-81.39321177777778,26.206554666666666],[-81.39332325000001,26.206168666666667],[-81.39363930555557,26.20570711111111],[-81.39403447222223,26.205367166666665],[-81.394704,26.204947444444443],[-81.3963083888889,26.204850416666666],[-81.39681069444445,26.205009666666665],[-81.39761544444445,26.205466666666666],[-81.39776430555557,26.20558408333333],[-81.39802033333333,26.206200694444444],[-81.39803905555556,26.206452388888888]]},"properties":{"style":"solid","thickness":1}},{"type":"Feature","geometry":{"type":"LineString","coordinates":[[-81.56517338888888,26.198138166666666],[-81.565202,26.198515694444446],[-81.56509588888889,26.19896472222222],[-81.56485977777777,26.199548222222223],[-81.56460938888888,26.199942944444444],[-81.56420997222222,26.200220444444444],[-81.56366152777777,26.200380666666668],[-81.56261530555555,26.200445166666665],[-81.56183855555555,26.20036661111111],[-81.56147552777777,26.200199333333334],[-81.56095394444444,26.199788972222223],[-81.5607906111111,26.199482972222224],[-81.560613,26.198988194444446],[-81.56053677777777,26.19798147222222],[-81.56064769444444,26.197595333333332],[-81.56117533333332,26.196235305555557],[-81.56194558333333,26.195302833333333],[-81.56318016666667,26.19402563888889],[-81.56466511111111,26.192353722222222],[-81.56027130555556,26.192624555555557]]},"properties":{"style":"solid","thickness":1}},{"type":"Feature","geometry":{"type":"LineString","coordinates":[[-81.55738083333333,26.198871277777776],[-81.55734916666667,26.199378944444444],[-81.5572335,26.199702138888888],[-81.55678813888889,26.2002985],[-81.55638869444444,26.20057597222222],[-81.55598925,26.200853444444444],[-81.55537102777778,26.201017944444445],[-81.55502230555555,26.201039416666667],[-81.55424552777778,26.200960833333333],[-81.55358447222221,26.20055902777778],[-81.55313266666667,26.200144333333334],[-81.5530343611111,26.19977111111111],[-81.55293913888889,26.198512694444446],[-81.55318958333334,26.19811797222222],[-81.55364447222222,26.197647472222222],[-81.55423411111111,26.197105444444446],[-81.55472233333333,26.19707536111111]]},"properties":{"style":"solid","thickness":1}},{"type":"Feature","geometry":{"type":"LineString","coordinates":[[-81.55423411111111,26.197105444444446],[-81.55336383333334,26.196716527777777],[-81.55306580555555,26.19648202777778],[-81.55268375,26.19606302777778],[-81.55259972222223,26.195878555555556],[-81.55248713888889,26.195316555555557],[-81.55247286111111,26.195127805555554],[-81.55250452777777,26.19462013888889],[-81.55261544444444,26.194234027777778],[-81.55293086111111,26.193772111111112],[-81.55332552777777,26.193431722222222],[-81.55399438888888,26.19301125],[-81.5555985,26.192912444444445],[-81.556101,26.19307113888889],[-81.55690627777777,26.19352725],[-81.55705527777778,26.1936445],[-81.55731213888889,26.194260833333335],[-81.55733119444444,26.19451252777778]]},"properties":{"style":"solid","thickness":1}},{"type":"Feature","geometry":{"type":"LineString","coordinates":[[-81.76784447222222,26.544527583333334],[-81.76786244444445,26.544656805555558],[-81.76789841666667,26.54479077777778],[-81.76795461111111,26.544926833333335],[-81.76803263888888,26.545061500000003],[-81.76813316666667,26.545190805555556],[-81.76825569444445,26.545310333333337],[-81.76839830555555,26.54541577777778],[-81.76855772222223,26.54550327777778],[-81.76872952777778,26.545569833333335],[-81.76890852777778,26.545613722222225],[-81.76908927777778,26.545634500000002],[-81.7692666388889,26.545633138888892],[-81.76943613888889,26.54561163888889],[-81.76959427777777,26.545572805555558],[-81.76973872222221,26.54551977777778],[-81.76986813888888,26.545455888888892],[-81.76998511111111,26.545382111111113],[-81.77009797222222,26.54529266666667],[-81.77020402777778,26.545186444444447],[-81.77029925,26.545063666666668],[-81.77037941666667,26.54492541666667],[-81.77044044444445,26.544773944444447],[-81.77047883333333,26.54461252777778],[-81.77049208333334,26.544445444444445],[-81.77047902777778,26.54427752777778],[-81.77044005555555,26.544113722222225],[-81.77037705555556,26.543958694444445],[-81.77029316666666,26.543816333333336],[-81.77019238888889,26.543689472222223],[-81.77007908333333,26.543579805555556],[-81.76995763888888,26.543487916666667],[-81.76983202777778,26.543413444444447],[-81.76970477777778,26.54335502777778],[-81.76956675,26.543307944444447],[-81.7694155,26.543273555555558],[-81.76925288888889,26.543254861111112],[-81.76908172222223,26.543254805555556],[-81.76890588888888,26.54327563888889],[-81.76873011111111,26.543318861111114],[-81.76855966666666,26.543384722222225],[-81.76839983333333,26.54347213888889],[-81.7682555,26.543578722222225],[-81.76813058333333,26.543701000000002],[-81.76802775,26.543834694444445],[-81.76794819444444,26.543975333333336],[-81.76789177777778,26.544118472222223],[-81.76785716666667,26.544260222222224],[-81.76784227777777,26.54439738888889],[-81.76784447222222,26.544527583333334]]},"properties":{"style":"solid","thickness":1}},{"type":"Feature","geometry":{"type":"LineString","coordinates":[[-81.76994972222222,26.545314416666667],[-81.76980747222223,26.54348488888889]]},"properties":{"style":"solid","thickness":1}},{"type":"Feature","geometry":{"type":"LineString","coordinates":[[-81.76945541666666,26.545529361111114],[-81.76928472222222,26.543333944444445]]},"properties":{"style":"solid","thickness":1}},{"type":"Feature","geometry":{"type":"LineString","coordinates":[[-81.76894688888889,26.545561361111112],[-81.76877619444444,26.54336591666667]]},"properties":{"style":"solid","thickness":1}},{"type":"Feature","geometry":{"type":"LineString","coordinates":[[-81.76842411111112,26.54541038888889],[-81.7682818888889,26.543580861111113]]},"properties":{"style":"solid","thickness":1}}]}
