{"type":"FeatureCollection","features":[{"type":"Feature","geometry":{"type":"LineString","coordinates":[[-81.84017363888888,26.180652666666667],[-81.84197797222222,26.17686063888889]]},"properties":{"style":"solid","thickness":1}},{"type":"Feature","geometry":{"type":"LineString","coordinates":[[-81.84505605555555,26.168992444444445],[-81.84589252777778,26.164935333333332]]},"properties":{"style":"solid","thickness":1}},{"type":"Feature","geometry":{"type":"LineString","coordinates":[[-81.84660480555556,26.14432652777778],[-81.84593861111111,26.140243833333333]]},"properties":{"style":"solid","thickness":1}},{"type":"Feature","geometry":{"type":"LineString","coordinates":[[-81.84365555555556,26.13225897222222],[-81.84207908333333,26.128385333333334]]},"properties":{"style":"solid","thickness":1}},{"type":"Feature","geometry":{"type":"LineString","coordinates":[[-81.83816766666666,26.12083063888889],[-81.8357428611111,26.117332305555557]]},"properties":{"style":"solid","thickness":1}},{"type":"Feature","geometry":{"type":"LineString","coordinates":[[-81.82044963888889,26.10202702777778],[-81.81687363888888,26.09945697222222]]},"properties":{"style":"solid","thickness":1}},{"type":"Feature","geometry":{"type":"LineString","coordinates":[[-81.80906588888888,26.095177749999998],[-81.80497627777777,26.093335472222222]]},"properties":{"style":"solid","thickness":1}},{"type":"Feature","geometry":{"type":"LineString","coordinates":[[-81.79634175,26.09038111111111],[-81.79191875,26.089342444444444]]},"properties":{"style":"solid","thickness":1}},{"type":"Feature","geometry":{"type":"LineString","coordinates":[[-81.75567883333333,26.090060444444443],[-81.75127097222222,26.091150416666665]]},"properties":{"style":"solid","thickness":1}},{"type":"Feature","geometry":{"type":"LineString","coordinates":[[-81.74284338888889,26.094571305555554],[-81.73881694444445,26.09652375]]},"properties":{"style":"solid","thickness":1}},{"type":"Feature","geometry":{"type":"LineString","coordinates":[[-81.73122283333333,26.10110388888889],[-81.72776008333334,26.103797444444446]]},"properties":{"style":"solid","thickness":1}},{"type":"Feature","geometry":{"type":"LineString","coordinates":[[-81.72037797222222,26.110437583333336],[-81.72129955555556,26.113391722222225]]},"properties":{"style":"solid","thickness":1}},{"type":"Feature","geometry":{"type":"LineString","coordinates":[[-81.70439966666667,26.141343194444445],[-81.70373386111112,26.145425944444444]]},"properties":{"style":"solid","thickness":1}},{"type":"Feature","geometry":{"type":"LineString","coordinates":[[-81.70327488888888,26.153661638888888],[-81.70357272222222,26.15777961111111]]},"properties":{"style":"solid","thickness":1}},{"type":"Feature","geometry":{"type":"LineString","coordinates":[[-81.70899727777778,26.17780227777778],[-81.71079697222223,26.181596083333336]]},"properties":{"style":"solid","thickness":1}},{"type":"Feature","geometry":{"type":"LineString","coordinates":[[-81.71554988888889,26.188752277777777],[-81.71815508333333,26.192144222222222]]},"properties":{"style":"solid","thickness":1}},{"type":"Feature","geometry":{"type":"LineString","coordinates":[[-81.7242091388889,26.198323388888888],[-81.72753205555556,26.2011595]]},"properties":{"style":"solid","thickness":1}},{"type":"Feature","geometry":{"type":"LineString","coordinates":[[-81.7347746111111,26.20634022222222],[-81.73869680555556,26.20846427777778]]},"properties":{"style":"solid","thickness":1}},{"type":"Feature","geometry":{"type":"LineString","coordinates":[[-81.77356191666667,26.2175455],[-81.77813702777777,26.217545305555554]]},"properties":{"style":"solid","thickness":1}},{"type":"Feature","geometry":{"type":"LineString","coordinates":[[-81.78733102777778,26.21669097222222],[-81.79179008333332,26.215767555555555]]},"properties":{"style":"solid","thickness":1}},{"type":"Feature","geometry":{"type":"LineString","coordinates":[[-81.82383113888889,26.2004385],[-81.82720908333333,26.197655805555556]]},"properties":{"style":"solid","thickness":1}},{"type":"Feature","geometry":{"type":"LineString","coordinates":[[-81.83313197222222,26.191254305555557],[-81.83573677777777,26.18786213888889]]},"properties":{"style":"solid","thickness":1}},{"type":"Feature","geometry":{"type":"LineString","coordinates":[[-81.71041633333334,26.13220625],[-81.70843933333333,26.132754444444444]]},"properties":{"style":"solid","thickness":1}},{"type":"Feature","geometry":{"type":"LineString","coordinates":[[-81.71041633333334,26.13220625],[-81.71258561111111,26.1310885]]},"properties":{"style":"solid","thickness":1}},{"type":"Feature","geometry":{"type":"LineString","coordinates":[[-81.71946583333333,26.124869722222222],[-81.71909375,26.125331166666665]]},"properties":{"style":"solid","thickness":1}},{"type":"Feature","geometry":{"type":"LineString","coordinates":[[-81.71946583333333,26.124869722222222],[-81.72092183333334,26.121543666666668]]},"properties":{"style":"solid","thickness":1}},{"type":"Feature","geometry":{"type":"LineString","coordinates":[[-81.76921852777778,26.087849027777775],[-81.76682975,26.087994944444443]]},"properties":{"style":"solid","thickness":1}},{"type":"Feature","geometry":{"type":"LineString","coordinates":[[-81.76682975,26.087994944444443],[-81.76457094444444,26.088348444444442]]},"properties":{"style":"solid","thickness":1}},{"type":"Feature","geometry":{"type":"LineString","coordinates":[[-81.78292036111111,26.08792336111111],[-81.78207052777778,26.08781088888889]]},"properties":{"style":"solid","thickness":1}},{"type":"Feature","geometry":{"type":"LineString","coordinates":[[-81.78207052777778,26.08781088888889],[-81.77838052777777,26.087679805555556]]},"properties":{"style":"solid","thickness":1}},{"type":"Feature","geometry":{"type":"LineString","coordinates":[[-81.83033047222222,26.11071763888889],[-81.82902322222222,26.109268333333336]]},"properties":{"style":"solid","thickness":1}},{"type":"Feature","geometry":{"type":"LineString","coordinates":[[-81.82902322222222,26.109268333333336],[-81.82724247222222,26.10763177777778]]},"properties":{"style":"solid","thickness":1}},{"type":"Feature","geometry":{"type":"LineString","coordinates":[[-81.84720508333334,26.152636805555556],[-81.84724402777778,26.153941666666665]]},"properties":{"style":"solid","thickness":1}},{"type":"Feature","geometry":{"type":"LineString","coordinates":[[-81.84703747222221,26.15676347222222],[-81.84724402777778,26.153941666666665]]},"properties":{"style":"solid","thickness":1}},{"type":"Feature","geometry":{"type":"LineString","coordinates":[[-81.81674002777777,26.20567422222222],[-81.81524108333333,26.206711666666667],[-81.81292441666666,26.20791586111111]]},"properties":{"style":"solid","thickness":1}},{"type":"Feature","geometry":{"type":"LineString","coordinates":[[-81.80474908333333,26.21178286111111],[-81.80151208333334,26.213137916666668],[-81.80053497222222,26.213423694444444]]},"properties":{"style":"solid","thickness":1}},{"type":"Feature","geometry":{"type":"LineString","coordinates":[[-81.76446072222222,26.216794916666665],[-81.76377558333333,26.21671972222222],[-81.75998127777778,26.215979527777776]]},"properties":{"style":"solid","thickness":1}},{"type":"Feature","geometry":{"type":"LineString","coordinates":[[-81.75109452777778,26.213700944444444],[-81.7489253611111,26.213048416666666],[-81.74683030555556,26.212199]]},"properties":{"style":"solid","thickness":1}},{"type":"Feature","geometry":{"type":"LineString","coordinates":[[-81.70600197222223,26.170099083333334],[-81.70521294444444,26.167619416666668],[-81.70488352777778,26.166043805555553]]},"properties":{"style":"solid","thickness":1}},{"type":"Feature","geometry":{"type":"LineString","coordinates":[[-81.76988069444444,26.543526972222224],[-81.76988072222223,26.545361916666668]]},"properties":{"style":"solid","thickness":1}},{"type":"Feature","geometry":{"type":"LineString","coordinates":[[-81.76937066666666,26.543343472222222],[-81.76937066666666,26.54554538888889]]},"properties":{"style":"solid","thickness":1}},{"type":"Feature","geometry":{"type":"LineString","coordinates":[[-81.76886063888888,26.543343472222222],[-81.76886063888888,26.54554538888889]]},"properties":{"style":"solid","thickness":1}},{"type":"Feature","geometry":{"type":"LineString","coordinates":[[-81.76835061111112,26.543526972222224],[-81.76835061111112,26.545361916666668]]},"properties":{"style":"solid","thickness":1}},{"type":"Feature","geometry":{"type":"LineString","coordinates":[[-81.76784058333334,26.544444444444448],[-81.76784847222223,26.54457452777778],[-81.76787397222222,26.5447105],[-81.7679195,26.544849805555558],[-81.76798691666667,26.54498913888889],[-81.76807725,26.5451245],[-81.76819025,26.545251500000003],[-81.76832441666667,26.545365694444445],[-81.76847672222222,26.545463027777778],[-81.76864305555556,26.545540222222225],[-81.76881830555556,26.54559525],[-81.76899708333333,26.545627361111112],[-81.76917422222222,26.54563713888889],[-81.76934502777777,26.545626305555558],[-81.76950588888889,26.545597472222223],[-81.76965416666667,26.545553611111114],[-81.76978827777778,26.545497972222226],[-81.76991075,26.545431694444446],[-81.77003036111111,26.545349472222224],[-81.77014444444444,26.54525013888889],[-81.77024899999999,26.54513355555556],[-81.77033975,26.545000611111114],[-81.77041241666666,26.544853250000003],[-81.77046325,26.544694583333335],[-81.77048944444445,26.54452863888889],[-81.77048944444445,26.544360222222224],[-81.77046325,26.544194305555557],[-81.77041241666666,26.544035611111113],[-81.77033975,26.543888250000002],[-81.77024899999999,26.543755305555557],[-81.77014444444444,26.543638750000003],[-81.77003036111111,26.54353938888889],[-81.76991075,26.543457194444446],[-81.76978827777778,26.54339088888889],[-81.76965416666667,26.543335250000002],[-81.76950588888889,26.54329141666667],[-81.76934502777777,26.543262583333334],[-81.76917422222222,26.543251750000003],[-81.76899708333333,26.54326152777778],[-81.76881830555556,26.54329363888889],[-81.76864305555556,26.54334863888889],[-81.76847675,26.543425861111114],[-81.76832441666667,26.543523194444447],[-81.76819027777778,26.54363738888889],[-81.76807725,26.543764388888892],[-81.76798694444444,26.54389975],[-81.76791952777778,26.544039055555558],[-81.76787399999999,26.54417838888889],[-81.76784847222223,26.544314361111113],[-81.76784058333334,26.544444444444448]]},"properties":{"style":"solid","thickness":1}}]}
