{"type":"FeatureCollection","features":[{"type":"Feature","geometry":{"type":"LineString","coordinates":[[-81.9909606388889,26.593582777777776],[-81.98583661111111,26.577515305555554]]},"properties":{"style":"solid","thickness":1}},{"type":"Feature","geometry":{"type":"LineString","coordinates":[[-82.00121138888889,26.62571738888889],[-82.0063381111111,26.641784555555557]]},"properties":{"style":"solid","thickness":1}},{"type":"Feature","geometry":{"type":"LineString","coordinates":[[-82.08503511111111,26.58673825],[-82.071159,26.59031413888889]]},"properties":{"style":"solid","thickness":1}},{"type":"Feature","geometry":{"type":"LineString","coordinates":[[-82.01753869444444,26.604127416666667],[-82.00004361111111,26.6086315]]},"properties":{"style":"solid","thickness":1}},{"type":"Feature","geometry":{"type":"LineString","coordinates":[[-82.04572180555556,26.59686647222222],[-82.03541291666666,26.599523138888888]]},"properties":{"style":"solid","thickness":1}},{"type":"Feature","geometry":{"type":"LineString","coordinates":[[-81.76999841666667,26.545283361111114],[-81.7698605,26.543509583333336]]},"properties":{"style":"solid","thickness":1}},{"type":"Feature","geometry":{"type":"LineString","coordinates":[[-81.76950627777778,26.54552616666667],[-81.76933558333333,26.543330722222223]]},"properties":{"style":"solid","thickness":1}},{"type":"Feature","geometry":{"type":"LineString","coordinates":[[-81.76899775,26.54555813888889],[-81.76882705555555,26.543362722222223]]},"properties":{"style":"solid","thickness":1}},{"type":"Feature","geometry":{"type":"LineString","coordinates":[[-81.76847280555556,26.545379305555556],[-81.76833491666666,26.54360552777778]]},"properties":{"style":"solid","thickness":1}},{"type":"Feature","geometry":{"type":"LineString","coordinates":[[-81.76784447222222,26.544527583333334],[-81.76788222222223,26.544738583333334],[-81.76796127777777,26.54494013888889],[-81.76807905555556,26.54512575],[-81.76823177777777,26.545289472222223],[-81.76841458333334,26.54542602777778],[-81.76862152777778,26.545531055555557],[-81.768846,26.54560113888889],[-81.76908080555556,26.54563402777778],[-81.76931833333333,26.545628694444446],[-81.76955102777778,26.54558530555556],[-81.76977133333334,26.54550525],[-81.76997222222222,26.545391111111112],[-81.77014722222222,26.54524652777778],[-81.77029069444444,26.545076166666668],[-81.77039802777777,26.544885500000003],[-81.77046580555556,26.54468063888889],[-81.77049180555555,26.544468222222225],[-81.77047525,26.54425502777778],[-81.77041661111112,26.544047916666667],[-81.77031777777778,26.543853555555557],[-81.77018197222222,26.54367816666667],[-81.77001355555555,26.543527444444447],[-81.7698178888889,26.543406166666667],[-81.76960130555555,26.54331827777778],[-81.76937075,26.543266555555558],[-81.76913361111112,26.543252722222224],[-81.76889755555555,26.54327716666667],[-81.76867016666667,26.54333913888889],[-81.76845872222222,26.543436638888892],[-81.76827,26.54356652777778],[-81.76811013888889,26.54372463888889],[-81.76798422222222,26.54390588888889],[-81.76789630555555,26.544104444444447],[-81.76784922222222,26.544313916666667],[-81.76784447222222,26.544527583333334]]},"properties":{"style":"solid","thickness":1}},{"type":"Feature","geometry":{"type":"LineString","coordinates":[[-82.13180997222221,26.591682277777778],[-82.12737897222222,26.591972194444445]]},"properties":{"style":"solid","thickness":1}},{"type":"Feature","geometry":{"type":"LineString","coordinates":[[-82.12750777777777,26.596460305555553],[-82.13217213888888,26.59615511111111],[-82.13145349999999,26.58727933333333]]},"properties":{"style":"solid","thickness":1}},{"type":"Feature","geometry":{"type":"LineString","coordinates":[[-82.12455363888888,26.5966535],[-82.12383555555554,26.587777666666664],[-82.12002655555555,26.588026694444444]]},"properties":{"style":"solid","thickness":1}},{"type":"Feature","geometry":{"type":"LineString","coordinates":[[-82.11558547222222,26.593024194444443],[-82.11333105555555,26.593171444444444],[-82.11207463888888,26.59212938888889],[-82.11188527777777,26.59172022222222],[-82.11170158333333,26.591380916666665],[-82.11163380555556,26.59054225],[-82.11189394444443,26.589892944444443],[-82.11230952777777,26.589233472222222],[-82.1127533611111,26.58892347222222],[-82.1130473611111,26.588693499999998],[-82.11365230555555,26.588443194444444],[-82.11505152777777,26.588351805555554],[-82.1156903611111,26.588520833333334],[-82.11618502777777,26.588839805555555],[-82.11661325,26.589303638888886],[-82.11689163888889,26.589847499999998],[-82.11700894444444,26.590331638888888],[-82.11706541666666,26.591030527777775],[-82.11701594444443,26.591385055555556],[-82.11681663888888,26.59181963888889],[-82.11652263888888,26.59204961111111],[-82.11558547222222,26.593024194444443],[-82.11633030555555,26.593537583333333],[-82.11676419444444,26.594071305555556],[-82.11694794444443,26.59441058333333],[-82.11703833333333,26.595528805555553],[-82.11671744444443,26.59639288888889],[-82.11650116666667,26.596617777777777],[-82.11582408333332,26.596943055555553],[-82.11537458333333,26.597183194444444],[-82.11436397222222,26.597249194444444],[-82.11364733333333,26.597085222222223],[-82.11257458333333,26.59638247222222],[-82.11239086111111,26.596043166666664],[-82.11228922222222,26.594785166666664],[-82.11246597222221,26.594071055555553],[-82.11253805555555,26.593996083333334],[-82.11290416666667,26.59369113888889],[-82.11333105555555,26.593171444444444]]},"properties":{"style":"solid","thickness":1}},{"type":"Feature","geometry":{"type":"LineString","coordinates":[[-82.10495158333333,26.59779344444444],[-82.10595533333333,26.596674083333333],[-82.10680919444444,26.59563475],[-82.10751322222221,26.594675444444444],[-82.1079345,26.594085888888888],[-82.10826675,26.59336161111111],[-82.10836577777778,26.592652583333333],[-82.10839272222222,26.5920185],[-82.1082911111111,26.5907605],[-82.10801838888888,26.590286499999998],[-82.10767358333332,26.58988747222222],[-82.10732313888889,26.589418527777777],[-82.10564552777777,26.588965972222223],[-82.10471269444444,26.58902683333333],[-82.1037416111111,26.589582],[-82.10359744444443,26.589731944444445],[-82.10302066666667,26.590331638888888],[-82.10295422222222,26.59047647222222],[-82.10272225,26.591475222222222],[-82.10277866666667,26.59217411111111],[-82.10297361111111,26.592653194444445],[-82.10316294444443,26.59306238888889],[-82.10351338888889,26.59353133333333],[-82.10417480555554,26.593979972222222],[-82.10481927777778,26.594218944444442],[-82.10521363888888,26.59426347222222],[-82.10575780555556,26.594227944444444],[-82.1061408611111,26.594132694444443],[-82.10741727777777,26.593487333333332],[-82.10837144444444,26.59272247222222]]},"properties":{"style":"solid","thickness":1}},{"type":"Feature","geometry":{"type":"LineString","coordinates":[[-82.08983977777777,26.573577888888888],[-82.0854093611111,26.5738665]]},"properties":{"style":"solid","thickness":1}},{"type":"Feature","geometry":{"type":"LineString","coordinates":[[-82.08553649999999,26.578354666666666],[-82.09020027777777,26.578050861111112],[-82.08948494444444,26.569174805555555]]},"properties":{"style":"solid","thickness":1}},{"type":"Feature","geometry":{"type":"LineString","coordinates":[[-82.07706391666666,26.578906222222223],[-82.07846305555555,26.578815166666665],[-82.079157,26.57869975],[-82.0805055,26.577979666666668],[-82.08173124999999,26.5767055],[-82.08212444444445,26.575766583333333],[-82.08226758333333,26.57463313888889],[-82.08219441666667,26.573724555555554],[-82.08197144444443,26.572896],[-82.08150963888889,26.572012722222222],[-82.08056463888889,26.57095013888889],[-82.0802256111111,26.570620916666666],[-82.07957005555555,26.570242055555557],[-82.07821497222221,26.569908694444443],[-82.07658275,26.570014916666665],[-82.07581675,26.570205277777777],[-82.075062,26.570535416666665],[-82.07461252777777,26.570775416666667],[-82.07388025,26.571385111111113],[-82.07324819444445,26.572269305555555],[-82.07306,26.572843583333334],[-82.07291113888888,26.57390711111111],[-82.07304608333332,26.5755845],[-82.07388058333333,26.57721638888889],[-82.07439194444444,26.577745166666666],[-82.07497541666666,26.578199],[-82.07554766666667,26.578513055555554],[-82.07570874999999,26.578572833333332],[-82.07706391666666,26.578906222222223]]},"properties":{"style":"solid","thickness":1}},{"type":"Feature","geometry":{"type":"LineString","coordinates":[[-82.06943205555555,26.570480027777776],[-82.0701458611111,26.579356194444443],[-82.06064905555556,26.571050805555554],[-82.06136219444444,26.579927]]},"properties":{"style":"solid","thickness":1}},{"type":"Feature","geometry":{"type":"LineString","coordinates":[[-82.05817516666666,26.580134],[-82.05257841666666,26.580497305555554]]},"properties":{"style":"solid","thickness":1}},{"type":"Feature","geometry":{"type":"LineString","coordinates":[[-82.05545452777777,26.58031063888889],[-82.05474186111111,26.57143438888889]]},"properties":{"style":"solid","thickness":1}},{"type":"Feature","geometry":{"type":"LineString","coordinates":[[-82.04867916666666,26.571827833333334],[-82.04511605555555,26.58098136111111],[-82.04036230555555,26.57236711111111]]},"properties":{"style":"solid","thickness":1}},{"type":"Feature","geometry":{"type":"LineString","coordinates":[[-82.04750994444444,26.574784138888887],[-82.04191344444445,26.575147027777778]]},"properties":{"style":"solid","thickness":1}},{"type":"Feature","geometry":{"type":"LineString","coordinates":[[-82.04439088888888,26.591422166666664],[-82.043679,26.582545888888887]]},"properties":{"style":"solid","thickness":1}},{"type":"Feature","geometry":{"type":"LineString","coordinates":[[-82.03902119444444,26.591699944444443],[-82.04403213888888,26.586949083333334],[-82.03823755555555,26.582898555555555]]},"properties":{"style":"solid","thickness":1}},{"type":"Feature","geometry":{"type":"LineString","coordinates":[[-82.03016427777777,26.592343777777778],[-82.03156363888888,26.592253194444442],[-82.03225769444444,26.592138],[-82.03360663888888,26.59141836111111],[-82.03483305555555,26.59014461111111],[-82.03522666666666,26.589205805555554],[-82.03537027777777,26.588072416666666],[-82.0352975,26.58716383333333],[-82.03507480555555,26.586335194444445],[-82.03461333333333,26.585451749999997],[-82.03366863888888,26.58438886111111],[-82.03332969444445,26.584059527777775],[-82.03267422222223,26.583680444444443],[-82.03131911111112,26.583346666666664],[-82.02968666666666,26.583452333333334],[-82.0289205,26.583642444444443],[-82.02816552777777,26.58397233333333],[-82.02771588888889,26.584212194444444],[-82.02698327777777,26.584821638888886],[-82.02635077777778,26.58570563888889],[-82.02616233333333,26.58627986111111],[-82.02601302777778,26.587343333333333],[-82.02614730555555,26.58902075],[-82.02698125,26.590652916666667],[-82.02749247222222,26.59118186111111],[-82.02807583333333,26.591635888888888],[-82.028648,26.591950138888887],[-82.02880908333333,26.592009972222222],[-82.03016427777777,26.592343777777778]]},"properties":{"style":"solid","thickness":1}},{"type":"Feature","geometry":{"type":"LineString","coordinates":[[-82.02324522222222,26.5927915],[-82.02253494444444,26.58391511111111],[-82.01872583333333,26.584161444444444]]},"properties":{"style":"solid","thickness":1}},{"type":"Feature","geometry":{"type":"LineString","coordinates":[[-82.01553863888888,26.584367472222223],[-82.01624838888888,26.59324388888889],[-82.01298316666667,26.59345488888889],[-82.0122835,26.593500083333332],[-82.01170577777778,26.59311588888889],[-82.01127794444444,26.592651749999998],[-82.01125561111111,26.592372194444444],[-82.0111438888889,26.590974305555555],[-82.01120486111111,26.59075961111111],[-82.01139341666666,26.590185416666664],[-82.01211494444445,26.58943625],[-82.01130402777778,26.58906711111111],[-82.01089855555556,26.588882555555553],[-82.01048194444445,26.588558194444442],[-82.01019844444444,26.58794422222222],[-82.01005325,26.58612697222222],[-82.01024736111111,26.585622666666666],[-82.010758,26.585168166666666],[-82.01112436111111,26.58486347222222],[-82.01149627777778,26.584628694444444],[-82.01553863888888,26.584367472222223]]},"properties":{"style":"solid","thickness":1}},{"type":"Feature","geometry":{"type":"LineString","coordinates":[[-82.01592422222222,26.58919008333333],[-82.01211494444445,26.58943625]]},"properties":{"style":"solid","thickness":1}},{"type":"Feature","geometry":{"type":"LineString","coordinates":[[-82.00264325,26.59412258333333],[-82.00738563888889,26.593816444444442],[-82.00667655555556,26.58493997222222],[-82.00185680555556,26.58525111111111]]},"properties":{"style":"solid","thickness":1}},{"type":"Feature","geometry":{"type":"LineString","coordinates":[[-82.00702830555555,26.58934325],[-82.00244158333334,26.58963936111111]]},"properties":{"style":"solid","thickness":1}},{"type":"Feature","geometry":{"type":"LineString","coordinates":[[-82.00054108333333,26.655988055555554],[-81.99860522222222,26.66503497222222],[-81.99462933333334,26.656369166666664],[-81.99261522222223,26.665421027777775],[-81.98902869444444,26.65673]]},"properties":{"style":"solid","thickness":1}},{"type":"Feature","geometry":{"type":"LineString","coordinates":[[-81.98583941666666,26.656935388888886],[-81.98226875,26.66608725],[-81.97751613888889,26.657471027777778]]},"properties":{"style":"solid","thickness":1}},{"type":"Feature","geometry":{"type":"LineString","coordinates":[[-81.98466775,26.659891138888888],[-81.97906691666667,26.66025158333333]]},"properties":{"style":"solid","thickness":1}},{"type":"Feature","geometry":{"type":"LineString","coordinates":[[-81.97495611111111,26.666557638888886],[-81.97051522222222,26.657921194444445],[-81.96764344444445,26.667027694444446]]},"properties":{"style":"solid","thickness":1}},{"type":"Feature","geometry":{"type":"LineString","coordinates":[[-81.96366977777778,26.658361027777776],[-81.96437605555556,26.667237583333335]]},"properties":{"style":"solid","thickness":1}},{"type":"Feature","geometry":{"type":"LineString","coordinates":[[-81.95590191666668,26.666868361111113],[-81.95665763888888,26.66752236111111],[-81.95681877777778,26.66758227777778],[-81.95784122222223,26.667657166666668],[-81.9586858611111,26.667462444444446],[-81.95913041666667,26.66715291666667],[-81.9595693888889,26.666773472222225],[-81.95990833333333,26.666119444444444],[-81.95978047222222,26.66451188888889],[-81.95926369444445,26.663912805555555],[-81.95893030555555,26.663653194444443],[-81.95773005555556,26.663308722222222],[-81.95637980555556,26.66304413888889],[-81.95541294444445,26.662684666666664],[-81.95506844444445,26.662285277777777],[-81.95483508333334,26.66131672222222],[-81.95491844444444,26.66039811111111],[-81.95526294444444,26.659813999999997],[-81.95562969444445,26.659509472222222],[-81.95592416666668,26.659279833333333],[-81.95629647222222,26.659045166666665],[-81.95713547222222,26.658780583333332],[-81.95760222222222,26.65875061111111],[-81.95808005555556,26.658860444444443],[-81.95872461111111,26.659100083333332],[-81.95913580555556,26.659354694444442],[-81.95972480555555,26.659878888888887]]},"properties":{"style":"solid","thickness":1}},{"type":"Feature","geometry":{"type":"LineString","coordinates":[[-81.98392772222222,26.616389361111114],[-81.98322586111111,26.607582722222222]]},"properties":{"style":"solid","thickness":1}},{"type":"Feature","geometry":{"type":"LineString","coordinates":[[-81.97731808333333,26.616814833333333],[-81.97661672222222,26.608008166666668]]},"properties":{"style":"solid","thickness":1}},{"type":"Feature","geometry":{"type":"LineString","coordinates":[[-81.98359905555556,26.61226563888889],[-81.97698966666667,26.612691083333335]]},"properties":{"style":"solid","thickness":1}},{"type":"Feature","geometry":{"type":"LineString","coordinates":[[-81.97350652777779,26.60820825],[-81.96993636111111,26.61735988888889],[-81.96518669444444,26.608743166666667]]},"properties":{"style":"solid","thickness":1}},{"type":"Feature","geometry":{"type":"LineString","coordinates":[[-81.97233502777777,26.611163944444446],[-81.9667365,26.61152391666667]]},"properties":{"style":"solid","thickness":1}},{"type":"Feature","geometry":{"type":"LineString","coordinates":[[-81.95947175,26.613536194444446],[-81.95562269444444,26.6093575]]},"properties":{"style":"solid","thickness":1}},{"type":"Feature","geometry":{"type":"LineString","coordinates":[[-81.96192097222223,26.60895302777778],[-81.96262677777779,26.617829666666665],[-81.95873866666668,26.61807938888889],[-81.9584165,26.617959583333334],[-81.95769441666667,26.617724944444443],[-81.95693902777778,26.617070916666666],[-81.95657241666667,26.616391944444445],[-81.95650577777778,26.615553194444445],[-81.95676127777779,26.614834277777778],[-81.95740558333334,26.61409038888889],[-81.95808319444444,26.61376588888889],[-81.95838311111112,26.613606111111114],[-81.96227108333333,26.61335638888889]]},"properties":{"style":"solid","thickness":1}},{"type":"Feature","geometry":{"type":"LineString","coordinates":[[-81.95243466666668,26.60956213888889],[-81.95049583333333,26.618608472222224],[-81.94652513888889,26.609941250000002],[-81.94450805555556,26.618992527777777],[-81.94092658333334,26.610300194444445]]},"properties":{"style":"solid","thickness":1}},{"type":"Feature","geometry":{"type":"LineString","coordinates":[[-81.93393788888889,26.618756583333333],[-81.93469316666668,26.619410722222224],[-81.93485422222223,26.619470638888888],[-81.93587625,26.619545694444444],[-81.93672058333334,26.61935111111111],[-81.93716500000001,26.61904161111111],[-81.93760386111111,26.61866225],[-81.93794277777778,26.61800827777778],[-81.93781530555556,26.616400666666667],[-81.93729883333334,26.6158015],[-81.93696563888889,26.61554186111111],[-81.93576594444446,26.615197194444445],[-81.93441630555556,26.61493238888889],[-81.93344991666667,26.61457277777778],[-81.93310563888889,26.614173305555557],[-81.93287255555556,26.613204722222225],[-81.93295605555556,26.612286111111114],[-81.93330055555556,26.611702055555558],[-81.93366716666667,26.611397583333336],[-81.93396158333334,26.611167972222223],[-81.93433377777778,26.610933361111112],[-81.93517247222222,26.610668888888892],[-81.93563902777778,26.61063902777778],[-81.93611666666666,26.61074891666667],[-81.93676091666667,26.61098863888889],[-81.93717186111111,26.611243333333334],[-81.93776052777778,26.611767611111112]]},"properties":{"style":"solid","thickness":1}},{"type":"Feature","geometry":{"type":"LineString","coordinates":[[-81.96317316666666,26.566673388888887],[-81.96392827777778,26.56732736111111],[-81.96408927777777,26.567387277777776],[-81.96511086111111,26.567462111111112],[-81.96595475000001,26.567267333333334],[-81.96639888888889,26.566957777777777],[-81.96683747222222,26.566578305555556],[-81.96717608333334,26.56592427777778],[-81.96704825,26.564316666666667],[-81.96653186111111,26.563717611111112],[-81.96619872222223,26.563458],[-81.9649995,26.563113611111113],[-81.96365041666667,26.562849055555557],[-81.96268436111112,26.56248963888889],[-81.96234013888889,26.56209025],[-81.96210691666667,26.561121694444445],[-81.96219016666667,26.560203055555558],[-81.96253433333334,26.55961891666667],[-81.96290072222223,26.559314361111113],[-81.96319494444445,26.559084694444444],[-81.96356688888889,26.55885002777778],[-81.96440516666667,26.55858538888889],[-81.9648715,26.55855538888889],[-81.96534894444444,26.558665222222224],[-81.96599297222222,26.558904805555557],[-81.96640380555556,26.559159416666667],[-81.96699233333334,26.559683583333335]]},"properties":{"style":"solid","thickness":1}},{"type":"Feature","geometry":{"type":"LineString","coordinates":[[-81.95384022222223,26.568186222222224],[-81.95523933333334,26.56809638888889],[-81.95593336111111,26.567981555555555],[-81.9572825,26.567262638888888],[-81.95850947222222,26.565989527777777],[-81.9589036388889,26.565050916666667],[-81.95904797222222,26.563917611111112],[-81.95897577777778,26.563008972222224],[-81.95875369444445,26.562180194444444],[-81.95829288888889,26.561296527777777],[-81.95734911111111,26.560233111111113],[-81.95701044444445,26.55990361111111],[-81.95635536111111,26.559524166666666],[-81.95500075,26.55918966666667],[-81.95336858333333,26.559294472222224],[-81.95260244444445,26.559484166666667],[-81.9518473888889,26.55981363888889],[-81.95139769444445,26.56005327777778],[-81.95066486111111,26.560662333333333],[-81.95003188888889,26.561546],[-81.94984311111112,26.56212013888889],[-81.94969313888889,26.563183527777777],[-81.94982627777779,26.564861027777777],[-81.95065897222223,26.56649363888889],[-81.95116975,26.56702288888889],[-81.95175266666666,26.567477222222223],[-81.95232452777778,26.567791777777778],[-81.95248552777778,26.567851694444443],[-81.95384022222223,26.568186222222224]]},"properties":{"style":"solid","thickness":1}},{"type":"Feature","geometry":{"type":"LineString","coordinates":[[-81.94692230555556,26.56863025],[-81.94132575,26.56898922222222]]},"properties":{"style":"solid","thickness":1}},{"type":"Feature","geometry":{"type":"LineString","coordinates":[[-81.94420177777778,26.56880477777778],[-81.94349769444445,26.559927944444446]]},"properties":{"style":"solid","thickness":1}},{"type":"Feature","geometry":{"type":"LineString","coordinates":[[-81.93157622222223,26.5691925],[-81.93206475000001,26.56944222222222],[-81.93261994444445,26.569547166666666],[-81.93448547222222,26.56942763888889],[-81.93517397222223,26.569243027777777],[-81.93540163888889,26.569158194444444],[-81.93651772222222,26.568454388888888],[-81.9371618888889,26.56771061111111],[-81.93733969444445,26.566996694444445],[-81.93778405555555,26.565703666666668],[-81.9376566388889,26.564096055555556],[-81.93744025000001,26.563337166666667],[-81.93715719444445,26.56272302777778],[-81.9367908888889,26.562044],[-81.93595272222223,26.561324944444443],[-81.93442055555556,26.560720611111112],[-81.93339352777778,26.56057566666667],[-81.93253855555557,26.560630444444445],[-81.931467,26.560909833333334],[-81.93109497222223,26.561144416666668],[-81.93079516666667,26.56130413888889]]},"properties":{"style":"solid","thickness":1}},{"type":"Feature","geometry":{"type":"LineString","coordinates":[[-81.92274805555556,26.570179194444446],[-81.92414725,26.570089666666668],[-81.92484127777779,26.569975],[-81.92619066666667,26.569256361111112],[-81.927418,26.567983527777777],[-81.92781241666667,26.567045],[-81.92795705555557,26.56591172222222],[-81.92788511111111,26.565003055555557],[-81.92766325000001,26.56417425],[-81.92720266666667,26.563290472222224],[-81.9262591388889,26.56222686111111],[-81.92592058333334,26.561897277777778],[-81.92526555555555,26.561517694444444],[-81.92391102777778,26.56118288888889],[-81.92227880555556,26.561287333333333],[-81.92151261111111,26.56147686111111],[-81.92075744444445,26.561806194444443],[-81.92030769444445,26.562045722222223],[-81.91957466666668,26.56265463888889],[-81.91894147222223,26.56353813888889],[-81.91875250000001,26.56411225],[-81.91860225,26.565175611111112],[-81.91873494444445,26.566853138888888],[-81.91956722222223,26.568485944444443],[-81.92007786111111,26.569015277777776],[-81.92066066666668,26.56946975],[-81.92123244444446,26.569784416666668],[-81.92139344444445,26.569844361111112],[-81.92274805555556,26.570179194444446]]},"properties":{"style":"solid","thickness":1}},{"type":"Feature","geometry":{"type":"LineString","coordinates":[[-82.08592058333333,26.585910805555553],[-82.08601075,26.586406805555555],[-82.086198,26.586880388888886],[-82.08647627777778,26.587316277777777],[-82.08683666666666,26.5877005],[-82.08726758333333,26.58802069444444],[-82.08775513888888,26.588266555555553],[-82.08828372222222,26.58843019444444],[-82.08883627777777,26.58850633333333],[-82.0893951111111,26.588492555555554],[-82.08994219444443,26.588389305555555],[-82.09046,26.58819986111111],[-82.09093183333333,26.587930333333333],[-82.09134258333333,26.587589388888887],[-82.091679,26.587187999999998],[-82.09193030555555,26.586739055555555],[-82.09208838888888,26.58625697222222],[-82.09214819444443,26.58575725],[-82.09210780555556,26.58525597222222],[-82.0919685,26.58476922222222],[-82.09173477777777,26.584312666666666],[-82.09141413888888,26.58390097222222],[-82.09101691666666,26.58354736111111],[-82.09055583333333,26.583263194444445],[-82.09004572222221,26.583057611111112],[-82.089503,26.58293725],[-82.08894508333333,26.582905944444445],[-82.08838991666666,26.582964694444446],[-82.08785533333332,26.583111638888887],[-82.08735852777777,26.58334202777778],[-82.08691547222222,26.583648472222222],[-82.0865403611111,26.584021138888886],[-82.08624530555555,26.584448],[-82.08603977777777,26.584915388888888],[-82.08593036111111,26.585408277777777],[-82.08592058333333,26.585910805555553]]},"properties":{"style":"solid","thickness":1}},{"type":"Feature","geometry":{"type":"LineString","coordinates":[[-82.08955241666666,26.592186527777777],[-82.08926422222221,26.590954083333333],[-82.08872769444444,26.58979075],[-82.08796133333333,26.588736555555553],[-82.08699147222222,26.58782786111111],[-82.08585158333332,26.587095916666666],[-82.08458091666667,26.586565944444445],[-82.08322319444444,26.58625619444444],[-82.08182519444443,26.58617733333333]]},"properties":{"style":"solid","thickness":1}},{"type":"Feature","geometry":{"type":"LineString","coordinates":[[-82.08182519444443,26.58617733333333],[-82.083196,26.585918305555555],[-82.08448994444444,26.58543597222222],[-82.08566244444444,26.584747],[-82.08667316666666,26.583875055555556],[-82.08748722222222,26.582850194444443],[-82.08807663888888,26.58170775],[-82.0884211111111,26.580487027777778],[-82.08850874999999,26.579230111111112]]},"properties":{"style":"solid","thickness":1}},{"type":"Feature","geometry":{"type":"LineString","coordinates":[[-82.08850874999999,26.579230111111112],[-82.08879691666667,26.580462583333333],[-82.08933338888889,26.581625916666667],[-82.09009972222222,26.582680083333333],[-82.09106955555555,26.583588777777777],[-82.09220944444444,26.584320694444443],[-82.09348013888888,26.58485058333333],[-82.0948378611111,26.585160249999998],[-82.09623586111111,26.58523897222222]]},"properties":{"style":"solid","thickness":1}},{"type":"Feature","geometry":{"type":"LineString","coordinates":[[-82.09623586111111,26.58523897222222],[-82.09486508333333,26.585498138888887],[-82.09357119444444,26.585980527777778],[-82.09239872222221,26.58666961111111],[-82.09138802777777,26.587541583333334],[-82.09057394444444,26.588566444444442],[-82.08998452777777,26.589708916666666],[-82.08964005555555,26.59092961111111],[-82.08955241666666,26.592186527777777]]},"properties":{"style":"solid","thickness":1}},{"type":"Feature","geometry":{"type":"LineString","coordinates":[[-82.046598,26.596040499999997],[-82.04668802777778,26.596536555555556],[-82.0468751388889,26.597010166666667],[-82.04715330555555,26.597446138888888],[-82.04751358333333,26.597830444444444],[-82.04794441666667,26.59815075],[-82.04843194444445,26.59839675],[-82.04896049999999,26.598560527777778],[-82.04951308333334,26.598636833333334],[-82.05007197222221,26.598623222222223],[-82.05061913888889,26.59852011111111],[-82.05113705555556,26.598330805555555],[-82.05160902777777,26.598061416666667],[-82.05201991666667,26.59772058333333],[-82.0523565,26.59731927777778],[-82.05260797222222,26.596870388888888],[-82.05276624999999,26.59638836111111],[-82.05282625,26.595888666666667],[-82.052786,26.59538736111111],[-82.05264686111111,26.59490058333333],[-82.05241327777777,26.594443972222223],[-82.05209275,26.594032166666665],[-82.05169558333333,26.593678444444443],[-82.05123455555555,26.593394166666666],[-82.0507245,26.593188444444444],[-82.05018175,26.593067916666666],[-82.04962380555556,26.59303647222222],[-82.04906855555555,26.593095055555555],[-82.04853388888888,26.59324186111111],[-82.04803697222222,26.59347211111111],[-82.04759375,26.593778444444442],[-82.0472185,26.594151],[-82.04692327777778,26.594577805555556],[-82.04671755555556,26.59504513888889],[-82.04660794444445,26.59553797222222],[-82.046598,26.596040499999997]]},"properties":{"style":"solid","thickness":1}},{"type":"Feature","geometry":{"type":"LineString","coordinates":[[-82.05022802777778,26.602317222222222],[-82.04994024999999,26.601084694444445],[-82.04940408333333,26.59992122222222],[-82.04863797222222,26.598866833333332],[-82.0476683611111,26.59795786111111],[-82.04652861111111,26.597225583333334],[-82.045258,26.596695277777776],[-82.04390027777778,26.596385138888888],[-82.04250216666667,26.59630588888889]]},"properties":{"style":"solid","thickness":1}},{"type":"Feature","geometry":{"type":"LineString","coordinates":[[-82.04250216666667,26.59630588888889],[-82.04387319444444,26.596047249999998],[-82.04516741666666,26.595565305555553],[-82.04634025,26.59487661111111],[-82.04735133333332,26.594004972222223],[-82.04816583333333,26.592980333333333],[-82.04875569444444,26.591838055555556],[-82.04910061111111,26.590617444444444],[-82.04918869444444,26.589360527777778]]},"properties":{"style":"solid","thickness":1}},{"type":"Feature","geometry":{"type":"LineString","coordinates":[[-82.04918869444444,26.589360527777778],[-82.04947644444444,26.590593055555555],[-82.05001258333333,26.591756555555556],[-82.05077863888889,26.592810944444444],[-82.05174822222222,26.593719888888888],[-82.05288797222222,26.59445211111111],[-82.05415858333333,26.59498236111111],[-82.05551633333333,26.595292388888886],[-82.05691441666666,26.595371527777775]]},"properties":{"style":"solid","thickness":1}},{"type":"Feature","geometry":{"type":"LineString","coordinates":[[-82.05691441666666,26.595371527777775],[-82.05554347222223,26.595630277777776],[-82.05424927777777,26.59611233333333],[-82.05307647222222,26.596801083333332],[-82.05206538888889,26.597672777777777],[-82.05125088888889,26.598697416666667],[-82.05066102777778,26.59983972222222],[-82.0503161111111,26.601060333333336],[-82.05022802777778,26.602317222222222]]},"properties":{"style":"solid","thickness":1}},{"type":"Feature","geometry":{"type":"LineString","coordinates":[[-81.99297530555556,26.609850444444447],[-81.99306511111111,26.61034652777778],[-81.99325202777779,26.610820222222223],[-81.99353002777778,26.61125627777778],[-81.99389016666667,26.611640750000003],[-81.99432091666667,26.611961194444447],[-81.99480838888888,26.61220738888889],[-81.99533691666667,26.612371361111112],[-81.99588955555555,26.61244788888889],[-81.9964485,26.612434472222223],[-81.99699580555556,26.612331555555556],[-81.99751386111112,26.612142444444444],[-81.997986,26.611873222222222],[-81.99839711111112,26.611532555555556],[-81.99873391666667,26.61113138888889],[-81.9989856388889,26.610682583333336],[-81.9991441388889,26.61020061111111],[-81.99920436111111,26.609700944444445],[-81.99916436111111,26.60919963888889],[-81.99902544444444,26.608712805555555],[-81.99879202777778,26.608256083333334],[-81.99847166666667,26.60784416666667],[-81.99807461111111,26.607490305555558],[-81.99761366666667,26.60720586111111],[-81.99710361111111,26.606999944444446],[-81.9965608611111,26.606879222222222],[-81.99600286111111,26.606847555555557],[-81.99544752777778,26.606905944444446],[-81.99491272222222,26.60705252777778],[-81.9944156388889,26.607282611111113],[-81.99397222222223,26.607588777777778],[-81.99359675,26.607961194444446],[-81.99330130555556,26.60838786111111],[-81.99309533333333,26.60885513888889],[-81.9929855,26.609347944444448],[-81.99297530555556,26.609850444444447]]},"properties":{"style":"solid","thickness":1}},{"type":"Feature","geometry":{"type":"LineString","coordinates":[[-81.99660288888889,26.61612852777778],[-81.99631563888889,26.614895888888892],[-81.99577991666666,26.613732194444445],[-81.99501422222222,26.61267752777778],[-81.99404491666667,26.611768194444444],[-81.99290536111111,26.61103552777778],[-81.99163486111111,26.610504722222224],[-81.99027708333334,26.610194083333333],[-81.98887886111112,26.610114305555555]]},"properties":{"style":"solid","thickness":1}},{"type":"Feature","geometry":{"type":"LineString","coordinates":[[-81.98887886111112,26.610114305555555],[-81.99025016666667,26.609856194444447],[-81.99154475,26.609374694444448],[-81.99271808333333,26.608686472222224],[-81.99372969444444,26.607815194444445],[-81.99454475,26.60679086111111],[-81.99513522222222,26.605648805555557],[-81.99548072222223,26.604428333333335],[-81.9955693888889,26.603171472222222]]},"properties":{"style":"solid","thickness":1}},{"type":"Feature","geometry":{"type":"LineString","coordinates":[[-81.9955693888889,26.603171472222222],[-81.99585661111111,26.604404083333336],[-81.99639227777777,26.60556777777778],[-81.99715794444444,26.606622444444447],[-81.99812722222222,26.60753177777778],[-81.99926677777778,26.608264416666668],[-82.00053730555555,26.60879513888889],[-82.00189508333334,26.609105666666668],[-82.00329330555556,26.609185333333336]]},"properties":{"style":"solid","thickness":1}},{"type":"Feature","geometry":{"type":"LineString","coordinates":[[-82.00329330555556,26.609185333333336],[-82.00192202777778,26.609443583333334],[-82.00062747222222,26.60992513888889],[-81.99945419444444,26.610613444444446],[-81.99844261111112,26.61148477777778],[-81.99762752777778,26.612509111111113],[-81.99703708333334,26.613651194444447],[-81.99669155555556,26.61487166666667],[-81.99660288888889,26.61612852777778]]},"properties":{"style":"solid","thickness":1}},{"type":"Feature","geometry":{"type":"LineString","coordinates":[[-82.00835461111112,26.658053555555554],[-82.00844452777778,26.65854963888889],[-82.00863155555555,26.659023277777777],[-82.00890972222223,26.65945933333333],[-82.00927008333333,26.65984375],[-82.00970102777778,26.660164138888888],[-82.01018875,26.660410277777775],[-82.01071752777777,26.660574194444443],[-82.01127041666666,26.66065063888889],[-82.01182958333334,26.660637166666664],[-82.01237708333333,26.660534194444445],[-82.01289533333333,26.660345055555553],[-82.01336766666667,26.660075777777777],[-82.0137788888889,26.65973508333333],[-82.01411577777777,26.659333861111108],[-82.01436752777778,26.658885055555555],[-82.01452605555555,26.658403055555553],[-82.01458622222222,26.657903388888887],[-82.01454613888889,26.65740208333333],[-82.01440708333334,26.656915249999997],[-82.01417352777777,26.656458583333333],[-82.01385297222222,26.65604672222222],[-82.01345569444445,26.655692888888886],[-82.01299452777778,26.65540847222222],[-82.01248425,26.655202638888888],[-82.01194125,26.65508197222222],[-82.011383,26.65505036111111],[-82.01082744444444,26.655108805555553],[-82.01029244444445,26.65525547222222],[-82.00979516666666,26.65548558333333],[-82.00935161111111,26.655791805555555],[-82.00897605555555,26.65616425],[-82.00868052777778,26.656590972222222],[-82.00847452777778,26.65705825],[-82.00836472222223,26.657551055555555],[-82.00835461111112,26.658053555555554]]},"properties":{"style":"solid","thickness":1}},{"type":"Feature","geometry":{"type":"LineString","coordinates":[[-82.01198452777778,26.664331194444443],[-82.01169697222223,26.66309861111111],[-82.0111608888889,26.66193497222222],[-82.01039475,26.660880388888888],[-82.00942491666666,26.659971166666665],[-82.00828477777777,26.65923861111111],[-82.00701366666667,26.65870797222222],[-82.00565530555555,26.6583975],[-82.0042565,26.658317861111108]]},"properties":{"style":"solid","thickness":1}},{"type":"Feature","geometry":{"type":"LineString","coordinates":[[-82.0042565,26.658317861111108],[-82.00562830555556,26.658059583333333],[-82.0069233888889,26.65757797222222],[-82.00809711111111,26.656889638888888],[-82.00910902777778,26.65601825],[-82.00992427777778,26.65499386111111],[-82.01051483333333,26.65385172222222],[-82.01086033333333,26.652631222222222],[-82.01094886111112,26.65137436111111]]},"properties":{"style":"solid","thickness":1}},{"type":"Feature","geometry":{"type":"LineString","coordinates":[[-82.01094886111112,26.65137436111111],[-82.01123636111112,26.652606944444443],[-82.01177241666667,26.653770583333333],[-82.01253852777778,26.65482513888889],[-82.0135083611111,26.655734361111108],[-82.01464847222222,26.65646686111111],[-82.01591961111112,26.656997444444443],[-82.01727797222222,26.65730783333333],[-82.01867677777777,26.657387305555552]]},"properties":{"style":"solid","thickness":1}},{"type":"Feature","geometry":{"type":"LineString","coordinates":[[-82.01867677777777,26.657387305555552],[-82.017305,26.65764572222222],[-82.01600997222222,26.658127444444442],[-82.01483630555556,26.65881586111111],[-82.01382438888889,26.659687277777778],[-82.01300911111112,26.660711694444444],[-82.01241855555556,26.661853833333332],[-82.01207305555556,26.66307433333333],[-82.01198452777778,26.664331194444443]]},"properties":{"style":"solid","thickness":1}},{"type":"Feature","geometry":{"type":"LineString","coordinates":[[-81.97760436111112,26.561647333333333],[-81.97769405555556,26.562143416666668],[-81.97788083333333,26.56261713888889],[-81.97815863888889,26.56305325],[-81.97851858333334,26.563437750000002],[-81.9789491111111,26.56375825],[-81.97943636111111,26.5640045],[-81.97996463888889,26.564168527777777],[-81.98051702777778,26.564245111111113],[-81.98107575,26.56423175],[-81.98162283333333,26.564128888888888],[-81.98214069444445,26.563939861111113],[-81.98261269444444,26.563670694444443],[-81.98302366666667,26.563330055555557],[-81.98336038888888,26.562928916666667],[-81.98361205555555,26.56248013888889],[-81.98377058333334,26.56199816666667],[-81.98383083333333,26.5614985],[-81.98379091666666,26.560997194444447],[-81.98365211111111,26.560510333333333],[-81.98341886111112,26.560053583333335],[-81.98309869444445,26.55964163888889],[-81.98270186111111,26.559287722222223],[-81.9822411388889,26.559003222222223],[-81.98173133333333,26.55879725],[-81.98118883333333,26.558676472222224],[-81.98063105555556,26.558644722222223],[-81.98007594444445,26.558703083333334],[-81.97954133333333,26.55884961111111],[-81.97904441666667,26.55907963888889],[-81.97860116666666,26.55938575],[-81.97822580555555,26.559758111111112],[-81.9779303888889,26.560184777777778],[-81.97772447222222,26.560652027777778],[-81.97761461111111,26.561144833333334],[-81.97760436111112,26.561647333333333]]},"properties":{"style":"solid","thickness":1}},{"type":"Feature","geometry":{"type":"LineString","coordinates":[[-81.98122958333333,26.56792586111111],[-81.98094261111112,26.566693194444444],[-81.98040727777779,26.565529444444444],[-81.97964205555556,26.56447466666667],[-81.97867325,26.563565222222223],[-81.97753427777778,26.562832416666666],[-81.9762643611111,26.562301472222224],[-81.97490722222223,26.561990694444447],[-81.97350958333334,26.56191075]]},"properties":{"style":"solid","thickness":1}},{"type":"Feature","geometry":{"type":"LineString","coordinates":[[-81.97350958333334,26.56191075],[-81.97488033333333,26.561652777777777],[-81.97617447222223,26.561171444444444],[-81.97734738888889,26.560483305555557],[-81.97835869444445,26.55961213888889],[-81.97917355555556,26.55858788888889],[-81.97976391666667,26.55744588888889],[-81.98010944444445,26.556225416666667],[-81.98019825,26.554968555555558]]},"properties":{"style":"solid","thickness":1}},{"type":"Feature","geometry":{"type":"LineString","coordinates":[[-81.98019825,26.554968555555558],[-81.98048519444444,26.55620125],[-81.98102047222223,26.557365],[-81.98178566666667,26.55841977777778],[-81.98275444444445,26.559329194444445],[-81.98389341666667,26.560061972222222],[-81.9851633611111,26.560592833333335],[-81.9865205,26.56090352777778],[-81.98791813888889,26.560983333333333]]},"properties":{"style":"solid","thickness":1}},{"type":"Feature","geometry":{"type":"LineString","coordinates":[[-81.98791813888889,26.560983333333333],[-81.98654741666667,26.561241444444445],[-81.98525333333333,26.56172286111111],[-81.98408044444444,26.562411055555557],[-81.98306916666667,26.563282277777777],[-81.98225430555556,26.564306527777777],[-81.98166391666666,26.565448555555555],[-81.9813183888889,26.566669],[-81.98122958333333,26.56792586111111]]},"properties":{"style":"solid","thickness":1}},{"type":"Feature","geometry":{"type":"LineString","coordinates":[[-82.10048491666666,26.585291416666667],[-82.1000276111111,26.579621]]},"properties":{"style":"solid","thickness":1}},{"type":"Feature","geometry":{"type":"LineString","coordinates":[[-82.09636574999999,26.579859666666668],[-82.09682286111111,26.585530111111108]]},"properties":{"style":"solid","thickness":1}},{"type":"Feature","geometry":{"type":"LineString","coordinates":[[-82.09659430555556,26.582694888888888],[-82.10025625,26.582456194444443]]},"properties":{"style":"solid","thickness":1}},{"type":"Feature","geometry":{"type":"LineString","coordinates":[[-82.09301105555555,26.58292836111111],[-82.09316811111111,26.58379188888889],[-82.09349413888889,26.58461636111111],[-82.09397866666666,26.585375222222222],[-82.09460613888888,26.58604408333333],[-82.0953563611111,26.58660147222222],[-82.09620522222222,26.58702947222222],[-82.09712544444444,26.587314305555555],[-82.09808744444445,26.58744683333333],[-82.09906033333333,26.58742277777778],[-82.10001277777778,26.587242916666664],[-82.10091419444444,26.586913055555556],[-82.10173563888888,26.586443777777777],[-82.10245063888888,26.585850166666667],[-82.10303627777778,26.585151277777776],[-82.10347366666666,26.584369638888887],[-82.10374883333333,26.583530333333332],[-82.10385286111111,26.582660333333333],[-82.10378244444443,26.58178761111111],[-82.1035398611111,26.58094022222222],[-82.10313288888888,26.580145388888887],[-82.10257463888888,26.579428666666665],[-82.101883,26.578813083333333],[-82.10108027777777,26.578318444444445],[-82.10019219444443,26.57796061111111],[-82.09924736111111,26.577751111111112],[-82.09827608333333,26.577696666666668],[-82.0973096111111,26.57779902777778],[-82.09637897222221,26.57805488888889],[-82.0955141111111,26.578456055555556],[-82.09474283333333,26.578989611111112],[-82.0940898611111,26.579638444444445],[-82.09357625,26.580381638888888],[-82.09321847222222,26.58119538888889],[-82.09302802777778,26.58205347222222],[-82.09301105555555,26.58292836111111]]},"properties":{"style":"solid","thickness":1}},{"type":"Feature","geometry":{"type":"LineString","coordinates":[[-81.966306,26.606004972222223],[-81.96513969444445,26.60607991666667],[-81.96445041666666,26.597412944444443]]},"properties":{"style":"solid","thickness":1}},{"type":"Feature","geometry":{"type":"LineString","coordinates":[[-81.95589247222223,26.60674416666667],[-81.95946919444445,26.606514500000003],[-81.96010222222222,26.602680222222222],[-81.95942466666666,26.60300475],[-81.95883041666667,26.603394166666668],[-81.9574308888889,26.60348405555556],[-81.95672,26.603389194444446],[-81.95598691666667,26.60301475],[-81.95513163888889,26.60208613888889],[-81.95490952777779,26.60125738888889],[-81.95482622222222,26.600208944444447],[-81.95523163888889,26.59941013888889],[-81.95571483333333,26.59860636111111],[-81.95593141666667,26.598381694444445],[-81.95637013888889,26.598002277777777],[-81.95713652777778,26.597812555555553],[-81.95799175,26.597757638888886],[-81.95862486111112,26.59785747222222],[-81.95942455555556,26.59808711111111],[-81.96016875000001,26.59860133333333],[-81.96026316666666,26.598806027777776]]},"properties":{"style":"solid","thickness":1}},{"type":"Feature","geometry":{"type":"LineString","coordinates":[[-82.02757369444444,26.58141075],[-82.02640766666667,26.581486194444444],[-82.025714,26.5728195]]},"properties":{"style":"solid","thickness":1}},{"type":"Feature","geometry":{"type":"LineString","coordinates":[[-82.02151036111111,26.581803027777777],[-82.02034436111111,26.581878416666665],[-82.01965111111112,26.573211694444446]]},"properties":{"style":"solid","thickness":1}}]}
