{"type":"FeatureCollection","features":[{"type":"Feature","geometry":{"type":"LineString","coordinates":[[-82.00989975,26.477693],[-82.02805488888889,26.48122247222222]]},"properties":{"style":"solid","thickness":1}},{"type":"Feature","geometry":{"type":"LineString","coordinates":[[-81.97359275000001,26.470627166666667],[-81.99174569444445,26.47416122222222]]},"properties":{"style":"solid","thickness":1}},{"type":"Feature","geometry":{"type":"LineString","coordinates":[[-81.93729011111111,26.463552083333333],[-81.95544088888889,26.467090777777777]]},"properties":{"style":"solid","thickness":1}},{"type":"Feature","geometry":{"type":"LineString","coordinates":[[-81.9009918888889,26.456467805555555],[-81.91914047222222,26.46001111111111]]},"properties":{"style":"solid","thickness":1}},{"type":"Feature","geometry":{"type":"LineString","coordinates":[[-81.85469866666666,26.471291833333332],[-81.86028319444443,26.467647944444444]]},"properties":{"style":"solid","thickness":1}},{"type":"Feature","geometry":{"type":"LineString","coordinates":[[-81.8854621388889,26.451213833333334],[-81.89035105555556,26.448022861111113]]},"properties":{"style":"solid","thickness":1}},{"type":"Feature","geometry":{"type":"LineString","coordinates":[[-81.91687577777778,26.430705361111112],[-81.92041280555556,26.428396444444445]]},"properties":{"style":"solid","thickness":1}},{"type":"Feature","geometry":{"type":"LineString","coordinates":[[-81.93544202777778,26.41858352777778],[-81.95046869444445,26.408769]]},"properties":{"style":"solid","thickness":1}},{"type":"Feature","geometry":{"type":"LineString","coordinates":[[-81.9053826388889,26.43820975],[-81.91164147222223,26.434122805555557]]},"properties":{"style":"solid","thickness":1}},{"type":"Feature","geometry":{"type":"LineString","coordinates":[[-81.87531791666666,26.45783561111111],[-81.88022716666666,26.45463088888889]]},"properties":{"style":"solid","thickness":1}},{"type":"Feature","geometry":{"type":"LineString","coordinates":[[-81.8545918611111,26.471222305555553],[-81.85636702777778,26.469835416666665],[-81.85846866666667,26.467970194444444],[-81.85961788888888,26.466811916666664]]},"properties":{"style":"solid","thickness":1}},{"type":"Feature","geometry":{"type":"LineString","coordinates":[[-81.86885463888888,26.45244222222222],[-81.86897858333333,26.452134694444442],[-81.86980713888889,26.449585055555556],[-81.87045433333333,26.446993222222222],[-81.87091758333332,26.444369694444443],[-81.87119505555555,26.44172497222222],[-81.8712856111111,26.43906975],[-81.87118894444444,26.436414666666668],[-81.871141,26.435967472222224]]},"properties":{"style":"solid","thickness":1}},{"type":"Feature","geometry":{"type":"LineString","coordinates":[[-81.86612647222222,26.419992194444447],[-81.86539694444444,26.41872113888889],[-81.86387897222221,26.416443249999997],[-81.86220363888889,26.414256638888887],[-81.86037772222221,26.412170055555553],[-81.8584086111111,26.410191944444442],[-81.85630416666666,26.408330222222222],[-81.85462247222222,26.40702044444444]]},"properties":{"style":"solid","thickness":1}},{"type":"Feature","geometry":{"type":"LineString","coordinates":[[-81.83842533333333,26.39908833333333],[-81.83571233333333,26.39841486111111],[-81.83282458333333,26.39787275],[-81.82990452777777,26.397496583333332],[-81.82696383333332,26.397287916666667],[-81.82401438888888,26.397247583333332],[-81.82106805555556,26.397375722222222],[-81.82007647222221,26.397475888888888]]},"properties":{"style":"solid","thickness":1}},{"type":"Feature","geometry":{"type":"LineString","coordinates":[[-81.80247263888889,26.40239886111111],[-81.80151222222221,26.402862805555554],[-81.800168,26.403614694444443]]},"properties":{"style":"solid","thickness":1}},{"type":"Feature","geometry":{"type":"LineString","coordinates":[[-81.84524511111111,26.477457694444443],[-81.84946191666666,26.474707805555553]]},"properties":{"style":"solid","thickness":1}},{"type":"Feature","geometry":{"type":"LineString","coordinates":[[-81.794823,26.406959916666665],[-81.78736044444445,26.41184261111111]]},"properties":{"style":"solid","thickness":1}},{"type":"Feature","geometry":{"type":"LineString","coordinates":[[-81.77234136111112,26.421667083333336],[-81.75731972222222,26.431489944444447]]},"properties":{"style":"solid","thickness":1}},{"type":"Feature","geometry":{"type":"LineString","coordinates":[[-81.98769158333333,26.39769286111111],[-81.98860816666667,26.39763372222222],[-81.98906280555556,26.397558277777776],[-81.98994652777778,26.397086416666667],[-81.99075011111111,26.396250944444443],[-81.99100816666667,26.39563508333333],[-81.99110252777778,26.3948915],[-81.99105508333334,26.394295361111112],[-81.99090944444444,26.393751638888887],[-81.99060741666666,26.393171916666667],[-81.98998891666666,26.39247436111111],[-81.989767,26.39225822222222],[-81.98933775,26.39200936111111],[-81.98845025,26.391790083333333],[-81.98738097222223,26.391859083333333],[-81.98687911111111,26.391983666666665],[-81.98638452777777,26.392199944444442],[-81.98608994444444,26.39235725],[-81.98560994444445,26.392756944444443],[-81.98519544444444,26.393336805555556],[-81.9850718888889,26.393713527777777],[-81.98497383333333,26.39441125],[-81.9850613888889,26.395511833333334],[-81.98560719444444,26.396582833333333],[-81.98594191666666,26.39693],[-81.98632388888889,26.397228],[-81.98669858333334,26.397434277777776],[-81.98680405555555,26.397473583333333],[-81.98769158333333,26.39769286111111]]},"properties":{"style":"solid","thickness":1}},{"type":"Feature","geometry":{"type":"LineString","coordinates":[[-81.98269652777778,26.392161305555554],[-81.98315966666667,26.397985249999998],[-81.981021,26.398123166666664],[-81.98056272222222,26.39815272222222],[-81.98018438888889,26.397900555555555],[-81.97990427777778,26.39759597222222],[-81.97988969444445,26.397412527777778],[-81.97981677777778,26.396495388888887],[-81.97985675,26.396354527777778],[-81.97998036111112,26.395977805555557],[-81.98045308333333,26.395486416666667],[-81.97992202777777,26.39524408333333],[-81.9796565,26.395122944444445],[-81.97938366666666,26.394910055555556],[-81.97919811111112,26.394507194444444],[-81.97910333333334,26.393314888888888],[-81.97923055555556,26.39298402777778],[-81.97956511111111,26.392685916666665],[-81.97980513888889,26.392486055555555],[-81.98004877777778,26.392332055555556],[-81.98269652777778,26.392161305555554]]},"properties":{"style":"solid","thickness":1}},{"type":"Feature","geometry":{"type":"LineString","coordinates":[[-81.98294813888889,26.3953255],[-81.98045308333333,26.395486416666667]]},"properties":{"style":"solid","thickness":1}},{"type":"Feature","geometry":{"type":"LineString","coordinates":[[-81.9742485,26.39855972222222],[-81.97735469444444,26.398359527777778],[-81.97689183333334,26.392535583333334],[-81.97373488888888,26.392739055555555]]},"properties":{"style":"solid","thickness":1}},{"type":"Feature","geometry":{"type":"LineString","coordinates":[[-81.97712144444445,26.395424638888887],[-81.97411716666667,26.39561825]]},"properties":{"style":"solid","thickness":1}},{"type":"Feature","geometry":{"type":"LineString","coordinates":[[-81.97226258333333,26.398687666666667],[-81.97179997222223,26.39286372222222],[-81.96930497222222,26.393024416666666]]},"properties":{"style":"solid","thickness":1}},{"type":"Feature","geometry":{"type":"LineString","coordinates":[[-81.96767966666667,26.39898283333333],[-81.96721727777778,26.39315886111111],[-81.96472225000001,26.3933195]]},"properties":{"style":"solid","thickness":1}},{"type":"Feature","geometry":{"type":"LineString","coordinates":[[-82.07275791666666,26.491622694444445],[-82.06985325,26.491811694444447]]},"properties":{"style":"solid","thickness":1}},{"type":"Feature","geometry":{"type":"LineString","coordinates":[[-82.06993616666666,26.494756305555555],[-82.07299380555556,26.494557361111113],[-82.07252575,26.48873386111111]]},"properties":{"style":"solid","thickness":1}},{"type":"Feature","geometry":{"type":"LineString","coordinates":[[-82.06438147222222,26.495117583333336],[-82.06529875,26.495057944444444],[-82.06575372222223,26.49498225],[-82.0666378611111,26.49450991666667],[-82.06744158333333,26.49367402777778],[-82.06769944444444,26.493058055555558],[-82.06779338888889,26.492314416666666],[-82.0677455,26.491718305555555],[-82.06759938888888,26.491174694444446],[-82.06729672222222,26.49059513888889],[-82.06667725,26.489897944444447],[-82.06645499999999,26.48968191666667],[-82.06602522222222,26.489433305555558],[-82.06513683333333,26.4892145],[-82.06406672222222,26.489284083333335],[-82.0635645,26.48940891666667],[-82.06306963888889,26.489625472222222],[-82.06277494444444,26.489782916666666],[-82.06229480555555,26.49018288888889],[-82.06188036111111,26.490762944444445],[-82.06175691666667,26.491139722222222],[-82.06165924999999,26.491837472222223],[-82.0617476111111,26.492938000000002],[-82.06229458333333,26.494008694444446],[-82.06262980555556,26.494355666666667],[-82.06301230555555,26.494653444444445],[-82.06338744444444,26.494859527777777],[-82.06349302777778,26.494898777777777],[-82.06438147222222,26.495117583333336]]},"properties":{"style":"solid","thickness":1}},{"type":"Feature","geometry":{"type":"LineString","coordinates":[[-82.05484016666666,26.494954],[-82.05506608333333,26.49521588888889],[-82.05554680555555,26.49546122222222],[-82.05585994444444,26.495533083333335],[-82.05673730555556,26.495614361111112],[-82.05704308333333,26.4955945],[-82.05764725,26.495463055555557],[-82.05814583333333,26.49529238888889],[-82.05824408333334,26.495239916666666],[-82.05858238888888,26.494987444444444],[-82.05891705555555,26.49468913888889],[-82.059466,26.49386988888889],[-82.05966191666667,26.49311963888889],[-82.05958097222222,26.492110833333335],[-82.05943488888889,26.491567194444446],[-82.05919791666666,26.491167750000002],[-82.05886272222222,26.490820777777778],[-82.05858216666667,26.490516361111112],[-82.05814138888888,26.49013013888889],[-82.05771899999999,26.489973222222222],[-82.05729661111111,26.489816277777777],[-82.05693252777778,26.48974775],[-82.05601527777777,26.489807333333335],[-82.05551305555555,26.48993213888889],[-82.05512011111111,26.490142055555555],[-82.05467986111111,26.49040111111111],[-82.05439249999999,26.49065025],[-82.05392702777777,26.491233611111113],[-82.05365438888889,26.49166616666667],[-82.05357452777777,26.491947916666668],[-82.05363338888888,26.492681583333333],[-82.05577369444444,26.492542583333336]]},"properties":{"style":"solid","thickness":1}},{"type":"Feature","geometry":{"type":"LineString","coordinates":[[-82.05137802777777,26.4901085],[-82.0490421388889,26.496114055555555],[-82.04592541666666,26.490462416666666]]},"properties":{"style":"solid","thickness":1}},{"type":"Feature","geometry":{"type":"LineString","coordinates":[[-82.0506115,26.492048111111114],[-82.0469423888889,26.49228627777778]]},"properties":{"style":"solid","thickness":1}},{"type":"Feature","geometry":{"type":"LineString","coordinates":[[-82.0437851111111,26.490601277777778],[-82.04425172222221,26.49642491666667],[-82.03802666666667,26.49097475],[-82.038493,26.49679838888889]]},"properties":{"style":"solid","thickness":1}},{"type":"Feature","geometry":{"type":"LineString","coordinates":[[-81.90978755555557,26.42851975],[-81.90933158333334,26.422741472222224]]},"properties":{"style":"solid","thickness":1}},{"type":"Feature","geometry":{"type":"LineString","coordinates":[[-81.90545797222222,26.42879663888889],[-81.90500222222222,26.423018333333335]]},"properties":{"style":"solid","thickness":1}},{"type":"Feature","geometry":{"type":"LineString","coordinates":[[-81.90957405555557,26.42581402777778],[-81.90524455555556,26.426090916666666]]},"properties":{"style":"solid","thickness":1}},{"type":"Feature","geometry":{"type":"LineString","coordinates":[[-81.90296486111112,26.423148583333333],[-81.90062263888889,26.429151805555556],[-81.89751491666668,26.42349686111111]]},"properties":{"style":"solid","thickness":1}},{"type":"Feature","geometry":{"type":"LineString","coordinates":[[-81.90219630555556,26.425087444444447],[-81.89852897222222,26.425321805555555]]},"properties":{"style":"solid","thickness":1}},{"type":"Feature","geometry":{"type":"LineString","coordinates":[[-81.89583455555557,26.429457694444444],[-81.89293080555557,26.42378963888889],[-81.89104647222223,26.429763444444447]]},"properties":{"style":"solid","thickness":1}},{"type":"Feature","geometry":{"type":"LineString","coordinates":[[-81.88844855555556,26.42407577777778],[-81.88890711111112,26.4299]]},"properties":{"style":"solid","thickness":1}},{"type":"Feature","geometry":{"type":"LineString","coordinates":[[-81.88625836111112,26.43006902777778],[-81.8825908611111,26.430302972222222]]},"properties":{"style":"solid","thickness":1}},{"type":"Feature","geometry":{"type":"LineString","coordinates":[[-81.88447555555557,26.43018275],[-81.88401722222223,26.42435852777778]]},"properties":{"style":"solid","thickness":1}},{"type":"Feature","geometry":{"type":"LineString","coordinates":[[-81.83140891666666,26.49659863888889],[-81.83172908333333,26.496762694444445],[-81.83209305555555,26.496831805555555],[-81.83331627777777,26.49675427777778],[-81.83376780555555,26.49663347222222],[-81.83391713888888,26.496577916666666],[-81.83464933333333,26.496116694444446],[-81.83507213888889,26.495629],[-81.8351891111111,26.495160694444447],[-81.83548122222221,26.494312583333333],[-81.8353986111111,26.493257777777778],[-81.83525716666666,26.492759777777778],[-81.83507194444444,26.492356722222222],[-81.83483216666666,26.491911055555555],[-81.834283,26.49143888888889],[-81.83327874999999,26.491041666666668],[-81.83260541666667,26.49094611111111],[-81.83204480555555,26.49098163888889],[-81.83134205555555,26.491164444444447],[-81.831098,26.491318194444446],[-81.83090130555556,26.491422833333335]]},"properties":{"style":"solid","thickness":1}},{"type":"Feature","geometry":{"type":"LineString","coordinates":[[-81.82612972222222,26.497209694444447],[-81.82923880555555,26.497012694444447],[-81.82878297222221,26.491188361111114],[-81.82562308333333,26.491388555555556]]},"properties":{"style":"solid","thickness":1}},{"type":"Feature","geometry":{"type":"LineString","coordinates":[[-81.8290091111111,26.494077611111113],[-81.82600202777778,26.49426811111111]]},"properties":{"style":"solid","thickness":1}},{"type":"Feature","geometry":{"type":"LineString","coordinates":[[-81.82414194444443,26.497335583333335],[-81.8236863611111,26.491511222222222],[-81.82118902777778,26.49166936111111]]},"properties":{"style":"solid","thickness":1}},{"type":"Feature","geometry":{"type":"LineString","coordinates":[[-81.81909938888889,26.491801666666667],[-81.81955475,26.49762602777778],[-81.81741405555555,26.4977615],[-81.81695533333333,26.497790527777777],[-81.81657702777777,26.497537944444446],[-81.81629711111111,26.497233055555558],[-81.81628275,26.497049611111112],[-81.81621108333333,26.496132361111112],[-81.81625127777778,26.495991555555555],[-81.81637552777778,26.495615],[-81.81684936111111,26.49512413888889],[-81.81631816666666,26.494881222222222],[-81.81605258333333,26.49475975],[-81.81577983333334,26.494546583333335],[-81.81559466666667,26.4941435],[-81.81550147222222,26.49295111111111],[-81.81562930555555,26.492620416666668],[-81.81596455555555,26.492322666666666],[-81.81620505555556,26.492123111111113],[-81.81644913888888,26.49196938888889],[-81.81909938888889,26.491801666666667]]},"properties":{"style":"solid","thickness":1}},{"type":"Feature","geometry":{"type":"LineString","coordinates":[[-81.81934677777777,26.494966083333335],[-81.81684936111111,26.49512413888889]]},"properties":{"style":"solid","thickness":1}},{"type":"Feature","geometry":{"type":"LineString","coordinates":[[-81.81012541666666,26.498222583333334],[-81.81104288888889,26.498164555555558],[-81.81149802777777,26.498089694444445],[-81.81238322222222,26.497618916666667],[-81.81318880555555,26.496784472222224],[-81.81344802777778,26.49616891666667],[-81.81354361111111,26.495425472222223],[-81.81349702777777,26.49482927777778],[-81.81335208333333,26.49428538888889],[-81.81305066666667,26.493705305555558],[-81.81243269444444,26.493007000000002],[-81.81221091666666,26.492790583333335],[-81.81178169444445,26.492541194444446],[-81.81089374999999,26.492320833333334],[-81.80982344444445,26.4923885],[-81.80932094444444,26.492512444444447],[-81.80882558333333,26.49272813888889],[-81.80853052777778,26.492885055555558],[-81.8080495,26.49328416666667],[-81.80763377777778,26.4938635],[-81.80750952777778,26.494240055555558],[-81.80741033333334,26.49493763888889],[-81.80749625,26.496038305555558],[-81.80804091666667,26.49711],[-81.80837538888889,26.497457555555556],[-81.80875725,26.49775602777778],[-81.80913194444445,26.49796277777778],[-81.80923744444443,26.498002194444446],[-81.81012541666666,26.498222583333334]]},"properties":{"style":"solid","thickness":1}},{"type":"Feature","geometry":{"type":"LineString","coordinates":[[-81.89555183333334,26.47737247222222],[-81.89188283333334,26.477606666666667]]},"properties":{"style":"solid","thickness":1}},{"type":"Feature","geometry":{"type":"LineString","coordinates":[[-81.89376830555557,26.47748633333333],[-81.89330930555556,26.47166219444444]]},"properties":{"style":"solid","thickness":1}},{"type":"Feature","geometry":{"type":"LineString","coordinates":[[-81.88612455555557,26.477974027777776],[-81.88704180555557,26.477915527777775],[-81.88749680555556,26.477840416666666],[-81.88838155555557,26.477369166666666],[-81.88918644444445,26.476534305555553],[-81.88944522222224,26.47591861111111],[-81.88954030555556,26.47517511111111],[-81.88949333333333,26.474578944444442],[-81.88934805555556,26.47403511111111],[-81.88904633333334,26.473455194444444],[-81.888428,26.47275722222222],[-81.88820611111112,26.472540916666667],[-81.88777680555556,26.472291749999997],[-81.88688888888889,26.47207186111111],[-81.88581880555556,26.47214011111111],[-81.88531647222223,26.47226433333333],[-81.88482136111112,26.472480249999997],[-81.88452644444445,26.47263733333333],[-81.88404577777779,26.473036694444442],[-81.88363047222222,26.473616277777776],[-81.88350650000001,26.473992888888887],[-81.88340777777779,26.474690527777778],[-81.88349441666668,26.475791166666664],[-81.88403969444445,26.476862555555552],[-81.88437430555557,26.477209944444443],[-81.88475630555556,26.477508194444443],[-81.88513105555556,26.477714749999997],[-81.88523658333334,26.47775411111111],[-81.88612455555557,26.477974027777776]]},"properties":{"style":"solid","thickness":1}},{"type":"Feature","geometry":{"type":"LineString","coordinates":[[-81.88158922222222,26.47826319444444],[-81.88122469444444,26.47363136111111],[-81.88115569444444,26.473405305555556],[-81.88076288888888,26.47296947222222],[-81.88048647222222,26.472710527777775],[-81.88006436111111,26.47255308333333],[-81.87950024999999,26.47254294444444],[-81.87868494444444,26.472594916666665],[-81.87822994444444,26.472669999999997],[-81.8776365,26.47293825],[-81.87730505555555,26.473281999999998],[-81.87712288888888,26.47357013888889],[-81.87705344444444,26.47398938888889],[-81.8774106111111,26.478529499999997]]},"properties":{"style":"solid","thickness":1}},{"type":"Feature","geometry":{"type":"LineString","coordinates":[[-81.87526672222222,26.47862],[-81.87481224999999,26.472841638888887]]},"properties":{"style":"solid","thickness":1}},{"type":"Feature","geometry":{"type":"LineString","coordinates":[[-81.87093516666665,26.478895833333333],[-81.87048094444444,26.47311747222222]]},"properties":{"style":"solid","thickness":1}},{"type":"Feature","geometry":{"type":"LineString","coordinates":[[-81.87505391666666,26.47591425],[-81.87072247222221,26.47619011111111]]},"properties":{"style":"solid","thickness":1}},{"type":"Feature","geometry":{"type":"LineString","coordinates":[[-81.86884944444444,26.479074722222222],[-81.8663735,26.47559122222222],[-81.86451788888888,26.47935036111111]]},"properties":{"style":"solid","thickness":1}},{"type":"Feature","geometry":{"type":"LineString","coordinates":[[-81.8663735,26.47559122222222],[-81.86620413888889,26.473435805555553]]},"properties":{"style":"solid","thickness":1}},{"type":"Feature","geometry":{"type":"LineString","coordinates":[[-81.88293825,26.469534694444445],[-81.88295991666666,26.46980986111111],[-81.88288324999999,26.47013736111111],[-81.88271191666666,26.470563111111108],[-81.88252977777778,26.47085125],[-81.88223847222221,26.47105419444444],[-81.88183805555555,26.471171888888886],[-81.88107369444444,26.47122061111111],[-81.88050597222221,26.471164638888887],[-81.8802403611111,26.471043277777778],[-81.87985841666666,26.470744999999997],[-81.87973847222221,26.47052219444444],[-81.87960769444443,26.470161805555556],[-81.87954994444443,26.469428055555554],[-81.87963022222222,26.469146416666664],[-81.88001302777778,26.468154111111108],[-81.88057394444444,26.467473111111108],[-81.8814735,26.466540055555555],[-81.88255519444444,26.46531886111111],[-81.87934516666667,26.465523472222223]]},"properties":{"style":"solid","thickness":1}},{"type":"Feature","geometry":{"type":"LineString","coordinates":[[-81.87368477777777,26.467128555555554],[-81.87725155555555,26.466901333333333],[-81.87460230555556,26.47163297222222],[-81.87415511111111,26.46594636111111]]},"properties":{"style":"solid","thickness":1}},{"type":"Feature","geometry":{"type":"LineString","coordinates":[[-81.90204316666667,26.420001666666668],[-81.90202116666667,26.420371805555558],[-81.90193736111112,26.420607611111112],[-81.90161338888889,26.42104313888889],[-81.90132225,26.421246111111113],[-81.90103111111112,26.421449083333336],[-81.90057994444444,26.421570083333336],[-81.90032527777778,26.421586361111114],[-81.89975777777778,26.421530444444446],[-81.89927405555557,26.421238722222224],[-81.89894316666667,26.420937222222225],[-81.89887055555556,26.420665333333336],[-81.89879825000001,26.41974813888889],[-81.89898030555557,26.419459972222224],[-81.89931152777778,26.41911616666667],[-81.899741,26.41872],[-81.90009752777779,26.418697194444444]]},"properties":{"style":"solid","thickness":1}},{"type":"Feature","geometry":{"type":"LineString","coordinates":[[-81.899741,26.41872],[-81.8991045,26.41843802777778],[-81.89888633333334,26.418267611111112],[-81.89860636111112,26.41796286111111],[-81.89854458333333,26.41782852777778],[-81.89846113888889,26.417419055555555],[-81.89845027777778,26.417281472222225],[-81.89847230555556,26.416911333333335],[-81.89855247222224,26.416629666666665],[-81.89878183333335,26.416292388888888],[-81.89906936111112,26.416043555555554],[-81.89955697222223,26.41573586111111],[-81.9007283888889,26.415661],[-81.90109575000001,26.415775777777775],[-81.90168491666667,26.41610686111111],[-81.90179400000001,26.416192055555555],[-81.90198294444446,26.41664088888889],[-81.90199741666667,26.416824333333334]]},"properties":{"style":"solid","thickness":1}},{"type":"Feature","geometry":{"type":"LineString","coordinates":[[-81.89295652777778,26.418369833333333],[-81.8930648888889,26.41974563888889],[-81.89327908333334,26.4205155],[-81.89340986111112,26.420875861111114],[-81.89358433333334,26.421141277777778],[-81.89423888888889,26.421652555555557],[-81.8948681388889,26.421842833333333],[-81.89507188888889,26.421829805555557],[-81.89566502777778,26.421561472222223],[-81.89618191666668,26.42097536111111],[-81.89636397222223,26.420687194444447],[-81.89643694444445,26.42031380555556],[-81.89652830555556,26.419524444444445],[-81.89641991666667,26.41814863888889],[-81.89620569444445,26.417378777777778],[-81.89607491666668,26.417018416666668],[-81.89584950000001,26.41675627777778],[-81.89524591666667,26.41624172222222],[-81.89461666666668,26.41605147222222],[-81.89441294444445,26.41606447222222],[-81.89381983333334,26.416332805555555],[-81.893252,26.41692216666667],[-81.8931208888889,26.417207083333334],[-81.89304791666667,26.417580472222223],[-81.89295652777778,26.418369833333333]]},"properties":{"style":"solid","thickness":1}},{"type":"Feature","geometry":{"type":"LineString","coordinates":[[-81.82423386111111,26.489154305555555],[-81.82346938888888,26.489202722222224],[-81.82302463888888,26.483515944444445]]},"properties":{"style":"solid","thickness":1}},{"type":"Feature","geometry":{"type":"LineString","coordinates":[[-81.81740808333333,26.489632555555556],[-81.81975249999999,26.489484166666667],[-81.82017047222222,26.486968944444445],[-81.81972613888888,26.48718141666667],[-81.81933633333333,26.487436527777778],[-81.81841897222222,26.487494611111114],[-81.81795313888888,26.48743191666667],[-81.81747294444445,26.48718577777778],[-81.8169131111111,26.486575972222223],[-81.81676816666666,26.486032083333335],[-81.81671441666666,26.485344166666668],[-81.81698077777777,26.484820333333335],[-81.81729808333333,26.48429327777778],[-81.81744022222222,26.48414602777778],[-81.81772808333334,26.48389736111111],[-81.81823052777777,26.48377338888889],[-81.81879113888888,26.48373791666667],[-81.819206,26.483803833333333],[-81.81972997222222,26.483955],[-81.82021733333333,26.48429286111111],[-81.82027905555555,26.484427222222223]]},"properties":{"style":"solid","thickness":1}},{"type":"Feature","geometry":{"type":"LineString","coordinates":[[-81.84747422222222,26.462759305555554],[-81.84793088888888,26.46858361111111],[-81.8453831111111,26.468745388888888],[-81.84517208333332,26.46866661111111],[-81.84469911111111,26.468512277777776],[-81.84420458333332,26.468082805555554],[-81.84396480555554,26.467637138888886],[-81.84392166666666,26.467086805555553],[-81.84408955555556,26.46661525],[-81.84451219444443,26.466127527777775],[-81.84495641666666,26.465914972222222],[-81.84515302777777,26.465810305555554],[-81.84770075,26.465648527777777]]},"properties":{"style":"solid","thickness":1}},{"type":"Feature","geometry":{"type":"LineString","coordinates":[[-81.83880980555556,26.46916261111111],[-81.84191811111111,26.46896536111111],[-81.84146175,26.463141027777777],[-81.83830263888889,26.46334152777778]]},"properties":{"style":"solid","thickness":1}},{"type":"Feature","geometry":{"type":"LineString","coordinates":[[-81.84168813888888,26.466030277777776],[-81.83868180555555,26.466221055555554]]},"properties":{"style":"solid","thickness":1}},{"type":"Feature","geometry":{"type":"LineString","coordinates":[[-81.83475827777777,26.466469944444444],[-81.83223916666667,26.46372611111111]]},"properties":{"style":"solid","thickness":1}},{"type":"Feature","geometry":{"type":"LineString","coordinates":[[-81.83636641666666,26.46346436111111],[-81.83682252777777,26.469288694444444],[-81.83427472222222,26.469450305555554],[-81.83406369444444,26.469371499999998],[-81.83359072222221,26.469217138888887],[-81.83309622222222,26.46878761111111],[-81.83285649999999,26.468341916666667],[-81.83281341666667,26.46779158333333],[-81.83298136111111,26.467320055555554],[-81.83340405555555,26.46683236111111],[-81.83384827777778,26.466619833333333],[-81.83404491666666,26.466515194444444],[-81.83659266666666,26.466353583333333]]},"properties":{"style":"solid","thickness":1}},{"type":"Feature","geometry":{"type":"LineString","coordinates":[[-81.82698794444444,26.46991222222222],[-81.82790516666667,26.46985408333333],[-81.82836016666667,26.469779166666665],[-81.82924508333333,26.469308277777778],[-81.83005033333333,26.468473749999998],[-81.83030941666667,26.467858166666666],[-81.8304048611111,26.467114694444444],[-81.83035822222222,26.4665185],[-81.83021322222221,26.465974638888888],[-81.82991180555555,26.46539458333333],[-81.82929388888888,26.464696333333332],[-81.82907213888889,26.464479944444445],[-81.82864297222221,26.46423061111111],[-81.82775522222222,26.46401036111111],[-81.82668519444444,26.464078166666667],[-81.82618280555555,26.464202166666666],[-81.8256876111111,26.46441788888889],[-81.82539266666666,26.46457486111111],[-81.82491180555556,26.464974027777778],[-81.82449625,26.465553416666665],[-81.82437208333333,26.46593],[-81.82427302777778,26.46662758333333],[-81.82435908333333,26.467728249999997],[-81.82490377777778,26.46879988888889],[-81.82523822222223,26.46914738888889],[-81.82562,26.46944583333333],[-81.82599463888889,26.469652527777775],[-81.82610013888889,26.469691944444442],[-81.82698794444444,26.46991222222222]]},"properties":{"style":"solid","thickness":1}},{"type":"Feature","geometry":{"type":"LineString","coordinates":[[-81.81934438888888,26.47039636111111],[-81.82245277777777,26.470199527777776],[-81.82199738888889,26.464375138888887],[-81.81883822222221,26.464575166666666]]},"properties":{"style":"solid","thickness":1}},{"type":"Feature","geometry":{"type":"LineString","coordinates":[[-81.82222327777778,26.467264388888886],[-81.81921688888889,26.467454777777775]]},"properties":{"style":"solid","thickness":1}},{"type":"Feature","geometry":{"type":"LineString","coordinates":[[-81.73044533333334,26.419629305555556],[-81.73401094444445,26.41940563888889],[-81.73135694444444,26.424134694444447],[-81.73091694444444,26.418447583333336]]},"properties":{"style":"solid","thickness":1}},{"type":"Feature","geometry":{"type":"LineString","coordinates":[[-81.72491669444445,26.420943750000003],[-81.72502305555555,26.422319694444447],[-81.72523616666666,26.423089805555556],[-81.72536641666667,26.423450333333335],[-81.72554050000001,26.42371591666667],[-81.72619433333334,26.424227972222223],[-81.72682333333333,26.424418972222224],[-81.72702708333334,26.424406194444444],[-81.7276206388889,26.424138555555558],[-81.7281383888889,26.42355305555556],[-81.72832086111111,26.423265111111114],[-81.72839436111111,26.422891805555558],[-81.7284868888889,26.422102527777778],[-81.72838047222223,26.420726611111114],[-81.72816733333333,26.4199565],[-81.72803708333333,26.419595972222222],[-81.72781205555556,26.419333583333334],[-81.72720919444444,26.418818333333334],[-81.72658022222222,26.418627333333333],[-81.72637647222223,26.418640111111113],[-81.72578294444445,26.418907750000002],[-81.72521425000001,26.419496444444444],[-81.72508272222223,26.419781194444447],[-81.72500922222223,26.420154500000002],[-81.72491669444445,26.420943750000003]]},"properties":{"style":"solid","thickness":1}},{"type":"Feature","geometry":{"type":"LineString","coordinates":[[-81.73839227777778,26.43102852777778],[-81.73861736111111,26.43129091666667],[-81.7390971388889,26.431537333333335],[-81.73940991666667,26.431609861111113],[-81.74028658333333,26.431693083333336],[-81.74059225,26.431673916666668],[-81.74119644444444,26.431543805555556],[-81.74169519444445,26.431374222222225],[-81.74179352777777,26.431321972222225],[-81.74213236111112,26.43107025],[-81.7424676388889,26.43077266666667],[-81.74301852777778,26.42995461111111],[-81.7432163888889,26.429204805555557],[-81.74313822222223,26.428195805555557],[-81.74299369444445,26.427651833333336],[-81.74275794444445,26.427251861111113],[-81.7424238888889,26.42690413888889],[-81.74214430555556,26.426599083333336],[-81.74170483333333,26.426211916666666],[-81.74128308333333,26.426054055555557],[-81.74086136111112,26.425896166666668],[-81.74049769444444,26.425826833333335],[-81.73958077777777,26.42588438888889],[-81.73907847222222,26.426008111111113],[-81.73868516666667,26.42621713888889],[-81.73824444444445,26.426475250000003],[-81.73795658333333,26.42672375],[-81.73748977777778,26.427306083333335],[-81.73721608333334,26.427738027777778],[-81.73713552777778,26.42801961111111],[-81.73719233333334,26.42875341666667],[-81.73933186111111,26.42861913888889]]},"properties":{"style":"solid","thickness":1}},{"type":"Feature","geometry":{"type":"LineString","coordinates":[[-81.73534516666666,26.432003222222225],[-81.73498658333334,26.427371],[-81.73491791666667,26.427144861111113],[-81.73452583333334,26.426708611111113],[-81.73424983333334,26.42644938888889],[-81.73382811111111,26.4262915],[-81.73326422222222,26.426280805555557],[-81.73244916666667,26.42633191666667],[-81.73199425,26.426406555555555],[-81.73140072222222,26.426674222222225],[-81.73106897222222,26.42701761111111],[-81.7308865,26.427305583333336],[-81.73081655555556,26.42772475],[-81.73116786111112,26.43226527777778]]},"properties":{"style":"solid","thickness":1}},{"type":"Feature","geometry":{"type":"LineString","coordinates":[[-81.72902825,26.432399444444446],[-81.72857769444444,26.426574722222224],[-81.72608161111111,26.426731194444447]]},"properties":{"style":"solid","thickness":1}},{"type":"Feature","geometry":{"type":"LineString","coordinates":[[-81.72444338888889,26.432686833333335],[-81.72399305555555,26.426862111111113],[-81.72149697222223,26.427018500000003]]},"properties":{"style":"solid","thickness":1}},{"type":"Feature","geometry":{"type":"LineString","coordinates":[[-81.71963166666667,26.430038777777778],[-81.71672794444444,26.43022063888889]]},"properties":{"style":"solid","thickness":1}},{"type":"Feature","geometry":{"type":"LineString","coordinates":[[-81.7168018888889,26.4331655],[-81.7198585,26.432974083333335],[-81.7194083888889,26.427149333333336]]},"properties":{"style":"solid","thickness":1}},{"type":"Feature","geometry":{"type":"LineString","coordinates":[[-81.78927127777777,26.397736305555554],[-81.78976533333334,26.398166],[-81.78987074999999,26.398205416666666],[-81.79053994444445,26.39825533333333],[-81.791093,26.39812825],[-81.79138425,26.3979255],[-81.79167194444445,26.39767688888889],[-81.79189444444444,26.397248027777778],[-81.79181230555555,26.396193194444443],[-81.79147461111111,26.395799722222222],[-81.79125661111111,26.39562913888889],[-81.79047130555556,26.395402194444443],[-81.78958772222222,26.395227555555554],[-81.78895522222221,26.39499097222222],[-81.78873008333333,26.394728666666666],[-81.78857825,26.394092999999998],[-81.78863369444444,26.39349036111111],[-81.78885975,26.39310738888889],[-81.78910008333334,26.392907861111112],[-81.78929308333333,26.392757416666665],[-81.789537,26.39260375],[-81.79008644444444,26.392430777777776],[-81.79039197222222,26.392411499999998],[-81.79070466666667,26.392483916666666],[-81.79112633333334,26.39264163888889],[-81.79139525,26.392809],[-81.79178027777778,26.393153388888887]]},"properties":{"style":"solid","thickness":1}},{"type":"Feature","geometry":{"type":"LineString","coordinates":[[-81.78631808333333,26.392668694444446],[-81.78677138888888,26.398493277777778],[-81.78422505555555,26.39865397222222],[-81.78401422222223,26.39857511111111],[-81.7835416111111,26.398420583333333],[-81.78304758333333,26.397990888888888],[-81.78280819444444,26.39754511111111],[-81.78276538888889,26.39699475],[-81.78293338888889,26.396523277777778],[-81.78335605555556,26.396035722222223],[-81.7838001111111,26.395823333333333],[-81.78399666666667,26.395718777777777],[-81.78654294444445,26.395558055555554]]},"properties":{"style":"solid","thickness":1}},{"type":"Feature","geometry":{"type":"LineString","coordinates":[[-81.78030902777778,26.393047888888887],[-81.78076202777778,26.398872472222223],[-81.77455455555555,26.393410777777778],[-81.77500727777777,26.39923538888889]]},"properties":{"style":"solid","thickness":1}},{"type":"Feature","geometry":{"type":"LineString","coordinates":[[-81.77291927777777,26.399366999999998],[-81.77246663888889,26.39354238888889]]},"properties":{"style":"solid","thickness":1}},{"type":"Feature","geometry":{"type":"LineString","coordinates":[[-81.76940172222223,26.399542555555556],[-81.77269116666666,26.396431749999998],[-81.76890191666666,26.393767]]},"properties":{"style":"solid","thickness":1}},{"type":"Feature","geometry":{"type":"LineString","coordinates":[[-81.76410880555555,26.399922],[-81.76721538888889,26.39972636111111],[-81.76676305555556,26.39390175],[-81.76360569444445,26.394100583333334]]},"properties":{"style":"solid","thickness":1}},{"type":"Feature","geometry":{"type":"LineString","coordinates":[[-81.76698744444444,26.39679111111111],[-81.76398277777778,26.39698033333333]]},"properties":{"style":"solid","thickness":1}},{"type":"Feature","geometry":{"type":"LineString","coordinates":[[-81.77918580555556,26.385684805555556],[-81.78275027777778,26.385459944444445],[-81.78009902777778,26.390189916666667],[-81.77965677777777,26.384502916666666]]},"properties":{"style":"solid","thickness":1}},{"type":"Feature","geometry":{"type":"LineString","coordinates":[[-81.77365930555555,26.387001138888888],[-81.77376622222222,26.388377055555555],[-81.77397958333333,26.389147083333334],[-81.77410994444445,26.389507583333334],[-81.77428411111111,26.38977311111111],[-81.77493794444445,26.390284944444446],[-81.77556686111112,26.39047575],[-81.77577055555555,26.390462888888887],[-81.77636380555555,26.390195055555555],[-81.77688116666667,26.38960936111111],[-81.77706347222222,26.38932136111111],[-81.77713680555556,26.388948027777776],[-81.77722894444445,26.388158722222222],[-81.77712197222222,26.38678283333333],[-81.77690861111111,26.386012777777776],[-81.77677824999999,26.385652305555556],[-81.77655316666666,26.38538997222222],[-81.77595025,26.384874944444444],[-81.77532138888888,26.38468413888889],[-81.77511769444445,26.384697],[-81.77452447222223,26.38496483333333],[-81.77395619444444,26.385553722222223],[-81.77382480555555,26.38583852777778],[-81.77375147222222,26.386211833333334],[-81.77365930555555,26.387001138888888]]},"properties":{"style":"solid","thickness":1}},{"type":"Feature","geometry":{"type":"LineString","coordinates":[[-81.74837677777778,26.435500694444446],[-81.74846541666666,26.435996944444444],[-81.74865102777778,26.43647097222222],[-81.74892769444445,26.436907527777777],[-81.7492865,26.43729261111111],[-81.74971591666667,26.437613833333334],[-81.7502021388889,26.437860833333332],[-81.75072952777778,26.43802572222222],[-81.75128116666667,26.438103194444444],[-81.75183930555555,26.438090722222224],[-81.752386,26.43798875],[-81.75290366666667,26.437800527777778],[-81.75337569444444,26.43753211111111],[-81.75378688888888,26.43719213888889],[-81.75412405555555,26.4367915],[-81.75437633333334,26.43634313888889],[-81.75453561111111,26.43586141666667],[-81.75459680555555,26.435361833333335],[-81.75455791666667,26.434860416666666],[-81.75442022222222,26.434373333333333],[-81.75418813888889,26.433916222222223],[-81.75386911111111,26.43350375],[-81.75347341666667,26.433149194444447],[-81.75301375,26.432863944444446],[-81.7525048888889,26.43265716666667],[-81.75196322222222,26.4325355],[-81.75140611111111,26.43250286111111],[-81.7508515,26.43256030555556],[-81.75031719444445,26.432706],[-81.7498203611111,26.432935222222223],[-81.74937697222222,26.43324063888889],[-81.74900127777778,26.433612444444446],[-81.7487053611111,26.43403863888889],[-81.74849872222222,26.434505555555557],[-81.748388,26.434998194444443],[-81.74837677777778,26.435500694444446]]},"properties":{"style":"solid","thickness":1}},{"type":"Feature","geometry":{"type":"LineString","coordinates":[[-81.75198566666667,26.441785166666666],[-81.75170144444445,26.440552027777777],[-81.751169,26.43938738888889],[-81.75040666666666,26.43833136111111],[-81.74944072222222,26.437420333333332],[-81.74830444444444,26.436685694444446],[-81.74703694444445,26.436152694444445],[-81.7456818888889,26.43583975],[-81.74428591666667,26.435757583333334]]},"properties":{"style":"solid","thickness":1}},{"type":"Feature","geometry":{"type":"LineString","coordinates":[[-81.74428591666667,26.435757583333334],[-81.74565569444445,26.435501777777777],[-81.7469493888889,26.4350225],[-81.74812238888889,26.43433625],[-81.74913430555556,26.433466666666668],[-81.74995033333333,26.432443694444444],[-81.75054230555556,26.43130261111111],[-81.7508898611111,26.430082666666667],[-81.75098105555556,26.428825916666668]]},"properties":{"style":"solid","thickness":1}},{"type":"Feature","geometry":{"type":"LineString","coordinates":[[-81.75098105555556,26.428825916666668],[-81.75126525,26.430059083333333],[-81.75179766666666,26.431223722222224],[-81.75255994444444,26.432279750000003],[-81.75352586111111,26.43319075],[-81.75466213888889,26.43392536111111],[-81.75592966666666,26.43445827777778],[-81.75728472222222,26.434771138888888],[-81.75868069444445,26.434853166666667]]},"properties":{"style":"solid","thickness":1}},{"type":"Feature","geometry":{"type":"LineString","coordinates":[[-81.75868069444445,26.434853166666667],[-81.75731094444444,26.435109083333334],[-81.75601730555556,26.43558847222222],[-81.75484433333334,26.43627477777778],[-81.75383241666667,26.437144416666666],[-81.75301641666667,26.43816738888889],[-81.75242441666667,26.4393085],[-81.7520768611111,26.440528444444446],[-81.75198566666667,26.441785166666666]]},"properties":{"style":"solid","thickness":1}},{"type":"Feature","geometry":{"type":"LineString","coordinates":[[-81.79433044444444,26.405446138888887],[-81.79441925,26.40594236111111],[-81.794605,26.406416333333333],[-81.79488175,26.406852805555555],[-81.79524061111111,26.407237777777777],[-81.79567005555555,26.407558833333333],[-81.79615625,26.40780572222222],[-81.79668358333333,26.407970444444445],[-81.7972351111111,26.40804772222222],[-81.79779308333333,26.40803508333333],[-81.79833958333333,26.407932916666667],[-81.79885705555556,26.407744527777776],[-81.7993288611111,26.407475944444442],[-81.79973980555556,26.40713583333333],[-81.80007672222222,26.40673511111111],[-81.80032877777778,26.406286666666666],[-81.80048783333334,26.405804888888888],[-81.80054880555555,26.405305277777778],[-81.80050972222222,26.40480388888889],[-81.8003718611111,26.404316833333333],[-81.80013966666667,26.403859777777775],[-81.79982055555556,26.403447416666666],[-81.79942480555556,26.403092972222222],[-81.79896516666666,26.40280786111111],[-81.7984563611111,26.40260125],[-81.79791477777778,26.402479777777778],[-81.79735780555555,26.40244733333333],[-81.7968033611111,26.40250494444444],[-81.79626925,26.402650805555552],[-81.79577263888889,26.402880194444442],[-81.79532947222222,26.40318575],[-81.79495402777778,26.403557666666664],[-81.7946583611111,26.40398397222222],[-81.79445194444445,26.40445094444444],[-81.79434147222221,26.40494361111111],[-81.79433044444444,26.405446138888887]]},"properties":{"style":"solid","thickness":1}},{"type":"Feature","geometry":{"type":"LineString","coordinates":[[-81.79794086111112,26.4117295],[-81.79765622222222,26.410496416666664],[-81.79712347222222,26.409331944444443],[-81.79636091666667,26.408276166666667],[-81.7953948611111,26.407365444444444],[-81.79425858333333,26.406631166666664],[-81.79299119444444,26.406098583333332],[-81.7916363611111,26.405786055555556],[-81.79024075,26.405704333333333]]},"properties":{"style":"solid","thickness":1}},{"type":"Feature","geometry":{"type":"LineString","coordinates":[[-81.79024075,26.405704333333333],[-81.79161005555555,26.405448083333333],[-81.79290322222222,26.404968388888886],[-81.79407563888888,26.40428175],[-81.79508697222222,26.40341186111111],[-81.7959023611111,26.40238861111111],[-81.79649375,26.40124733333333],[-81.79684075,26.400027277777777],[-81.79693141666667,26.3987705]]},"properties":{"style":"solid","thickness":1}},{"type":"Feature","geometry":{"type":"LineString","coordinates":[[-81.79693141666667,26.3987705],[-81.79721599999999,26.400003583333334],[-81.79774875,26.401168055555555],[-81.79851125,26.40222383333333],[-81.79947727777778,26.403134527777777],[-81.80061355555556,26.403868777777777],[-81.80188094444445,26.404401277777776],[-81.80323580555556,26.404713722222223],[-81.80463141666667,26.404795305555552]]},"properties":{"style":"solid","thickness":1}},{"type":"Feature","geometry":{"type":"LineString","coordinates":[[-81.80463141666667,26.404795305555552],[-81.80326213888888,26.405051666666665],[-81.80196902777777,26.405531472222222],[-81.80079663888888,26.406218166666665],[-81.79978533333333,26.40708811111111],[-81.79896991666666,26.40811136111111],[-81.79837855555556,26.409252666666664],[-81.79803152777778,26.41047272222222],[-81.79794086111112,26.4117295]]},"properties":{"style":"solid","thickness":1}},{"type":"Feature","geometry":{"type":"LineString","coordinates":[[-81.84897316666667,26.47319733333333],[-81.84906224999999,26.4736935],[-81.84924833333334,26.474167388888887],[-81.84952547222221,26.47460375],[-81.84988472222221,26.47498858333333],[-81.85031455555556,26.475309499999998],[-81.85080113888888,26.475556166666664],[-81.8513288611111,26.475720694444444],[-81.85188074999999,26.475797749999998],[-81.85243905555555,26.47578488888889],[-81.85298583333332,26.475682527777778],[-81.85350349999999,26.47549394444444],[-81.85397544444444,26.475225194444445],[-81.85438649999999,26.474884944444444],[-81.85472341666666,26.47448408333333],[-81.85497538888889,26.474035527777776],[-81.85513430555555,26.47355372222222],[-81.85519508333333,26.47305408333333],[-81.85515575,26.472552722222222],[-81.85501758333332,26.472065722222222],[-81.85478502777777,26.471608777777774],[-81.85446552777778,26.471196527777778],[-81.85406938888889,26.470842249999997],[-81.85360933333332,26.470557305555555],[-81.85310016666666,26.470350888888888],[-81.85255819444444,26.470229611111108],[-81.85200088888888,26.470197388888888],[-81.85144613888889,26.47025522222222],[-81.85091177777777,26.470401277777775],[-81.85041497222221,26.47063086111111],[-81.84997172222222,26.47093658333333],[-81.84959622222222,26.47130863888889],[-81.84930058333333,26.471735027777775],[-81.84909427777777,26.47220211111111],[-81.84898397222221,26.472694805555555],[-81.84897316666667,26.47319733333333]]},"properties":{"style":"solid","thickness":1}},{"type":"Feature","geometry":{"type":"LineString","coordinates":[[-81.85258866666666,26.47947922222222],[-81.85230327777778,26.478246277777775],[-81.85176963888888,26.477082],[-81.85100616666666,26.476026527777776],[-81.8500391111111,26.475116194444443],[-81.84890183333333,26.47438236111111],[-81.84763347222221,26.473850249999998],[-81.84627769444444,26.473538249999997],[-81.84488119444444,26.473457083333333]]},"properties":{"style":"solid","thickness":1}},{"type":"Feature","geometry":{"type":"LineString","coordinates":[[-81.84488119444444,26.473457083333333],[-81.84625119444443,26.473200305555554],[-81.84754488888889,26.47272011111111],[-81.84871766666666,26.472033055555553],[-81.84972919444444,26.471162777777778],[-81.85054455555554,26.47013925],[-81.85113575,26.46899772222222],[-81.85148236111111,26.467777555555553],[-81.85157249999999,26.466520777777777]]},"properties":{"style":"solid","thickness":1}},{"type":"Feature","geometry":{"type":"LineString","coordinates":[[-81.85157249999999,26.466520777777777],[-81.8518578611111,26.46775372222222],[-81.85239144444444,26.468917972222222],[-81.85315488888888,26.46997344444444],[-81.85412191666666,26.470883777777775],[-81.85525919444444,26.47161758333333],[-81.85652758333333,26.47214961111111],[-81.8578833611111,26.472461499999998],[-81.85927983333333,26.472542555555552]]},"properties":{"style":"solid","thickness":1}},{"type":"Feature","geometry":{"type":"LineString","coordinates":[[-81.85927983333333,26.472542555555552],[-81.85790988888888,26.472799444444444],[-81.85661624999999,26.47327972222222],[-81.85544347222222,26.47396686111111],[-81.85443199999999,26.474837194444444],[-81.85361661111111,26.47586075],[-81.85302541666667,26.477002249999998],[-81.85267877777777,26.478222416666664],[-81.85258866666666,26.47947922222222]]},"properties":{"style":"solid","thickness":1}},{"type":"Feature","geometry":{"type":"LineString","coordinates":[[-81.9111521388889,26.432612555555558],[-81.91124144444446,26.433108694444446],[-81.91142772222223,26.433582527777777],[-81.91170500000001,26.434018777777776],[-81.91206433333333,26.434403444444445],[-81.91249416666668,26.434724166666665],[-81.91298072222223,26.434970611111112],[-81.91350836111111,26.435134916666666],[-81.91406008333334,26.43521175],[-81.91461819444444,26.435198638888888],[-81.91516472222223,26.435096055555555],[-81.91568211111111,26.434907250000002],[-81.91615375,26.43463827777778],[-81.91656447222223,26.434297833333332],[-81.91690105555556,26.433896833333332],[-81.91715269444445,26.433448194444445],[-81.91731130555556,26.43296627777778],[-81.91737180555556,26.432466611111114],[-81.91733222222223,26.431965277777778],[-81.91719383333334,26.431478333333335],[-81.91696111111112,26.431021472222223],[-81.91664152777778,26.430609361111113],[-81.91624533333334,26.430255250000002],[-81.91578527777779,26.42997052777778],[-81.91527616666667,26.429764333333335],[-81.91473433333334,26.429643277777778],[-81.91417719444445,26.429611277777777],[-81.91362266666667,26.429669361111113],[-81.91308858333333,26.429815666666666],[-81.91259208333334,26.430045444444445],[-81.91214913888889,26.43035136111111],[-81.91177397222222,26.430723583333336],[-81.91147866666667,26.431150111111112],[-81.91127266666668,26.43161727777778],[-81.91116266666667,26.432110027777778],[-81.9111521388889,26.432612555555558]]},"properties":{"style":"solid","thickness":1}},{"type":"Feature","geometry":{"type":"LineString","coordinates":[[-81.91476972222223,26.438892944444444],[-81.91448377777779,26.437660083333334],[-81.91394972222223,26.436496055555555],[-81.91318591666668,26.435440916666668],[-81.91221875000001,26.434530972222223],[-81.91108144444445,26.43379761111111],[-81.90981325,26.433266083333333],[-81.90845777777778,26.432954666666667],[-81.90706175000001,26.432874083333335]]},"properties":{"style":"solid","thickness":1}},{"type":"Feature","geometry":{"type":"LineString","coordinates":[[-81.90706175000001,26.432874083333335],[-81.9084311388889,26.432616722222225],[-81.90972411111112,26.432135972222223],[-81.91089611111111,26.43144838888889],[-81.91190680555556,26.430577666666668],[-81.91272136111111,26.42955377777778],[-81.91331172222223,26.428412],[-81.91365758333333,26.427191694444446],[-81.913747,26.425934833333333]]},"properties":{"style":"solid","thickness":1}},{"type":"Feature","geometry":{"type":"LineString","coordinates":[[-81.913747,26.425934833333333],[-81.91403291666667,26.42716766666667],[-81.91456691666667,26.428331722222225],[-81.91533066666668,26.429386861111112],[-81.91629783333335,26.43029675],[-81.91743511111112,26.431030083333333],[-81.91870333333334,26.431561555555557],[-81.92005880555556,26.43187288888889],[-81.92145486111112,26.431953333333336]]},"properties":{"style":"solid","thickness":1}},{"type":"Feature","geometry":{"type":"LineString","coordinates":[[-81.92145486111112,26.431953333333336],[-81.9200855,26.432210805555556],[-81.91879258333334,26.432691666666667],[-81.91762061111112,26.433379305555555],[-81.91660994444445,26.434250083333332],[-81.9157953888889,26.435273972222223],[-81.915205,26.436415750000002],[-81.9148591388889,26.437636083333334],[-81.91476972222223,26.438892944444444]]},"properties":{"style":"solid","thickness":1}},{"type":"Feature","geometry":{"type":"LineString","coordinates":[[-81.95623633333334,26.403171861111108],[-81.95632583333334,26.40366797222222],[-81.95651225,26.404141749999997],[-81.95678961111112,26.404577916666664],[-81.957149,26.40496247222222],[-81.95757886111112,26.405283055555554],[-81.9580653888889,26.40552936111111],[-81.95859294444445,26.405693499999998],[-81.95914455555555,26.405770166666667],[-81.9597025,26.405756888888888],[-81.96024886111111,26.405654111111108],[-81.96076605555555,26.40546513888889],[-81.96123747222222,26.405196027777777],[-81.96164794444445,26.40485547222222],[-81.96198427777779,26.40445436111111],[-81.96223569444444,26.40400561111111],[-81.96239408333334,26.403523666666665],[-81.96245436111111,26.403023972222222],[-81.96241458333334,26.402522638888886],[-81.96227605555556,26.40203575],[-81.96204322222222,26.40157897222222],[-81.96172355555557,26.401166944444444],[-81.96132733333333,26.40081297222222],[-81.96086727777778,26.400528388888887],[-81.96035822222223,26.40032233333333],[-81.95981647222223,26.40020147222222],[-81.95925947222223,26.400169638888887],[-81.95870511111112,26.40022788888889],[-81.95817119444445,26.40037436111111],[-81.95767491666668,26.400604305555554],[-81.95723219444444,26.40091036111111],[-81.95685727777779,26.401282694444443],[-81.95656219444444,26.401709333333333],[-81.95635647222223,26.402176527777776],[-81.95624666666667,26.402669333333332],[-81.95623633333334,26.403171861111108]]},"properties":{"style":"solid","thickness":1}},{"type":"Feature","geometry":{"type":"LineString","coordinates":[[-81.95985541666667,26.409451138888887],[-81.95956908333334,26.408218388888887],[-81.95903469444444,26.407054499999997],[-81.95827069444445,26.405999583333333],[-81.95730341666668,26.40508997222222],[-81.95616613888889,26.404356944444444],[-81.95489802777779,26.403825805555552],[-81.95354280555556,26.403514805555552],[-81.95214708333333,26.403434666666666]]},"properties":{"style":"solid","thickness":1}},{"type":"Feature","geometry":{"type":"LineString","coordinates":[[-81.95214708333333,26.403434666666666],[-81.95351602777778,26.403176888888886],[-81.95480847222223,26.40269572222222],[-81.95597991666666,26.402007777777776],[-81.95699002777778,26.40113672222222],[-81.95780397222222,26.400112583333332],[-81.95839375,26.39897061111111],[-81.95873902777778,26.397750194444445],[-81.95882797222222,26.396493305555556]]},"properties":{"style":"solid","thickness":1}},{"type":"Feature","geometry":{"type":"LineString","coordinates":[[-81.95882797222222,26.396493305555556],[-81.95911427777779,26.397726055555555],[-81.95964861111112,26.398889944444445],[-81.96041255555556,26.399944833333333],[-81.96137983333334,26.400854444444445],[-81.96251711111111,26.401587416666665],[-81.96378522222223,26.4021185],[-81.96514047222223,26.402429388888887],[-81.96653616666667,26.402509416666664]]},"properties":{"style":"solid","thickness":1}},{"type":"Feature","geometry":{"type":"LineString","coordinates":[[-81.96653616666667,26.402509416666664],[-81.96516727777778,26.402767305555553],[-81.96387486111111,26.403248555555553],[-81.96270344444444,26.403936583333333],[-81.96169338888889,26.404807666666667],[-81.96087941666667,26.40583183333333],[-81.9602896388889,26.406973805555555],[-81.95994433333334,26.408194249999998],[-81.95985541666667,26.409451138888887]]},"properties":{"style":"solid","thickness":1}},{"type":"Feature","geometry":{"type":"LineString","coordinates":[[-81.83676619444444,26.460562083333333],[-81.83600188888889,26.460610555555554],[-81.83555663888889,26.454923777777775]]},"properties":{"style":"solid","thickness":1}},{"type":"Feature","geometry":{"type":"LineString","coordinates":[[-81.83335955555555,26.460870333333332],[-81.82943619444444,26.461119083333333],[-81.83173180555555,26.455120277777777]]},"properties":{"style":"solid","thickness":1}},{"type":"Feature","geometry":{"type":"LineString","coordinates":[[-82.03282322222222,26.482954083333333],[-82.03291311111111,26.48345013888889],[-82.03309997222222,26.483923805555555],[-82.03337780555556,26.484359805555556],[-82.03373769444444,26.48474416666667],[-82.03416805555555,26.48506452777778],[-82.03465508333333,26.485310555555557],[-82.03518311111111,26.48547441666667],[-82.03573516666667,26.485550777777778],[-82.03629347222223,26.485537194444447],[-82.03684013888889,26.48543413888889],[-82.03735755555556,26.48524488888889],[-82.03782911111111,26.484975527777777],[-82.03823966666667,26.48463475],[-82.03857597222222,26.484233472222222],[-82.03882725,26.483784611111112],[-82.03898541666666,26.483302555555554],[-82.03904541666667,26.48280286111111],[-82.03900527777778,26.482301555555555],[-82.03886633333333,26.481814749999998],[-82.03863302777778,26.481358083333333],[-82.03831286111111,26.48094625],[-82.03791613888889,26.480592499999997],[-82.03745561111111,26.480308138888887],[-82.03694605555556,26.480102388888888],[-82.03640386111111,26.479981805555553],[-82.03584644444445,26.479950277777775],[-82.03529175,26.480008833333333],[-82.03475758333333,26.48015558333333],[-82.0342611111111,26.480385777777776],[-82.03381827777777,26.48069208333333],[-82.03344336111111,26.48106461111111],[-82.03314836111112,26.481491388888887],[-82.03294277777778,26.48195872222222],[-82.03283322222222,26.482451555555553],[-82.03282322222222,26.482954083333333]]},"properties":{"style":"solid","thickness":1}},{"type":"Feature","geometry":{"type":"LineString","coordinates":[[-82.03644894444444,26.489231305555556],[-82.03616158333332,26.487998722222223],[-82.03562608333333,26.48683516666667],[-82.03486086111111,26.485780666666667],[-82.03389230555555,26.484871583333334],[-82.03275377777777,26.484139194444445],[-82.03148444444444,26.483608722222222],[-82.03012808333334,26.48329847222222],[-82.02873136111111,26.48321908333333]]},"properties":{"style":"solid","thickness":1}},{"type":"Feature","geometry":{"type":"LineString","coordinates":[[-82.02873136111111,26.48321908333333],[-82.03010105555555,26.482960555555554],[-82.03139408333334,26.482478722222222],[-82.03256588888888,26.481790138888886],[-82.03357608333333,26.48091858333333],[-82.03438991666667,26.479893999999998],[-82.03497933333333,26.478751749999997],[-82.03532405555555,26.47753113888889],[-82.03541222222222,26.47627425]]},"properties":{"style":"solid","thickness":1}},{"type":"Feature","geometry":{"type":"LineString","coordinates":[[-82.03541222222222,26.47627425],[-82.03569952777778,26.477506805555553],[-82.036235,26.478670388888887],[-82.03700019444445,26.47972486111111],[-82.03796872222222,26.480633944444442],[-82.03910725,26.481366277777777],[-82.04037658333333,26.481896694444444],[-82.04173297222222,26.48220686111111],[-82.04312969444445,26.482286111111108]]},"properties":{"style":"solid","thickness":1}},{"type":"Feature","geometry":{"type":"LineString","coordinates":[[-82.04312969444445,26.482286111111108],[-82.04176002777777,26.48254475],[-82.04046705555555,26.483026694444444],[-82.03929527777778,26.483715333333333],[-82.03828508333334,26.484586944444445],[-82.03747125,26.485611527777777],[-82.03688183333333,26.486753805555555],[-82.03653711111112,26.48797438888889],[-82.03644894444444,26.489231305555556]]},"properties":{"style":"solid","thickness":1}},{"type":"Feature","geometry":{"type":"LineString","coordinates":[[-81.87973763888888,26.45312022222222],[-81.87982683333333,26.45361636111111],[-81.88001302777778,26.45409022222222],[-81.88029022222221,26.454526527777777],[-81.88064949999999,26.45491127777778],[-81.8810793611111,26.455232111111112],[-81.88156591666666,26.455478666666664],[-81.8820936111111,26.45564308333333],[-81.88264541666666,26.455720027777776],[-81.8832036111111,26.455707055555553],[-81.88375027777778,26.455604583333333],[-81.88426780555557,26.45541588888889],[-81.88473961111112,26.455147027777777],[-81.88515047222224,26.454806666666666],[-81.88548722222222,26.45440575],[-81.88573902777779,26.45395713888889],[-81.88589780555556,26.453475277777777],[-81.88595844444446,26.452975638888887],[-81.885919,26.452474277777778],[-81.88578072222222,26.451987305555555],[-81.88554808333333,26.451530416666667],[-81.88522852777778,26.45111822222222],[-81.8848323888889,26.450764027777776],[-81.88437233333335,26.450479194444444],[-81.88386316666667,26.45027288888889],[-81.88332127777777,26.45015172222222],[-81.88276405555555,26.45011961111111],[-81.88220941666665,26.450177583333332],[-81.88167519444444,26.45032375],[-81.88117852777778,26.450553444444445],[-81.88073541666667,26.45085925],[-81.8803601111111,26.45123138888889],[-81.88006461111111,26.451657861111112],[-81.87985847222221,26.452124944444442],[-81.87974830555555,26.452617694444445],[-81.87973763888888,26.45312022222222]]},"properties":{"style":"solid","thickness":1}},{"type":"Feature","geometry":{"type":"LineString","coordinates":[[-81.88335416666668,26.45940136111111],[-81.8830685,26.458168472222223],[-81.88253466666666,26.457004305555554],[-81.88177102777777,26.455949],[-81.88080391666666,26.45503886111111],[-81.87966663888888,26.45430525],[-81.87839833333332,26.453773444444444],[-81.87704272222221,26.453461722222222],[-81.87564647222221,26.453380833333334]]},"properties":{"style":"solid","thickness":1}},{"type":"Feature","geometry":{"type":"LineString","coordinates":[[-81.87564647222221,26.453380833333334],[-81.87701616666666,26.453123777777776],[-81.87830947222221,26.452643305555554],[-81.87948188888888,26.451956],[-81.88049299999999,26.451085499999998],[-81.88130797222222,26.450061777777776],[-81.88189874999999,26.44892013888889],[-81.88224497222221,26.447699888888888],[-81.88233477777777,26.446443083333335]]},"properties":{"style":"solid","thickness":1}},{"type":"Feature","geometry":{"type":"LineString","coordinates":[[-81.88233477777777,26.446443083333335],[-81.88262038888888,26.44767597222222],[-81.88315419444444,26.44884013888889],[-81.88391777777778,26.449895444444444],[-81.88488488888889,26.450805555555554],[-81.88602216666668,26.45153911111111],[-81.88729047222223,26.45207086111111],[-81.88864611111111,26.4523825],[-81.89004236111111,26.45246325]]},"properties":{"style":"solid","thickness":1}},{"type":"Feature","geometry":{"type":"LineString","coordinates":[[-81.89004236111111,26.45246325],[-81.88867269444445,26.452720416666665],[-81.88737941666668,26.45320097222222],[-81.88620705555556,26.45388836111111],[-81.88519597222223,26.454758916666666],[-81.884381,26.455782638888888],[-81.88379019444446,26.456924277777777],[-81.88344394444445,26.458144527777776],[-81.88335416666668,26.45940136111111]]},"properties":{"style":"solid","thickness":1}},{"type":"Feature","geometry":{"type":"LineString","coordinates":[[-81.83392288888888,26.483010888888888],[-81.83401188888888,26.483507083333333],[-81.83419794444444,26.483980972222223],[-81.83447505555556,26.48441738888889],[-81.83483427777777,26.48480225],[-81.8352641111111,26.485123194444444],[-81.83575069444444,26.485369916666667],[-81.83627844444445,26.4855345],[-81.83683036111111,26.48561161111111],[-81.83738872222222,26.485598833333334],[-81.83793555555555,26.48549652777778],[-81.83845330555555,26.485307972222223],[-81.83892533333332,26.48503927777778],[-81.83933644444444,26.484699055555556],[-81.83967344444444,26.484298250000002],[-81.83992549999999,26.483849722222224],[-81.84008449999999,26.48336791666667],[-81.84014533333333,26.482868305555552],[-81.84010605555555,26.482366916666663],[-81.83996794444444,26.481879916666664],[-81.83973544444444,26.481422944444443],[-81.83941597222221,26.481010666666666],[-81.83901986111111,26.480656333333332],[-81.83855980555555,26.48037136111111],[-81.83805058333333,26.480164888888886],[-81.8375086111111,26.480043555555554],[-81.83695125,26.480011277777777],[-81.83639644444445,26.480069055555553],[-81.83586202777778,26.480215055555554],[-81.83536513888889,26.48044458333333],[-81.83492180555555,26.48075025],[-81.83454622222222,26.48112225],[-81.8342505,26.48154863888889],[-81.83404413888888,26.482015666666666],[-81.83393375,26.48250836111111],[-81.83392288888888,26.483010888888888]]},"properties":{"style":"solid","thickness":1}},{"type":"Feature","geometry":{"type":"LineString","coordinates":[[-81.8375378611111,26.489293166666666],[-81.83725261111111,26.488060166666667],[-81.83671908333334,26.486895861111112],[-81.83595566666666,26.485840305555556],[-81.83498866666666,26.484929861111112],[-81.83385138888889,26.48419588888889],[-81.83258297222221,26.48366366666667],[-81.83122713888889,26.483351527777778],[-81.82983052777777,26.483270194444444]]},"properties":{"style":"solid","thickness":1}},{"type":"Feature","geometry":{"type":"LineString","coordinates":[[-81.82983052777777,26.483270194444444],[-81.83120069444445,26.48301358333333],[-81.83249452777777,26.482533527777775],[-81.83366749999999,26.481846583333333],[-81.83467922222222,26.480976416666664],[-81.83549480555556,26.47995297222222],[-81.83608619444443,26.478811527777776],[-81.836433,26.477591388888886],[-81.83652330555554,26.47633461111111]]},"properties":{"style":"solid","thickness":1}},{"type":"Feature","geometry":{"type":"LineString","coordinates":[[-81.83652330555554,26.47633461111111],[-81.83680852777778,26.477567583333332],[-81.83734199999999,26.478731916666664],[-81.8381053611111,26.479787444444444],[-81.8390723611111,26.48069786111111],[-81.84020963888888,26.481431805555555],[-81.84147805555556,26.48196394444444],[-81.84283391666666,26.482276],[-81.8442305,26.482357194444443]]},"properties":{"style":"solid","thickness":1}},{"type":"Feature","geometry":{"type":"LineString","coordinates":[[-81.8442305,26.482357194444443],[-81.84286038888888,26.48261394444444],[-81.84156658333333,26.48309408333333],[-81.84039363888888,26.483781111111114],[-81.83938194444444,26.484651333333336],[-81.8385663611111,26.485674777777778],[-81.83797497222221,26.486816222222224],[-81.83762816666666,26.488036361111114],[-81.8375378611111,26.489293166666666]]},"properties":{"style":"solid","thickness":1}},{"type":"Feature","geometry":{"type":"LineString","coordinates":[[-81.76999841666667,26.545283361111114],[-81.7698605,26.543509583333336]]},"properties":{"style":"solid","thickness":1}},{"type":"Feature","geometry":{"type":"LineString","coordinates":[[-81.76950627777778,26.54552616666667],[-81.76933558333333,26.543330722222223]]},"properties":{"style":"solid","thickness":1}},{"type":"Feature","geometry":{"type":"LineString","coordinates":[[-81.76899775,26.54555813888889],[-81.76882705555555,26.543362722222223]]},"properties":{"style":"solid","thickness":1}},{"type":"Feature","geometry":{"type":"LineString","coordinates":[[-81.76847280555556,26.545379305555556],[-81.76833491666666,26.54360552777778]]},"properties":{"style":"solid","thickness":1}},{"type":"Feature","geometry":{"type":"LineString","coordinates":[[-81.76784447222222,26.544527583333334],[-81.76788222222223,26.544738583333334],[-81.76796127777777,26.54494013888889],[-81.76807905555556,26.54512575],[-81.76823177777777,26.545289472222223],[-81.76841458333334,26.54542602777778],[-81.76862152777778,26.545531055555557],[-81.768846,26.54560113888889],[-81.76908080555556,26.54563402777778],[-81.76931833333333,26.545628694444446],[-81.76955102777778,26.54558530555556],[-81.76977133333334,26.54550525],[-81.76997222222222,26.545391111111112],[-81.77014722222222,26.54524652777778],[-81.77029069444444,26.545076166666668],[-81.77039802777777,26.544885500000003],[-81.77046580555556,26.54468063888889],[-81.77049180555555,26.544468222222225],[-81.77047525,26.54425502777778],[-81.77041661111112,26.544047916666667],[-81.77031777777778,26.543853555555557],[-81.77018197222222,26.54367816666667],[-81.77001355555555,26.543527444444447],[-81.7698178888889,26.543406166666667],[-81.76960130555555,26.54331827777778],[-81.76937075,26.543266555555558],[-81.76913361111112,26.543252722222224],[-81.76889755555555,26.54327716666667],[-81.76867016666667,26.54333913888889],[-81.76845872222222,26.543436638888892],[-81.76827,26.54356652777778],[-81.76811013888889,26.54372463888889],[-81.76798422222222,26.54390588888889],[-81.76789630555555,26.544104444444447],[-81.76784922222222,26.544313916666667],[-81.76784447222222,26.544527583333334]]},"properties":{"style":"solid","thickness":1}},{"type":"Feature","geometry":{"type":"LineString","coordinates":[[-81.97891516666667,26.386245305555555],[-81.98247925,26.386015444444443],[-81.97983611111111,26.39074911111111],[-81.97938411111112,26.38506275]]},"properties":{"style":"solid","thickness":1}},{"type":"Feature","geometry":{"type":"LineString","coordinates":[[-81.97339091666667,26.387569305555555],[-81.97350019444444,26.388945055555556],[-81.97371488888889,26.389714805555556],[-81.97384586111112,26.39007511111111],[-81.97402047222222,26.390340416666668],[-81.97467522222222,26.390851333333334],[-81.97530444444445,26.39104125],[-81.97550811111111,26.391028111111112],[-81.97610091666667,26.390759444444445],[-81.97661727777778,26.390173055555554],[-81.97679908333333,26.389884777777777],[-81.97687175,26.38951133333333],[-81.97696255555556,26.388721916666665],[-81.97685322222222,26.387346166666667],[-81.97663852777778,26.386576444444444],[-81.97650755555556,26.386216138888887],[-81.97628202777778,26.38595411111111],[-81.97567822222223,26.385439916666666],[-81.97504902777779,26.38525],[-81.97484536111111,26.385263138888888],[-81.97425261111111,26.385531805555555],[-81.97368533333334,26.38612147222222],[-81.97355444444445,26.386406472222223],[-81.97348175,26.38677988888889],[-81.97339091666667,26.387569305555555]]},"properties":{"style":"solid","thickness":1}},{"type":"Feature","geometry":{"type":"LineString","coordinates":[[-82.05772052777778,26.488191472222223],[-82.06006458333333,26.488039166666667],[-82.06047733333332,26.48552325],[-82.06003344444444,26.48573647222222],[-82.05964419444445,26.485992250000002],[-82.05872697222222,26.48605186111111],[-82.058261,26.485989944444444],[-82.05778030555555,26.485744611111112],[-82.05721922222222,26.48513575],[-82.05707316666667,26.484592111111112],[-82.057018,26.48390427777778],[-82.05728325,26.48338002777778],[-82.05759947222222,26.482852444444443],[-82.05774130555555,26.482704944444443],[-82.05802863888889,26.482455805555553],[-82.05853083333334,26.482330972222222],[-82.05909133333333,26.482294555555555],[-82.05950633333333,26.482359777777777],[-82.0600306111111,26.48251008333333],[-82.06051866666667,26.48284711111111],[-82.06058066666667,26.482981361111108]]},"properties":{"style":"solid","thickness":1}},{"type":"Feature","geometry":{"type":"LineString","coordinates":[[-82.05147163888888,26.485002027777778],[-82.05158194444444,26.486377694444446],[-82.05179730555555,26.487147305555556],[-82.05192863888888,26.48750752777778],[-82.05210358333333,26.487772722222225],[-82.05275919444445,26.48828327777778],[-82.05338908333333,26.488472833333333],[-82.05359291666666,26.48845961111111],[-82.05418602777777,26.48819061111111],[-82.05470244444444,26.487603944444444],[-82.05488419444444,26.487315583333334],[-82.05495669444444,26.486942111111112],[-82.05504702777777,26.48615263888889],[-82.05493666666666,26.484777],[-82.05472127777777,26.48400738888889],[-82.05458994444444,26.483647166666668],[-82.05436405555555,26.483385277777778],[-82.05375941666667,26.482871416666665],[-82.05312955555556,26.48268186111111],[-82.05292572222221,26.482695083333333],[-82.05233263888888,26.482964083333332],[-82.05176530555555,26.483554055555558],[-82.05163449999999,26.483839111111113],[-82.051562,26.484212555555555],[-82.05147163888888,26.485002027777778]]},"properties":{"style":"solid","thickness":1}}]}
