{"type":"FeatureCollection","features":[{"type":"Feature","geometry":{"type":"LineString","coordinates":[[-81.756914,26.44206275],[-81.74605330555556,26.42854816666667]]},"properties":{"style":"solid","thickness":1}},{"type":"Feature","geometry":{"type":"LineString","coordinates":[[-81.91969830555556,26.439164916666666],[-81.90881897222222,26.425662666666668]]},"properties":{"style":"solid","thickness":1}},{"type":"Feature","geometry":{"type":"LineString","coordinates":[[-81.96478288888889,26.409721555555553],[-81.95390108333334,26.396222666666667]]},"properties":{"style":"solid","thickness":1}},{"type":"Feature","geometry":{"type":"LineString","coordinates":[[-82.0372048888889,26.47447425],[-82.03465602777777,26.49103127777778]]},"properties":{"style":"solid","thickness":1}},{"type":"Feature","geometry":{"type":"LineString","coordinates":[[-81.83158177777777,26.476045888888887],[-81.84247994444443,26.489581666666666]]},"properties":{"style":"solid","thickness":1}},{"type":"Feature","geometry":{"type":"LineString","coordinates":[[-81.85206977777777,26.47300472222222],[-81.86710649999999,26.46319397222222]]},"properties":{"style":"solid","thickness":1}},{"type":"Feature","geometry":{"type":"LineString","coordinates":[[-81.87739441666666,26.446155944444445],[-81.88829511111112,26.459688277777776]]},"properties":{"style":"solid","thickness":1}},{"type":"Feature","geometry":{"type":"LineString","coordinates":[[-81.88214063888888,26.45338163888889],[-81.88284444444444,26.45292222222222],[-81.89717355555557,26.443569305555556]]},"properties":{"style":"solid","thickness":1}},{"type":"Feature","geometry":{"type":"LineString","coordinates":[[-81.912204,26.433755472222224],[-81.91425833333334,26.43241388888889],[-81.92723422222222,26.423942972222225]]},"properties":{"style":"solid","thickness":1}},{"type":"Feature","geometry":{"type":"LineString","coordinates":[[-81.94226227777779,26.41412933333333],[-81.95728783333334,26.40431411111111]]},"properties":{"style":"solid","thickness":1}},{"type":"Feature","geometry":{"type":"LineString","coordinates":[[-81.87307288888888,26.402118805555553],[-81.86742669444443,26.418042250000003]]},"properties":{"style":"solid","thickness":1}},{"type":"Feature","geometry":{"type":"LineString","coordinates":[[-81.87809297222222,26.436763388888888],[-81.87334283333333,26.420604361111113]]},"properties":{"style":"solid","thickness":1}},{"type":"Feature","geometry":{"type":"LineString","coordinates":[[-81.86407641666666,26.408326444444445],[-81.846375,26.40329511111111]]},"properties":{"style":"solid","thickness":1}},{"type":"Feature","geometry":{"type":"LineString","coordinates":[[-81.82867513888888,26.398261583333333],[-81.81447777777778,26.394222222222222],[-81.81150463888889,26.3961625]]},"properties":{"style":"solid","thickness":1}},{"type":"Feature","geometry":{"type":"LineString","coordinates":[[-81.81730411111111,26.386261527777776],[-81.81165105555556,26.40218283333333]]},"properties":{"style":"solid","thickness":1}},{"type":"Feature","geometry":{"type":"LineString","coordinates":[[-81.79647372222222,26.405969805555554],[-81.78144027777778,26.4157755]]},"properties":{"style":"solid","thickness":1}},{"type":"Feature","geometry":{"type":"LineString","coordinates":[[-81.76640430555555,26.42557963888889],[-81.75148333333334,26.435305555555555]]},"properties":{"style":"solid","thickness":1}},{"type":"Feature","geometry":{"type":"LineString","coordinates":[[-81.9009918888889,26.456467805555555],[-81.91914047222222,26.46001111111111]]},"properties":{"style":"solid","thickness":1}},{"type":"Feature","geometry":{"type":"LineString","coordinates":[[-81.93729011111111,26.463552083333333],[-81.95544088888889,26.467090777777777]]},"properties":{"style":"solid","thickness":1}},{"type":"Feature","geometry":{"type":"LineString","coordinates":[[-81.97359275000001,26.470627166666667],[-81.99174569444445,26.47416122222222]]},"properties":{"style":"solid","thickness":1}},{"type":"Feature","geometry":{"type":"LineString","coordinates":[[-82.00989975,26.477693],[-82.02805488888889,26.48122247222222]]},"properties":{"style":"solid","thickness":1}},{"type":"Feature","geometry":{"type":"LineString","coordinates":[[-81.84834802777777,26.509762944444443],[-81.84883611111111,26.510012944444444],[-81.84939091666666,26.51011822222222],[-81.85125552777777,26.50999983333333],[-81.85194377777778,26.509815638888888],[-81.8521713611111,26.509730944444446],[-81.85328738888889,26.509027833333334],[-81.85393175,26.508284444444445],[-81.85410997222222,26.507570666666666],[-81.85455508333332,26.506277944444445],[-81.85442891666666,26.504670305555557],[-81.85421322222221,26.503911277777778],[-81.85393077777778,26.503297],[-81.85356519444444,26.50261775],[-81.852728,26.501898222222223],[-81.85119713888888,26.501292972222224],[-81.85017077777778,26.501147416666665],[-81.84931622222221,26.501201666666667],[-81.84824505555555,26.501480416666666],[-81.84787308333333,26.501714777777778],[-81.84757327777777,26.501874277777777]]},"properties":{"style":"solid","thickness":1}},{"type":"Feature","geometry":{"type":"LineString","coordinates":[[-81.84030091666666,26.510695],[-81.84504016666666,26.51039436111111],[-81.84434430555555,26.50151725],[-81.83952772222221,26.501822805555555]]},"properties":{"style":"solid","thickness":1}},{"type":"Feature","geometry":{"type":"LineString","coordinates":[[-81.84468947222221,26.50592086111111],[-81.84010580555555,26.50621163888889]]},"properties":{"style":"solid","thickness":1}},{"type":"Feature","geometry":{"type":"LineString","coordinates":[[-81.83727088888888,26.51088713888889],[-81.83657563888889,26.502009972222222],[-81.83276894444444,26.502251277777777]]},"properties":{"style":"solid","thickness":1}},{"type":"Feature","geometry":{"type":"LineString","coordinates":[[-81.82958377777777,26.502453083333332],[-81.83027849999999,26.511330277777777],[-81.82701536111111,26.511536944444444],[-81.82631611111111,26.51158125],[-81.82573944444444,26.511196277777778],[-81.82531269444443,26.51073158333333],[-81.82529083333333,26.51045197222222],[-81.82518147222221,26.509054],[-81.82524277777777,26.508839388888887],[-81.82543211111111,26.508265444444444],[-81.82615433333333,26.50751725],[-81.82534463888888,26.507147055555556],[-81.82493977777777,26.506961944444445],[-81.82452397222222,26.506637027777778],[-81.82424169444444,26.506022694444443],[-81.82409958333334,26.504205333333335],[-81.82429436111111,26.50370127777778],[-81.82480538888889,26.503247444444444],[-81.82517197222222,26.50294325],[-81.825544,26.502708944444443],[-81.82958377777777,26.502453083333332]]},"properties":{"style":"solid","thickness":1}},{"type":"Feature","geometry":{"type":"LineString","coordinates":[[-81.82996119444444,26.507276138888887],[-81.82615433333333,26.50751725]]},"properties":{"style":"solid","thickness":1}},{"type":"Feature","geometry":{"type":"LineString","coordinates":[[-81.81590508333333,26.51224011111111],[-81.81730358333333,26.512151638888888],[-81.81799736111111,26.5120375],[-81.81934669444443,26.511319944444445],[-81.82057458333333,26.510048055555554],[-81.82096969444444,26.50910986111111],[-81.82111533333332,26.50797672222222],[-81.82104427777777,26.507068027777777],[-81.82082333333332,26.506239083333334],[-81.82036383333333,26.50535497222222],[-81.81942183333332,26.504290666666666],[-81.81908374999999,26.503960833333334],[-81.81842944444445,26.50358075],[-81.81707597222221,26.503244916666667],[-81.8154445,26.503348111111112],[-81.81467852777777,26.503537055555555],[-81.81392347222221,26.50386577777778],[-81.81347372222221,26.504104944444446],[-81.81274052777778,26.50471327777778],[-81.81210680555556,26.505596277777776],[-81.81191741666666,26.506170222222224],[-81.81176624999999,26.507233444444445],[-81.81189727777777,26.508911055555554],[-81.81272755555555,26.510544444444445],[-81.81323738888888,26.511074166666667],[-81.81381947222222,26.511529055555556],[-81.81439063888888,26.511844166666666],[-81.8145515,26.51190425],[-81.81590508333333,26.51224011111111]]},"properties":{"style":"solid","thickness":1}},{"type":"Feature","geometry":{"type":"LineString","coordinates":[[-81.83887922222222,26.49552663888889],[-81.8378305,26.49559316666667],[-81.83721947222222,26.487792444444445]]},"properties":{"style":"solid","thickness":1}},{"type":"Feature","geometry":{"type":"LineString","coordinates":[[-81.82951555555555,26.4961835],[-81.83273166666666,26.495979666666667],[-81.83330466666666,26.49252938888889],[-81.83269513888888,26.492820916666666],[-81.83216047222221,26.493170916666667],[-81.83090202777777,26.49325066666667],[-81.83026297222222,26.49316472222222],[-81.82960419444444,26.492827138888888],[-81.82883613888889,26.491990722222223],[-81.82863725,26.491244666666667],[-81.82856341666667,26.49030102777778],[-81.82892872222222,26.489582444444444],[-81.82936394444444,26.488859416666667],[-81.82955891666666,26.48865741666667],[-81.82995375,26.488316277777777],[-81.83064302777777,26.488146166666667],[-81.83141202777777,26.48809741666667],[-81.83198116666667,26.488187777777778],[-81.83269997222222,26.488395111111114],[-81.83336855555555,26.4888585],[-81.83345324999999,26.48904277777778]]},"properties":{"style":"solid","thickness":1}},{"type":"Feature","geometry":{"type":"LineString","coordinates":[[-81.63468191666668,26.403829388888887],[-81.63516911111111,26.404080138888887],[-81.63572319444445,26.404186222222222],[-81.63758633333335,26.40407061111111],[-81.63827430555556,26.403887444444443],[-81.63850183333334,26.403803083333333],[-81.63961811111112,26.403101638888888],[-81.64026327777779,26.402359194444443],[-81.6404426388889,26.401645666666667],[-81.64088969444445,26.40035358333333],[-81.64076661111112,26.398745722222223],[-81.64055250000001,26.39798638888889],[-81.64027147222222,26.397371666666665],[-81.63990744444445,26.396691861111112],[-81.63907233333335,26.395971083333333],[-81.63754397222223,26.395363555555555],[-81.63651883333334,26.395216444444443],[-81.63566497222223,26.395269444444445],[-81.63459427777778,26.39554658333333],[-81.63422219444445,26.395780388888888],[-81.63392238888889,26.39593947222222]]},"properties":{"style":"solid","thickness":1}},{"type":"Feature","geometry":{"type":"LineString","coordinates":[[-81.62586413888889,26.40479761111111],[-81.62726149999999,26.404711],[-81.62795483333333,26.404597777777777],[-81.62930408333332,26.40388197222222],[-81.63053291666667,26.402611722222222],[-81.63092919444443,26.401674027777776],[-81.63107652777776,26.400541055555554],[-81.63100705555554,26.399632277777776],[-81.63078763888888,26.398803],[-81.63033002777777,26.397918277777777],[-81.6293906111111,26.396852694444444],[-81.62905338888888,26.396522416666667],[-81.62840033333333,26.396141472222222],[-81.62704863888888,26.395803833333332],[-81.62541852777777,26.39590486111111],[-81.62465294444443,26.396092777777778],[-81.62389808333333,26.396420527777778],[-81.62344833333333,26.39665911111111],[-81.62271480555555,26.39726647222222],[-81.62208025,26.398148666666668],[-81.6218901111111,26.398722361111112],[-81.62173733333333,26.399785388888887],[-81.6218655,26.401463194444442],[-81.62269233333333,26.403097694444444],[-81.62320083333333,26.40362811111111],[-81.62378163888889,26.404083805555555],[-81.62435174999999,26.404399666666666],[-81.6245123611111,26.404459944444444],[-81.62586413888889,26.40479761111111]]},"properties":{"style":"solid","thickness":1}},{"type":"Feature","geometry":{"type":"LineString","coordinates":[[-81.61581866666666,26.400924555555555],[-81.61198930555555,26.396736555555556]]},"properties":{"style":"solid","thickness":1}},{"type":"Feature","geometry":{"type":"LineString","coordinates":[[-81.61827699999999,26.396347305555555],[-81.61895497222221,26.405225666666666],[-81.61507338888889,26.40546597222222],[-81.61475219444443,26.405345388888886],[-81.61403216666666,26.405109],[-81.61328011111111,26.404453166666666],[-81.61291625,26.403773277777777],[-81.61285222222222,26.402934388888887],[-81.61310938888889,26.402216083333332],[-81.61375472222221,26.401473749999997],[-81.61443202777777,26.40115088888889],[-81.61473186111111,26.40099186111111],[-81.61861330555556,26.400751527777775]]},"properties":{"style":"solid","thickness":1}},{"type":"Feature","geometry":{"type":"LineString","coordinates":[[-81.60914258333332,26.40133772222222],[-81.60471769444443,26.401611388888888]]},"properties":{"style":"solid","thickness":1}},{"type":"Feature","geometry":{"type":"LineString","coordinates":[[-81.60482594444444,26.406099944444442],[-81.60948388888889,26.40581186111111],[-81.60880663888888,26.396933472222223]]},"properties":{"style":"solid","thickness":1}},{"type":"Feature","geometry":{"type":"LineString","coordinates":[[-81.60187588888888,26.406282305555553],[-81.60133775,26.399221527777776],[-81.60123349999999,26.398876777777776],[-81.60063680555555,26.398211277777776],[-81.60021672222221,26.397815805555556],[-81.59957438888888,26.397574555555554],[-81.59871516666666,26.397557388888888],[-81.59747313888889,26.39763413888889],[-81.59677980555556,26.397747222222222],[-81.59587491666666,26.398154305555554],[-81.59536877777778,26.398677222222222],[-81.59509022222221,26.39911586111111],[-81.59498288888888,26.39975463888889],[-81.59550999999999,26.40667563888889]]},"properties":{"style":"solid","thickness":1}},{"type":"Feature","geometry":{"type":"LineString","coordinates":[[-81.62581130555554,26.388026749999998],[-81.62584013888888,26.38840425],[-81.62573408333333,26.388853333333333],[-81.62549794444443,26.389436916666668],[-81.62524736111111,26.38983175],[-81.62484744444444,26.390109416666665],[-81.62429816666666,26.390269888888888],[-81.62325027777777,26.390334833333334],[-81.62247222222221,26.39025661111111],[-81.6221085,26.39008952777778],[-81.6215858611111,26.38967938888889],[-81.6214221111111,26.38937347222222],[-81.62124394444444,26.388878777777776],[-81.62116702777777,26.38787211111111],[-81.62127791666666,26.387485944444443],[-81.62180569444443,26.38612572222222],[-81.62257666666666,26.385192916666668],[-81.6238126111111,26.38391522222222],[-81.62529905555554,26.382242694444447],[-81.62089825,26.382515472222224]]},"properties":{"style":"solid","thickness":1}},{"type":"Feature","geometry":{"type":"LineString","coordinates":[[-81.61800641666666,26.388763277777777],[-81.61797499999999,26.389270944444444],[-81.61785930555556,26.389594194444445],[-81.61741352777777,26.39019075],[-81.61701358333333,26.39046836111111],[-81.61661363888888,26.390746],[-81.61599452777777,26.390910777777776],[-81.61564522222221,26.39093238888889],[-81.61486713888888,26.390854138888887],[-81.61420480555554,26.390452666666665],[-81.61375202777778,26.390038194444443],[-81.6136533611111,26.389665],[-81.61355730555555,26.38840663888889],[-81.61380791666666,26.388011833333334],[-81.61426330555555,26.38754113888889],[-81.6148536111111,26.38699886111111],[-81.6153426111111,26.38696858333333]]},"properties":{"style":"solid","thickness":1}},{"type":"Feature","geometry":{"type":"LineString","coordinates":[[-81.6148536111111,26.38699886111111],[-81.61398172222222,26.38661036111111],[-81.61368308333333,26.386375972222222],[-81.61330016666666,26.385957194444444],[-81.61321591666666,26.38577275],[-81.61310283333333,26.385210805555555],[-81.61308844444444,26.385022055555556],[-81.6131198611111,26.38451438888889],[-81.61323077777777,26.38412825],[-81.61354644444444,26.383666194444444],[-81.61394155555556,26.383325666666668],[-81.61461130555556,26.382904888888888],[-81.61621797222222,26.38280538888889],[-81.6167213611111,26.38296386111111],[-81.61752819444443,26.383419611111112],[-81.61767752777777,26.383536805555554],[-81.61793513888888,26.384153],[-81.61795433333333,26.384404666666665]]},"properties":{"style":"solid","thickness":1}},{"type":"Feature","geometry":{"type":"LineString","coordinates":[[-81.74987552777777,26.421028055555556],[-81.75021858333334,26.421427972222222],[-81.75094983333334,26.421803472222223],[-81.7514265,26.421914],[-81.75276258333334,26.42204075],[-81.75322841666667,26.422011472222223],[-81.75414922222222,26.421813111111113],[-81.75490933333333,26.421554583333336],[-81.75505916666667,26.421474916666668],[-81.75557552777778,26.42109125],[-81.75608644444445,26.420637666666668],[-81.75692588888889,26.419390722222225],[-81.75722730555556,26.418247861111112],[-81.75710802777778,26.416710000000002],[-81.75688769444444,26.415880916666666],[-81.75652836111111,26.415271333333333],[-81.75601919444445,26.41474138888889],[-81.75559308333334,26.41427647222222],[-81.75492325,26.413686416666664],[-81.7542805,26.41344583333333],[-81.75363777777778,26.413205277777777],[-81.75308352777778,26.413099638888887],[-81.75168616666667,26.41318747222222],[-81.75092069444445,26.413376055555553],[-81.75032130555556,26.413694694444445],[-81.74964969444444,26.414088138888886],[-81.749211,26.414466916666665],[-81.74849969444445,26.415354527777776],[-81.74808263888889,26.416012916666666],[-81.74795986111111,26.41644211111111],[-81.74804652777777,26.417560555555557],[-81.75130716666666,26.41735566666667]]},"properties":{"style":"solid","thickness":1}},{"type":"Feature","geometry":{"type":"LineString","coordinates":[[-81.74523175,26.422513916666666],[-81.74468483333334,26.415453694444444],[-81.74458013888889,26.415109027777778],[-81.74398255555556,26.414444138888886],[-81.74356191666666,26.41404908333333],[-81.74291919444444,26.41380847222222],[-81.74205983333333,26.413792194444444],[-81.74081772222222,26.413870166666666],[-81.74012444444445,26.413983944444443],[-81.73921988888888,26.414391916666666],[-81.73871436111111,26.41491536111111],[-81.73843627777778,26.415354277777777],[-81.73832972222222,26.415993138888886],[-81.73886544444444,26.422913611111113]]},"properties":{"style":"solid","thickness":1}},{"type":"Feature","geometry":{"type":"LineString","coordinates":[[-81.73560461111111,26.423118222222225],[-81.73491763888889,26.41424044444444],[-81.73111363888889,26.414479027777777]]},"properties":{"style":"solid","thickness":1}},{"type":"Feature","geometry":{"type":"LineString","coordinates":[[-81.7286171111111,26.42355638888889],[-81.72793066666667,26.41467858333333],[-81.72412663888889,26.414917]]},"properties":{"style":"solid","thickness":1}},{"type":"Feature","geometry":{"type":"LineString","coordinates":[[-81.72128388888889,26.41952038888889],[-81.71685858333333,26.4197975]]},"properties":{"style":"solid","thickness":1}},{"type":"Feature","geometry":{"type":"LineString","coordinates":[[-81.71697116666667,26.424285972222222],[-81.72162955555555,26.42399425],[-81.7209436388889,26.415116416666667]]},"properties":{"style":"solid","thickness":1}},{"type":"Feature","geometry":{"type":"LineString","coordinates":[[-81.73840097222222,26.40452075],[-81.74329138888889,26.404213666666664],[-81.73965169444445,26.410700916666666],[-81.73904769444445,26.402899666666666]]},"properties":{"style":"solid","thickness":1}},{"type":"Feature","geometry":{"type":"LineString","coordinates":[[-81.73081813888889,26.406324166666664],[-81.7309641388889,26.408211555555553],[-81.73125644444444,26.409267944444444],[-81.73143511111111,26.4097625],[-81.73167391666667,26.410126833333333],[-81.73257075000001,26.410829194444442],[-81.7334335,26.411091166666665],[-81.73371294444445,26.411073638888887],[-81.73452702777777,26.41070647222222],[-81.73523713888889,26.409903277777776],[-81.73548738888888,26.40950825],[-81.73558816666667,26.408996194444445],[-81.735715,26.4079135],[-81.73556894444445,26.40602611111111],[-81.73527658333333,26.40496972222222],[-81.73509791666667,26.404475194444444],[-81.73478925,26.40411525],[-81.73396233333334,26.403408499999998],[-81.73309963888889,26.403146527777775],[-81.73282019444444,26.403164055555553],[-81.73200616666666,26.40353122222222],[-81.73122619444445,26.404338777777777],[-81.73104580555555,26.404729416666665],[-81.730945,26.405241472222222],[-81.73081813888889,26.406324166666664]]},"properties":{"style":"solid","thickness":1}},{"type":"Feature","geometry":{"type":"LineString","coordinates":[[-81.82739611111111,26.379214555555556],[-81.82814919444444,26.37986927777778],[-81.82830986111111,26.379929333333333],[-81.82932966666667,26.380005166666667],[-81.83017241666666,26.379811222222223],[-81.83061616666666,26.379502083333335],[-81.8310545,26.379123055555556],[-81.83139333333332,26.378469333333335],[-81.83126763888889,26.37686161111111],[-81.83075283333334,26.376262055555557],[-81.83042055555555,26.37600213888889],[-81.82922372222222,26.375656555555555],[-81.82787716666667,26.37539072222222],[-81.82691313888888,26.37503036111111],[-81.82656997222222,26.37463063888889],[-81.82633830555555,26.373661861111113],[-81.82642249999999,26.372743305555556],[-81.82676680555555,26.372159500000002],[-81.82713297222222,26.371855305555556],[-81.82742697222221,26.371625916666666],[-81.82779858333333,26.37139161111111],[-81.82863580555555,26.37112777777778],[-81.82910141666666,26.37109825],[-81.82957794444444,26.371208527777778],[-81.83022058333333,26.37144875],[-81.83063044444444,26.37170375],[-81.8312173611111,26.372228500000002]]},"properties":{"style":"solid","thickness":1}},{"type":"Feature","geometry":{"type":"LineString","coordinates":[[-81.82358680555555,26.38036922222222],[-81.81799913888888,26.38072325]]},"properties":{"style":"solid","thickness":1}},{"type":"Feature","geometry":{"type":"LineString","coordinates":[[-81.82087058333333,26.380541333333333],[-81.8201773611111,26.371663916666666]]},"properties":{"style":"solid","thickness":1}},{"type":"Feature","geometry":{"type":"LineString","coordinates":[[-81.81159677777778,26.376632833333336],[-81.80776116666667,26.372450027777777]]},"properties":{"style":"solid","thickness":1}},{"type":"Feature","geometry":{"type":"LineString","coordinates":[[-81.81404688888888,26.372052194444446],[-81.81473963888888,26.38092963888889],[-81.81085927777778,26.38117527777778],[-81.81053794444445,26.381055111111113],[-81.80981766666666,26.380819694444444],[-81.80906469444444,26.38016488888889],[-81.80869975,26.379485527777778],[-81.80863433333333,26.378646694444445],[-81.80889022222222,26.377928055555557],[-81.80953416666667,26.377184833333335],[-81.81021080555556,26.376861027777778],[-81.81051030555555,26.376701583333332],[-81.81439052777777,26.37645597222222]]},"properties":{"style":"solid","thickness":1}},{"type":"Feature","geometry":{"type":"LineString","coordinates":[[-81.80527152777778,26.381528777777778],[-81.80457947222222,26.372651277777777]]},"properties":{"style":"solid","thickness":1}},{"type":"Feature","geometry":{"type":"LineString","coordinates":[[-81.79991111111111,26.38179747222222],[-81.80492277777778,26.377055083333335],[-81.79914733333334,26.37299475]]},"properties":{"style":"solid","thickness":1}},{"type":"Feature","geometry":{"type":"LineString","coordinates":[[-81.79657938888889,26.38207825],[-81.795888,26.373200722222222],[-81.79208547222223,26.373440944444447]]},"properties":{"style":"solid","thickness":1}},{"type":"Feature","geometry":{"type":"LineString","coordinates":[[-81.81386219444444,26.362216305555556],[-81.81875063888889,26.36190663888889],[-81.81511647222221,26.36839586111111],[-81.81450763888888,26.360594861111114]]},"properties":{"style":"solid","thickness":1}},{"type":"Feature","geometry":{"type":"LineString","coordinates":[[-81.80628330555555,26.364023722222225],[-81.80643044444444,26.365911055555557],[-81.80672336111111,26.366967305555555],[-81.80690227777778,26.36746175],[-81.80714122222221,26.367825972222224],[-81.80803816666666,26.36852786111111],[-81.80890077777778,26.36878938888889],[-81.80918013888889,26.368771694444444],[-81.80999366666667,26.36840411111111],[-81.810703,26.36760052777778],[-81.81095291666666,26.36720538888889],[-81.81105333333333,26.36669325],[-81.81117941666666,26.365610500000003],[-81.81103216666666,26.363723166666666],[-81.81073922222222,26.36266691666667],[-81.81056030555555,26.362172472222223],[-81.81025152777778,26.361812694444446],[-81.80942444444445,26.36110638888889],[-81.80856188888889,26.36084486111111],[-81.80828255555555,26.360862555555556],[-81.80746908333333,26.36123013888889],[-81.80668991666667,26.36203811111111],[-81.80650983333334,26.362428833333336],[-81.80640941666667,26.362940972222223],[-81.80628330555555,26.364023722222225]]},"properties":{"style":"solid","thickness":1}},{"type":"Feature","geometry":{"type":"LineString","coordinates":[[-81.90244394444446,26.396266472222223],[-81.89910575,26.38755811111111],[-81.89654530555556,26.39664338888889],[-81.89312991666668,26.387939833333334],[-81.89095708333333,26.397000249999998]]},"properties":{"style":"solid","thickness":1}},{"type":"Feature","geometry":{"type":"LineString","coordinates":[[-81.88699883333334,26.38833122222222],[-81.88769725,26.397208305555555]]},"properties":{"style":"solid","thickness":1}},{"type":"Feature","geometry":{"type":"LineString","coordinates":[[-81.88296316666666,26.38858872222222],[-81.88366127777779,26.397465805555555],[-81.87419327777778,26.389147833333332],[-81.87489072222222,26.39802497222222]]},"properties":{"style":"solid","thickness":1}},{"type":"Feature","geometry":{"type":"LineString","coordinates":[[-81.87170844444444,26.39822772222222],[-81.87101125,26.389350583333332],[-81.86720833333332,26.38959277777778]]},"properties":{"style":"solid","thickness":1}},{"type":"Feature","geometry":{"type":"LineString","coordinates":[[-81.85998833333333,26.398973833333333],[-81.86472297222221,26.398672555555557],[-81.86402630555556,26.389795361111112],[-81.85921438888889,26.390101583333333]]},"properties":{"style":"solid","thickness":1}},{"type":"Feature","geometry":{"type":"LineString","coordinates":[[-81.86437186111111,26.394199],[-81.85979263888888,26.394490416666667]]},"properties":{"style":"solid","thickness":1}},{"type":"Feature","geometry":{"type":"LineString","coordinates":[[-81.88907072222223,26.382550138888888],[-81.88904047222223,26.383057861111112],[-81.88892555555556,26.383381305555556],[-81.88848119444445,26.383978694444444],[-81.88808191666668,26.38425708333333],[-81.88768263888889,26.384535472222222],[-81.88706391666668,26.384701416666665],[-81.88671469444445,26.384723722222223],[-81.8859365,26.384646916666668],[-81.88527325000001,26.384246694444442],[-81.88481952777778,26.383833055555556],[-81.88472,26.383460083333333],[-81.88462102777778,26.38220188888889],[-81.88487072222223,26.381806611111113],[-81.88532497222224,26.381335055555557],[-81.88591397222223,26.380791666666667],[-81.8864028888889,26.380760472222224]]},"properties":{"style":"solid","thickness":1}},{"type":"Feature","geometry":{"type":"LineString","coordinates":[[-81.88591397222223,26.380791666666667],[-81.88504122222223,26.380404805555557],[-81.88474205555556,26.380171],[-81.88435819444445,26.379752916666668],[-81.88427352777778,26.379568666666668],[-81.88415913888889,26.379006944444445],[-81.88414430555557,26.378818194444445],[-81.88417455555556,26.37831047222222],[-81.88428455555557,26.377924111111113],[-81.8845991388889,26.377461472222222],[-81.88499344444445,26.377120194444444],[-81.88566216666668,26.376698166666667],[-81.8872685,26.37659563888889],[-81.88777225000001,26.37675313888889],[-81.88858008333334,26.37720736111111],[-81.88872966666668,26.377324277777777],[-81.88898869444445,26.377939972222222],[-81.8890085,26.378191611111113]]},"properties":{"style":"solid","thickness":1}},{"type":"Feature","geometry":{"type":"LineString","coordinates":[[-81.87661052777777,26.380310333333334],[-81.8767588611111,26.382197583333333],[-81.87705244444444,26.383253694444445],[-81.87723169444443,26.383748055555554],[-81.87747088888888,26.384112138888888],[-81.87836838888889,26.38481361111111],[-81.87923127777778,26.385074694444445],[-81.87951063888889,26.38505688888889],[-81.88032408333332,26.38468888888889],[-81.88103302777778,26.383884972222223],[-81.88128272222221,26.383489694444442],[-81.88138283333333,26.38297752777778],[-81.88150827777777,26.381894694444444],[-81.88135988888888,26.380007444444445],[-81.88106627777778,26.378951361111113],[-81.88088702777777,26.378457],[-81.88057797222221,26.378097361111113],[-81.8797503611111,26.37739147222222],[-81.87888752777778,26.37713036111111],[-81.87860816666667,26.377148194444445],[-81.87779480555555,26.377516166666666],[-81.87701602777777,26.378324527777778],[-81.87683616666666,26.378715333333332],[-81.87673602777777,26.37922752777778],[-81.87661052777777,26.380310333333334]]},"properties":{"style":"solid","thickness":1}},{"type":"Feature","geometry":{"type":"LineString","coordinates":[[-81.91177725,26.49031763888889],[-81.90618455555555,26.490675083333333]]},"properties":{"style":"solid","thickness":1}},{"type":"Feature","geometry":{"type":"LineString","coordinates":[[-81.90905858333333,26.490491416666668],[-81.90835797222223,26.48161461111111]]},"properties":{"style":"solid","thickness":1}},{"type":"Feature","geometry":{"type":"LineString","coordinates":[[-81.89740708333333,26.491235638888888],[-81.89880527777778,26.49114638888889],[-81.89949886111111,26.49103186111111],[-81.90084744444445,26.4903135],[-81.90207422222223,26.489040944444444],[-81.90246858333335,26.48810252777778],[-81.90261341666667,26.486969305555558],[-81.90254175000001,26.48606063888889],[-81.90232022222223,26.485231805555557],[-81.90186019444445,26.484347944444444],[-81.90091761111111,26.483284166666664],[-81.90057936111111,26.482954527777775],[-81.89992494444445,26.48257483333333],[-81.89857144444446,26.482239749999998],[-81.89694036111112,26.482343888888888],[-81.89617466666667,26.48253325],[-81.89541997222223,26.482862416666666],[-81.89497047222223,26.48310186111111],[-81.89423783333334,26.483710583333334],[-81.89360486111111,26.484593972222225],[-81.8934158888889,26.485168],[-81.89326550000001,26.486231333333333],[-81.89339766666667,26.487908861111112],[-81.89422894444445,26.489541777777777],[-81.89473908333333,26.490071194444447],[-81.89532136111112,26.49052577777778],[-81.89589266666667,26.490840555555558],[-81.89605352777778,26.490900555555555],[-81.89740708333333,26.491235638888888]]},"properties":{"style":"solid","thickness":1}},{"type":"Feature","geometry":{"type":"LineString","coordinates":[[-81.89049377777778,26.49167675],[-81.88993772222223,26.484617166666666],[-81.88983250000001,26.48427263888889],[-81.88923375,26.483608333333333],[-81.88881236111112,26.48321372222222],[-81.88816897222223,26.482973777777776],[-81.88730905555556,26.48295836111111],[-81.88606630555556,26.48303758333333],[-81.88537277777779,26.483152055555554],[-81.88446819444445,26.48356097222222],[-81.88396300000001,26.48408488888889],[-81.88368533333335,26.484524083333334],[-81.88357950000001,26.485163055555557],[-81.88412419444445,26.49208288888889]]},"properties":{"style":"solid","thickness":1}},{"type":"Feature","geometry":{"type":"LineString","coordinates":[[-81.88085619444443,26.49222088888889],[-81.88016319444444,26.483413833333334]]},"properties":{"style":"solid","thickness":1}},{"type":"Feature","geometry":{"type":"LineString","coordinates":[[-81.87425347222222,26.492641444444445],[-81.873561,26.483834333333334]]},"properties":{"style":"solid","thickness":1}},{"type":"Feature","geometry":{"type":"LineString","coordinates":[[-81.88053169444444,26.488096944444447],[-81.87392922222222,26.488517472222224]]},"properties":{"style":"solid","thickness":1}},{"type":"Feature","geometry":{"type":"LineString","coordinates":[[-81.8710741111111,26.492914083333336],[-81.86730002777777,26.487604694444446],[-81.86447133333333,26.493334166666667]]},"properties":{"style":"solid","thickness":1}},{"type":"Feature","geometry":{"type":"LineString","coordinates":[[-81.86730002777777,26.487604694444446],[-81.86704191666666,26.4843195]]},"properties":{"style":"solid","thickness":1}},{"type":"Feature","geometry":{"type":"LineString","coordinates":[[-81.8949408888889,26.475157666666664],[-81.89497063888889,26.47553511111111],[-81.89486552777778,26.475984388888886],[-81.89463055555557,26.476568388888886],[-81.89438069444445,26.476963694444443],[-81.89398111111112,26.47724208333333],[-81.89343183333334,26.47740358333333],[-81.89238330555557,26.4774705],[-81.89160447222223,26.477393749999997],[-81.89124008333334,26.47722733333333],[-81.89071608333334,26.476818194444444],[-81.89055152777779,26.47651258333333],[-81.89037208333335,26.47601825],[-81.89029277777779,26.47501172222222],[-81.89040286111111,26.47462536111111],[-81.8909278888889,26.473264166666667],[-81.89169727777778,26.472329944444443],[-81.89293116666667,26.47104994444444],[-81.89441486111112,26.469374638888887],[-81.8900113888889,26.469655666666664]]},"properties":{"style":"solid","thickness":1}},{"type":"Feature","geometry":{"type":"LineString","coordinates":[[-81.88224669444443,26.471857888888888],[-81.88713955555556,26.471545916666663],[-81.88350577777778,26.478036749999998],[-81.88289177777777,26.470236194444443]]},"properties":{"style":"solid","thickness":1}},{"type":"Feature","geometry":{"type":"LineString","coordinates":[[-82.09901830555555,26.469981583333333],[-82.09459202777778,26.47027036111111]]},"properties":{"style":"solid","thickness":1}},{"type":"Feature","geometry":{"type":"LineString","coordinates":[[-82.09471925,26.474758416666663],[-82.09937866666667,26.474454444444444],[-82.0986636111111,26.465578583333333]]},"properties":{"style":"solid","thickness":1}},{"type":"Feature","geometry":{"type":"LineString","coordinates":[[-82.08625458333333,26.475310277777776],[-82.08765241666666,26.475219166666665],[-82.08834572222221,26.475103722222222],[-82.08969291666666,26.474383611111108],[-82.09091747222222,26.473109444444443],[-82.09131024999999,26.472170499999997],[-82.09145322222221,26.471037083333332],[-82.09138008333333,26.470128527777778],[-82.09115725,26.469299999999997],[-82.0906958611111,26.46841675],[-82.08975166666666,26.46735422222222],[-82.08941294444443,26.467025027777776],[-82.08875797222221,26.466646166666667],[-82.08740416666666,26.46631288888889],[-82.08577347222221,26.466419166666665],[-82.08500819444444,26.466609527777777],[-82.08425413888888,26.46693969444444],[-82.08380508333333,26.46717972222222],[-82.08307352777777,26.467789416666665],[-82.0824421111111,26.46867361111111],[-82.08225411111111,26.469247916666664],[-82.08210544444444,26.470311416666664],[-82.08224033333333,26.471988777777778],[-82.08307413888889,26.473620583333332],[-82.08358505555555,26.47414936111111],[-82.08416799999999,26.474603166666665],[-82.08473972222222,26.474917194444444],[-82.08490066666666,26.47497697222222],[-82.08625458333333,26.475310277777776]]},"properties":{"style":"solid","thickness":1}},{"type":"Feature","geometry":{"type":"LineString","coordinates":[[-82.0717146111111,26.475062666666666],[-82.07205894444444,26.475461805555554],[-82.07279155555555,26.475835666666665],[-82.07326875,26.47594511111111],[-82.07460577777778,26.47606886111111],[-82.07507174999999,26.476038555555554],[-82.07599241666667,26.47583811111111],[-82.07675216666667,26.475577888888886],[-82.07690186111111,26.47549788888889],[-82.07741738888889,26.475113055555553],[-82.07792727777777,26.47465833333333],[-82.07876366666666,26.473409527777775],[-82.07906205555555,26.472266027777778],[-82.07893844444445,26.470728444444443],[-82.07871572222221,26.469899888888886],[-82.07835452777778,26.469291111111108],[-82.07784366666667,26.46876233333333],[-82.07741605555555,26.468298388888886],[-82.07674427777778,26.467709805555554],[-82.07610058333333,26.467470694444444],[-82.07545688888888,26.46723158333333],[-82.0749021111111,26.467127194444444],[-82.07350433333333,26.46721813888889],[-82.07273902777777,26.46740847222222],[-82.07214027777778,26.467728444444443],[-82.07146944444445,26.46812336111111],[-82.07103161111111,26.468503138888888],[-82.07032241666666,26.46939233333333],[-82.069907,26.470051666666667],[-82.0697853611111,26.470481083333333],[-82.06987516666666,26.47159933333333],[-82.07313672222222,26.471387138888886]]},"properties":{"style":"solid","thickness":1}},{"type":"Feature","geometry":{"type":"LineString","coordinates":[[-82.06643786111111,26.46767786111111],[-82.06287919444445,26.476831583333333],[-82.05812886111111,26.468217944444444]]},"properties":{"style":"solid","thickness":1}},{"type":"Feature","geometry":{"type":"LineString","coordinates":[[-82.0652701111111,26.47063425],[-82.05967886111111,26.470997666666666]]},"properties":{"style":"solid","thickness":1}},{"type":"Feature","geometry":{"type":"LineString","coordinates":[[-82.0548673611111,26.468429805555555],[-82.05557911111111,26.477305888888885],[-82.04609233333333,26.468999444444442],[-82.04680338888889,26.477875583333333]]},"properties":{"style":"solid","thickness":1}},{"type":"Feature","geometry":{"type":"LineString","coordinates":[[-81.98165769444445,26.38997725],[-81.98305461111111,26.389887194444444],[-81.9837475,26.38977225],[-81.98509436111111,26.38905311111111],[-81.98631916666666,26.387779805555557],[-81.98671252777778,26.38684113888889],[-81.9868563888889,26.385707805555555],[-81.9867841388889,26.384799166666667],[-81.98656222222222,26.38397047222222],[-81.98610197222223,26.38308686111111],[-81.98515941666666,26.382023611111112],[-81.98482125,26.381694166666666],[-81.98416708333333,26.381314833333334],[-81.98281455555556,26.380980555555556],[-81.98118497222222,26.38108563888889],[-81.98042005555556,26.381275472222224],[-81.97966627777778,26.381605083333334],[-81.97921733333334,26.38184477777778],[-81.97848577777778,26.382453944444446],[-81.97785400000001,26.383337694444442],[-81.9776656111111,26.38391186111111],[-81.97751611111111,26.384975277777777],[-81.97764938888889,26.38665275],[-81.97848111111111,26.388285222222223],[-81.97899116666667,26.38881436111111],[-81.97957327777777,26.38926861111111],[-81.98014430555556,26.389583055555555],[-81.98030505555556,26.389642944444443],[-81.98165769444445,26.38997725]]},"properties":{"style":"solid","thickness":1}},{"type":"Feature","geometry":{"type":"LineString","coordinates":[[-81.97404572222223,26.381545777777777],[-81.97475075,26.390422416666667],[-81.97149127777777,26.39063238888889],[-81.97079280555556,26.39067738888889],[-81.97021627777778,26.390293],[-81.96978938888888,26.389828722222223],[-81.96976719444444,26.38954913888889],[-81.96965622222223,26.388151222222223],[-81.96971719444444,26.387936555555555],[-81.96990561111112,26.38736238888889],[-81.97062616666666,26.386613472222223],[-81.96981683333334,26.386244083333334],[-81.96941216666667,26.38605938888889],[-81.96899641666667,26.385734888888887],[-81.96871366666667,26.385120833333332],[-81.96856941666667,26.383303555555557],[-81.96876338888889,26.382799305555555],[-81.96927333333333,26.382344944444444],[-81.9696391388889,26.38204038888889],[-81.9700105,26.38180572222222],[-81.97404572222223,26.381545777777777]]},"properties":{"style":"solid","thickness":1}},{"type":"Feature","geometry":{"type":"LineString","coordinates":[[-81.97442875,26.386368527777776],[-81.97062616666666,26.386613472222223]]},"properties":{"style":"solid","thickness":1}},{"type":"Feature","geometry":{"type":"LineString","coordinates":[[-81.9611695,26.391296805555555],[-81.96590355555556,26.390992166666667],[-81.96519922222222,26.38211547222222],[-81.96038791666668,26.382425083333334]]},"properties":{"style":"solid","thickness":1}},{"type":"Feature","geometry":{"type":"LineString","coordinates":[[-81.96554861111112,26.38651886111111],[-81.96096994444444,26.3868135]]},"properties":{"style":"solid","thickness":1}},{"type":"Feature","geometry":{"type":"LineString","coordinates":[[-81.95814280555555,26.39149147222222],[-81.95743905555555,26.382614750000002],[-81.95363655555556,26.38285925]]},"properties":{"style":"solid","thickness":1}},{"type":"Feature","geometry":{"type":"LineString","coordinates":[[-81.95115805555555,26.3919405],[-81.95045483333334,26.38306375],[-81.94665230555556,26.383308055555556]]},"properties":{"style":"solid","thickness":1}},{"type":"Feature","geometry":{"type":"LineString","coordinates":[[-81.97580258333333,26.375685472222223],[-81.97577272222222,26.376193222222224],[-81.97565802777778,26.37651675],[-81.97521413888889,26.377114416666668],[-81.97481511111111,26.377393055555554],[-81.97441605555555,26.377671666666668],[-81.9737975,26.377837972222224],[-81.97344830555556,26.377860472222224],[-81.97267011111111,26.377784166666668],[-81.97200658333334,26.377384333333335],[-81.97155261111111,26.376971],[-81.97145277777778,26.376598055555554],[-81.97135288888889,26.375339944444445],[-81.97160227777778,26.3749445],[-81.97205616666668,26.374472666666666],[-81.97264472222223,26.373928944444444],[-81.97313358333334,26.373897444444445]]},"properties":{"style":"solid","thickness":1}},{"type":"Feature","geometry":{"type":"LineString","coordinates":[[-81.97264472222223,26.373928944444444],[-81.97177172222223,26.373542583333332],[-81.97147241666667,26.373308972222222],[-81.97108825000001,26.372891111111112],[-81.97100344444445,26.37270691666667],[-81.97088866666667,26.37214525],[-81.97087366666666,26.37195652777778],[-81.97090355555555,26.371448805555556],[-81.97101325,26.37106236111111],[-81.97132747222223,26.370599527777777],[-81.9717215,26.370258],[-81.97238986111111,26.369835583333334],[-81.97399602777777,26.369732083333332],[-81.97449986111111,26.36988927777778],[-81.975308,26.37034302777778],[-81.97545766666667,26.370459833333335],[-81.9757171388889,26.37107538888889],[-81.97573711111112,26.371327]]},"properties":{"style":"solid","thickness":1}},{"type":"Feature","geometry":{"type":"LineString","coordinates":[[-81.96334147222223,26.373453194444444],[-81.96349119444444,26.37534038888889],[-81.96378555555556,26.376396305555556],[-81.96396516666667,26.376890555555555],[-81.96420461111111,26.3772545],[-81.96510258333333,26.377955416666666],[-81.96596561111112,26.378216000000002],[-81.96624494444444,26.378198],[-81.96705805555555,26.377829527777777],[-81.96776636111112,26.377025166666666],[-81.96801575,26.37662975],[-81.9681155,26.37611752777778],[-81.96824011111111,26.375034638888888],[-81.96809033333334,26.373147444444445],[-81.96779594444445,26.372091555555556],[-81.96761633333334,26.371597305555557],[-81.96730702777778,26.371237861111112],[-81.96647894444445,26.370532444444446],[-81.96561597222222,26.37027188888889],[-81.96533663888889,26.37028986111111],[-81.96452358333333,26.370658333333335],[-81.96374547222223,26.37146716666667],[-81.9635658888889,26.371858083333333],[-81.96346613888889,26.372370333333333],[-81.96334147222223,26.373453194444444]]},"properties":{"style":"solid","thickness":1}},{"type":"Feature","geometry":{"type":"LineString","coordinates":[[-81.95637994444445,26.45323433333333],[-81.9556815,26.444427583333333]]},"properties":{"style":"solid","thickness":1}},{"type":"Feature","geometry":{"type":"LineString","coordinates":[[-81.94977975,26.45365836111111],[-81.94908177777778,26.444851583333335]]},"properties":{"style":"solid","thickness":1}},{"type":"Feature","geometry":{"type":"LineString","coordinates":[[-81.95605288888889,26.449110555555556],[-81.94945291666667,26.449534555555555]]},"properties":{"style":"solid","thickness":1}},{"type":"Feature","geometry":{"type":"LineString","coordinates":[[-81.94597602777777,26.445051],[-81.94240852777779,26.454201777777776],[-81.93766805555556,26.445584083333333]]},"properties":{"style":"solid","thickness":1}},{"type":"Feature","geometry":{"type":"LineString","coordinates":[[-81.94480541666667,26.44800641666667],[-81.93921486111111,26.44836513888889]]},"properties":{"style":"solid","thickness":1}},{"type":"Feature","geometry":{"type":"LineString","coordinates":[[-81.93510936111112,26.45466997222222],[-81.93067997222222,26.44603213888889],[-81.92781011111111,26.45513777777778]]},"properties":{"style":"solid","thickness":1}},{"type":"Feature","geometry":{"type":"LineString","coordinates":[[-81.92384713888889,26.44646986111111],[-81.92454875,26.455346666666667]]},"properties":{"style":"solid","thickness":1}},{"type":"Feature","geometry":{"type":"LineString","coordinates":[[-81.92051083333334,26.45560522222222],[-81.91491983333334,26.455963]]},"properties":{"style":"solid","thickness":1}},{"type":"Feature","geometry":{"type":"LineString","coordinates":[[-81.91779297222223,26.455779166666666],[-81.91709191666668,26.446902333333334]]},"properties":{"style":"solid","thickness":1}},{"type":"Feature","geometry":{"type":"LineString","coordinates":[[-81.94229247222222,26.439678166666667],[-81.94226244444445,26.440185888888887],[-81.94214761111111,26.440509388888888],[-81.94170330555556,26.441106944444446],[-81.94130394444444,26.441385472222223],[-81.94090461111111,26.441664],[-81.94028566666667,26.441830166666666],[-81.93993627777778,26.441852583333333],[-81.93915766666667,26.441776083333334],[-81.9384938888889,26.44137611111111],[-81.93803977777777,26.440962666666668],[-81.93794002777778,26.440589694444444],[-81.93784041666667,26.439331583333335],[-81.93809005555556,26.43893622222222],[-81.93854433333334,26.4384645],[-81.93913336111112,26.43792088888889],[-81.9396225,26.4378895]]},"properties":{"style":"solid","thickness":1}},{"type":"Feature","geometry":{"type":"LineString","coordinates":[[-81.93913336111112,26.43792088888889],[-81.93826,26.437534361111112],[-81.93796058333334,26.437300666666665],[-81.93757636111111,26.436882722222222],[-81.93749152777778,26.4366985],[-81.93737686111112,26.436136833333332],[-81.93736191666667,26.435948111111113],[-81.93739194444444,26.435440361111112],[-81.93750183333334,26.43505397222222],[-81.93781633333333,26.434591222222224],[-81.93821069444445,26.43424977777778],[-81.93887952777779,26.4338275],[-81.9404866388889,26.43372438888889],[-81.94099069444445,26.43388172222222],[-81.9417991388889,26.43433563888889],[-81.94194886111111,26.434452472222222],[-81.94220827777778,26.435068083333334],[-81.94222822222223,26.435319694444445]]},"properties":{"style":"solid","thickness":1}},{"type":"Feature","geometry":{"type":"LineString","coordinates":[[-81.92982513888889,26.437443000000002],[-81.9299743888889,26.439330194444445],[-81.93026861111112,26.440386166666666],[-81.93044816666666,26.440880472222222],[-81.93068766666667,26.441244472222223],[-81.93158591666668,26.441945583333332],[-81.93244933333334,26.44220636111111],[-81.93272886111112,26.442188444444444],[-81.9335425,26.44182013888889],[-81.93425144444444,26.44101597222222],[-81.93450108333333,26.44062061111111],[-81.93460102777779,26.440108388888888],[-81.93472602777778,26.439025555555556],[-81.93457669444444,26.43713836111111],[-81.93428244444445,26.436082388888888],[-81.93410286111111,26.435588111111112],[-81.93379350000001,26.435228583333334],[-81.93296516666668,26.434523],[-81.93210180555556,26.43426225],[-81.93182230555556,26.434280166666667],[-81.93100869444444,26.434648444444445],[-81.93022991666668,26.435457083333333],[-81.93005013888889,26.435847944444443],[-81.92995019444444,26.436360166666667],[-81.92982513888889,26.437443000000002]]},"properties":{"style":"solid","thickness":1}},{"type":"Feature","geometry":{"type":"LineString","coordinates":[[-81.64443775000001,26.40149786111111],[-81.6596758888889,26.400550749999997],[-81.6529683888889,26.412917472222222],[-81.64443775000001,26.40149786111111]]},"properties":{"style":"solid","thickness":1}},{"type":"Feature","geometry":{"type":"LineString","coordinates":[[-81.76999841666667,26.545283361111114],[-81.7698605,26.543509583333336]]},"properties":{"style":"solid","thickness":1}},{"type":"Feature","geometry":{"type":"LineString","coordinates":[[-81.76950627777778,26.54552616666667],[-81.76933558333333,26.543330722222223]]},"properties":{"style":"solid","thickness":1}},{"type":"Feature","geometry":{"type":"LineString","coordinates":[[-81.76899775,26.54555813888889],[-81.76882705555555,26.543362722222223]]},"properties":{"style":"solid","thickness":1}},{"type":"Feature","geometry":{"type":"LineString","coordinates":[[-81.76847280555556,26.545379305555556],[-81.76833491666666,26.54360552777778]]},"properties":{"style":"solid","thickness":1}},{"type":"Feature","geometry":{"type":"LineString","coordinates":[[-81.76784447222222,26.544527583333334],[-81.76788222222223,26.544738583333334],[-81.76796127777777,26.54494013888889],[-81.76807905555556,26.54512575],[-81.76823177777777,26.545289472222223],[-81.76841458333334,26.54542602777778],[-81.76862152777778,26.545531055555557],[-81.768846,26.54560113888889],[-81.76908080555556,26.54563402777778],[-81.76931833333333,26.545628694444446],[-81.76955102777778,26.54558530555556],[-81.76977133333334,26.54550525],[-81.76997222222222,26.545391111111112],[-81.77014722222222,26.54524652777778],[-81.77029069444444,26.545076166666668],[-81.77039802777777,26.544885500000003],[-81.77046580555556,26.54468063888889],[-81.77049180555555,26.544468222222225],[-81.77047525,26.54425502777778],[-81.77041661111112,26.544047916666667],[-81.77031777777778,26.543853555555557],[-81.77018197222222,26.54367816666667],[-81.77001355555555,26.543527444444447],[-81.7698178888889,26.543406166666667],[-81.76960130555555,26.54331827777778],[-81.76937075,26.543266555555558],[-81.76913361111112,26.543252722222224],[-81.76889755555555,26.54327716666667],[-81.76867016666667,26.54333913888889],[-81.76845872222222,26.543436638888892],[-81.76827,26.54356652777778],[-81.76811013888889,26.54372463888889],[-81.76798422222222,26.54390588888889],[-81.76789630555555,26.544104444444447],[-81.76784922222222,26.544313916666667],[-81.76784447222222,26.544527583333334]]},"properties":{"style":"solid","thickness":1}}]}
