{
"type": "FeatureCollection",
"name": "FPR-214S",
"crs": { "type": "name", "properties": { "name": "urn:ogc:def:crs:OGC:1.3:CRS84" } },
"features": [
{ "type": "Feature", "properties": { }, "geometry": { "type": "LineString", "coordinates": [ ] } },
{ "type": "Feature", "properties": { }, "geometry": { "type": "LineString", "coordinates": [ [ -80.380404521405026, 27.57403777531286 ], [ -80.380490440357022, 27.574030807142574 ], [ -80.380576351308974, 27.574023763972111 ], [ -80.380662254260841, 27.574016642801563 ], [ -80.380748149212607, 27.574009446630935 ], [ -80.380834036164302, 27.574002172460226 ], [ -80.380919914115935, 27.573994822289336 ], [ -80.381005785067472, 27.573987395118568 ], [ -80.38109164701892, 27.573979891947619 ], [ -80.381177499970192, 27.573972311776487 ], [ -80.381263344921592, 27.573964655605376 ], [ -80.38134918087286, 27.573956922434192 ], [ -80.3814350088239, 27.573949113263026 ], [ -80.381520827774935, 27.573941227091566 ], [ -80.381606636726033, 27.573933263920235 ], [ -80.381692437676946, 27.573925224748635 ], [ -80.381778229627741, 27.573917109577135 ], [ -80.381864012578504, 27.573908917405376 ], [ -80.381949785529173, 27.573900648233632 ], [ -80.382035549479724, 27.573892303061918 ], [ -80.382121304430243, 27.573883881890012 ], [ -80.382207049380568, 27.573875383718029 ], [ -80.382292784331028, 27.573866808545979 ], [ -80.382378510281256, 27.573858157373746 ], [ -80.382464226231463, 27.573849430201523 ], [ -80.38254993218159, 27.573840627029348 ], [ -80.382635629131556, 27.573831745856875 ], [ -80.382721315081525, 27.573822789684431 ], [ -80.382806991031401, 27.57381375651202 ], [ -80.382892656981156, 27.573804647339426 ], [ -80.382978312930859, 27.573795461166746 ], [ -80.383063957880381, 27.573786198994011 ], [ -80.383149592829909, 27.573776859821088 ], [ -80.383235216779482, 27.57376744564829 ], [ -80.383320830728849, 27.573757953475223 ], [ -80.383406433678147, 27.573748386302174 ], [ -80.383492025627348, 27.573738742129152 ], [ -80.383577607576484, 27.573729021955952 ], [ -80.38366317752552, 27.573719224782682 ], [ -80.383748736474502, 27.573709352609225 ], [ -80.383834284423287, 27.573699403435821 ], [ -80.383919821372203, 27.573689377262326 ], [ -80.384005347320937, 27.573679276088868 ], [ -80.38409086126957, 27.573669097915126 ], [ -80.384176364218021, 27.573658843741509 ], [ -80.384261855166585, 27.573648512567733 ], [ -80.38434733511501, 27.573638106393865 ], [ -80.384432802063245, 27.573627623219835 ], [ -80.384518258011582, 27.573617064045944 ], [ -80.384603702959737, 27.573606428871745 ], [ -80.384689134907802, 27.573595716697614 ], [ -80.384774554855781, 27.573584929523399 ], [ -80.384859961803699, 27.573574065349099 ], [ -80.384945357751519, 27.57356312517485 ], [ -80.385030740699264, 27.573552109000321 ], [ -80.385116111646809, 27.573541016825914 ], [ -80.385201469594492, 27.573529848651237 ], [ -80.385286815541974, 27.573518603476597 ], [ -80.385372148489409, 27.573507283301886 ], [ -80.385457468436755, 27.573495886127198 ], [ -80.385542776383971, 27.573484412952247 ], [ -80.38562807033108, 27.573472864777422 ], [ -80.385713352278245, 27.573461239602437 ], [ -80.385798620225174, 27.573449538427266 ], [ -80.385883875172183, 27.573437761252141 ], [ -80.385969117118933, 27.573425908077045 ], [ -80.386054346065777, 27.573413978901765 ], [ -80.386139561012456, 27.573401974726348 ], [ -80.386224761959014, 27.573389893551042 ], [ -80.386309949905439, 27.573377736375573 ], [ -80.386395124851944, 27.573365503199934 ], [ -80.386480284798196, 27.573353194024424 ], [ -80.386565431744444, 27.573340809848649 ], [ -80.386650563690722, 27.573328348673019 ], [ -80.386735682636825, 27.5733158124971 ], [ -80.386820786582817, 27.57330319932133 ], [ -80.386905877528747, 27.573290511145288 ], [ -80.38699095247452, 27.573277746969392 ], [ -80.387076014420373, 27.573264906793323 ], [ -80.387161061366029, 27.573251990617177 ], [ -80.387246094311649, 27.573238998440967 ], [ -80.387331111257154, 27.573225931264709 ], [ -80.38741611520247, 27.57321278708827 ], [ -80.387501103147926, 27.573199567911868 ], [ -80.387586076093186, 27.573186272735505 ], [ -80.387671035038338, 27.573172902558888 ], [ -80.387755977983431, 27.573159455382388 ], [ -80.387840905928357, 27.573145933205737 ], [ -80.387925818873384, 27.573132335029015 ], [ -80.388010716818201, 27.573118661852131 ], [ -80.388095598762959, 27.573104911675287 ], [ -80.388180465707634, 27.573091086498376 ], [ -80.388265316652223, 27.573077186321505 ], [ -80.388350152596743, 27.573063210144465 ], [ -80.388434972541035, 27.573049157967368 ], [ -80.388519775485349, 27.573035029790109 ], [ -80.388604564429713, 27.573020826612971 ], [ -80.388689336373815, 27.573006547435593 ], [ -80.38877409131787, 27.572992193258354 ], [ -80.388858831261999, 27.572977763080857 ], [ -80.388943555205813, 27.572963256903378 ], [ -80.389028262149722, 27.57294867572595 ], [ -80.389112953093473, 27.572934019548356 ], [ -80.389197627037149, 27.572919287370606 ], [ -80.389282283980691, 27.572904479192896 ], [ -80.38936692492419, 27.572889596015127 ], [ -80.389451549867587, 27.572874636837287 ], [ -80.389536156810934, 27.572859602659396 ], [ -80.38962074675419, 27.572844493481451 ], [ -80.389705320697331, 27.572829308303437 ], [ -80.389789876640407, 27.57281404812537 ], [ -80.389874415583378, 27.572798711947232 ], [ -80.389958937526288, 27.572783300769149 ], [ -80.390043441469103, 27.572767814590897 ], [ -80.390127928411729, 27.572752252412599 ], [ -80.390212398354478, 27.572736615234145 ], [ -80.390296850296949, 27.572720903055718 ], [ -80.390381284239524, 27.57270511487723 ], [ -80.390465700181906, 27.572689251698804 ], [ -80.390550099124184, 27.572673313520205 ], [ -80.390634479066321, 27.572657299341465 ], [ -80.390718842008567, 27.572641211162754 ], [ -80.390803185950503, 27.572625046984093 ], [ -80.390887511892572, 27.572608807805256 ], [ -80.390971819834434, 27.572592492626391 ], [ -80.391056109776244, 27.572576103447368 ], [ -80.391140380717928, 27.572559638268373 ], [ -80.391224632659473, 27.572543098089334 ], [ -80.391308866601108, 27.572526482910334 ], [ -80.391393081542461, 27.572509792731175 ], [ -80.391477278483919, 27.57249302755196 ], [ -80.391561455425119, 27.572476187372708 ], [ -80.391645614366382, 27.572459272193392 ], [ -80.391729753307402, 27.57244228101402 ], [ -80.391813873248438, 27.572425215834592 ], [ -80.391897975189451, 27.572408075655016 ], [ -80.391982056130317, 27.57239086047548 ], [ -80.392066119071004, 27.572373569295888 ], [ -80.392150162011774, 27.572356204116339 ], [ -80.392234184952343, 27.572338763936553 ] ] } },
{ "type": "Feature", "properties": { }, "geometry": { "type": "LineString", "coordinates": [ [ -80.356002258088921, 27.572907291642323 ], [ -80.355917614116947, 27.572892422781294 ], [ -80.355832986145174, 27.572877477920034 ], [ -80.35574837617321, 27.572862458058825 ], [ -80.355663782201106, 27.572847363197294 ], [ -80.355579206229123, 27.572832192335817 ], [ -80.355494646256986, 27.572816945473999 ], [ -80.355410104284786, 27.572801624612246 ], [ -80.355325579312535, 27.572786227750161 ], [ -80.355241072340235, 27.572770754888129 ], [ -80.355156581367766, 27.572755208025754 ], [ -80.355072109395422, 27.572739584163465 ], [ -80.354987653422867, 27.572723886300928 ], [ -80.354903216450339, 27.572708112438143 ], [ -80.35481879647773, 27.572692263575419 ], [ -80.354734395505162, 27.57267633971237 ], [ -80.354650011532456, 27.572660339849261 ], [ -80.354565645559674, 27.572644265986131 ], [ -80.354481297586844, 27.572628116122644 ], [ -80.354396967613937, 27.572611890259225 ], [ -80.354312656640971, 27.572595590395473 ], [ -80.354228363668014, 27.572579214531675 ], [ -80.354144089694941, 27.57256276466784 ], [ -80.354059833721792, 27.572546238803664 ], [ -80.353975595748608, 27.572529637939528 ], [ -80.353891377775298, 27.572512962075081 ], [ -80.353807177802011, 27.572496210210673 ], [ -80.353722996828751, 27.572479384345947 ], [ -80.353638834855332, 27.572462483481161 ], [ -80.353554691881868, 27.572445507616333 ], [ -80.353470567908332, 27.572428455751169 ], [ -80.353386462934751, 27.572411329885963 ], [ -80.353302377961128, 27.572394128020708 ], [ -80.353218311987419, 27.572376852155219 ], [ -80.353134265013651, 27.572359501289597 ], [ -80.353050238039856, 27.572342074423712 ], [ -80.352966231065977, 27.572324573557793 ], [ -80.352882243091955, 27.572306997691836 ], [ -80.352798275118104, 27.572289346825624 ], [ -80.352714327144056, 27.572271620959278 ], [ -80.352630399169854, 27.572253821092676 ], [ -80.352546491195824, 27.57223594522614 ], [ -80.352462603221625, 27.572217995359271 ], [ -80.352378735247356, 27.572199970492452 ], [ -80.352294888272937, 27.572181870625283 ], [ -80.352211061298675, 27.572163695758178 ], [ -80.352127255324248, 27.572145446890818 ], [ -80.352043469349724, 27.572127122023225 ], [ -80.351959703375186, 27.572108724155679 ], [ -80.351875959400616, 27.572090250287889 ], [ -80.351792235425961, 27.572071702419962 ], [ -80.351708532451255, 27.572053079551775 ], [ -80.351624850476398, 27.572034382683658 ], [ -80.351541189501674, 27.572015610815189 ], [ -80.351457549526785, 27.571996763946771 ], [ -80.351373930551858, 27.571977843078113 ], [ -80.351290333576785, 27.571958847209313 ], [ -80.351206757601858, 27.571939776340351 ], [ -80.351123203626727, 27.571920632471251 ], [ -80.351039670651588, 27.57190141260191 ], [ -80.350956159676286, 27.57188211873261 ], [ -80.350872669701033, 27.571862750862959 ], [ -80.350789201725775, 27.571843307993298 ], [ -80.350705756750415, 27.571823791123457 ], [ -80.350622332775018, 27.571804200253474 ], [ -80.35053893079953, 27.57178453438334 ], [ -80.350455550824009, 27.571764793513172 ], [ -80.350372193848415, 27.571744979642663 ], [ -80.350288858872744, 27.571725090772098 ], [ -80.350205545897055, 27.571705127901378 ], [ -80.35012225592132, 27.571685090030513 ], [ -80.350038987945524, 27.571664978159593 ], [ -80.349955742969527, 27.571644792288328 ], [ -80.349872520993628, 27.571624532417122 ], [ -80.349789321017667, 27.571604197545646 ], [ -80.349706145041722, 27.571583789674044 ], [ -80.349622991065644, 27.571563306802187 ], [ -80.349539860089536, 27.571542749930373 ], [ -80.349456753113358, 27.571522119058233 ], [ -80.349373669137094, 27.57150141418601 ], [ -80.349290608160828, 27.571480634313659 ], [ -80.349207570184447, 27.571459781441249 ], [ -80.349124556208068, 27.571438854568491 ], [ -80.349041566231605, 27.571417852695774 ], [ -80.348958599255084, 27.571396777822724 ], [ -80.348875656278565, 27.571375628949614 ], [ -80.348792736301846, 27.571354405076455 ], [ -80.34870984132526, 27.571333108203039 ], [ -80.348626969348459, 27.571311737329491 ], [ -80.348544122371791, 27.571290292455771 ], [ -80.348461299394842, 27.571268773581803 ], [ -80.348378500418065, 27.57124718070779 ], [ -80.348295725441147, 27.571225514833628 ], [ -80.348212975464165, 27.571203774959404 ], [ -80.348130249487028, 27.571181960084832 ], [ -80.348047547510049, 27.571160073210212 ], [ -80.347964871532895, 27.571138111335426 ], [ -80.347882219555686, 27.571116076460605 ], [ -80.347799591578465, 27.571093967585522 ], [ -80.347716989601167, 27.571071784710288 ], [ -80.347634412623819, 27.571049528834902 ], [ -80.347551860646334, 27.571027198959356 ], [ -80.347469332668851, 27.571004795083571 ], [ -80.347386830691363, 27.570982318207832 ], [ -80.347304354713913, 27.570959767331729 ], [ -80.347221903736298, 27.570937143455573 ], [ -80.347139477758617, 27.57091444557927 ], [ -80.347057077780889, 27.57089167470291 ], [ -80.346974702803053, 27.570868829826281 ], [ -80.346892353825325, 27.570845911949512 ], [ -80.346810030847436, 27.570822920072494 ], [ -80.346727733869557, 27.570799855195407 ], [ -80.346645461891583, 27.570776717318278 ], [ -80.346563216913566, 27.570753505440788 ], [ -80.346480997935487, 27.570730220563256 ], [ -80.346398804957346, 27.57070686268565 ], [ -80.346316638979147, 27.570683430807691 ], [ -80.346234498000939, 27.570659925929682 ], [ -80.346152385022663, 27.570636348051611 ], [ -80.346070297044349, 27.570612697173193 ], [ -80.345988237065939, 27.570588973294811 ], [ -80.345906203087523, 27.570565175416082 ], [ -80.345824195109046, 27.570541304537304 ], [ -80.3457422151305, 27.570517360658442 ], [ -80.345660262151924, 27.570493343779244 ], [ -80.345578336173261, 27.570469253899965 ], [ -80.345496436194608, 27.570445091020559 ], [ -80.345414564215886, 27.570420855140974 ], [ -80.345332720236982, 27.570396546261339 ], [ -80.345250902258243, 27.570372163381361 ], [ -80.345169112279351, 27.570347708501405 ], [ -80.345087350300417, 27.57032318062112 ], [ -80.345005615321313, 27.570298579740751 ], [ -80.344923908342309, 27.570273906860223 ], [ -80.344842228363333, 27.57024915997955 ], [ -80.344760577384079, 27.570224341098818 ], [ -80.344678953405008, 27.570199448217721 ], [ -80.344597358425659, 27.570174483336675 ], [ -80.344515790446465, 27.570149446455357 ], [ -80.344434251467035, 27.570124335573791 ], [ -80.344352740487736, 27.570099152692258 ], [ -80.344271257508311, 27.570073896810364 ], [ -80.344189803528849, 27.570048568928414 ] ] } },
{ "type": "Feature", "properties": { }, "geometry": { "type": "LineString", "coordinates": [ [ -80.313334829439796, 27.553289246973019 ], [ -80.313397472435909, 27.553342097932436 ], [ -80.313460174431853, 27.553394892891632 ], [ -80.313522935427955, 27.553447632850663 ], [ -80.313585755423929, 27.553500315809579 ], [ -80.313648635419796, 27.553552942768203 ], [ -80.313711574415777, 27.55360551472651 ], [ -80.313774572411575, 27.553658029684726 ], [ -80.313837628407526, 27.553710488642736 ], [ -80.313900744403313, 27.553762890600559 ], [ -80.313963918399097, 27.553815237558183 ], [ -80.31402715139474, 27.553867526515578 ], [ -80.314090443390441, 27.553919760472802 ], [ -80.314153794386144, 27.553971937429814 ], [ -80.314217203381773, 27.554024058386627 ], [ -80.314280670377471, 27.554076122343247 ], [ -80.314344196373057, 27.554128129299773 ], [ -80.314407781368487, 27.554180080255883 ], [ -80.314471423364111, 27.554231974211994 ], [ -80.314535124359594, 27.554283811167817 ], [ -80.314598884355021, 27.55433559112333 ], [ -80.314662701350429, 27.554387314078841 ], [ -80.314726576345706, 27.554438981033972 ], [ -80.314790509341137, 27.554490590989094 ], [ -80.314854501336427, 27.554542142943898 ], [ -80.314918550331697, 27.554593637898428 ], [ -80.314982657326937, 27.554645076852854 ], [ -80.315046821322142, 27.554696457807072 ], [ -80.315111044317192, 27.554747781761193 ], [ -80.315175324312349, 27.554799047715019 ], [ -80.31523966130753, 27.554850256668644 ], [ -80.315304056302523, 27.554901408621969 ], [ -80.315368509297542, 27.554952503575183 ], [ -80.315433018292623, 27.555003539528229 ], [ -80.315497586287478, 27.555054519481157 ], [ -80.315562210282437, 27.555105440433685 ], [ -80.315626891277432, 27.555156304386117 ], [ -80.315691630272212, 27.555207111338458 ], [ -80.315756425267125, 27.555257859290382 ], [ -80.315821278261922, 27.555308550242316 ], [ -80.315886187256581, 27.55535918319395 ], [ -80.315951154251323, 27.555409758145295 ], [ -80.316016177245999, 27.555460275096536 ], [ -80.316081257240739, 27.555510734047569 ], [ -80.316146393235286, 27.555561134998523 ], [ -80.316211586229954, 27.555611477949164 ], [ -80.316276835224429, 27.555661762899515 ], [ -80.316342141219039, 27.555711988849758 ], [ -80.316407504213558, 27.555762156799911 ], [ -80.316472922207922, 27.555812266749768 ], [ -80.316538397202422, 27.555862318699315 ], [ -80.316603928196812, 27.555912311648779 ], [ -80.31666951619107, 27.555962246598135 ], [ -80.31673515918547, 27.556012122547209 ], [ -80.316800858179761, 27.556061940495962 ], [ -80.3168666131739, 27.556111699444632 ], [ -80.316932424168243, 27.556161399393186 ], [ -80.316998291162335, 27.556211041341363 ], [ -80.317064214156545, 27.556260624289443 ], [ -80.317130192150685, 27.556310148237415 ], [ -80.317196226144745, 27.556359613184991 ], [ -80.317262315138706, 27.55640901913247 ], [ -80.3173284601327, 27.556458367079756 ], [ -80.317394660126666, 27.556507655026937 ], [ -80.317460915120733, 27.55655688397383 ], [ -80.31752722611462, 27.556606053920405 ], [ -80.317593592108494, 27.556655164866914 ], [ -80.317660013102341, 27.556704216813209 ], [ -80.31772648909606, 27.55675320975941 ], [ -80.317793020089908, 27.556802142705322 ], [ -80.31785960608363, 27.556851016650928 ], [ -80.317926247077281, 27.556899830596524 ], [ -80.317992943071033, 27.55694858554185 ], [ -80.318059694064573, 27.556997281486861 ], [ -80.31812649905828, 27.557045917431878 ], [ -80.318193358051843, 27.557094493376599 ], [ -80.31826027304534, 27.557143010321042 ], [ -80.318327241038844, 27.557191467265362 ], [ -80.318394265032182, 27.557239865209599 ], [ -80.318461342025714, 27.557288202153423 ], [ -80.318528474019018, 27.557336480097174 ], [ -80.318595660012491, 27.557384698040828 ], [ -80.318662900005691, 27.557432854984079 ], [ -80.318730193999087, 27.557480952927328 ], [ -80.318797541992367, 27.557528990870303 ], [ -80.318864943985588, 27.557576968813038 ], [ -80.318932399978664, 27.557624886755612 ], [ -80.318999908971904, 27.557672743697882 ], [ -80.319067472965017, 27.557720540640162 ], [ -80.31913508995811, 27.557768277582142 ], [ -80.319202759951068, 27.557815954523921 ], [ -80.319270483944152, 27.557863570465521 ], [ -80.319338261937162, 27.5579111264068 ], [ -80.319406092929995, 27.557958622348103 ], [ -80.319473976922993, 27.558006056288999 ], [ -80.319541914915774, 27.558053431229819 ], [ -80.319609904908589, 27.55810074517052 ], [ -80.3196779489015, 27.558147998110936 ], [ -80.319746045894249, 27.558195190051158 ], [ -80.319814195886991, 27.558242321991081 ], [ -80.319882398879614, 27.558289391930909 ], [ -80.319950653872368, 27.558336401870555 ], [ -80.320018962864879, 27.558383351810001 ], [ -80.320087323857578, 27.558430239749246 ], [ -80.320155736850054, 27.558477066688297 ], [ -80.320224203842585, 27.558523832627255 ], [ -80.320292721835173, 27.558570537565824 ], [ -80.320361292827613, 27.558617181504395 ], [ -80.320429916820046, 27.558663764442567 ], [ -80.320498592812413, 27.558710285380645 ], [ -80.320567320804685, 27.558756746318537 ], [ -80.320636100796975, 27.558803145256221 ], [ -80.320704932789269, 27.558849482193718 ], [ -80.320773817781586, 27.558895759131136 ], [ -80.320842753773832, 27.55894197306824 ], [ -80.320911741765997, 27.558988127005062 ], [ -80.320980781758024, 27.559034217941786 ], [ -80.321049873750241, 27.559080248878324 ], [ -80.321119016742202, 27.559126216814654 ], [ -80.321188211734338, 27.559172123750898 ], [ -80.321257458726336, 27.559217968686742 ], [ -80.321326755718303, 27.559263751622598 ], [ -80.321396105710207, 27.559309473558066 ], [ -80.321465506702111, 27.559355133493536 ], [ -80.32153495769397, 27.559400730428688 ], [ -80.321604461685794, 27.559446266363693 ], [ -80.321674015677573, 27.559491740298487 ], [ -80.321743620669224, 27.559537152233084 ], [ -80.321813276660933, 27.559582501167391 ], [ -80.321882983652685, 27.559627789101597 ], [ -80.321952741644353, 27.559673014035724 ], [ -80.32202255063595, 27.559718176969458 ], [ -80.322092410627533, 27.559763277903073 ], [ -80.322162320619071, 27.559808316836527 ], [ -80.322232280610578, 27.559853292769876 ], [ -80.322302292602018, 27.559898206702925 ], [ -80.322372353593465, 27.559943057635689 ], [ -80.322442465584857, 27.559987846568465 ], [ -80.322512627576202, 27.560032572500944 ] ] } },
{ "type": "Feature", "properties": { }, "geometry": { "type": "LineString", "coordinates": [ [ -80.292671582778638, 27.526234999730534 ], [ -80.292703861791438, 27.526306290776201 ], [ -80.292736220804102, 27.526377552821696 ], [ -80.29276865981673, 27.526448785867082 ], [ -80.292801178829279, 27.526519990912181 ], [ -80.292833777841807, 27.526591165957083 ], [ -80.292866456854171, 27.526662312001683 ], [ -80.292899214866694, 27.526733429046306 ], [ -80.292932053878957, 27.526804517090515 ], [ -80.292964971891379, 27.526875575134653 ], [ -80.292997969903652, 27.52694660417869 ], [ -80.2930310469158, 27.527017604222312 ], [ -80.293064204927958, 27.527088574265974 ], [ -80.293097441940191, 27.527159514309304 ], [ -80.29313075795227, 27.527230425352379 ], [ -80.293164153964227, 27.527301306395334 ], [ -80.293197629976177, 27.527372157438212 ], [ -80.293231184988244, 27.527442978480774 ], [ -80.293264820000118, 27.527513770523051 ], [ -80.293298534011981, 27.527584531565331 ], [ -80.293332327023776, 27.527655262607311 ], [ -80.293366200035535, 27.527725963649022 ], [ -80.293400152047127, 27.52779663469061 ], [ -80.293434184058853, 27.527867275732117 ], [ -80.293468294070507, 27.527937885773223 ], [ -80.293502484082055, 27.528008464814217 ], [ -80.293536753093477, 27.528079014855148 ], [ -80.293571102105034, 27.528149532895668 ], [ -80.293605529116448, 27.528220020936192 ], [ -80.293640035127737, 27.528290477976334 ], [ -80.293674621139132, 27.528360904016367 ], [ -80.293709286150431, 27.528431300056202 ], [ -80.293744029161672, 27.528501664095852 ], [ -80.293778852172736, 27.528571998135309 ], [ -80.293813753183997, 27.52864230017466 ], [ -80.293848734195066, 27.528712571213614 ], [ -80.293883793206135, 27.528782811252572 ], [ -80.293918931216993, 27.528853020291237 ], [ -80.293954148227982, 27.528923198329615 ], [ -80.293989443238971, 27.528993343367887 ], [ -80.29402481724982, 27.529063458406064 ], [ -80.294060270260658, 27.529133541443837 ], [ -80.294095802271329, 27.529203592481625 ], [ -80.294131412282056, 27.529273611519024 ], [ -80.294167101292828, 27.529343599556316 ], [ -80.294202868303358, 27.529413555593411 ], [ -80.294238714314019, 27.529483479630311 ], [ -80.294274638324566, 27.52955337066701 ], [ -80.294310641335073, 27.529623230703518 ], [ -80.294346722345423, 27.529693058739824 ], [ -80.294382882355919, 27.529762853775949 ], [ -80.294419119366296, 27.529832616811866 ], [ -80.294455435376591, 27.529902347847582 ], [ -80.294491830386832, 27.529972046883085 ], [ -80.294528302396969, 27.530041711918429 ], [ -80.294564853407238, 27.530111345953557 ], [ -80.294601482417363, 27.530180946988484 ], [ -80.294638188427427, 27.530250515023326 ], [ -80.294674973437481, 27.530320050057764 ], [ -80.29471183644749, 27.530389552092199 ], [ -80.294748777457414, 27.530459022126237 ], [ -80.294785796467352, 27.530528458160283 ], [ -80.29482289347709, 27.530597862194025 ], [ -80.294860068487012, 27.530667232227582 ], [ -80.294897321496677, 27.530736569260831 ], [ -80.294934651506381, 27.530805873293993 ], [ -80.294972059516169, 27.530875144327041 ], [ -80.295009545525829, 27.530944381359813 ], [ -80.295047109535375, 27.531013585392369 ], [ -80.295084750544845, 27.531082755424631 ], [ -80.295122469554428, 27.531151891456904 ], [ -80.295160265563894, 27.531220994488873 ], [ -80.295198139573316, 27.531290064520544 ], [ -80.295236091582694, 27.531359099552212 ], [ -80.295274120591984, 27.531428100583593 ], [ -80.295312226601297, 27.531497068614662 ], [ -80.29535041061051, 27.531566002645739 ], [ -80.295388671619605, 27.531634901676423 ], [ -80.29542701062887, 27.531703766706997 ], [ -80.295465426637961, 27.531772597737483 ], [ -80.295503919647004, 27.531841394767667 ], [ -80.295542489655944, 27.53191015779765 ], [ -80.295581136664907, 27.531978885827332 ], [ -80.295619861673927, 27.532047578856929 ], [ -80.295658662682825, 27.532116237886417 ], [ -80.295697541691666, 27.532184861915507 ], [ -80.295736497700361, 27.532253451944605 ], [ -80.295775529709204, 27.532322006973306 ], [ -80.295814639717818, 27.532390527001994 ], [ -80.295853825726596, 27.532459012030287 ], [ -80.295893088735113, 27.532527462058589 ], [ -80.295932429743686, 27.532595877086493 ], [ -80.295971845752305, 27.532664257114394 ], [ -80.296011339760824, 27.532732602141881 ], [ -80.296050909769235, 27.532800911169396 ], [ -80.296090556777685, 27.532869185196592 ], [ -80.296130280785945, 27.532937424223494 ], [ -80.29617008079434, 27.53300562725039 ], [ -80.296209957802617, 27.533073795276898 ], [ -80.2962499108109, 27.533141927303408 ], [ -80.29628994081898, 27.533210024329609 ], [ -80.296330046827208, 27.533278085355516 ], [ -80.296370228835229, 27.533346110381423 ], [ -80.296410487843303, 27.533414099407032 ], [ -80.296450822851426, 27.53348205243234 ], [ -80.296491233859399, 27.533549969457638 ], [ -80.296531721867211, 27.533617851482656 ], [ -80.296572285875243, 27.533685696507465 ], [ -80.296612925883053, 27.533753504531969 ], [ -80.296653641890899, 27.533821277556477 ], [ -80.296694433898665, 27.533889013580684 ], [ -80.296735301906295, 27.533956713604592 ], [ -80.29677624591406, 27.534024376628409 ], [ -80.296817265921717, 27.534092003652113 ], [ -80.296858360929306, 27.534159593675522 ], [ -80.296899532936877, 27.534227146698729 ], [ -80.296940780944297, 27.534294663721738 ], [ -80.296982103951734, 27.534362143744445 ], [ -80.297023502959192, 27.534429586767054 ], [ -80.297064977966656, 27.534496992789556 ], [ -80.297106527974009, 27.534564361811768 ], [ -80.29714815398134, 27.534631693833671 ], [ -80.297189854988517, 27.534698988855482 ], [ -80.2972316319958, 27.534766246877098 ], [ -80.297273485002989, 27.534833466898498 ], [ -80.297315413010153, 27.534900649919692 ], [ -80.297357416017249, 27.534967794940709 ], [ -80.297399495024308, 27.535034902961506 ], [ -80.297441649031313, 27.535101973982115 ], [ -80.297483878038292, 27.535169007002512 ], [ -80.29752618304515, 27.535236002022721 ], [ -80.29756856205212, 27.535302959042713 ], [ -80.297611017058983, 27.535369879062603 ], [ -80.297653547065778, 27.535436760082113 ], [ -80.297696152072561, 27.535503604101518 ], [ -80.29773883207919, 27.535570410120716 ], [ -80.297781587085993, 27.535637177139812 ], [ -80.297824417092613, 27.535703907158613 ], [ -80.297867322099137, 27.535770598177095 ], [ -80.297910301105674, 27.535837251195492 ], [ -80.297953356112217, 27.535903865213786 ], [ -80.297996485118674, 27.535970442231768 ] ] } },
{ "type": "Feature", "properties": { }, "geometry": { "type": "LineString", "coordinates": [ [ -80.286495947881548, 27.494277217946966 ], [ -80.2864923796281, 27.494354032106589 ], [ -80.286488897374568, 27.494430850266188 ], [ -80.28648550112085, 27.494507670425559 ], [ -80.286482191867236, 27.494584494584711 ], [ -80.286478967613462, 27.494661320743841 ], [ -80.286475830359464, 27.494738149902865 ], [ -80.286472779105637, 27.494814983061762 ], [ -80.28646981385161, 27.494891817220623 ], [ -80.286466934597385, 27.494968655379171 ], [ -80.286464142343277, 27.495045494537791 ], [ -80.286461435088896, 27.495122337696181 ], [ -80.286458814834646, 27.49519918185435 ], [ -80.286456280580211, 27.495276029012491 ], [ -80.286453832325677, 27.495352878170607 ], [ -80.286451470071057, 27.495429730328393 ], [ -80.286449194816242, 27.495506583486257 ], [ -80.286447004561609, 27.495583439643788 ], [ -80.286444901306751, 27.49566029680139 ], [ -80.286442884051738, 27.495737155958658 ], [ -80.286440952796809, 27.495814017116 ], [ -80.28643910754171, 27.495890879273009 ], [ -80.286437349286558, 27.495967744430093 ], [ -80.286435677031307, 27.496044609586843 ], [ -80.286434090775984, 27.49612147674366 ], [ -80.286432590520533, 27.496198345900229 ], [ -80.286431176265054, 27.496275216056585 ], [ -80.286429849009508, 27.496352087212887 ], [ -80.286428606753844, 27.496428959369062 ], [ -80.286427451498142, 27.496505832525205 ], [ -80.286426382242325, 27.496582707681107 ], [ -80.286425399986427, 27.49665958283677 ], [ -80.286424502730384, 27.496736458992494 ], [ -80.286423692474443, 27.496813336147881 ], [ -80.286422968218332, 27.496890213303327 ], [ -80.286422329962051, 27.496967091458437 ], [ -80.286421777705854, 27.497043970613504 ], [ -80.286421312449519, 27.497120849768422 ], [ -80.286420933193114, 27.497197728923204 ], [ -80.286420639936594, 27.497274609077849 ], [ -80.286420432679947, 27.497351489232347 ], [ -80.286420311423385, 27.497428369386707 ], [ -80.286420277166656, 27.497505249540914 ], [ -80.286420328909756, 27.497582129695076 ], [ -80.28642046665297, 27.497659009848999 ], [ -80.286420690396, 27.497735890002765 ], [ -80.28642100113899, 27.497812770156379 ], [ -80.286421397881782, 27.497889649309869 ], [ -80.286421879624726, 27.497966528463202 ], [ -80.28642244936745, 27.498043406616272 ], [ -80.286423104110128, 27.49812028476931 ], [ -80.286423845852752, 27.498197162922281 ], [ -80.28642467259526, 27.498274039074918 ], [ -80.2864255863377, 27.498350915227487 ], [ -80.286426587080101, 27.49842779038002 ], [ -80.28642767282237, 27.498504664532291 ], [ -80.286428845564529, 27.498581537684313 ], [ -80.286430103306714, 27.498658409836285 ], [ -80.286431448048845, 27.498735280988083 ], [ -80.286432879790894, 27.498812150139749 ], [ -80.286434396532741, 27.498889019291347 ], [ -80.286436000274705, 27.498965885442594 ], [ -80.286437690016484, 27.499042751593876 ], [ -80.286439465758249, 27.499119615744902 ], [ -80.286441327499915, 27.499196477895683 ], [ -80.286443275241382, 27.499273338046493 ], [ -80.286445309982994, 27.499350197197039 ], [ -80.286447430724422, 27.499427054347436 ], [ -80.286449637465722, 27.499503909497577 ], [ -80.286451930207107, 27.499580762647639 ], [ -80.286454309948354, 27.499657613797648 ], [ -80.286456774689469, 27.499734461947295 ], [ -80.286459326430588, 27.499811309096877 ], [ -80.286461964171636, 27.499888153246296 ], [ -80.286464687912556, 27.499964995395654 ], [ -80.286467497818762, 27.500041834521298 ], [ -80.286470394853069, 27.500118671628559 ], [ -80.286473377887219, 27.50019550573586 ], [ -80.286476445921465, 27.500272336842908 ], [ -80.286479600955474, 27.500349165949697 ], [ -80.286482842989443, 27.500425992056435 ], [ -80.286486170023366, 27.500502814163113 ], [ -80.286489583057161, 27.50057963426945 ], [ -80.286493083090818, 27.500656451375814 ], [ -80.28649666912446, 27.500733265481927 ], [ -80.286500341158174, 27.500810075587886 ], [ -80.286504099191689, 27.500886882693589 ], [ -80.286507943225132, 27.500963686799228 ], [ -80.286511873258505, 27.501040486904721 ], [ -80.286515890291696, 27.501117283010153 ], [ -80.286519992324997, 27.501194077115333 ], [ -80.286524181358146, 27.501270866220239 ], [ -80.286528456391139, 27.501347651325212 ], [ -80.286532817424217, 27.501424433429818 ], [ -80.286537264457138, 27.501501211534471 ], [ -80.286541797489903, 27.50157798563886 ], [ -80.286546416522796, 27.501654754742994 ], [ -80.28655112155549, 27.501731520847066 ], [ -80.286555913588032, 27.501808281950989 ], [ -80.286560790620669, 27.501885039054752 ], [ -80.286565754653068, 27.50196179215845 ], [ -80.286570804685596, 27.502038540261793 ], [ -80.286575940717825, 27.502115283365075 ], [ -80.286581161750192, 27.502192022468304 ], [ -80.286586469782264, 27.502268757571279 ], [ -80.286591863814522, 27.502345486674081 ], [ -80.286597343846466, 27.502422211776633 ], [ -80.286602909878539, 27.502498931879227 ], [ -80.286608561910342, 27.502575645981555 ], [ -80.286614300942261, 27.502652356083626 ], [ -80.286620124974036, 27.502729060185736 ], [ -80.286626035005696, 27.502805760287497 ], [ -80.286632031037328, 27.502882454389287 ], [ -80.286638113068861, 27.502959142490724 ], [ -80.286644282100326, 27.5030358255922 ], [ -80.286650536131631, 27.503112503693309 ], [ -80.28665687616305, 27.503189175794368 ], [ -80.286663302194214, 27.503265841895356 ], [ -80.28666981522548, 27.503342501996087 ], [ -80.286676413256586, 27.503419157096555 ], [ -80.286683097287622, 27.50349580619698 ], [ -80.286689867318586, 27.503572448297227 ], [ -80.286696723349479, 27.503649085397416 ], [ -80.286703665380315, 27.503725716497339 ], [ -80.286710693410981, 27.503802340597005 ], [ -80.286717807441775, 27.503878958696706 ], [ -80.286725007472242, 27.503955569796148 ], [ -80.286732293502908, 27.504032174895436 ], [ -80.286739665533275, 27.504108773994453 ], [ -80.286747122563753, 27.504185366093512 ], [ -80.286754666594092, 27.504261951192209 ], [ -80.286762295624243, 27.504338530290831 ], [ -80.286770010654536, 27.504415101389402 ], [ -80.286777812684534, 27.50449166648761 ], [ -80.286785699714684, 27.504568224585764 ], [ -80.286793672744665, 27.504644774683744 ], [ -80.286801730774556, 27.504721318781652 ], [ -80.286809875804295, 27.504797854879317 ], [ -80.286818106834133, 27.504874383976809 ], [ -80.286826422863825, 27.50495090607404 ], [ -80.286834824893432, 27.505027420171199 ] ] } },
{ "type": "Feature", "properties": { }, "geometry": { "type": "LineString", "coordinates": [ [ -80.29568393773333, 27.462823124091063 ], [ -80.295645110532746, 27.462891762246809 ], [ -80.29560635933214, 27.462960433402575 ], [ -80.295567686131321, 27.463029140558351 ], [ -80.295529089930241, 27.463097881714368 ], [ -80.295490569729154, 27.463166656870502 ], [ -80.295452127527881, 27.463235466026862 ], [ -80.295413762326277, 27.46330431018324 ], [ -80.295375474124739, 27.463373188339624 ], [ -80.295337262922928, 27.463442100496348 ], [ -80.295299129720988, 27.463511046653089 ], [ -80.295261073518859, 27.46358002680984 ], [ -80.295223094316569, 27.463649040966917 ], [ -80.295185192114005, 27.463718088124015 ], [ -80.29514736791144, 27.463787170281119 ], [ -80.295109620708757, 27.463856285438542 ], [ -80.295071950505843, 27.4639254345959 ], [ -80.295034359302747, 27.46399461675345 ], [ -80.294996844099515, 27.46406383291114 ], [ -80.294959406896083, 27.464133082069033 ], [ -80.294922047692523, 27.464202365226939 ], [ -80.294884766488707, 27.464271681384865 ], [ -80.294847562284929, 27.464341030542997 ], [ -80.294810436080908, 27.464410412701351 ], [ -80.294773386876699, 27.464479827859719 ], [ -80.294736416672364, 27.464549277018101 ], [ -80.294699523467841, 27.464618758176787 ], [ -80.294662708263147, 27.464688272335486 ], [ -80.294625971058309, 27.464757819494299 ], [ -80.294589311853329, 27.464827399653114 ], [ -80.294552730648206, 27.464897011812162 ], [ -80.294516227442884, 27.464966656971296 ], [ -80.294479802237362, 27.465036334130549 ], [ -80.294443455031811, 27.465106044290025 ], [ -80.29440718582596, 27.465175786449496 ], [ -80.294370994620039, 27.465245561609077 ], [ -80.294334882414034, 27.46531536776866 ], [ -80.294298847207799, 27.465385206928467 ], [ -80.294262891001281, 27.465455078088372 ], [ -80.29422701379481, 27.465524981248379 ], [ -80.294191213588007, 27.465594916408502 ], [ -80.29415549238125, 27.465664883568717 ], [ -80.294119850174255, 27.465734882729048 ], [ -80.294084285967031, 27.46580491288957 ], [ -80.294048799759722, 27.46587497605011 ], [ -80.29401339255223, 27.465945069210651 ], [ -80.293978064344515, 27.466015195371483 ], [ -80.293942814136713, 27.466085351532332 ], [ -80.293907641928854, 27.466155539693276 ], [ -80.293872549720732, 27.466225759854321 ], [ -80.29383753551248, 27.46629601101548 ], [ -80.293802599304072, 27.466366293176627 ], [ -80.293767743095401, 27.466436606338075 ], [ -80.2937329648868, 27.466506950499518 ], [ -80.293698265677918, 27.466577325661078 ], [ -80.293663645468897, 27.466647731822622 ], [ -80.293629104259708, 27.466718168984471 ], [ -80.293594642050365, 27.466788636146315 ], [ -80.29356025884077, 27.466859134308251 ], [ -80.293525954631164, 27.466929663470196 ], [ -80.293491729421433, 27.467000223632333 ], [ -80.293457583211421, 27.467070813794553 ], [ -80.293423516001312, 27.467141433956986 ], [ -80.293389527791192, 27.467212085119407 ], [ -80.293355619580751, 27.467282766281922 ], [ -80.293321789370211, 27.46735347744443 ], [ -80.293288039159521, 27.467424218607132 ], [ -80.293254367948563, 27.467494989770014 ], [ -80.293220776737655, 27.467565791932916 ], [ -80.293187263526491, 27.467636623095895 ], [ -80.293153831315124, 27.467707484258966 ], [ -80.293120477103756, 27.467778375422132 ], [ -80.293087202892153, 27.467849296585285 ], [ -80.293054008680386, 27.467920246748623 ], [ -80.29302089346848, 27.467991226912158 ], [ -80.292987858256424, 27.468062236075578 ], [ -80.292954902044229, 27.468133275239289 ], [ -80.292922025831757, 27.468204343402977 ], [ -80.292889228619359, 27.468275440566767 ], [ -80.292856511406697, 27.468346566730546 ], [ -80.292823874193886, 27.4684177228946 ], [ -80.292791316980953, 27.468488908058543 ], [ -80.292758838767838, 27.468560122222677 ], [ -80.292726440554588, 27.468631364386887 ], [ -80.292694122341203, 27.468702636551281 ], [ -80.292661884127668, 27.468773936715674 ], [ -80.292629725913969, 27.468845265880041 ], [ -80.292597647700106, 27.468916624044585 ], [ -80.29256564948615, 27.468988010209216 ], [ -80.292533731272002, 27.469059425373931 ], [ -80.292501892057629, 27.469130868538826 ], [ -80.292470133843281, 27.469202339703703 ], [ -80.292438455628727, 27.469273839868659 ], [ -80.292406857413994, 27.469345368033586 ], [ -80.292375340199044, 27.469416924198804 ], [ -80.292343901984012, 27.469488509364012 ], [ -80.292312544768947, 27.46956012152928 ], [ -80.292281267553633, 27.469631761694526 ], [ -80.292250070338184, 27.469703429860061 ], [ -80.292218954122603, 27.469775126025464 ], [ -80.292187917906844, 27.46984684919115 ], [ -80.29215696169085, 27.469918600356799 ], [ -80.292126086474809, 27.469990379522542 ], [ -80.292095291258747, 27.470062185688345 ], [ -80.292064576042421, 27.470134019854125 ], [ -80.292033942825967, 27.470205881020174 ], [ -80.29200338860926, 27.470277769186207 ], [ -80.291972916392567, 27.470349685352311 ], [ -80.291942524175695, 27.470421627518469 ], [ -80.291912211958547, 27.470493597684726 ], [ -80.291881980741437, 27.470565593850946 ], [ -80.291851830524124, 27.470637618017427 ], [ -80.29182176130665, 27.470709668183783 ], [ -80.291791772088928, 27.470781746350411 ], [ -80.291761863871173, 27.470853850516903 ], [ -80.291732036653357, 27.470925980683671 ], [ -80.29170229043531, 27.470998137850287 ], [ -80.291672625217132, 27.471070322017198 ], [ -80.291643039998789, 27.471142532184061 ], [ -80.291613536780304, 27.47121476835089 ], [ -80.291584113561726, 27.471287031517885 ], [ -80.291554772342863, 27.471359320684947 ], [ -80.291525511123965, 27.471431635852177 ], [ -80.291496331905009, 27.471503977019371 ], [ -80.291467232685818, 27.471576344186531 ], [ -80.291438215466513, 27.471648736353846 ], [ -80.291409279246949, 27.471721155521223 ], [ -80.291380424027437, 27.471793600688674 ], [ -80.291351649807709, 27.471866070856276 ], [ -80.291322957587795, 27.471938567023734 ], [ -80.291294346367764, 27.472011088191461 ], [ -80.291265816147629, 27.472083635359148 ], [ -80.29123736692722, 27.472156207526798 ], [ -80.291208999706896, 27.472228805694694 ], [ -80.291180713486199, 27.472301428862561 ], [ -80.291152508265583, 27.472374077030381 ], [ -80.291124385044711, 27.472446750198458 ], [ -80.291096342823707, 27.472519448366491 ], [ -80.291068382602575, 27.47259217153459 ], [ -80.291040503381282, 27.472664919702733 ], [ -80.29101270615989, 27.472737692870925 ], [ -80.290984990938341, 27.472810491039183 ], [ -80.290957356716518, 27.472883313207493 ], [ -80.29092980349472, 27.472956160375848 ], [ -80.290902333272854, 27.473029031544264 ] ] } },
{ "type": "Feature", "properties": { }, "geometry": { "type": "LineString", "coordinates": [ [ -80.309535726186738, 27.445096419513124 ], [ -80.309594479334976, 27.445040178406124 ], [ -80.309653294482786, 27.444983988299434 ], [ -80.309712172630512, 27.44492785219305 ], [ -80.30977111377814, 27.444871767086685 ], [ -80.309830117925316, 27.444815735980619 ], [ -80.309889185072393, 27.444759756874848 ], [ -80.309948314219383, 27.444703829769196 ], [ -80.310007506365949, 27.444647956663751 ], [ -80.310066760512527, 27.444592135558519 ], [ -80.310126077658808, 27.444536367453388 ], [ -80.310185457804849, 27.44448065234867 ], [ -80.310244898950685, 27.444424990243956 ], [ -80.310304403096339, 27.444369381139548 ], [ -80.310363969241763, 27.444313825035451 ], [ -80.31042359838699, 27.444258321931464 ], [ -80.310483288531969, 27.444202872827688 ], [ -80.310543041676681, 27.444147476724019 ], [ -80.310602855821273, 27.444092133620664 ], [ -80.310662732965639, 27.444036843517612 ], [ -80.310722671109815, 27.443981607414575 ], [ -80.310782671253889, 27.44392642431195 ], [ -80.310842733397536, 27.443871295209426 ], [ -80.31090285754118, 27.443816219107113 ], [ -80.31096304268452, 27.443761197004907 ], [ -80.311023289827645, 27.44370622890311 ], [ -80.311083598970541, 27.44365131480134 ], [ -80.311143969113147, 27.443596453699961 ], [ -80.311204400255747, 27.443541646598604 ], [ -80.311264892397929, 27.443486893497646 ], [ -80.311325446540081, 27.443432194396706 ], [ -80.311386061681844, 27.443377549296077 ], [ -80.311446738823591, 27.443322959195754 ], [ -80.311507475965058, 27.443268422095553 ], [ -80.311568274106264, 27.443213938995452 ], [ -80.311629134247184, 27.443159510895651 ], [ -80.311690054387995, 27.443105136796088 ], [ -80.311751035528587, 27.443050817696825 ], [ -80.311812077669032, 27.442996551597666 ], [ -80.311873180809243, 27.442942341498625 ], [ -80.31193434394919, 27.442888184399994 ], [ -80.311995568088847, 27.442834083301381 ], [ -80.312056853228427, 27.442780036203064 ], [ -80.312118198367784, 27.442726043104969 ], [ -80.312179603506877, 27.442672106007095 ], [ -80.312241069645665, 27.44261822290952 ], [ -80.312302595784445, 27.442564394811956 ], [ -80.312364181922902, 27.442510621714717 ], [ -80.312425829061183, 27.442456902617678 ], [ -80.312487535199196, 27.442403239520853 ], [ -80.312549302337047, 27.442349631424349 ], [ -80.312611129474647, 27.442296078327942 ], [ -80.312673016611953, 27.442242580231756 ], [ -80.312734962749218, 27.442189138135685 ], [ -80.312796968886204, 27.442135750040023 ], [ -80.312859035022967, 27.442082417944484 ], [ -80.312921161159409, 27.44202914184914 ], [ -80.312983346295709, 27.441975919753919 ], [ -80.31304559143193, 27.44192275365911 ], [ -80.313107896567757, 27.441869643564317 ], [ -80.313170260703515, 27.441816589469937 ], [ -80.313232683838976, 27.441763590375668 ], [ -80.313295165974253, 27.441710646281599 ], [ -80.31335770810928, 27.44165775918767 ], [ -80.313420309244094, 27.441604927094033 ], [ -80.313482969378612, 27.441552151000625 ], [ -80.313545689513077, 27.44149943090742 ], [ -80.313608467647285, 27.441446766814423 ], [ -80.313671304781238, 27.441394158721764 ], [ -80.31373420091488, 27.441341606629194 ], [ -80.313797156048494, 27.441289110536747 ], [ -80.313860169181822, 27.441236670444617 ], [ -80.313923241314797, 27.441184287352797 ], [ -80.313986372447644, 27.441131959260993 ], [ -80.314049562580422, 27.441079688169602 ], [ -80.314112810712885, 27.441027474078226 ], [ -80.314176116845005, 27.44097531598727 ], [ -80.314239481977111, 27.440923213896319 ], [ -80.314302905108775, 27.440871168805785 ], [ -80.314366386240479, 27.440819179715358 ], [ -80.314429925371812, 27.440767247625143 ], [ -80.314493523502961, 27.440715372535156 ], [ -80.314557178633876, 27.440663554445283 ], [ -80.31462089276458, 27.440611792355721 ], [ -80.314684663894937, 27.440560087266466 ], [ -80.314748494025324, 27.44050843917724 ], [ -80.314812381155264, 27.440456848088424 ], [ -80.314876326285201, 27.440405313999619 ], [ -80.314940328414707, 27.440353836911129 ], [ -80.3150043895441, 27.440302416822959 ], [ -80.315068506673356, 27.440251054734798 ], [ -80.315132682802329, 27.440199748646954 ], [ -80.315196914931064, 27.440148500559417 ], [ -80.315261205059457, 27.440097309472002 ], [ -80.315325552187829, 27.440046175384811 ], [ -80.315389957315929, 27.439995099297725 ], [ -80.315454418443792, 27.439944080210953 ], [ -80.315518937571412, 27.439893119124392 ], [ -80.31558351369884, 27.439842216038059 ], [ -80.315648146826021, 27.43979136895193 ], [ -80.315712835952993, 27.439740580866129 ], [ -80.315777583079665, 27.439689849780333 ], [ -80.315842386206299, 27.439639176694957 ], [ -80.315907246332571, 27.43958856160959 ], [ -80.315972162458678, 27.439538004524533 ], [ -80.316037135584537, 27.439487505439708 ], [ -80.316102165710191, 27.439437063355186 ], [ -80.316167251835608, 27.439386680270687 ], [ -80.316232393960732, 27.439336355186594 ], [ -80.316297593085707, 27.43928608810263 ], [ -80.316362848210559, 27.439235879018867 ], [ -80.316428159335004, 27.439185727935229 ], [ -80.316493527459414, 27.439135634852001 ], [ -80.316558950583428, 27.439085600768792 ], [ -80.316624429707304, 27.439035624685992 ], [ -80.316689965831046, 27.438985707603308 ], [ -80.316755556954462, 27.438935848520853 ], [ -80.316821204077669, 27.438886047438601 ], [ -80.316886906200565, 27.438836305356453 ], [ -80.316952665323413, 27.438786622274648 ], [ -80.317018478445959, 27.438736998193143 ], [ -80.31708434856813, 27.438687432111657 ], [ -80.31715027369026, 27.438637924030584 ], [ -80.317216253812219, 27.438588475949526 ], [ -80.317282289933758, 27.438539086868886 ], [ -80.317348381055254, 27.43848975578836 ], [ -80.317414527176368, 27.43844048470794 ], [ -80.317480728297454, 27.438391271627953 ], [ -80.317546984418186, 27.438342117548071 ], [ -80.317613295538692, 27.438293023468297 ], [ -80.317679662659003, 27.438243988388859 ], [ -80.317746083778971, 27.43819501230973 ], [ -80.317812558898936, 27.438146095230707 ], [ -80.317879090018479, 27.438097237151798 ], [ -80.317945675137963, 27.438048439073317 ], [ -80.318012315257135, 27.437999700994848 ], [ -80.318079010375996, 27.437951020916685 ], [ -80.318145758494722, 27.437902400838851 ], [ -80.31821256261334, 27.437853840761118 ], [ -80.318279419731496, 27.43780534068361 ], [ -80.318346331849654, 27.43775689960621 ] ] } },
{ "type": "Feature", "properties": { }, "geometry": { "type": "LineString", "coordinates": [ [ -80.339591936976277, 27.426464601900047 ], [ -80.339671533024244, 27.426435170879582 ], [ -80.339751163071966, 27.426405811859379 ], [ -80.339830824119346, 27.426376523839469 ], [ -80.339910519166608, 27.426347306819601 ], [ -80.339990247213578, 27.426318160799791 ], [ -80.340070006260277, 27.426289085780255 ], [ -80.340149799306687, 27.426260081760866 ], [ -80.340229624352844, 27.426231149741763 ], [ -80.340309481398776, 27.426202287722713 ], [ -80.340389370444413, 27.426173497703815 ], [ -80.340469292489828, 27.426144778685089 ], [ -80.340549246534948, 27.426116131666429 ], [ -80.340629232579843, 27.426087554648017 ], [ -80.340709249624368, 27.426059050629775 ], [ -80.340789299668813, 27.426030616611687 ], [ -80.340869380712945, 27.426002254593865 ], [ -80.340949493756682, 27.425973963576087 ], [ -80.341029638800379, 27.42594574455849 ], [ -80.341109814843605, 27.425917596541044 ], [ -80.341190022886693, 27.425889520523647 ], [ -80.341270261929495, 27.425861515506519 ], [ -80.341350531972026, 27.425833582489545 ], [ -80.341430834014446, 27.425805720472827 ], [ -80.341511167056453, 27.425777930456164 ], [ -80.341591530098256, 27.425750212439667 ], [ -80.341671925139764, 27.425722565423214 ], [ -80.341752351180943, 27.425694990407031 ], [ -80.341832808222037, 27.425667487390996 ], [ -80.341913295262742, 27.425640055375222 ], [ -80.341993813303247, 27.425612696359501 ], [ -80.342074361343464, 27.425585408343835 ], [ -80.342154940383409, 27.425558192328513 ], [ -80.342235550423126, 27.425531047313161 ], [ -80.34231618946248, 27.425503975298149 ], [ -80.342396859501761, 27.425476975283207 ], [ -80.342477560540686, 27.425450046268402 ], [ -80.342558290579348, 27.425423190253653 ], [ -80.342639050617748, 27.42539640623917 ], [ -80.342719841655892, 27.42536969322482 ], [ -80.342800661693758, 27.425343053210639 ], [ -80.342881511731278, 27.425316485196589 ], [ -80.342962390768633, 27.425289989182811 ], [ -80.343043299805842, 27.425263565169079 ], [ -80.343124238842577, 27.425237213155377 ], [ -80.343205206879261, 27.425210933141951 ], [ -80.343286204915472, 27.42518472612867 ], [ -80.343367231951632, 27.425158591115522 ], [ -80.343448287987428, 27.425132528102544 ], [ -80.343529373022861, 27.4251065370898 ], [ -80.343610487058243, 27.425080619077114 ], [ -80.343691630093147, 27.42505477306447 ], [ -80.343772802127987, 27.425028999052074 ], [ -80.343854003162477, 27.425003298039929 ], [ -80.343935233196618, 27.424977669027822 ], [ -80.344016491230676, 27.42495211301577 ], [ -80.344097778264356, 27.424926629004069 ], [ -80.344179093297811, 27.424901217992304 ], [ -80.344260437330988, 27.424875878980778 ], [ -80.344341809363826, 27.424850612969514 ], [ -80.344423209396496, 27.424825418958186 ], [ -80.344504638428958, 27.424800297947208 ], [ -80.344586094461022, 27.424775249936264 ], [ -80.344667579492963, 27.424750273925468 ], [ -80.344749091524577, 27.424725370914825 ], [ -80.344830631555936, 27.424700539904208 ], [ -80.344912199586915, 27.424675781893843 ], [ -80.34499379561781, 27.424651097883721 ], [ -80.345075418648292, 27.424626484873635 ], [ -80.345157069678692, 27.424601945863593 ], [ -80.345238747708734, 27.424577478853791 ], [ -80.345320453738481, 27.424553085844138 ], [ -80.345402185768037, 27.424528764834612 ], [ -80.345483945797255, 27.424504516825234 ], [ -80.345565732826259, 27.424480341816096 ], [ -80.345647546854963, 27.424456239806997 ], [ -80.345729387883424, 27.424432210797942 ], [ -80.345811255911613, 27.424408254789117 ], [ -80.345893150939546, 27.42438437178053 ], [ -80.345975071967231, 27.424360560771888 ], [ -80.346057019994632, 27.424336824763472 ], [ -80.346138994021743, 27.424313160755307 ], [ -80.346220995048526, 27.424289569747163 ], [ -80.346303023075237, 27.424266051739068 ], [ -80.346385076101598, 27.424242607731301 ], [ -80.346467156127574, 27.424219235723474 ], [ -80.34654926215353, 27.424195937715968 ], [ -80.346631394179084, 27.424172712708515 ], [ -80.346713551204374, 27.424149561701196 ], [ -80.346795735229392, 27.4241264826939 ], [ -80.346877944254146, 27.424103477686849 ], [ -80.346960180278643, 27.424080546679917 ], [ -80.347042440302914, 27.424057687673137 ], [ -80.347124727326886, 27.42403490266647 ], [ -80.347207039350494, 27.424012191660054 ], [ -80.347289376374036, 27.423989552653552 ], [ -80.347371738397186, 27.42396698864729 ], [ -80.347454126420047, 27.423944496641255 ], [ -80.347536539442785, 27.423922078635258 ], [ -80.347618977465146, 27.42389973462938 ], [ -80.347701439487295, 27.423877463623644 ], [ -80.34778392750917, 27.42385526661803 ], [ -80.347866440530765, 27.423833142612548 ], [ -80.347948977552079, 27.423811092607192 ], [ -80.348031539573142, 27.423789116601856 ], [ -80.348114125593938, 27.423767213596761 ], [ -80.348196736614483, 27.42374538459179 ], [ -80.348279371634732, 27.423723628586938 ], [ -80.348362031654744, 27.42370194658233 ], [ -80.348444715674503, 27.423680338577736 ], [ -80.348527423693824, 27.423658804573154 ], [ -80.348610155713061, 27.423637343568927 ], [ -80.348692911732115, 27.423615956564706 ], [ -80.348775691750689, 27.423594643560513 ], [ -80.348858494769104, 27.423573404556542 ], [ -80.348941322787326, 27.423552239552702 ], [ -80.349024173805233, 27.423531147548982 ], [ -80.349107047822727, 27.423510130545392 ], [ -80.34918994684017, 27.423489186542014 ], [ -80.349272867857238, 27.423468317538553 ], [ -80.34935581287408, 27.423447521535323 ], [ -80.349438780890509, 27.423426799532216 ], [ -80.349521771906822, 27.423406151529335 ], [ -80.34960478692291, 27.423385577526464 ], [ -80.349687823938567, 27.423365078523609 ], [ -80.349770883954164, 27.423344652520989 ], [ -80.349853966969278, 27.423324300518573 ], [ -80.349937072984332, 27.423304023516089 ], [ -80.350020200998927, 27.42328382051392 ], [ -80.35010335201342, 27.423263690511757 ], [ -80.350186525027581, 27.423243635509621 ], [ -80.350269721041442, 27.423223654507705 ], [ -80.350352939054986, 27.423203748506005 ], [ -80.350436180068442, 27.423183915504328 ], [ -80.350519442081435, 27.423164157502757 ], [ -80.350602727094326, 27.423144473501306 ], [ -80.350686033106868, 27.423124863499972 ], [ -80.350769362119053, 27.42310532849865 ], [ -80.3508527121311, 27.42308586749764 ], [ -80.350936084142916, 27.423066480496644 ], [ -80.351019478154427, 27.42304716849576 ], [ -80.351102893165631, 27.423027930495 ], [ -80.351186330176603, 27.423008766494242 ], [ -80.351269788187238, 27.422989677493792 ] ] } },
{ "type": "Feature", "properties": { }, "geometry": { "type": "LineString", "coordinates": [ [ -80.375512294238447, 27.420632857164513 ], [ -80.375598399171551, 27.420635462177579 ], [ -80.375684501104189, 27.42063814319053 ], [ -80.375770600036759, 27.420640901203452 ], [ -80.375856695968849, 27.420643736216256 ], [ -80.375942787900783, 27.420646648229248 ], [ -80.37602887783251, 27.420649636242103 ], [ -80.376114962763765, 27.420652701254834 ], [ -80.376201045694984, 27.420655843267749 ], [ -80.376287124625691, 27.420659062280439 ], [ -80.376373199556326, 27.420662357293306 ], [ -80.37645927048662, 27.420665729306037 ], [ -80.376545338416591, 27.420669178318747 ], [ -80.376631402346248, 27.420672704331437 ], [ -80.376717462275707, 27.420676307344092 ], [ -80.376803517204863, 27.420679986356621 ], [ -80.376889569133894, 27.420683742369224 ], [ -80.376975616062396, 27.420687574381905 ], [ -80.377061658990854, 27.42069148439435 ], [ -80.377147697918829, 27.420695470406972 ], [ -80.37723373184663, 27.420699533419452 ], [ -80.377319760774256, 27.420703672431916 ], [ -80.377405785701512, 27.420707889444234 ], [ -80.377491805628509, 27.420712182456629 ], [ -80.377577820555146, 27.420716551469095 ], [ -80.377663831481669, 27.420720998481311 ], [ -80.37774983640783, 27.420725521493718 ], [ -80.37783583633373, 27.420730121505986 ], [ -80.377921831259343, 27.420734797518225 ], [ -80.378007820184592, 27.42073955053041 ], [ -80.378093805109643, 27.42074438054248 ], [ -80.378179784034444, 27.4207492875546 ], [ -80.378265756959067, 27.420754270566697 ], [ -80.378351724883316, 27.420759330578854 ], [ -80.378437686807288, 27.420764466590779 ], [ -80.378523642730897, 27.420769679602756 ], [ -80.378609592654428, 27.420774969614708 ], [ -80.378695536577482, 27.420780336626709 ], [ -80.37878147550046, 27.420785779638482 ], [ -80.378867407423044, 27.420791299650311 ], [ -80.378953333345365, 27.420796895662203 ], [ -80.37903925326745, 27.420802568673949 ], [ -80.379125166189155, 27.420808317685669 ], [ -80.379211073110753, 27.420814144697335 ], [ -80.37929697303187, 27.420820046708961 ], [ -80.379382865952934, 27.420826026720441 ], [ -80.37946875287362, 27.420832082732087 ], [ -80.379554632793955, 27.420838214743593 ], [ -80.379640505714207, 27.420844424754947 ], [ -80.379726371634078, 27.420850709766359 ], [ -80.379812230553682, 27.420857072777732 ], [ -80.379898082472906, 27.420863511789062 ], [ -80.379983927391962, 27.420870026800344 ], [ -80.380069764310846, 27.420876618811668 ], [ -80.380155594229336, 27.420883286822765 ], [ -80.380241416147584, 27.420890031834009 ], [ -80.380327231065522, 27.42089685384499 ], [ -80.380413037983217, 27.420903751856148 ], [ -80.380498837900618, 27.420910726867046 ], [ -80.380584628817772, 27.420917777878099 ], [ -80.38067041273456, 27.420924904888992 ], [ -80.380756187651116, 27.420932109899748 ], [ -80.380841955567575, 27.420939389910654 ], [ -80.380927714483619, 27.420946746921302 ], [ -80.381013465399306, 27.420954180932103 ], [ -80.381099208314808, 27.420961690942754 ], [ -80.381184942230135, 27.420969276953251 ], [ -80.381270667144989, 27.420976939963897 ], [ -80.381356384059785, 27.420984678974385 ], [ -80.381442092974183, 27.420992494984826 ], [ -80.381527791888331, 27.421000387995118 ], [ -80.381613482802109, 27.421008356005444 ], [ -80.381699163715794, 27.421016401015716 ], [ -80.381784836629123, 27.421024523025938 ], [ -80.381870500542178, 27.421032720036109 ], [ -80.38195615445494, 27.421040995046319 ], [ -80.382041799367343, 27.421049345056272 ], [ -80.382127434279596, 27.421057772066266 ], [ -80.382213061191635, 27.421066276076196 ], [ -80.382298677103321, 27.421074855086083 ], [ -80.382384284014748, 27.421083511096004 ], [ -80.382469880925896, 27.421092244105665 ], [ -80.38255546883677, 27.421101052115375 ], [ -80.382641045747334, 27.421109937125017 ], [ -80.382726613657567, 27.421118899134591 ], [ -80.382812170567746, 27.421127936144224 ], [ -80.38289771747742, 27.421137050153572 ], [ -80.382983254387042, 27.421146240162983 ], [ -80.383068781296274, 27.421155507172319 ], [ -80.383154297205252, 27.421164850181594 ], [ -80.383239803113824, 27.421174269190903 ], [ -80.383325298022271, 27.421183764199956 ], [ -80.383410782930383, 27.421193335209136 ], [ -80.383496256838285, 27.421202983218148 ], [ -80.383581718746001, 27.421212707227102 ], [ -80.383667171653329, 27.421222507235886 ], [ -80.383752612560386, 27.421232383244714 ], [ -80.383838041467101, 27.421242336253471 ], [ -80.383923460373595, 27.421252364262251 ], [ -80.384008868279963, 27.421262469270882 ], [ -80.384094264185819, 27.421272650279423 ], [ -80.384179648091632, 27.421282907287821 ], [ -80.384265021997066, 27.421293241296329 ], [ -80.384350382902241, 27.421303650304573 ], [ -80.384435732807134, 27.421314136312844 ], [ -80.384521070711656, 27.421324697321161 ], [ -80.384606396616093, 27.421335335329189 ], [ -80.384691711520077, 27.421346049337259 ], [ -80.384777013423985, 27.42135683934535 ], [ -80.384862303327509, 27.421367705353173 ], [ -80.384947581230691, 27.421378647361021 ], [ -80.385032846133697, 27.421389665368885 ], [ -80.385118100036493, 27.421400759376592 ], [ -80.385203339938954, 27.421411929384224 ], [ -80.38528856884102, 27.421423175391681 ], [ -80.385373783743034, 27.421434497399257 ], [ -80.385458986644679, 27.421445895406563 ], [ -80.385544176546063, 27.421457369413993 ], [ -80.385629354447147, 27.421468919421248 ], [ -80.385714518347982, 27.42148054542842 ], [ -80.385799669248541, 27.421492247435513 ], [ -80.385884807148713, 27.42150402544253 ], [ -80.38596993204871, 27.42151587844938 ], [ -80.386055043948588, 27.421527808456336 ], [ -80.38614014184806, 27.421539813463017 ], [ -80.386225225747168, 27.421551895469829 ], [ -80.386310296646101, 27.421564052476455 ], [ -80.386395354544831, 27.421576285482992 ], [ -80.386480398443254, 27.421588594489464 ], [ -80.386565428341385, 27.421600979495846 ], [ -80.386650444239194, 27.421613440502149 ], [ -80.386735446136797, 27.421625976508263 ], [ -80.386820434034121, 27.42163858851449 ], [ -80.386905406931049, 27.421651276520443 ], [ -80.386990366827945, 27.421664040526519 ], [ -80.387075311724331, 27.421676880532399 ], [ -80.387160242620681, 27.421689795538093 ], [ -80.387245158516535, 27.421702786543822 ], [ -80.387330060412324, 27.421715853549454 ], [ -80.387414947307747, 27.421728995554993 ], [ -80.387499819202887, 27.421742213560456 ], [ -80.387584677097792, 27.421755507565926 ] ] } },
{ "type": "Feature", "properties": { }, "geometry": { "type": "LineString", "coordinates": [ [ -80.41130237837659, 27.428761766731164 ], [ -80.411379367196403, 27.42879628269413 ], [ -80.411456318015851, 27.428830867657112 ], [ -80.411533229835172, 27.428865520619787 ], [ -80.41161010265435, 27.428900242582284 ], [ -80.411686936473174, 27.428935033544473 ], [ -80.411763731291799, 27.428969892506668 ], [ -80.411840487110169, 27.429004819468577 ], [ -80.411917203928311, 27.429039815430187 ], [ -80.411993881746099, 27.429074879391809 ], [ -80.412070519563741, 27.429110012353039 ], [ -80.412147118381228, 27.429145213314168 ], [ -80.412223678198401, 27.429180482275196 ], [ -80.412300198015345, 27.429215819235932 ], [ -80.412376678832061, 27.429251225196481 ], [ -80.412453118648514, 27.429286699156826 ], [ -80.41252952046473, 27.429322241116868 ], [ -80.412605881280712, 27.42935785107683 ], [ -80.412682202096434, 27.42939352903668 ], [ -80.412758483911944, 27.429429274996146 ], [ -80.412834724727205, 27.429465089955507 ], [ -80.412910925542235, 27.429500971914671 ], [ -80.412987086357063, 27.429536921873641 ], [ -80.413063207171589, 27.429572939832404 ], [ -80.413139287985913, 27.429609025791084 ], [ -80.413215327800032, 27.429645178749443 ], [ -80.413291326613859, 27.429681400707622 ], [ -80.413367285427469, 27.429717689665505 ], [ -80.413443203240845, 27.42975404662328 ], [ -80.413519081053991, 27.429790471580947 ], [ -80.413594916866884, 27.429826963538236 ], [ -80.413670712679547, 27.42986352349552 ], [ -80.413746467492004, 27.429900151452387 ], [ -80.41382218130417, 27.429936846409166 ], [ -80.413897854116144, 27.429973608365842 ], [ -80.413973484927752, 27.430010438322221 ], [ -80.414049074739239, 27.430047336278314 ], [ -80.41412462355062, 27.430084300234292 ], [ -80.414200131361639, 27.430121332190158 ], [ -80.414275597172406, 27.430158432145731 ], [ -80.414351020982991, 27.430195599101111 ], [ -80.414426403793186, 27.430232833056291 ], [ -80.414501744603285, 27.430270134011252 ], [ -80.414577043413146, 27.430307501966016 ], [ -80.414652301222858, 27.430344937920484 ], [ -80.414727516032215, 27.43038243987484 ], [ -80.414802689841366, 27.430420009829 ], [ -80.414877820650219, 27.430457646782958 ], [ -80.414952909459004, 27.430495349736816 ], [ -80.415027956267366, 27.430533120690363 ], [ -80.415102961075675, 27.43057095764361 ], [ -80.415177922883643, 27.430608861596852 ], [ -80.415252842691316, 27.430646833549694 ], [ -80.415327719498904, 27.430684871502411 ], [ -80.415402554306141, 27.430722975454955 ], [ -80.415477346113278, 27.430761147407384 ], [ -80.415552094920102, 27.430799385359496 ], [ -80.415626800726727, 27.430837690311318 ], [ -80.415701464533072, 27.430876061263028 ], [ -80.415776084339214, 27.430914499214531 ], [ -80.415850662145004, 27.430953003165936 ], [ -80.415925195950791, 27.43099157411703 ], [ -80.415999686756237, 27.431030211067917 ], [ -80.416074134561327, 27.431068915018496 ], [ -80.416148538366429, 27.431107684968978 ], [ -80.416222899171075, 27.431146521919345 ], [ -80.416297215975689, 27.431185423869316 ], [ -80.416371489780005, 27.431224392819157 ], [ -80.416445719584047, 27.431263428768911 ], [ -80.416519906387876, 27.431302529718256 ], [ -80.41659404819147, 27.431341697667492 ], [ -80.416668146994752, 27.431380930616523 ], [ -80.416742201797987, 27.431420230565429 ], [ -80.416816212600807, 27.431459595513946 ], [ -80.416890179403495, 27.431499027462458 ], [ -80.416964101206034, 27.431538525410652 ], [ -80.417037979008285, 27.431578088358542 ], [ -80.417111812810305, 27.431617718306306 ], [ -80.417185602611966, 27.43165741325388 ], [ -80.417259347413605, 27.43169717420135 ], [ -80.417333047214939, 27.431737000148392 ], [ -80.417406703016027, 27.431776893095432 ], [ -80.417480313816895, 27.431816851042182 ], [ -80.417553880617518, 27.431856874988593 ], [ -80.417627401417946, 27.431896963935007 ], [ -80.417700878218099, 27.43193711888102 ], [ -80.417774310017975, 27.431977338827 ], [ -80.417847695817699, 27.432017624772691 ], [ -80.417921037617219, 27.43205797571817 ], [ -80.417994333416601, 27.432098392663338 ], [ -80.418067584215663, 27.432138874608487 ], [ -80.418140790014476, 27.432179421553229 ], [ -80.418213949813079, 27.432220033497956 ], [ -80.418287064611462, 27.432260711442375 ], [ -80.418360133409607, 27.43230145438659 ], [ -80.418433157207531, 27.432342262330582 ], [ -80.418506134005256, 27.432383135274261 ], [ -80.418579065802732, 27.432424073217835 ], [ -80.418651952599888, 27.4324650761613 ], [ -80.418724792397015, 27.432506145104355 ], [ -80.418797586193818, 27.432547278047387 ], [ -80.418870333990384, 27.432588475990109 ], [ -80.418943035786754, 27.432629738932523 ], [ -80.419015691582857, 27.432671065874818 ], [ -80.419088300378789, 27.432712458817001 ], [ -80.419160863174469, 27.432753915758884 ], [ -80.419233379969924, 27.432795437700548 ], [ -80.419305849765195, 27.432837023641991 ], [ -80.419378273560184, 27.432878674583229 ], [ -80.419450649354985, 27.432920390524245 ], [ -80.419522980149566, 27.43296217046505 ], [ -80.419595262943801, 27.43300401540564 ], [ -80.419667498738079, 27.433045924345926 ], [ -80.419739688531962, 27.433087897286097 ], [ -80.419811830325656, 27.433129935226042 ], [ -80.419883926119127, 27.433172037165786 ], [ -80.419955973912366, 27.433214204105301 ], [ -80.420027974705292, 27.433256434044708 ], [ -80.420099927498214, 27.433298728983715 ], [ -80.420171834290755, 27.433341087922589 ], [ -80.420243692083034, 27.433383510861344 ], [ -80.420315503875287, 27.433425997799688 ], [ -80.420387266667205, 27.433468548738034 ], [ -80.420458982458911, 27.433511164676048 ], [ -80.420530651250374, 27.433553843613748 ], [ -80.42060227104156, 27.433596586551342 ], [ -80.420673843832716, 27.433639392488708 ], [ -80.420745367623496, 27.433682263425965 ], [ -80.420816844414119, 27.433725197362918 ], [ -80.420888273204426, 27.433768195299528 ], [ -80.420959652994583, 27.433811257236137 ], [ -80.421030984784537, 27.433854382172431 ], [ -80.421102268574288, 27.433897571108506 ], [ -80.421173503363875, 27.433940824044363 ], [ -80.421244690153173, 27.433984139980009 ], [ -80.42131582794228, 27.434027518915432 ], [ -80.421386917731141, 27.434070961850544 ] ] } },
{ "type": "Feature", "properties": { }, "geometry": { "type": "LineString", "coordinates": [ [ -80.439458860266342, 27.448910309320318 ], [ -80.439513276001833, 27.448969923193481 ], [ -80.439567625737396, 27.449029586066334 ], [ -80.439621908472688, 27.449089296938986 ], [ -80.43967612420775, 27.44914905681145 ], [ -80.439730272942825, 27.449208864683712 ], [ -80.439784354677585, 27.449268720555775 ], [ -80.439838369412314, 27.449328624427523 ], [ -80.439892316146981, 27.449388577299207 ], [ -80.43994619688128, 27.449448577170656 ], [ -80.44000000961563, 27.449508626042014 ], [ -80.440053755349737, 27.449568721913 ], [ -80.4401074340837, 27.449628866783954 ], [ -80.440161044817543, 27.449689058654528 ], [ -80.440214588551143, 27.449749298525106 ], [ -80.440268065284627, 27.449809586395379 ], [ -80.44032147401812, 27.44986992126546 ], [ -80.440374814751351, 27.449930304135346 ], [ -80.440428088484467, 27.449990735005024 ], [ -80.440481294217406, 27.450051212874413 ], [ -80.440534431950212, 27.450111737743804 ], [ -80.440587501682856, 27.450172310612899 ], [ -80.440640504415384, 27.450232930481807 ], [ -80.440693438147761, 27.450293598350513 ], [ -80.440746304879951, 27.450354312218924 ], [ -80.440799102611948, 27.450415074087342 ], [ -80.440851833343984, 27.450475882955459 ], [ -80.440904495075756, 27.450536737823388 ], [ -80.440957088807437, 27.450597640691015 ], [ -80.441009614538956, 27.45065858955866 ], [ -80.441062072270327, 27.450719586426001 ], [ -80.441114461001433, 27.450780629293057 ], [ -80.441166781732548, 27.450841718160117 ], [ -80.441219034463586, 27.450902855026889 ], [ -80.44127121819426, 27.450964037893453 ], [ -80.441323332925052, 27.451025266759839 ], [ -80.441375379655568, 27.45108654262593 ], [ -80.441427357385862, 27.451147864492029 ], [ -80.441479267116208, 27.451209233357726 ], [ -80.441531106846213, 27.451270648223449 ], [ -80.44158287857617, 27.451332109088778 ], [ -80.441634581306005, 27.451393615954007 ], [ -80.441686215035801, 27.451455168819045 ], [ -80.441737780765337, 27.451516767683902 ], [ -80.441789276494745, 27.451578412548667 ], [ -80.441840703223917, 27.451640103413027 ], [ -80.441892060953052, 27.451701840277416 ], [ -80.441943349682063, 27.451763623141417 ], [ -80.441994568410919, 27.45182545100532 ], [ -80.442045718139639, 27.451887324869041 ], [ -80.442096798868334, 27.45194924473256 ], [ -80.44214781059668, 27.452011209596012 ], [ -80.442198752325112, 27.452073220459045 ], [ -80.442249625053194, 27.452135276322121 ], [ -80.442300427781333, 27.45219737718481 ], [ -80.442351160509247, 27.452259524047388 ], [ -80.442401824236939, 27.4523217149098 ], [ -80.442452418964578, 27.452383951772024 ], [ -80.442502942692172, 27.452446233634156 ], [ -80.442553397419559, 27.452508560495893 ], [ -80.442603782146804, 27.452570932357556 ], [ -80.442654096873824, 27.452633349219042 ], [ -80.442704341600788, 27.452695811080332 ], [ -80.442754516327739, 27.452758316941541 ], [ -80.442804621054421, 27.452820868802366 ], [ -80.442854655780991, 27.452883464663099 ], [ -80.442904620507377, 27.452946104523754 ], [ -80.442954515233794, 27.453008789384029 ], [ -80.443004338959867, 27.453071518244219 ], [ -80.443054092686026, 27.453134292104224 ], [ -80.443103776411874, 27.453197109964037 ], [ -80.443153389137763, 27.453259972823695 ], [ -80.443202931863397, 27.453322879683238 ], [ -80.443252404588961, 27.45338582954242 ], [ -80.443301806314352, 27.453448824401512 ], [ -80.443351137039642, 27.453511863260431 ], [ -80.443400397764677, 27.453574946119264 ], [ -80.443449587489781, 27.453638072977729 ], [ -80.443498706214598, 27.4537012428361 ], [ -80.443547754939459, 27.453764457694291 ], [ -80.443596732664105, 27.453827715552297 ], [ -80.443645638388503, 27.45389101741014 ], [ -80.443694474112974, 27.453954362267794 ], [ -80.443743238837143, 27.454017751125274 ], [ -80.443791932561354, 27.454081182982577 ], [ -80.443840555285362, 27.454144658839795 ], [ -80.443889107009241, 27.454208177696639 ], [ -80.443937586733, 27.454271739553413 ], [ -80.443985996456533, 27.454335344410101 ], [ -80.444034334180017, 27.454398993266405 ], [ -80.444082600903513, 27.454462685122749 ], [ -80.444130795626762, 27.454526418978705 ], [ -80.444178919349881, 27.454590196834694 ], [ -80.444226971072879, 27.454654016690299 ], [ -80.444274951795776, 27.454717880545942 ], [ -80.444322861518529, 27.454781786401195 ], [ -80.444370699241176, 27.454845735256388 ], [ -80.444418464963675, 27.454909726111492 ], [ -80.44446615868597, 27.454973759966336 ], [ -80.444513781408233, 27.455037835820995 ], [ -80.444561332130505, 27.455101954675492 ], [ -80.4446088108525, 27.45516611552971 ], [ -80.444656217574419, 27.455230319383855 ], [ -80.444703553296222, 27.455294565237924 ], [ -80.444750816017873, 27.455358853091628 ], [ -80.444798006739305, 27.455423182945371 ], [ -80.444845125460702, 27.455487554798829 ], [ -80.444892172182023, 27.455551968652006 ], [ -80.444939146903337, 27.455616424505134 ], [ -80.444986049624376, 27.455680922358184 ], [ -80.44503287934532, 27.455745462210963 ], [ -80.445079637066044, 27.455810043063575 ], [ -80.445126322786876, 27.455874665916014 ], [ -80.445172935507472, 27.455939330768189 ], [ -80.445219476227962, 27.456004036620293 ], [ -80.445265943948286, 27.456068784472226 ], [ -80.445312339668547, 27.456133573323996 ], [ -80.445358662388671, 27.456198403175595 ], [ -80.44540491310859, 27.456263275027027 ], [ -80.445451089828495, 27.456328187878292 ], [ -80.445497195548342, 27.456393141729393 ], [ -80.445543227268018, 27.456458136580316 ], [ -80.445589185987558, 27.456523172431197 ], [ -80.445635072707006, 27.456588249281698 ], [ -80.445680886426317, 27.456653367132247 ], [ -80.445726626145515, 27.456718525982421 ], [ -80.445772293864607, 27.456783725832633 ], [ -80.445817888583562, 27.456848965682475 ], [ -80.445863409302419, 27.456914246532264 ], [ -80.445908858021212, 27.456979567381978 ], [ -80.445954232739851, 27.457044929231341 ], [ -80.44599953445838, 27.457110332080727 ], [ -80.446044763176786, 27.457175774929762 ], [ -80.446089917895094, 27.45724125777884 ], [ -80.446134999613292, 27.457306780627551 ], [ -80.44618000833124, 27.457372343476301 ], [ -80.446224943049231, 27.457437947324689 ], [ -80.446269803767166, 27.457503590173118 ], [ -80.446314591484935, 27.457569274021285 ], [ -80.446359306202581, 27.457634996869192 ], [ -80.44640394692, 27.457700760717042 ], [ -80.44644851363752, 27.457766563564732 ], [ -80.4464930063547, 27.457832406412276 ] ] } },
{ "type": "Feature", "properties": { }, "geometry": { "type": "LineString", "coordinates": [ [ -80.45601565959943, 27.477949497220177 ], [ -80.456037533298996, 27.478023861041265 ], [ -80.456059322998456, 27.478098243862235 ], [ -80.456081028697881, 27.478172646683298 ], [ -80.456102652397291, 27.478247068504341 ], [ -80.456124192096709, 27.478321509325365 ], [ -80.456145647795992, 27.47839597014649 ], [ -80.456167020495528, 27.478470448967496 ], [ -80.456188310194904, 27.478544947788386 ], [ -80.45620951589423, 27.478619465609466 ], [ -80.456230637593492, 27.478694001430426 ], [ -80.45625167629295, 27.478768556251286 ], [ -80.456272630992245, 27.478843130072235 ], [ -80.45629350269148, 27.478917722893264 ], [ -80.456314290390907, 27.478992333714203 ], [ -80.456334994090213, 27.479066963535026 ], [ -80.456355614789487, 27.479141611355928 ], [ -80.456376151488783, 27.479216278176946 ], [ -80.456396605188061, 27.47929096299773 ], [ -80.456416973887343, 27.479365664818634 ], [ -80.456437259586565, 27.479440386639613 ], [ -80.456457462285726, 27.479515125460502 ], [ -80.456477579984991, 27.479589882281374 ], [ -80.456497614684309, 27.479664657102155 ], [ -80.456517564383461, 27.479739449923034 ], [ -80.456537431082708, 27.479814259743893 ], [ -80.45655721378202, 27.479889088564867 ], [ -80.456576913481229, 27.479963934385633 ], [ -80.456596528180341, 27.480038797206507 ], [ -80.456616058879618, 27.480113678027369 ], [ -80.456635506578849, 27.480188575848345 ], [ -80.45665486927804, 27.48026349166911 ], [ -80.456674148977115, 27.480338423490082 ], [ -80.45669334367642, 27.48041337331086 ], [ -80.456712455375524, 27.480488340131735 ], [ -80.456731482074773, 27.480563323952715 ], [ -80.456750424773873, 27.480638324773508 ], [ -80.45676928447314, 27.480713342594481 ], [ -80.456788059172339, 27.480788377415386 ], [ -80.456806749871532, 27.480863428236191 ], [ -80.45682535657059, 27.480938496057103 ], [ -80.456843879269798, 27.481013579878013 ], [ -80.456862316969051, 27.481088680699042 ], [ -80.456880671668145, 27.481163798519972 ], [ -80.456898941367399, 27.481238931340918 ], [ -80.456917127066603, 27.481314081161759 ], [ -80.456935228765772, 27.481389247982733 ], [ -80.456953245464959, 27.481464429803808 ], [ -80.456971178164153, 27.481539627624795 ], [ -80.456989026863297, 27.481614841445793 ], [ -80.457006791562549, 27.481690071266705 ], [ -80.457024471261732, 27.481765317087724 ], [ -80.457042066960909, 27.481840578908759 ], [ -80.457059578660107, 27.481915855729824 ], [ -80.457077005359324, 27.481991148550986 ], [ -80.457094347058415, 27.482066456372078 ], [ -80.45711160575776, 27.482141780193079 ], [ -80.457128779456838, 27.48221711901429 ], [ -80.457145868156175, 27.482292473835326 ], [ -80.457162872855321, 27.48236784265659 ], [ -80.457179792554669, 27.482443227477763 ], [ -80.457196628253811, 27.482518627298958 ], [ -80.45721337995316, 27.482594041120073 ], [ -80.457230046652427, 27.482669470941307 ], [ -80.457246628351697, 27.482744914762566 ], [ -80.457263126050975, 27.482820374583838 ], [ -80.457279538750257, 27.482895848405242 ], [ -80.457295866449428, 27.48297133622658 ], [ -80.457312110148834, 27.483046839047919 ], [ -80.457328268848144, 27.483122356869192 ], [ -80.457344343547462, 27.483197887690704 ], [ -80.457360333246683, 27.483273434512117 ], [ -80.457376237946036, 27.483348994333472 ], [ -80.457392057645478, 27.483424568154948 ], [ -80.457407793344757, 27.483500156976458 ], [ -80.457423444044224, 27.483575758798089 ], [ -80.457439009743609, 27.483651375619655 ], [ -80.457454491442903, 27.483727005441143 ], [ -80.457469888142413, 27.483802649262785 ], [ -80.457485198841752, 27.483878307084431 ], [ -80.457500426541174, 27.483953977906125 ], [ -80.457515568240709, 27.484029662727838 ], [ -80.457530624940176, 27.484105361549592 ], [ -80.457545597639566, 27.484181073371378 ], [ -80.457560484339155, 27.484256798193201 ], [ -80.457575287038665, 27.484332536015053 ], [ -80.457590004738108, 27.484408287836928 ], [ -80.457604637437726, 27.484484051658967 ], [ -80.457619185137176, 27.484559829480915 ], [ -80.457633647836872, 27.484635619302821 ], [ -80.457648025536457, 27.48471142312485 ], [ -80.457662318236046, 27.484787238946929 ], [ -80.457676525935568, 27.48486306776914 ], [ -80.457690648635335, 27.484938908591293 ], [ -80.457704686334992, 27.485014762413496 ], [ -80.457718639034653, 27.485090629235629 ], [ -80.457732506734345, 27.485166508057901 ], [ -80.45774628943407, 27.485242398880221 ], [ -80.457759987133713, 27.485318301702687 ], [ -80.457773598833569, 27.485394217524988 ], [ -80.457787126533333, 27.485470145347435 ], [ -80.457800568233012, 27.485546085170029 ], [ -80.457813925932967, 27.485622036992471 ], [ -80.457827197632795, 27.485697999815159 ], [ -80.457840384332656, 27.485773975637787 ], [ -80.457853486032505, 27.485849962460364 ], [ -80.45786650173244, 27.485925961283183 ], [ -80.457879433432382, 27.486001971105964 ], [ -80.457892279132338, 27.486077992928688 ], [ -80.457905039832298, 27.486154025751649 ], [ -80.457917715532176, 27.486230070574589 ], [ -80.457930305232324, 27.486306126397452 ], [ -80.457942809932277, 27.486382193220479 ], [ -80.457955229632447, 27.486458271043571 ], [ -80.457967564332534, 27.486534359866699 ], [ -80.457979813032637, 27.486610459689881 ], [ -80.457991976732785, 27.486686570513118 ], [ -80.45800405543298, 27.48676269233642 ], [ -80.458016048133189, 27.486838825159765 ], [ -80.45802795583343, 27.486914967983171 ], [ -80.458039777533671, 27.486991121806625 ], [ -80.458051515233947, 27.487067285630154 ], [ -80.458063165934163, 27.487143460453726 ], [ -80.458074732634515, 27.487219645277463 ], [ -80.45808621333488, 27.487295841101162 ], [ -80.458097608035288, 27.487372045924815 ], [ -80.458108918735803, 27.487448261748732 ], [ -80.458120142436258, 27.487524487572507 ], [ -80.45813128113673, 27.487600722396444 ], [ -80.458142334837262, 27.487676968220441 ], [ -80.458153302537795, 27.487753223044511 ], [ -80.458164185238388, 27.487829488868634 ], [ -80.458174981939024, 27.487905762692936 ], [ -80.458185693639635, 27.487982047517185 ], [ -80.458196319340232, 27.4880583413415 ], [ -80.458206860041059, 27.488134644165896 ], [ -80.458217314741773, 27.488210956990251 ], [ -80.458227684442534, 27.48828727881487 ], [ -80.458237968143251, 27.488363609639467 ], [ -80.458248165844111, 27.48843995046402 ], [ -80.458258278545102, 27.488516299288847 ] ] } },
{ "type": "Feature", "properties": { }, "geometry": { "type": "LineString", "coordinates": [ [ -80.457664387858912, 27.510194367898549 ], [ -80.45765010497847, 27.510270186010818 ], [ -80.45763573609797, 27.51034599112306 ], [ -80.457621282217517, 27.510421783235614 ], [ -80.457606743337109, 27.510497562348228 ], [ -80.457592119456748, 27.510573328460953 ], [ -80.457577410576306, 27.510649081573739 ], [ -80.457562617695984, 27.510724821686761 ], [ -80.457547738815848, 27.510800548800024 ], [ -80.457532774935615, 27.510876262913317 ], [ -80.457517727055446, 27.510951963026752 ], [ -80.457502593175292, 27.511027649140321 ], [ -80.457487375295202, 27.511103322253938 ], [ -80.457472071415097, 27.511178982367785 ], [ -80.457456683535113, 27.511254628481872 ], [ -80.457441210655119, 27.511330260596008 ], [ -80.457425652775171, 27.511405878710271 ], [ -80.457410009895142, 27.51148148282466 ], [ -80.457394283015262, 27.511557072939208 ], [ -80.45737847013541, 27.511632649053787 ], [ -80.457362573255722, 27.511708212168593 ], [ -80.457346591375966, 27.511783759283556 ], [ -80.457330525496218, 27.511859293398651 ], [ -80.457314374616502, 27.511934812513971 ], [ -80.457298137736828, 27.512010317629237 ], [ -80.457281817857194, 27.512085807744839 ], [ -80.457265411977502, 27.512161283860479 ], [ -80.457248922098074, 27.512236744976253 ], [ -80.457232347218522, 27.512312191092079 ], [ -80.457215688339048, 27.51238762320822 ], [ -80.457198944459478, 27.512463039324313 ], [ -80.457182116580157, 27.512538441440732 ], [ -80.457165202700793, 27.512613827557193 ], [ -80.45714820582144, 27.512689199673698 ], [ -80.457131122942116, 27.512764555790536 ], [ -80.457113956062827, 27.512839896907401 ], [ -80.457096705183446, 27.512915222024304 ], [ -80.457079369304353, 27.512990532141458 ], [ -80.457061949425153, 27.513065827258821 ], [ -80.457044444545872, 27.513141106376246 ], [ -80.457026855666868, 27.513216370493698 ], [ -80.457009181787768, 27.51329161761149 ], [ -80.45699142390869, 27.513366849729206 ], [ -80.45697358202969, 27.513442065847265 ], [ -80.456955655150665, 27.513517265965262 ], [ -80.456937644271704, 27.5135924500836 ], [ -80.456919548392761, 27.513667618201865 ], [ -80.456901369513858, 27.513742770320466 ], [ -80.456883104634983, 27.513817906439098 ], [ -80.456864756756033, 27.513893025557884 ], [ -80.456846323877286, 27.51396812867668 ], [ -80.456827806998518, 27.514043214795823 ], [ -80.456809206119658, 27.514118284914908 ], [ -80.456790521241032, 27.514193338034215 ], [ -80.456771751362325, 27.514268375153772 ], [ -80.456752897483554, 27.514343394273236 ], [ -80.456733959605018, 27.514418397392969 ], [ -80.456714937726389, 27.514493383512821 ], [ -80.456695831847796, 27.514568352632896 ], [ -80.456676641969111, 27.51464330475293 ], [ -80.456657368090617, 27.514718238873179 ], [ -80.456638009212185, 27.514793156993573 ], [ -80.456618567333706, 27.514868057114196 ], [ -80.456599040455245, 27.514942940234754 ], [ -80.456579430576824, 27.515017805355647 ], [ -80.456559735698335, 27.515092653476568 ], [ -80.456539957820056, 27.515167483597526 ], [ -80.456520094941624, 27.515242296718828 ], [ -80.456500149063373, 27.515317091840039 ], [ -80.456480119185102, 27.515391868961601 ], [ -80.456460005306809, 27.515466628083104 ], [ -80.456439807428467, 27.515541369204936 ], [ -80.456419525550359, 27.515616092326688 ], [ -80.456399159672173, 27.515690797448791 ], [ -80.456378710793999, 27.515765483570913 ], [ -80.456358177915718, 27.515840152693169 ], [ -80.456337561037685, 27.515914802815562 ], [ -80.456316860159603, 27.515989434938088 ], [ -80.4562960752815, 27.516064048060745 ], [ -80.456275207403493, 27.516138642183538 ], [ -80.456254255525423, 27.516213218306362 ], [ -80.456233220647448, 27.516287775429415 ], [ -80.456212101769424, 27.516362314552698 ], [ -80.456190898891492, 27.516436833676025 ], [ -80.456169612013554, 27.516511334799478 ], [ -80.456148242135626, 27.516585816923065 ], [ -80.456126789257738, 27.516660279046675 ], [ -80.456105252379857, 27.516734723170529 ], [ -80.456083631501912, 27.516809147294509 ], [ -80.456061927624077, 27.516883551418722 ], [ -80.456040140746353, 27.516957937542966 ], [ -80.456018269868579, 27.517032303667236 ], [ -80.455996314990784, 27.517106649791849 ], [ -80.455974277112972, 27.517180976916485 ], [ -80.455952156235341, 27.517255284041148 ], [ -80.455929952357621, 27.517329571166051 ], [ -80.455907664479909, 27.517403839291088 ], [ -80.455885293602279, 27.517478086416251 ], [ -80.455862838724613, 27.517552314541547 ], [ -80.455840300846972, 27.517626521667065 ], [ -80.455817679969257, 27.517700709792528 ], [ -80.455794976091667, 27.517774876918317 ], [ -80.455772188214198, 27.517849024044018 ], [ -80.455749318336629, 27.517923150170073 ], [ -80.455726364458968, 27.517997256296155 ], [ -80.455703327581574, 27.518071342422264 ], [ -80.455680207703978, 27.518145407548701 ], [ -80.455657004826477, 27.518219451675069 ], [ -80.455633717949098, 27.518293475801762 ], [ -80.455610349071534, 27.518367478928504 ], [ -80.455586897194124, 27.518441461055357 ], [ -80.455563362316781, 27.518515422182336 ], [ -80.455539743439289, 27.518589362309449 ], [ -80.455516042561982, 27.518663280436702 ], [ -80.455492258684615, 27.518737178563978 ], [ -80.455468391807244, 27.518811055691589 ], [ -80.455444441929927, 27.518884910819217 ], [ -80.455420409052607, 27.518958743946882 ], [ -80.455396293175198, 27.519032557074876 ], [ -80.455372095297889, 27.519106347202897 ], [ -80.455347814420705, 27.519180116330944 ], [ -80.455323450543403, 27.519253864459223 ], [ -80.455299003666198, 27.519327589587732 ], [ -80.455274473788847, 27.519401293716271 ], [ -80.455249861911611, 27.519474975844936 ], [ -80.455225167034513, 27.519548635973724 ], [ -80.455200390157202, 27.519622274102638 ], [ -80.455175530279988, 27.519695890231695 ], [ -80.45515058740294, 27.519769483360772 ], [ -80.455125562525765, 27.519843054490178 ], [ -80.455100454648615, 27.51991660361951 ], [ -80.455075264771367, 27.519990130749068 ], [ -80.455049991894271, 27.520063634878756 ], [ -80.455024637017146, 27.520137116008577 ], [ -80.454999199140161, 27.52021057513862 ], [ -80.454973679263048, 27.520284011268597 ], [ -80.454948077385964, 27.520357424398789 ], [ -80.454922392508806, 27.520430814529114 ], [ -80.454896625631704, 27.520504182659668 ] ] } },
{ "type": "Feature", "properties": { }, "geometry": { "type": "LineString", "coordinates": [ [ -80.448663392579746, 27.533740668167681 ], [ -80.448622690701086, 27.533808447320148 ], [ -80.448581912822362, 27.533876190472533 ], [ -80.448541058943519, 27.533943896625203 ], [ -80.448500129064868, 27.534011566777782 ], [ -80.448459123186026, 27.534079200930574 ], [ -80.448418041307235, 27.534146798083473 ], [ -80.44837688442837, 27.534214358236465 ], [ -80.448335650549495, 27.534281882389674 ], [ -80.448294341670589, 27.534349368542777 ], [ -80.448252956791549, 27.534416818696183 ], [ -80.448211495912687, 27.534484231849607 ], [ -80.448169960033582, 27.534551608003113 ], [ -80.448128348154682, 27.534618947156741 ], [ -80.448086661275639, 27.534686249310464 ], [ -80.448044898396432, 27.534753513464295 ], [ -80.448003059517319, 27.53482074061813 ], [ -80.447961145638189, 27.534887930772157 ], [ -80.447919156759099, 27.534955083926405 ], [ -80.447877091879917, 27.535022198080632 ], [ -80.447834952000704, 27.535089276234888 ], [ -80.447792737121404, 27.535156316389433 ], [ -80.447750446242139, 27.535223318543881 ], [ -80.447708080362801, 27.535290282698629 ], [ -80.447665639483475, 27.535357209853387 ], [ -80.44762312360406, 27.535424099008132 ], [ -80.447580532724572, 27.535490949163101 ], [ -80.447537866845209, 27.535557762318255 ], [ -80.447495125965744, 27.535624537473417 ], [ -80.447452310086206, 27.535691273628586 ], [ -80.447409419206679, 27.535757971783944 ], [ -80.44736645332712, 27.535824631939505 ], [ -80.447323413447506, 27.53589125409507 ], [ -80.447280297567858, 27.535957837250635 ], [ -80.447237107688167, 27.536024382406396 ], [ -80.447193843808506, 27.536090888562274 ], [ -80.447150503928754, 27.536157356718242 ], [ -80.447107090049002, 27.536223785874316 ], [ -80.447063602169194, 27.536290176030583 ], [ -80.447020039289228, 27.53635652718685 ], [ -80.446976401409472, 27.536422840343111 ], [ -80.446932689529447, 27.536489113499691 ], [ -80.446888903649523, 27.536555348656151 ], [ -80.446845042769638, 27.536621543812927 ], [ -80.446801107889542, 27.536687700969708 ], [ -80.446757099009588, 27.536753818126456 ], [ -80.446713016129422, 27.536819896283536 ], [ -80.44666885824941, 27.536885934440591 ], [ -80.446624627369289, 27.536951933597745 ], [ -80.44658032148908, 27.537017893754918 ], [ -80.446535941608744, 27.537083813912272 ], [ -80.446491487728622, 27.537149694069832 ], [ -80.446446960848334, 27.5372155352273 ], [ -80.446402358967987, 27.53728133638495 ], [ -80.44635768408763, 27.537347097542792 ], [ -80.446312935207146, 27.537412819700652 ], [ -80.446268112326791, 27.537478500858494 ], [ -80.446223215446238, 27.537544142016547 ], [ -80.446178245565804, 27.537609744174695 ], [ -80.446133201685285, 27.537675305333043 ], [ -80.44608808380471, 27.53774082649128 ], [ -80.446042892923984, 27.537806307649795 ], [ -80.445997628043429, 27.537871747808349 ], [ -80.445952290162751, 27.537937147966979 ], [ -80.44590687928202, 27.5380025081257 ], [ -80.445861394401092, 27.538067827284522 ], [ -80.445815836520424, 27.538133105443446 ], [ -80.445770205639562, 27.538198343602453 ], [ -80.445724500758686, 27.53826354076147 ], [ -80.445678723877663, 27.538328696920676 ], [ -80.445632872996811, 27.538393812079974 ], [ -80.445586949115693, 27.538458887239376 ], [ -80.445540952234765, 27.538523920398873 ], [ -80.445494882353671, 27.538588913558552 ], [ -80.445448739472553, 27.538653864718249 ], [ -80.445402523591383, 27.538718774878028 ], [ -80.445356235710193, 27.5387836440378 ], [ -80.445309873828947, 27.538848472197778 ], [ -80.445263439947681, 27.538913258357841 ], [ -80.445216933066348, 27.538978003518086 ], [ -80.445170354184995, 27.539042706678245 ], [ -80.445123701303501, 27.539107368838589 ], [ -80.445076977422161, 27.539171988999129 ], [ -80.445030179540652, 27.539236567159666 ], [ -80.444983310659055, 27.539301104320288 ], [ -80.444936367777601, 27.539365598480916 ], [ -80.444889353895988, 27.539430051641833 ], [ -80.444842267014323, 27.53949446280274 ], [ -80.444795108132567, 27.539558831963635 ], [ -80.444747876250929, 27.539623159124737 ], [ -80.444700573369147, 27.539687444286024 ], [ -80.444653197487312, 27.539751686447303 ], [ -80.444605749605486, 27.539815886608668 ], [ -80.444558229723469, 27.539880044770037 ], [ -80.444510637841631, 27.539944159931601 ], [ -80.444462973959546, 27.540008233093353 ], [ -80.444415238077511, 27.540072264254992 ], [ -80.444367431195559, 27.540136252416922 ], [ -80.444319551313328, 27.540200197578844 ], [ -80.444271600431165, 27.540264099740764 ], [ -80.444223577549067, 27.540327959902967 ], [ -80.444175482666822, 27.540391776065153 ], [ -80.444127316784503, 27.54045555022735 ], [ -80.444079078902192, 27.540519281389741 ], [ -80.444030770019822, 27.540582969552315 ], [ -80.443982389137389, 27.540646614714877 ], [ -80.443933936254894, 27.540710215877432 ], [ -80.443885413372286, 27.540773775040176 ], [ -80.443836818489757, 27.540837290203111 ], [ -80.443788151607222, 27.540900761365929 ], [ -80.443739414724575, 27.540964189529042 ], [ -80.443690605841795, 27.541027574692045 ], [ -80.443641725959026, 27.541090915855239 ], [ -80.443592775076254, 27.541154214018626 ], [ -80.443543753193538, 27.541217468182005 ], [ -80.443494660310677, 27.541280678345355 ], [ -80.443445496427728, 27.541343844508898 ], [ -80.443396261544763, 27.541406966672639 ], [ -80.443346956661742, 27.541470045836267 ], [ -80.443297579778672, 27.541533080000079 ], [ -80.443248132895462, 27.54159607116398 ], [ -80.44319861501242, 27.541659017327973 ], [ -80.44314902612922, 27.541721919492165 ], [ -80.443099367245864, 27.541784777656225 ], [ -80.443049638362666, 27.541847590820485 ], [ -80.442999837479235, 27.541910360984811 ], [ -80.442949967595808, 27.541973085149365 ], [ -80.442900026712479, 27.54203576631388 ], [ -80.442850014828991, 27.542098401478487 ], [ -80.442799932945434, 27.542160992643179 ], [ -80.442749781061821, 27.542223539807846 ], [ -80.442699559178237, 27.542286040972712 ], [ -80.442649267294541, 27.542348498137773 ], [ -80.442598904410801, 27.542410910302713 ], [ -80.442548472526909, 27.542473277467838 ], [ -80.442497969643071, 27.542535599633151 ], [ -80.44244739775931, 27.542597875798339 ], [ -80.442396755875393, 27.542660107963822 ], [ -80.442346042991304, 27.542722295129295 ], [ -80.442295262107379, 27.542784436294856 ], [ -80.442244410223282, 27.542846532460391 ] ] } },
{ "type": "Feature", "properties": { }, "geometry": { "type": "LineString", "coordinates": [ [ -80.425125772719781, 27.558468199501831 ], [ -80.425057315816375, 27.558514977684968 ], [ -80.424988806912964, 27.558561693868135 ], [ -80.424920246009322, 27.558608349051337 ], [ -80.424851632105742, 27.558654943234476 ], [ -80.424782966202002, 27.558701476417752 ], [ -80.424714248298201, 27.558747948601056 ], [ -80.424645477394293, 27.558794358784496 ], [ -80.424576654490323, 27.558840707967871 ], [ -80.424507780586168, 27.558886996151177 ], [ -80.424438853682119, 27.558933222334623 ], [ -80.42436987577787, 27.5589793875181 ], [ -80.424300844873571, 27.559025490701615 ], [ -80.424231762969143, 27.559071532885149 ], [ -80.424162629064668, 27.55911751306872 ], [ -80.424093444160135, 27.55916343125234 ], [ -80.424024207255499, 27.559209287435973 ], [ -80.423954919350678, 27.559255082619654 ], [ -80.423885579445965, 27.55930081580345 ], [ -80.423816188540982, 27.559346486987188 ], [ -80.423746745636123, 27.559392097170861 ], [ -80.423677252731053, 27.559437644354752 ], [ -80.423607707825937, 27.559483129538489 ], [ -80.423538111920706, 27.559528552722448 ], [ -80.423468465015389, 27.559573914906242 ], [ -80.423398767109958, 27.559619214090265 ], [ -80.423329019204559, 27.559664450274219 ], [ -80.423259219299041, 27.559709625458108 ], [ -80.423189369393384, 27.55975473764212 ], [ -80.423119469487588, 27.559799788826265 ], [ -80.423049517581788, 27.559844776010241 ], [ -80.422979516675994, 27.55988970219434 ], [ -80.42290946377004, 27.559934564378572 ], [ -80.422839361863964, 27.559979365562736 ], [ -80.42276920895776, 27.560024103746937 ], [ -80.422699006051531, 27.560068778931051 ], [ -80.422628753145247, 27.560113392115291 ], [ -80.422558449238977, 27.560157942299682 ], [ -80.422488096332515, 27.560202429483876 ], [ -80.42241769342597, 27.560246853668215 ], [ -80.422347240519215, 27.560291215852562 ], [ -80.422276737612592, 27.560335515037067 ], [ -80.4222061847058, 27.560379751221479 ], [ -80.42213558279893, 27.560423924405914 ], [ -80.422064930891949, 27.560468034590286 ], [ -80.421994228984801, 27.560512081774775 ], [ -80.421923479077762, 27.560556065959311 ], [ -80.421852678170538, 27.560599987143846 ], [ -80.421781829263239, 27.560643844328524 ], [ -80.421710930355744, 27.560687639513031 ], [ -80.421639982448383, 27.560731370697653 ], [ -80.421568985540787, 27.560775038882404 ], [ -80.42149793963307, 27.560818644066973 ], [ -80.421426844725445, 27.560862185251786 ], [ -80.421355700817642, 27.560905663436412 ], [ -80.42128450890975, 27.560949077621164 ], [ -80.421213267001761, 27.560992428806045 ], [ -80.421141977093683, 27.561035715990844 ], [ -80.42107063918543, 27.561078940175573 ], [ -80.420999251277308, 27.561122100360429 ], [ -80.420927816368973, 27.561165196545403 ], [ -80.420856332460573, 27.561208229730298 ], [ -80.420784799552109, 27.561251198915116 ], [ -80.420713219643432, 27.561294104100043 ], [ -80.420641590734746, 27.561336945285134 ], [ -80.420569913826128, 27.561379723470026 ], [ -80.420498189917197, 27.561422436655132 ], [ -80.420426417008287, 27.561465085840062 ], [ -80.420354596099273, 27.561507672025126 ], [ -80.420282728190287, 27.561550193210199 ], [ -80.420210812281013, 27.561592650395401 ], [ -80.420138848371877, 27.561635043580523 ], [ -80.420066836462439, 27.561677372765569 ], [ -80.419994777553086, 27.561719637950741 ], [ -80.419922671643505, 27.561761838135919 ], [ -80.419850517733892, 27.56180397432114 ], [ -80.419778316824292, 27.561846046506453 ], [ -80.419706068914422, 27.5618880536917 ], [ -80.419633774004595, 27.561929996876877 ], [ -80.419561431094621, 27.561971876062159 ], [ -80.419489042184722, 27.562013689247568 ], [ -80.41941660527452, 27.5620554394329 ], [ -80.419344122364322, 27.562097123618248 ], [ -80.419271592454024, 27.562138743803509 ], [ -80.419199015543754, 27.562180299988881 ], [ -80.419126392633288, 27.562221790174302 ], [ -80.419053721722747, 27.562263216359725 ], [ -80.418981005812029, 27.562304577545166 ], [ -80.41890824290131, 27.562345873730621 ], [ -80.418835433990623, 27.562387104916088 ], [ -80.418762578079722, 27.562428271101702 ], [ -80.418689676168768, 27.562469372287111 ], [ -80.418616728257604, 27.562510409472637 ], [ -80.418543734346429, 27.562551380658284 ], [ -80.418470694435328, 27.562592286843852 ], [ -80.418397608523861, 27.562633128029333 ], [ -80.4183244776126, 27.562673903214918 ], [ -80.418251299700984, 27.56271461440053 ], [ -80.41817807678953, 27.562755259586265 ], [ -80.418104807877754, 27.562795839771923 ], [ -80.418031493966112, 27.562836353957483 ], [ -80.417958134054246, 27.562876803143151 ], [ -80.417884728142354, 27.562917187328949 ], [ -80.417811278230317, 27.562957505514646 ], [ -80.417737782318142, 27.562997758700281 ], [ -80.417664241405959, 27.563037945886112 ], [ -80.417590655493768, 27.563078067071771 ], [ -80.417517023581297, 27.563118123257528 ], [ -80.417443347668851, 27.563158113443311 ], [ -80.41736962675644, 27.563198038629125 ], [ -80.417295860843822, 27.563237897815025 ], [ -80.417222050931031, 27.563277690000834 ], [ -80.417148195018328, 27.563317418186685 ], [ -80.417074295105436, 27.563357079372523 ], [ -80.417000351192442, 27.563396674558291 ], [ -80.416926362279412, 27.563436203744164 ], [ -80.416852329366279, 27.563475667930053 ], [ -80.416778251453024, 27.56351506511605 ], [ -80.416704130539685, 27.563554396301853 ], [ -80.416629964626338, 27.56359366148779 ], [ -80.416555754712718, 27.563632860673824 ], [ -80.416481500799222, 27.563671993859668 ], [ -80.416407202885566, 27.563711060045623 ], [ -80.416332860971693, 27.563750061231591 ], [ -80.416258476057848, 27.563788994417674 ], [ -80.416184047144029, 27.56382786260367 ], [ -80.416109574230035, 27.563866663789664 ], [ -80.41603505731581, 27.563905398975667 ], [ -80.415960497401727, 27.5639440671617 ], [ -80.41588589448736, 27.563982669347734 ], [ -80.415811248573092, 27.564021204533766 ], [ -80.415736558658523, 27.564059673719818 ], [ -80.415661825744081, 27.564098075905775 ], [ -80.415587048829451, 27.564136411091859 ], [ -80.415512229914626, 27.564174680278033 ], [ -80.415437367999928, 27.564212882464016 ], [ -80.415362463085017, 27.564251017650122 ], [ -80.415287515169965, 27.564289085836204 ], [ -80.415212525254972, 27.564327088022317 ], [ -80.41513749233971, 27.564365022208548 ], [ -80.415062416424561, 27.564402890394568 ] ] } },
{ "type": "Feature", "properties": { }, "geometry": { "type": "LineString", "coordinates": [ [ -80.103213666666662, 26.68555175 ], [ -80.103213666666662, 26.6866705 ] ] } },
{ "type": "Feature", "properties": { }, "geometry": { "type": "LineString", "coordinates": [ [ -80.102902333333333, 26.68543986111111 ], [ -80.102902305555546, 26.68678236111111 ] ] } },
{ "type": "Feature", "properties": { }, "geometry": { "type": "LineString", "coordinates": [ [ -80.102590972222217, 26.68543986111111 ], [ -80.102590944444444, 26.68678236111111 ] ] } },
{ "type": "Feature", "properties": { }, "geometry": { "type": "LineString", "coordinates": [ [ -80.102279611111101, 26.685551722222222 ], [ -80.102279583333328, 26.686670472222222 ] ] } },
{ "type": "Feature", "properties": { }, "geometry": { "type": "LineString", "coordinates": [ [ -80.10196825, 26.68611111111111 ], [ -80.101973083333334, 26.686190416666665 ], [ -80.101988638888884, 26.686273305555556 ], [ -80.102016444444445, 26.68635825 ], [ -80.102057583333334, 26.686443194444443 ], [ -80.102112722222216, 26.686525722222221 ], [ -80.102181722222213, 26.686603166666668 ], [ -80.102263611111098, 26.68667277777778 ], [ -80.102356583333332, 26.686732138888889 ], [ -80.102458111111105, 26.686779194444444 ], [ -80.102565111111105, 26.68681275 ], [ -80.10267425, 26.686832333333335 ], [ -80.10278236111111, 26.686838277777778 ], [ -80.102886666666663, 26.686831694444443 ], [ -80.102984861111111, 26.686814111111111 ], [ -80.103075361111109, 26.686787388888888 ], [ -80.10315725, 26.686753444444445 ], [ -80.103232, 26.686713027777778 ], [ -80.103305027777779, 26.686662916666666 ], [ -80.103374666666667, 26.68660236111111 ], [ -80.1034385, 26.686531277777778 ], [ -80.103493888888877, 26.686450222222224 ], [ -80.10353825, 26.68636038888889 ], [ -80.103569305555553, 26.686263638888889 ], [ -80.103585277777768, 26.686162472222222 ], [ -80.103585277777768, 26.686059777777778 ], [ -80.103569305555553, 26.685958611111111 ], [ -80.10353825, 26.68586186111111 ], [ -80.103493888888877, 26.685772 ], [ -80.1034385, 26.685690944444445 ], [ -80.103374666666667, 26.68561988888889 ], [ -80.103305027777779, 26.685559305555557 ], [ -80.103232027777779, 26.685509194444446 ], [ -80.10315725, 26.685468777777778 ], [ -80.103075388888882, 26.685434861111112 ], [ -80.102984861111111, 26.685408111111112 ], [ -80.102886666666663, 26.685390527777777 ], [ -80.102782388888883, 26.685383944444446 ], [ -80.102674277777766, 26.685389888888889 ], [ -80.102565111111105, 26.685409472222222 ], [ -80.102458138888878, 26.685443 ], [ -80.102356611111105, 26.685490083333335 ], [ -80.102263638888886, 26.685549416666667 ], [ -80.102181722222213, 26.685619055555556 ], [ -80.102112749999989, 26.685696472222222 ], [ -80.102057611111107, 26.685779 ], [ -80.102016444444445, 26.685863944444446 ], [ -80.101988638888884, 26.685948888888888 ], [ -80.101973083333334, 26.686031777777778 ], [ -80.10196825, 26.68611111111111 ] ] } }
]
}
