{
"type": "FeatureCollection",
"name": "OCN-59",
"crs": { "type": "name", "properties": { "name": "urn:ogc:def:crs:OGC:1.3:CRS84" } },
"features": [
{ "type": "Feature", "properties": { "minAlt": 0, "maxAlt": 999 }, "geometry": { "type": "Polygon", "coordinates": [ [ [ -76.382222222199857, 28.188333333300534 ], [ -76.431111111099995, 28.131666666700198 ], [ -76.999999999999886, 27.466666666700291 ], [ -77.0, 27.0 ], [ -76.0, 27.0 ], [ -76.0, 25.3833333333003 ], [ -74.096944444399981, 26.432222222200153 ], [ -74.033333333299936, 26.466666666700348 ], [ -74.615277777799747, 27.463055555600533 ], [ -74.833333333299777, 27.833333333300459 ], [ -75.182777777799913, 27.834722222200355 ], [ -75.708888888899708, 27.835000000000377 ], [ -76.264444444399999, 27.833333333300459 ], [ -76.382222222199857, 28.188333333300534 ] ] ] } },
{ "type": "Feature", "properties": { "minAlt": 70, "maxAlt": 999 }, "geometry": { "type": "Polygon", "coordinates": [ [ [ -76.0, 25.383333 ], [ -76.0, 27.0 ], [ -77.0, 27.0 ], [ -77.0, 26.25 ], [ -76.0, 25.383333333300296 ] ] ] } },
{ "type": "Feature", "properties": { "minAlt": 240, "maxAlt": 999 }, "geometry": { "type": "Polygon", "coordinates": [ [ [ -76.999999999999872, 27.466666666700291 ], [ -77.0, 27.0 ], [ -77.0, 26.25 ], [ -76.0, 25.383333 ], [ -76.4125, 25.096944 ], [ -77.308333, 25.594444 ], [ -77.813889, 25.633333 ], [ -78.508333, 26.0 ], [ -78.635, 26.116944 ], [ -78.620278, 26.248056 ], [ -78.6, 26.5 ], [ -78.320833, 27.0 ], [ -78.058333, 27.466667 ], [ -77.0, 27.466667 ] ] ] } }
]
}
