{"type":"FeatureCollection","features":[{"type":"Feature","geometry":{"type":"LineString","coordinates":[[-80.10957030555555,26.16043372222222],[-80.0897048611111,26.16161961111111]]},"properties":{"style":"solid","thickness":1}},{"type":"Feature","geometry":{"type":"LineString","coordinates":[[-80.10955838888889,26.168130972222222],[-80.08969166666667,26.169316861111113]]},"properties":{"style":"solid","thickness":1}},{"type":"Feature","geometry":{"type":"LineString","coordinates":[[-80.16653836111112,26.076949055555556],[-80.13912083333334,26.07679186111111]]},"properties":{"style":"solid","thickness":1}},{"type":"Feature","geometry":{"type":"LineString","coordinates":[[-80.1583488888889,26.06588663888889],[-80.133983,26.065742166666666]]},"properties":{"style":"solid","thickness":1}},{"type":"Feature","geometry":{"type":"LineString","coordinates":[[-80.02790386111111,26.071921166666666],[-80.02783502777778,26.080278833333335]]},"properties":{"style":"solid","thickness":1}},{"type":"Feature","geometry":{"type":"LineString","coordinates":[[-79.99641052777778,26.08294836111111],[-80.00270072222222,26.089079388888887]]},"properties":{"style":"solid","thickness":1}},{"type":"Feature","geometry":{"type":"LineString","coordinates":[[-79.91129361111112,26.071101777777777],[-79.9112175,26.079459333333332]]},"properties":{"style":"solid","thickness":1}},{"type":"Feature","geometry":{"type":"LineString","coordinates":[[-80.02764194444444,26.146310027777776],[-80.02766361111111,26.154667749999998]]},"properties":{"style":"solid","thickness":1}},{"type":"Feature","geometry":{"type":"LineString","coordinates":[[-80.01868494444444,26.076973527777778],[-80.01851955555556,26.077006527777776],[-80.01821333333334,26.077069833333333],[-80.01790766666666,26.07713525],[-80.01760252777778,26.077202777777778],[-80.017298,26.07727238888889],[-80.01699405555556,26.077344083333333],[-80.01669075,26.07741788888889],[-80.01638805555555,26.07749377777778],[-80.016086,26.07757175],[-80.01578461111112,26.077651777777778],[-80.01548391666667,26.07773388888889],[-80.01518394444444,26.077818055555554],[-80.01488466666666,26.077904305555556],[-80.01458611111111,26.077992583333334],[-80.01428833333334,26.078082944444443],[-80.01399133333334,26.078175333333334],[-80.01369508333333,26.078269777777777],[-80.01339966666667,26.07836625],[-80.01310508333333,26.07846475],[-80.01281130555556,26.078565277777777],[-80.01251841666667,26.078667805555554],[-80.01222638888889,26.07877236111111],[-80.01193525,26.078878944444444],[-80.011645,26.0789875],[-80.01135569444445,26.079098055555555],[-80.01106733333333,26.07921058333333],[-80.01077991666666,26.07932511111111],[-80.0104935,26.07944161111111],[-80.01020805555555,26.079560083333334],[-80.0099458888889,26.079671083333334]]},"properties":{"style":"solid","thickness":1}},{"type":"Feature","geometry":{"type":"LineString","coordinates":[[-80.00209105555555,26.084058055555555],[-80.00193863888889,26.084166444444442],[-80.00169330555556,26.08434363888889],[-80.00144947222222,26.084522527777775],[-80.00120713888889,26.08470308333333],[-80.00096636111111,26.084885277777776],[-80.00072711111112,26.085069166666667],[-80.00048941666667,26.085254666666664],[-80.00025330555556,26.085441805555554],[-80.00001877777778,26.085630555555554],[-79.99978583333333,26.085820916666666],[-79.99955452777778,26.086012888888888]]},"properties":{"style":"solid","thickness":1}},{"type":"Feature","geometry":{"type":"LineString","coordinates":[[-79.99955452777778,26.086012888888888],[-79.99883116666666,26.086632638888887],[-79.9981246388889,26.087268027777778],[-79.99743533333333,26.087918694444443],[-79.99676366666667,26.088584194444444],[-79.99611002777777,26.08926422222222],[-79.99551494444445,26.089914472222222]]},"properties":{"style":"solid","thickness":1}},{"type":"Feature","geometry":{"type":"LineString","coordinates":[[-79.9905496111111,26.096947027777777],[-79.99021180555556,26.097580777777775],[-79.98980122222223,26.09840136111111],[-79.98941275,26.099230666666667],[-79.9890466388889,26.100068222222223],[-79.98870305555556,26.10091352777778],[-79.98838225,26.101766083333334],[-79.98808441666667,26.10262541666667],[-79.98780969444445,26.103491],[-79.98755825,26.10436236111111],[-79.98744402777778,26.104801444444448]]},"properties":{"style":"solid","thickness":1}},{"type":"Feature","geometry":{"type":"LineString","coordinates":[[-79.986353,26.113083000000003],[-79.98635025,26.113278416666667],[-79.98636166666667,26.11417877777778],[-79.98639722222222,26.11507863888889],[-79.9864568888889,26.115977444444447],[-79.98654063888888,26.116874694444444],[-79.98664844444444,26.117769833333334],[-79.98678022222222,26.11866238888889],[-79.9869358888889,26.11955177777778],[-79.9871153888889,26.1204375],[-79.98731855555556,26.12131902777778],[-79.98733330555555,26.121376055555555]]},"properties":{"style":"solid","thickness":1}},{"type":"Feature","geometry":{"type":"LineString","coordinates":[[-79.99033952777778,26.12926225],[-79.99062122222222,26.129792333333334],[-79.99107433333333,26.1305945],[-79.99154880555555,26.131386527777778],[-79.99204438888889,26.132167972222224],[-79.99256080555556,26.132938333333335],[-79.99309775,26.133697194444444],[-79.99365486111111,26.13444411111111],[-79.99423188888889,26.13517861111111],[-79.99482841666666,26.13590027777778],[-79.99521577777777,26.136345972222223]]},"properties":{"style":"solid","thickness":1}},{"type":"Feature","geometry":{"type":"LineString","coordinates":[[-80.00171769444445,26.142271722222223],[-80.00178619444445,26.14232252777778],[-80.00257222222223,26.142877],[-80.00337288888889,26.14341411111111],[-80.00418775,26.143933583333332],[-80.00501630555556,26.14443511111111],[-80.00585808333334,26.14491836111111],[-80.00671258333334,26.145383083333332],[-80.00757930555555,26.145828972222223],[-80.00845772222222,26.146255805555555],[-80.00934736111111,26.146663305555556],[-80.00952127777778,26.14673825]]},"properties":{"style":"solid","thickness":1}},{"type":"Feature","geometry":{"type":"LineString","coordinates":[[-80.01823180555556,26.149522138888887],[-80.01874186111111,26.149628694444445],[-80.019719,26.149810416666668],[-80.02070072222222,26.149970749999998],[-80.02168647222223,26.150109583333332],[-80.02267566666667,26.15022683333333],[-80.02366769444444,26.150322416666665],[-80.02466202777778,26.150396277777777],[-80.02565802777778,26.150448416666666],[-80.02665513888888,26.150478749999998],[-80.02741061111111,26.15048522222222]]},"properties":{"style":"solid","thickness":1}},{"type":"Feature","geometry":{"type":"LineString","coordinates":[[-80.03667108333333,26.150467944444443],[-80.04593158333333,26.150447527777775]]},"properties":{"style":"solid","thickness":1}},{"type":"Feature","geometry":{"type":"LineString","coordinates":[[-80.05519205555555,26.1504265],[-80.06445255555555,26.150404888888886]]},"properties":{"style":"solid","thickness":1}},{"type":"Feature","geometry":{"type":"LineString","coordinates":[[-80.07371302777777,26.150382694444442],[-80.08215008333333,26.150361944444445]]},"properties":{"style":"solid","thickness":1}},{"type":"Feature","geometry":{"type":"LineString","coordinates":[[-79.75325094444445,26.009019916666666],[-79.73264247222222,26.010201]]},"properties":{"style":"solid","thickness":1}},{"type":"Feature","geometry":{"type":"LineString","coordinates":[[-79.75269541666667,26.00111438888889],[-79.73208827777778,26.00229538888889]]},"properties":{"style":"solid","thickness":1}},{"type":"Feature","geometry":{"type":"LineString","coordinates":[[-80.08406941666667,26.169758194444444],[-80.06645672222221,26.171021361111112]]},"properties":{"style":"solid","thickness":1}},{"type":"Feature","geometry":{"type":"LineString","coordinates":[[-79.87781377777777,26.158182777777775],[-79.86020077777778,26.159421027777775]]},"properties":{"style":"solid","thickness":1}},{"type":"Feature","geometry":{"type":"LineString","coordinates":[[-79.90289194444445,26.156630888888888],[-79.88203349999999,26.157846055555556]]},"properties":{"style":"solid","thickness":1}},{"type":"Feature","geometry":{"type":"LineString","coordinates":[[-79.90232583333334,26.14872613888889],[-79.88146877777777,26.14994122222222]]},"properties":{"style":"solid","thickness":1}},{"type":"Feature","geometry":{"type":"LineString","coordinates":[[-79.9884955,26.09540261111111],[-79.98169675,26.10107438888889]]},"properties":{"style":"solid","thickness":1}},{"type":"Feature","geometry":{"type":"LineString","coordinates":[[-79.97489736111112,26.10674586111111],[-79.96809730555556,26.112417]]},"properties":{"style":"solid","thickness":1}},{"type":"Feature","geometry":{"type":"LineString","coordinates":[[-79.96129661111111,26.118087805555557],[-79.95449527777778,26.123758277777778]]},"properties":{"style":"solid","thickness":1}},{"type":"Feature","geometry":{"type":"LineString","coordinates":[[-79.94769327777779,26.129428416666666],[-79.94089063888889,26.13509825]]},"properties":{"style":"solid","thickness":1}},{"type":"Feature","geometry":{"type":"LineString","coordinates":[[-79.93408736111111,26.140767722222222],[-79.92728341666667,26.14643688888889]]},"properties":{"style":"solid","thickness":1}},{"type":"Feature","geometry":{"type":"LineString","coordinates":[[-80.03683116666666,26.06477622222222],[-80.037611,26.062995083333334],[-80.03747811111111,26.061228694444445],[-80.03643869444444,26.059559222222223]]},"properties":{"style":"solid","thickness":1}},{"type":"Feature","geometry":{"type":"LineString","coordinates":[[-80.0347293611111,26.062346555555557],[-80.03236433333333,26.062491666666666]]},"properties":{"style":"solid","thickness":1}},{"type":"Feature","geometry":{"type":"LineString","coordinates":[[-80.03160072222222,26.06509711111111],[-80.03492094444444,26.064893444444444],[-80.03452852777778,26.059676444444445]]},"properties":{"style":"solid","thickness":1}},{"type":"Feature","geometry":{"type":"LineString","coordinates":[[-80.02611630555556,26.061430416666667],[-80.0289816111111,26.06125475]]},"properties":{"style":"solid","thickness":1}},{"type":"Feature","geometry":{"type":"LineString","coordinates":[[-80.02934377777778,26.059994500000002],[-80.02782569444445,26.065328611111113],[-80.02556891666667,26.060225944444444]]},"properties":{"style":"solid","thickness":1}},{"type":"Feature","geometry":{"type":"LineString","coordinates":[[-80.02390480555556,26.06301036111111],[-80.02153975,26.063155277777778]]},"properties":{"style":"solid","thickness":1}},{"type":"Feature","geometry":{"type":"LineString","coordinates":[[-80.02077588888889,26.065760666666666],[-80.0240961388889,26.06555725],[-80.02370419444445,26.060340222222223]]},"properties":{"style":"solid","thickness":1}},{"type":"Feature","geometry":{"type":"LineString","coordinates":[[-80.01891111111111,26.06587491666667],[-80.01787191666666,26.064205305555557],[-80.01773930555555,26.062438916666668],[-80.01851938888889,26.06065788888889]]},"properties":{"style":"solid","thickness":1}},{"type":"Feature","geometry":{"type":"LineString","coordinates":[[-80.0363565,26.054566722222223],[-80.03729386111111,26.054880583333333],[-80.03833986111111,26.054816388888888],[-80.03926708333333,26.054388055555556],[-80.03962691666666,26.053705666666666],[-80.0396083888889,26.053459194444446],[-80.03910722222221,26.052870916666667],[-80.03637683333334,26.051800472222222],[-80.03587880555556,26.051253305555555],[-80.03588719444444,26.050757555555556],[-80.03624705555555,26.050075166666666],[-80.03699233333333,26.04965802777778],[-80.03808377777777,26.04959102777778],[-80.0385963611111,26.049724611111113],[-80.039358,26.050131805555555]]},"properties":{"style":"solid","thickness":1}},{"type":"Feature","geometry":{"type":"LineString","coordinates":[[-80.03385447222222,26.049850583333335],[-80.03424683333333,26.055067583333333],[-80.03026183333333,26.050071],[-80.03065402777777,26.055288]]},"properties":{"style":"solid","thickness":1}},{"type":"Feature","geometry":{"type":"LineString","coordinates":[[-80.02517008333334,26.05162125],[-80.02803513888888,26.051445611111113]]},"properties":{"style":"solid","thickness":1}},{"type":"Feature","geometry":{"type":"LineString","coordinates":[[-80.02839730555556,26.050185333333335],[-80.02687930555555,26.055519472222223],[-80.02462275,26.05041677777778]]},"properties":{"style":"solid","thickness":1}},{"type":"Feature","geometry":{"type":"LineString","coordinates":[[-80.02275819444445,26.050531055555556],[-80.02315005555556,26.055748055555558],[-80.02083061111111,26.055890194444444],[-80.02013302777777,26.055726583333335],[-80.01948011111111,26.054941222222222],[-80.01944308333333,26.05444827777778],[-80.01992713888889,26.05359327777778],[-80.02063936111111,26.053343305555558],[-80.02295875,26.053201166666668]]},"properties":{"style":"solid","thickness":1}},{"type":"Feature","geometry":{"type":"LineString","coordinates":[[-80.01749830555555,26.053494444444446],[-80.01513344444444,26.05363925]]},"properties":{"style":"solid","thickness":1}},{"type":"Feature","geometry":{"type":"LineString","coordinates":[[-80.01437258333333,26.056285722222224],[-80.01769258333333,26.05608241666667],[-80.01730094444444,26.05086538888889],[-80.01375372222222,26.051082583333333]]},"properties":{"style":"solid","thickness":1}},{"type":"Feature","geometry":{"type":"LineString","coordinates":[[-79.89427408333334,26.092531833333332],[-79.89505622222222,26.0907515],[-79.89492541666667,26.08898497222222],[-79.89388777777778,26.087314499999998]]},"properties":{"style":"solid","thickness":1}},{"type":"Feature","geometry":{"type":"LineString","coordinates":[[-79.89197702777778,26.08742983333333],[-79.89236322222223,26.092647194444442]]},"properties":{"style":"solid","thickness":1}},{"type":"Feature","geometry":{"type":"LineString","coordinates":[[-79.8902638888889,26.090215444444443],[-79.8878981388889,26.090358194444445]]},"properties":{"style":"solid","thickness":1}},{"type":"Feature","geometry":{"type":"LineString","coordinates":[[-79.88713116666668,26.092962888888888],[-79.89045238888889,26.0927625],[-79.89006627777779,26.08754513888889]]},"properties":{"style":"solid","thickness":1}},{"type":"Feature","geometry":{"type":"LineString","coordinates":[[-79.88526580555556,26.093075388888888],[-79.88422827777778,26.091404833333332],[-79.88409763888889,26.089638333333333],[-79.88487991666668,26.087858027777777]]},"properties":{"style":"solid","thickness":1}},{"type":"Feature","geometry":{"type":"LineString","coordinates":[[-79.90065580555556,26.08207125],[-79.89829022222223,26.082214166666667]]},"properties":{"style":"solid","thickness":1}},{"type":"Feature","geometry":{"type":"LineString","coordinates":[[-79.89752352777778,26.084818916666666],[-79.90084452777778,26.084618305555555],[-79.90045797222223,26.07940097222222]]},"properties":{"style":"solid","thickness":1}},{"type":"Feature","geometry":{"type":"LineString","coordinates":[[-79.89565830555556,26.084931555555553],[-79.89535108333334,26.08078233333333],[-79.89511436111111,26.08005386111111],[-79.89427119444446,26.07977463888889],[-79.8927245,26.079868027777778],[-79.89192997222223,26.080246111111112],[-79.89171175000001,26.081002055555555],[-79.89201886111111,26.085151277777776]]},"properties":{"style":"solid","thickness":1}},{"type":"Feature","geometry":{"type":"LineString","coordinates":[[-79.89010813888889,26.085266583333333],[-79.88674163888889,26.085469694444445],[-79.88972205555557,26.08004922222222],[-79.88612825000001,26.080266055555555]]},"properties":{"style":"solid","thickness":1}},{"type":"Feature","geometry":{"type":"LineString","coordinates":[[-79.88264388888888,26.083199666666665],[-79.88244341666666,26.08048827777778]]},"properties":{"style":"solid","thickness":1}},{"type":"Feature","geometry":{"type":"LineString","coordinates":[[-79.88464891666668,26.085595916666666],[-79.88264388888888,26.083199666666665],[-79.88100944444444,26.08581536111111]]},"properties":{"style":"solid","thickness":1}},{"type":"Feature","geometry":{"type":"LineString","coordinates":[[-79.87709375,26.08353422222222],[-79.87689341666666,26.080822805555556]]},"properties":{"style":"solid","thickness":1}},{"type":"Feature","geometry":{"type":"LineString","coordinates":[[-79.87909869444444,26.085930555555553],[-79.87709375,26.08353422222222],[-79.87545916666666,26.086149833333334]]},"properties":{"style":"solid","thickness":1}},{"type":"Feature","geometry":{"type":"LineString","coordinates":[[-79.88797505555556,26.172752055555556],[-79.88875783333334,26.17097177777778],[-79.88862702777779,26.169205277777777],[-79.88758877777778,26.167534777777778]]},"properties":{"style":"solid","thickness":1}},{"type":"Feature","geometry":{"type":"LineString","coordinates":[[-79.88567672222223,26.16765002777778],[-79.88606291666667,26.172867333333336]]},"properties":{"style":"solid","thickness":1}},{"type":"Feature","geometry":{"type":"LineString","coordinates":[[-79.88396227777778,26.17043552777778],[-79.88159488888888,26.17057816666667]]},"properties":{"style":"solid","thickness":1}},{"type":"Feature","geometry":{"type":"LineString","coordinates":[[-79.88082727777777,26.173182805555555],[-79.88415077777779,26.172982555555556],[-79.88376466666668,26.16776527777778]]},"properties":{"style":"solid","thickness":1}},{"type":"Feature","geometry":{"type":"LineString","coordinates":[[-79.87896063888888,26.173295222222222],[-79.87792247222221,26.17162463888889],[-79.87779183333333,26.16985813888889],[-79.87857475,26.168077916666668]]},"properties":{"style":"solid","thickness":1}},{"type":"Feature","geometry":{"type":"LineString","coordinates":[[-79.89290333333334,26.164904527777775],[-79.89251688888889,26.159687249999998]]},"properties":{"style":"solid","thickness":1}},{"type":"Feature","geometry":{"type":"LineString","coordinates":[[-79.88923927777779,26.159884944444443],[-79.88962561111111,26.16510222222222]]},"properties":{"style":"solid","thickness":1}},{"type":"Feature","geometry":{"type":"LineString","coordinates":[[-79.88943397222224,26.16251411111111],[-79.8927116388889,26.162316444444443]]},"properties":{"style":"solid","thickness":1}},{"type":"Feature","geometry":{"type":"LineString","coordinates":[[-79.88771358333334,26.165217499999997],[-79.88740641666668,26.161068305555553],[-79.88716958333335,26.16033983333333],[-79.88632586111112,26.160060583333333],[-79.88477811111112,26.16015388888889],[-79.88398302777779,26.160531916666667],[-79.88376461111112,26.161287833333333],[-79.8840716388889,26.165437027777777]]},"properties":{"style":"solid","thickness":1}},{"type":"Feature","geometry":{"type":"LineString","coordinates":[[-79.8821596111111,26.16555222222222],[-79.87813180555555,26.160554277777777]]},"properties":{"style":"solid","thickness":1}},{"type":"Feature","geometry":{"type":"LineString","coordinates":[[-79.8817736111111,26.160334916666667],[-79.87851763888888,26.16577161111111]]},"properties":{"style":"solid","thickness":1}},{"type":"Feature","geometry":{"type":"LineString","coordinates":[[-79.87621986111111,26.160669416666664],[-79.8766056111111,26.16588675]]},"properties":{"style":"solid","thickness":1}},{"type":"Feature","geometry":{"type":"LineString","coordinates":[[-79.87430791666667,26.160784527777775],[-79.87469358333333,26.16600186111111],[-79.87212280555555,26.160916055555553],[-79.87041422222221,26.166259388888886],[-79.87002874999999,26.161042055555555]]},"properties":{"style":"solid","thickness":1}},{"type":"Feature","geometry":{"type":"LineString","coordinates":[[-79.89902336111112,26.15199708333333],[-79.90230072222222,26.151799194444443],[-79.90231594444445,26.15200461111111],[-79.90000441666668,26.15536283333333],[-79.89968577777779,26.155382083333333],[-79.89929905555556,26.150164805555555]]},"properties":{"style":"solid","thickness":1}},{"type":"Feature","geometry":{"type":"LineString","coordinates":[[-79.89572550000001,26.15562111111111],[-79.89527030555556,26.15564858333333],[-79.8944751388889,26.155407722222222],[-79.89368291666668,26.15458897222222],[-79.89342475000001,26.153572916666665],[-79.89335477777779,26.152628055555553],[-79.89346077777779,26.151590055555555],[-79.89417069444445,26.150680666666666],[-79.89488377777778,26.150431305555554],[-79.89533894444445,26.150403833333332],[-79.89603694444445,26.150568027777776],[-79.89687469444445,26.151384027777777],[-79.89713286111112,26.152400055555553],[-79.8972028888889,26.153344916666665],[-79.89709997222224,26.154424027777775],[-79.89639005555556,26.155333416666664],[-79.89572550000001,26.15562111111111]]},"properties":{"style":"solid","thickness":1}},{"type":"Feature","geometry":{"type":"LineString","coordinates":[[-79.89008097222222,26.155961638888886],[-79.88962575000001,26.15598908333333],[-79.88883061111112,26.155748194444442],[-79.88803841666667,26.154929416666665],[-79.88778030555557,26.15391336111111],[-79.88771036111112,26.1529685],[-79.88781641666667,26.151930472222222],[-79.88852636111112,26.15102111111111],[-79.88923947222223,26.150771805555554],[-79.8896946388889,26.150744333333332],[-79.8903926388889,26.150908583333333],[-79.89123033333334,26.15172461111111],[-79.89148847222224,26.152740638888886],[-79.89155844444446,26.153685499999998],[-79.89145547222223,26.15476461111111],[-79.89074552777778,26.15567397222222],[-79.89008097222222,26.155961638888886]]},"properties":{"style":"solid","thickness":1}},{"type":"Feature","geometry":{"type":"LineString","coordinates":[[-79.8844363888889,26.156301944444444],[-79.88398116666667,26.15632938888889],[-79.88318605555556,26.156088444444443],[-79.88239388888888,26.15526963888889],[-79.88213583333332,26.154253583333333],[-79.88206591666666,26.153308694444444],[-79.88217202777777,26.152270694444443],[-79.88288202777777,26.15136136111111],[-79.8835951388889,26.151112055555554],[-79.88405033333333,26.151084638888886],[-79.88474830555556,26.151248888888887],[-79.88558597222223,26.152064944444444],[-79.88584405555557,26.153081],[-79.885914,26.15402586111111],[-79.88581097222223,26.155104944444442],[-79.88510094444445,26.156014305555555],[-79.8844363888889,26.156301944444444]]},"properties":{"style":"solid","thickness":1}},{"type":"Feature","geometry":{"type":"LineString","coordinates":[[-80.09349844444444,26.18449797222222],[-80.09427819444444,26.182716583333335],[-80.09414430555555,26.18095027777778],[-80.09310302777777,26.179281250000003]]},"properties":{"style":"solid","thickness":1}},{"type":"Feature","geometry":{"type":"LineString","coordinates":[[-80.091191,26.179399222222223],[-80.09158633333332,26.184615944444445]]},"properties":{"style":"solid","thickness":1}},{"type":"Feature","geometry":{"type":"LineString","coordinates":[[-80.08948122222222,26.18218716666667],[-80.08711388888888,26.182333166666666]]},"properties":{"style":"solid","thickness":1}},{"type":"Feature","geometry":{"type":"LineString","coordinates":[[-80.08635072222222,26.18493886111111],[-80.08967419444444,26.184733916666666],[-80.08927894444444,26.179517194444447]]},"properties":{"style":"solid","thickness":1}},{"type":"Feature","geometry":{"type":"LineString","coordinates":[[-80.08448411111111,26.185053944444444],[-80.08344294444444,26.183384833333335],[-80.08330919444444,26.181618555555556],[-80.08408908333332,26.179837194444445]]},"properties":{"style":"solid","thickness":1}},{"type":"Feature","geometry":{"type":"LineString","coordinates":[[-80.09749583333333,26.176971666666667],[-80.09718124999999,26.172822944444444],[-80.09740144444444,26.17210777777778],[-80.09823830555555,26.171684694444444],[-80.09873905555555,26.171653777777777],[-80.09976858333333,26.17196161111111],[-80.10004602777778,26.172604777777778],[-80.10009588888889,26.173262]]},"properties":{"style":"solid","thickness":1}},{"type":"Feature","geometry":{"type":"LineString","coordinates":[[-80.09543316666667,26.174499083333334],[-80.09306597222222,26.174645166666668]]},"properties":{"style":"solid","thickness":1}},{"type":"Feature","geometry":{"type":"LineString","coordinates":[[-80.0923061111111,26.177291972222225],[-80.09562936111111,26.17708688888889],[-80.09523388888888,26.171870166666668],[-80.09168316666666,26.172089305555556]]},"properties":{"style":"solid","thickness":1}},{"type":"Feature","geometry":{"type":"LineString","coordinates":[[-80.09004436111111,26.172190416666666],[-80.09043963888888,26.17740713888889],[-80.08644811111111,26.172412222222224],[-80.08684322222221,26.177628944444447]]},"properties":{"style":"solid","thickness":1}},{"type":"Feature","geometry":{"type":"LineString","coordinates":[[-80.08458169444444,26.17252730555556],[-80.08497672222222,26.17774402777778],[-80.08265497222222,26.177887166666668],[-80.08195655555555,26.17772386111111],[-80.08130255555555,26.176938805555558],[-80.08126525,26.17644588888889],[-80.08174933333333,26.17559066666667],[-80.08246216666666,26.17534038888889],[-80.0847838611111,26.17519727777778]]},"properties":{"style":"solid","thickness":1}},{"type":"Feature","geometry":{"type":"LineString","coordinates":[[-80.07787488888889,26.178181694444447],[-80.07741963888888,26.17820975],[-80.07662397222222,26.17796988888889],[-80.07583033333333,26.17715213888889],[-80.07557052777777,26.17613641666667],[-80.07549908333333,26.175191666666667],[-80.0756035,26.17415352777778],[-80.07631213888888,26.173243222222222],[-80.07702494444445,26.17299297222222],[-80.07748016666666,26.172964944444445],[-80.07817855555555,26.17312825],[-80.07901772222222,26.173943194444444],[-80.07927752777778,26.17495888888889],[-80.07934902777778,26.175903666666667],[-80.07924775,26.17698288888889],[-80.07853911111111,26.177893166666667],[-80.07787488888889,26.178181694444447]]},"properties":{"style":"solid","thickness":1}},{"type":"Feature","geometry":{"type":"LineString","coordinates":[[-80.10656888888889,26.16692713888889],[-80.10939111111111,26.166752666666667],[-80.10943158333333,26.164274027777775],[-80.10837344444444,26.16479338888889],[-80.10759961111111,26.164841222222222],[-80.10685261111111,26.164639805555556],[-80.10636311111111,26.164216083333333],[-80.10608875,26.163614],[-80.10603888888889,26.162956777777776],[-80.10621658333332,26.1622855],[-80.10664058333333,26.16184661111111],[-80.10762952777777,26.16162038888889],[-80.10831227777777,26.16157819444444],[-80.10882544444443,26.161711527777776],[-80.10926941666666,26.162138055555555]]},"properties":{"style":"solid","thickness":1}},{"type":"Feature","geometry":{"type":"LineString","coordinates":[[-80.10279075,26.167160583333335],[-80.10233555555556,26.167188722222225],[-80.10153988888888,26.166948972222222],[-80.10074613888888,26.16613136111111],[-80.10048616666666,26.16511569444444],[-80.10041452777777,26.164170944444443],[-80.10051869444443,26.163132777777776],[-80.10122708333333,26.16222236111111],[-80.10193977777777,26.161972],[-80.10239497222221,26.16194388888889],[-80.10309333333333,26.162107083333332],[-80.10393258333333,26.16292186111111],[-80.10419258333333,26.163937527777776],[-80.10426425,26.164882305555555],[-80.10416322222221,26.165961527777775],[-80.10345483333333,26.166871944444445],[-80.10279075,26.167160583333335]]},"properties":{"style":"solid","thickness":1}},{"type":"Feature","geometry":{"type":"LineString","coordinates":[[-80.09714625,26.167509194444445],[-80.09669105555555,26.167537305555555],[-80.09589541666666,26.16729752777778],[-80.09510169444444,26.166479888888887],[-80.09484177777777,26.16546422222222],[-80.09477016666666,26.164519444444444],[-80.09487441666666,26.163481305555553],[-80.09558283333332,26.162570916666667],[-80.09629555555556,26.162320583333333],[-80.09675072222221,26.16229247222222],[-80.09744908333333,26.162455694444443],[-80.09828830555556,26.163270527777776],[-80.09854825,26.164286194444443],[-80.09861988888889,26.165230944444442],[-80.09851880555556,26.166310194444442],[-80.0978103611111,26.167220583333336],[-80.09714625,26.167509194444445]]},"properties":{"style":"solid","thickness":1}},{"type":"Feature","geometry":{"type":"LineString","coordinates":[[-80.09150174999999,26.167857583333333],[-80.09104652777778,26.167885666666667],[-80.09025091666666,26.16764588888889],[-80.08945722222222,26.166828194444445],[-80.0891973611111,26.165812527777778],[-80.08912577777777,26.16486775],[-80.08923008333333,26.163829611111108],[-80.08993855555555,26.162919249999998],[-80.09065127777777,26.162668944444444],[-80.09110647222222,26.16264086111111],[-80.09180480555555,26.16280411111111],[-80.09264399999999,26.16361897222222],[-80.09290388888888,26.164634638888888],[-80.09297547222222,26.165579416666667],[-80.09287433333333,26.166658638888887],[-80.09216586111111,26.167569],[-80.09150174999999,26.167857583333333]]},"properties":{"style":"solid","thickness":1}},{"type":"Feature","geometry":{"type":"LineString","coordinates":[[-80.29409313888888,25.79866691666667],[-80.29409313888888,25.79688861111111]]},"properties":{"style":"solid","thickness":1}},{"type":"Feature","geometry":{"type":"LineString","coordinates":[[-80.29358661111111,25.798878277777778],[-80.29358658333334,25.79667727777778]]},"properties":{"style":"solid","thickness":1}},{"type":"Feature","geometry":{"type":"LineString","coordinates":[[-80.29308005555555,25.798878277777778],[-80.29308005555555,25.79667727777778]]},"properties":{"style":"solid","thickness":1}},{"type":"Feature","geometry":{"type":"LineString","coordinates":[[-80.29257352777778,25.79866691666667],[-80.29257352777778,25.79688861111111]]},"properties":{"style":"solid","thickness":1}},{"type":"Feature","geometry":{"type":"LineString","coordinates":[[-80.29201633333334,25.797777777777778],[-80.29203749999999,25.79799063888889],[-80.29210030555555,25.798196694444446],[-80.29220275,25.798389250000003],[-80.29234152777778,25.798562194444447],[-80.29251219444444,25.79870988888889],[-80.29270925,25.79882763888889],[-80.29292636111111,25.79891163888889],[-80.29315655555556,25.798959194444446],[-80.29339241666666,25.798968805555557],[-80.29362638888888,25.79894011111111],[-80.29385094444444,25.798874055555558],[-80.29405886111111,25.798772777777778],[-80.29424347222222,25.7986395],[-80.29439880555556,25.79847855555556],[-80.29451991666666,25.798295055555556],[-80.29460286111112,25.798094944444447],[-80.29464502777778,25.797884638888892],[-80.29464502777778,25.79767088888889],[-80.29460286111112,25.797460583333336],[-80.29451988888889,25.7972605],[-80.29439880555556,25.797077],[-80.29424344444445,25.796916055555556],[-80.29405886111111,25.79678277777778],[-80.29385094444444,25.796681500000002],[-80.29362638888888,25.796615444444445],[-80.29339241666666,25.796586750000003],[-80.29315655555556,25.796596333333333],[-80.29292636111111,25.796643916666667],[-80.29270925,25.79672791666667],[-80.29251219444444,25.79684566666667],[-80.29234152777778,25.796993361111113],[-80.29220275,25.79716627777778],[-80.29210030555555,25.797358861111114],[-80.29203749999999,25.79756488888889],[-80.29201633333334,25.797777777777778]]},"properties":{"style":"solid","thickness":1}},{"type":"Feature","geometry":{"type":"LineString","coordinates":[[-80.17213836111111,26.071395972222223],[-80.17193247222222,26.06962686111111]]},"properties":{"style":"solid","thickness":1}},{"type":"Feature","geometry":{"type":"LineString","coordinates":[[-80.17165775000001,26.071654166666665],[-80.17140291666666,26.069464555555555]]},"properties":{"style":"solid","thickness":1}},{"type":"Feature","geometry":{"type":"LineString","coordinates":[[-80.1711526388889,26.07170211111111],[-80.17089780555555,26.0695125]]},"properties":{"style":"solid","thickness":1}},{"type":"Feature","geometry":{"type":"LineString","coordinates":[[-80.17062305555557,26.071539805555556],[-80.17041719444445,26.069770694444443]]},"properties":{"style":"solid","thickness":1}},{"type":"Feature","geometry":{"type":"LineString","coordinates":[[-80.16996452777778,26.070707972222223],[-80.17001027777778,26.07091775],[-80.17009675,26.071116777777778],[-80.17022119444445,26.071298666666667],[-80.17037961111112,26.071457555555554],[-80.1705668888889,26.071588333333334],[-80.170777,26.071686833333334],[-80.17100322222223,26.071749861111112],[-80.17123827777779,26.071775388888888],[-80.17147458333334,26.07176258333333],[-80.17170458333334,26.071711916666665],[-80.17192083333333,26.071624944444444],[-80.17211644444446,26.0715045],[-80.17228508333334,26.071354444444445],[-80.17242136111112,26.07117961111111],[-80.17252086111111,26.070985611111112],[-80.17258041666668,26.070778694444446],[-80.17259811111111,26.07056547222222],[-80.17257336111112,26.07035286111111],[-80.17250697222222,26.070147638888887],[-80.17240108333334,26.069956416666667],[-80.17225908333334,26.069785333333332],[-80.17208552777778,26.069639916666667],[-80.17188602777779,26.069524805555556],[-80.171667,26.06944372222222],[-80.17143541666667,26.069399277777777],[-80.17119880555556,26.06939288888889],[-80.17096472222222,26.06942475],[-80.17074069444445,26.06949386111111],[-80.17053391666667,26.069597972222223],[-80.17035105555556,26.06973375],[-80.170198,26.06989686111111],[-80.17007961111112,26.070082027777776],[-80.16999977777779,26.070283277777776],[-80.16996097222223,26.070494194444443],[-80.16996452777778,26.070707972222223]]},"properties":{"style":"solid","thickness":1}},{"type":"Feature","geometry":{"type":"LineString","coordinates":[[-79.92034258333334,26.149969249999998],[-79.92044747222222,26.15045472222222],[-79.92064669444444,26.1509155],[-79.92093391666667,26.15133675],[-79.92129983333334,26.151704944444443],[-79.92173275,26.152008249999998],[-79.92221869444445,26.152236944444443],[-79.92274208333333,26.15238363888889],[-79.92328608333334,26.15244361111111],[-79.92383322222223,26.15241497222222],[-79.9243658888889,26.15229861111111],[-79.92486697222223,26.152098305555555],[-79.92532036111112,26.151820444444443],[-79.9257115,26.151474],[-79.92602780555556,26.151070055555554],[-79.92625911111112,26.150621666666666],[-79.92639797222223,26.150143194444443],[-79.92643994444445,26.149650027777778],[-79.92638369444445,26.149158055555557],[-79.926231,26.14868302777778],[-79.92598677777778,26.14824022222222],[-79.92565888888889,26.147843916666666],[-79.92525786111112,26.147506805555555],[-79.92479658333333,26.14723975],[-79.9242898888889,26.147051333333334],[-79.92375405555556,26.146947583333333],[-79.92320630555557,26.146931833333333],[-79.92266425000001,26.147004638888887],[-79.92214530555556,26.14716361111111],[-79.92166616666667,26.14740363888889],[-79.92124219444445,26.147717055555557],[-79.92088702777778,26.14809375],[-79.92061211111111,26.14852161111111],[-79.92042625,26.148986916666665],[-79.92033544444445,26.149474694444443],[-79.92034258333334,26.149969249999998]]},"properties":{"style":"solid","thickness":1}},{"type":"Feature","geometry":{"type":"LineString","coordinates":[[-79.92411030555556,26.156044305555554],[-79.9237868888889,26.154839777777777],[-79.92322244444445,26.153709944444444],[-79.92243636111111,26.152693694444444],[-79.92145577777778,26.151826055555553],[-79.92031444444444,26.15113686111111],[-79.91905163888889,26.15064986111111],[-79.91771088888889,26.15038183333333],[-79.91633836111112,26.150342027777775]]},"properties":{"style":"solid","thickness":1}},{"type":"Feature","geometry":{"type":"LineString","coordinates":[[-79.92265641666667,26.143327916666667],[-79.92261236111112,26.14456663888889],[-79.92231544444445,26.145776694444443],[-79.92177591666668,26.14691638888889],[-79.92101227777778,26.147946472222223],[-79.92005091666667,26.148831444444443],[-79.9189248888889,26.149540833333333],[-79.91767300000001,26.15005022222222],[-79.91633836111112,26.150342027777775]]},"properties":{"style":"solid","thickness":1}},{"type":"Feature","geometry":{"type":"LineString","coordinates":[[-79.93042822222223,26.14902986111111],[-79.92905569444444,26.148990166666668],[-79.92771494444445,26.148722222222222],[-79.92645216666668,26.148235305555556],[-79.92531080555555,26.147546138888888],[-79.92433025000001,26.1466785],[-79.92354422222223,26.145662277777777],[-79.92297980555556,26.144532416666667],[-79.92265641666667,26.143327916666667]]},"properties":{"style":"solid","thickness":1}},{"type":"Feature","geometry":{"type":"LineString","coordinates":[[-79.93042822222223,26.14902986111111],[-79.92909363888889,26.14932177777778],[-79.92784177777779,26.14983125],[-79.92671580555556,26.150540694444445],[-79.92575444444445,26.15142572222222],[-79.92499083333334,26.152455805555554],[-79.92445127777778,26.153595499999998],[-79.92415436111112,26.154805555555555],[-79.92411030555556,26.156044305555554]]},"properties":{"style":"solid","thickness":1}},{"type":"Feature","geometry":{"type":"LineString","coordinates":[[-79.92439141666667,26.146742916666668],[-79.92414669444445,26.14701461111111]]},"properties":{"style":"solid","thickness":1}},{"type":"Feature","geometry":{"type":"LineString","coordinates":[[-79.92398558333333,26.1462815],[-79.92340394444444,26.146927277777777]]},"properties":{"style":"solid","thickness":1}},{"type":"Feature","geometry":{"type":"LineString","coordinates":[[-79.92361830555556,26.145777305555555],[-79.92246872222222,26.14705358333333]]},"properties":{"style":"solid","thickness":1}},{"type":"Feature","geometry":{"type":"LineString","coordinates":[[-79.923293,26.145226472222223],[-79.92178588888889,26.146899694444443]]},"properties":{"style":"solid","thickness":1}},{"type":"Feature","geometry":{"type":"LineString","coordinates":[[-79.92301508333334,26.144623055555556],[-79.9224873888889,26.145208888888888]]},"properties":{"style":"solid","thickness":1}},{"type":"Feature","geometry":{"type":"LineString","coordinates":[[-79.92636980555557,26.148194416666666],[-79.92612508333333,26.148466111111112]]},"properties":{"style":"solid","thickness":1}},{"type":"Feature","geometry":{"type":"LineString","coordinates":[[-79.92695316666668,26.148458722222223],[-79.92637152777779,26.149104527777776]]},"properties":{"style":"solid","thickness":1}},{"type":"Feature","geometry":{"type":"LineString","coordinates":[[-79.92757505555556,26.14868027777778],[-79.92642550000001,26.14995661111111]]},"properties":{"style":"solid","thickness":1}},{"type":"Feature","geometry":{"type":"LineString","coordinates":[[-79.92823894444444,26.148855194444444],[-79.92673186111112,26.15052847222222]]},"properties":{"style":"solid","thickness":1}},{"type":"Feature","geometry":{"type":"LineString","coordinates":[[-79.92895022222223,26.1489775],[-79.92842252777778,26.14956338888889]]},"properties":{"style":"solid","thickness":1}},{"type":"Feature","geometry":{"type":"LineString","coordinates":[[-79.92427933333333,26.154163305555553],[-79.92375161111111,26.154749166666665]]},"properties":{"style":"solid","thickness":1}},{"type":"Feature","geometry":{"type":"LineString","coordinates":[[-79.92498083333334,26.1524725],[-79.92347366666667,26.154145749999998]]},"properties":{"style":"solid","thickness":1}},{"type":"Feature","geometry":{"type":"LineString","coordinates":[[-79.92429800000001,26.15231861111111],[-79.92314836111112,26.153594916666666]]},"properties":{"style":"solid","thickness":1}},{"type":"Feature","geometry":{"type":"LineString","coordinates":[[-79.92336272222222,26.152444944444444],[-79.92278102777779,26.15309072222222]]},"properties":{"style":"solid","thickness":1}},{"type":"Feature","geometry":{"type":"LineString","coordinates":[[-79.92261991666668,26.15235761111111],[-79.92237519444446,26.152629305555553]]},"properties":{"style":"solid","thickness":1}},{"type":"Feature","geometry":{"type":"LineString","coordinates":[[-79.92064152777779,26.150906055555556],[-79.92039677777778,26.15117775]]},"properties":{"style":"solid","thickness":1}},{"type":"Feature","geometry":{"type":"LineString","coordinates":[[-79.92039511111112,26.150267638888888],[-79.91981341666667,26.150913416666665]]},"properties":{"style":"solid","thickness":1}},{"type":"Feature","geometry":{"type":"LineString","coordinates":[[-79.92034119444445,26.149415555555557],[-79.91919155555556,26.150691833333333]]},"properties":{"style":"solid","thickness":1}},{"type":"Feature","geometry":{"type":"LineString","coordinates":[[-79.92003483333333,26.148843694444444],[-79.91852763888889,26.150516888888887]]},"properties":{"style":"solid","thickness":1}},{"type":"Feature","geometry":{"type":"LineString","coordinates":[[-79.91834411111111,26.149808666666665],[-79.9178163888889,26.150394499999997]]},"properties":{"style":"solid","thickness":1}},{"type":"Feature","geometry":{"type":"LineString","coordinates":[[-80.14151161111111,26.072441944444446],[-80.13797577777778,26.07277677777778]]},"properties":{"style":"solid","thickness":1}},{"type":"Feature","geometry":{"type":"LineString","coordinates":[[-80.15055316666667,26.079056777777776],[-80.15092427777779,26.08225002777778]]},"properties":{"style":"solid","thickness":1}},{"type":"Feature","geometry":{"type":"LineString","coordinates":[[-80.14883580555556,26.06427652777778],[-80.14846483333334,26.06108327777778]]},"properties":{"style":"solid","thickness":1}},{"type":"Feature","geometry":{"type":"LineString","coordinates":[[-80.15787719444445,26.070890944444443],[-80.16141288888889,26.07055561111111]]},"properties":{"style":"solid","thickness":1}},{"type":"Feature","geometry":{"type":"LineString","coordinates":[[-80.14151161111111,26.072441944444446],[-80.14179633333335,26.073749055555556],[-80.14233494444446,26.07498922222222],[-80.14311011111111,26.07612263888889],[-80.14409691666667,26.077112805555554],[-80.14526366666668,26.077927944444443],[-80.14657283333334,26.078541805555556],[-80.14798236111112,26.078934722222222],[-80.14944694444445,26.079094],[-80.15091944444445,26.079014527777776],[-80.15235258333334,26.078698916666667],[-80.15370027777779,26.07815722222222],[-80.15491919444445,26.077406944444444],[-80.15597016666668,26.07647213888889],[-80.15681938888889,26.07538288888889],[-80.15743961111112,26.074174222222222],[-80.15781086111112,26.072884944444443],[-80.15792125,26.0715565],[-80.15776722222223,26.07023161111111],[-80.15735372222223,26.06895286111111],[-80.15669408333333,26.067761333333333],[-80.15580947222223,26.06669533333333],[-80.15472836111111,26.065789111111112],[-80.15348547222223,26.065071805555558],[-80.15212075000001,26.064566444444445],[-80.15067808333333,26.06428925],[-80.14920377777779,26.064249194444447],[-80.14774525,26.0644475],[-80.14634936111112,26.064877833333334],[-80.14506097222223,26.06552636111111],[-80.14392147222223,26.06637225],[-80.14296750000001,26.067388277777777],[-80.14222972222223,26.068541805555554],[-80.14173183333334,26.069795805555554],[-80.14148986111111,26.071109916666668],[-80.14151161111111,26.072441944444446]]},"properties":{"style":"solid","thickness":1}},{"type":"Feature","geometry":{"type":"LineString","coordinates":[[-80.08388183333332,26.150636555555554],[-80.08398738888889,26.151121888888888],[-80.08418727777777,26.151582444444443],[-80.08447505555556,26.152003388888886],[-80.0848415,26.152371166666665],[-80.08527480555556,26.152673999999998],[-80.08576108333332,26.152902138888887],[-80.08628466666666,26.153048249999998],[-80.08682875,26.15310761111111],[-80.08737586111111,26.15307836111111],[-80.0879083611111,26.152961416666667],[-80.08840916666666,26.152760527777776],[-80.08886219444445,26.152482166666665],[-80.0892528611111,26.152135277777777],[-80.0895686111111,26.151730999999998],[-80.08979930555554,26.15128233333333],[-80.08993752777778,26.15080372222222],[-80.08997880555555,26.1503105],[-80.08992188888888,26.14981858333333],[-80.08976852777778,26.149343722222223],[-80.08952369444444,26.14890122222222],[-80.08919524999999,26.14850525],[-80.08879375,26.14816861111111],[-80.0883321111111,26.147902055555555],[-80.08782516666666,26.147714194444443],[-80.08728919444444,26.147611055555554],[-80.08674141666665,26.147595916666667],[-80.08619947222222,26.147669305555556],[-80.08568072222222,26.147828861111112],[-80.08520188888889,26.148069444444445],[-80.0847783611111,26.14838333333333],[-80.08442372222221,26.148760416666665],[-80.08414938888889,26.14918861111111],[-80.08396416666666,26.14965411111111],[-80.08387402777777,26.150141972222222],[-80.08388183333332,26.150636555555554]]},"properties":{"style":"solid","thickness":1}},{"type":"Feature","geometry":{"type":"LineString","coordinates":[[-80.08765794444444,26.15670736111111],[-80.08733286111111,26.155503222222222],[-80.0867668611111,26.154374027777777],[-80.08597938888889,26.153358666666666],[-80.08499758333333,26.152492083333332],[-80.08385530555555,26.151804166666665],[-80.08259183333332,26.15131858333333],[-80.08125069444444,26.151052083333333],[-80.07987811111111,26.151013777777777]]},"properties":{"style":"solid","thickness":1}},{"type":"Feature","geometry":{"type":"LineString","coordinates":[[-80.08618658333333,26.14399261111111],[-80.08614422222222,26.145231388888888],[-80.08584897222222,26.146441777777778],[-80.08531097222222,26.147582083333333],[-80.08454877777777,26.148613],[-80.08358861111111,26.149499055555555],[-80.08246355555555,26.150209722222222],[-80.08121236111111,26.1507205],[-80.07987811111111,26.151013777777777]]},"properties":{"style":"solid","thickness":1}},{"type":"Feature","geometry":{"type":"LineString","coordinates":[[-80.09396625,26.14968586111111],[-80.09259366666666,26.149647694444443],[-80.09125255555556,26.149381277777778],[-80.08998908333332,26.14889575],[-80.08884677777777,26.148207888888887],[-80.087865,26.147341333333333],[-80.08707758333333,26.146325972222222],[-80.0865116111111,26.145196777777777],[-80.08618658333333,26.14399261111111]]},"properties":{"style":"solid","thickness":1}},{"type":"Feature","geometry":{"type":"LineString","coordinates":[[-80.09396625,26.14968586111111],[-80.09263205555555,26.149979277777778],[-80.09138091666667,26.150490166666664],[-80.09025588888889,26.15120086111111],[-80.08929574999999,26.15208694444444],[-80.08853352777777,26.153117916666666],[-80.08799555555555,26.15425822222222],[-80.08770027777777,26.15546858333333],[-80.08765794444444,26.15670736111111]]},"properties":{"style":"solid","thickness":1}},{"type":"Feature","geometry":{"type":"LineString","coordinates":[[-80.08792627777777,26.147405666666668],[-80.08768191666667,26.14767763888889]]},"properties":{"style":"solid","thickness":1}},{"type":"Feature","geometry":{"type":"LineString","coordinates":[[-80.08751980555554,26.146944694444443],[-80.08693905555555,26.147591138888888]]},"properties":{"style":"solid","thickness":1}},{"type":"Feature","geometry":{"type":"LineString","coordinates":[[-80.08715180555555,26.146440916666666],[-80.08600399999999,26.1477185]]},"properties":{"style":"solid","thickness":1}},{"type":"Feature","geometry":{"type":"LineString","coordinates":[[-80.08682577777778,26.145890444444444],[-80.08532094444443,26.14756536111111]]},"properties":{"style":"solid","thickness":1}},{"type":"Feature","geometry":{"type":"LineString","coordinates":[[-80.086547,26.145287333333332],[-80.08602013888888,26.145873777777776]]},"properties":{"style":"solid","thickness":1}},{"type":"Feature","geometry":{"type":"LineString","coordinates":[[-80.08990666666666,26.148854944444444],[-80.08966230555555,26.149126944444443]]},"properties":{"style":"solid","thickness":1}},{"type":"Feature","geometry":{"type":"LineString","coordinates":[[-80.09049038888888,26.14911863888889],[-80.08990963888888,26.149765055555555]]},"properties":{"style":"solid","thickness":1}},{"type":"Feature","geometry":{"type":"LineString","coordinates":[[-80.09111258333333,26.149339472222223],[-80.08996477777778,26.150617083333334]]},"properties":{"style":"solid","thickness":1}},{"type":"Feature","geometry":{"type":"LineString","coordinates":[[-80.09177672222222,26.149513638888887],[-80.09027194444444,26.15118861111111]]},"properties":{"style":"solid","thickness":1}},{"type":"Feature","geometry":{"type":"LineString","coordinates":[[-80.09248816666666,26.149635166666666],[-80.09196127777777,26.150221638888887]]},"properties":{"style":"solid","thickness":1}},{"type":"Feature","geometry":{"type":"LineString","coordinates":[[-80.08782438888889,26.154826194444443],[-80.08729747222222,26.155412638888887]]},"properties":{"style":"solid","thickness":1}},{"type":"Feature","geometry":{"type":"LineString","coordinates":[[-80.08852355555555,26.15313461111111],[-80.08701866666667,26.154809555555556]]},"properties":{"style":"solid","thickness":1}},{"type":"Feature","geometry":{"type":"LineString","coordinates":[[-80.0878405,26.1529815],[-80.0866926111111,26.154259083333333]]},"properties":{"style":"solid","thickness":1}},{"type":"Feature","geometry":{"type":"LineString","coordinates":[[-80.08690538888888,26.15310886111111],[-80.08632458333332,26.153755277777776]]},"properties":{"style":"solid","thickness":1}},{"type":"Feature","geometry":{"type":"LineString","coordinates":[[-80.08616247222221,26.153022333333332],[-80.08591811111111,26.153294305555555]]},"properties":{"style":"solid","thickness":1}},{"type":"Feature","geometry":{"type":"LineString","coordinates":[[-80.08418208333333,26.151573],[-80.08393769444444,26.15184497222222]]},"properties":{"style":"solid","thickness":1}},{"type":"Feature","geometry":{"type":"LineString","coordinates":[[-80.08393477777777,26.15093486111111],[-80.08335397222221,26.151581277777776]]},"properties":{"style":"solid","thickness":1}},{"type":"Feature","geometry":{"type":"LineString","coordinates":[[-80.08387969444443,26.150082833333332],[-80.08273177777778,26.151360388888886]]},"properties":{"style":"solid","thickness":1}},{"type":"Feature","geometry":{"type":"LineString","coordinates":[[-80.08357255555555,26.149511305555556],[-80.08206763888889,26.151186194444442]]},"properties":{"style":"solid","thickness":1}},{"type":"Feature","geometry":{"type":"LineString","coordinates":[[-80.08188313888888,26.150478194444442],[-80.08135622222221,26.15106461111111]]},"properties":{"style":"solid","thickness":1}},{"type":"Feature","geometry":{"type":"LineString","coordinates":[[-79.74365619444444,26.038143361111114],[-79.74376025,26.038628972222224],[-79.74395861111111,26.039089972222225],[-79.74424491666667,26.039511583333336],[-79.74460994444445,26.039880222222223],[-79.74504197222223,26.040184083333337],[-79.74552713888889,26.040413333333333],[-79.74604980555556,26.040560666666668],[-79.74659319444444,26.040621305555558],[-79.74713986111111,26.040593333333334],[-79.74767216666666,26.04047761111111],[-79.74817308333333,26.04027788888889],[-79.74862647222223,26.040000583333335],[-79.74901772222222,26.039654583333334],[-79.74933433333334,26.039251055555557],[-79.74956608333333,26.038802944444445],[-79.74970552777778,26.03832463888889],[-79.74974819444445,26.037831500000003],[-79.74969272222222,26.037339444444445],[-79.74954088888889,26.036864222222224],[-79.74929755555556,26.03642113888889],[-79.74897055555556,26.036024416666667],[-79.74857041666667,26.035686833333337],[-79.74810997222222,26.035419222222224],[-79.74760402777778,26.03523016666667],[-79.74706886111112,26.03512577777778],[-79.74652166666667,26.03510936111111],[-79.74598002777778,26.0351815],[-79.74546133333334,26.03533986111111],[-79.74498227777778,26.035579333333335],[-79.74455825,26.035892222222223],[-79.74420288888889,26.036268472222226],[-79.74392758333333,26.03669602777778],[-79.74374122222223,26.037161111111114],[-79.74364977777778,26.03764877777778],[-79.74365619444444,26.038143361111114]]},"properties":{"style":"solid","thickness":1}},{"type":"Feature","geometry":{"type":"LineString","coordinates":[[-79.74741130555556,26.04422302777778],[-79.74708997222223,26.043018111111113],[-79.74652775,26.041887583333335],[-79.74574391666667,26.040870361111114],[-79.74476555555556,26.04000152777778],[-79.74362633333334,26.039310944444445],[-79.74236547222222,26.03882241666667],[-79.74102638888888,26.03855277777778],[-79.73965525,26.03851127777778]]},"properties":{"style":"solid","thickness":1}},{"type":"Feature","geometry":{"type":"LineString","coordinates":[[-79.74597766666666,26.03150475],[-79.74593180555556,26.032743444444442],[-79.74563338888889,26.03395313888889],[-79.74509266666666,26.035092194444445],[-79.74432825,26.036121361111114],[-79.74336647222222,26.037005194444447],[-79.74224047222222,26.037713222222223],[-79.74098902777777,26.038221083333337],[-79.73965525,26.03851127777778]]},"properties":{"style":"solid","thickness":1}},{"type":"Feature","geometry":{"type":"LineString","coordinates":[[-79.75373358333333,26.03721613888889],[-79.75236241666667,26.03717477777778],[-79.75102336111111,26.03690525],[-79.7497625,26.03641677777778],[-79.74862325,26.035726222222223],[-79.74764491666667,26.03485738888889],[-79.74686113888889,26.033840194444448],[-79.74629894444445,26.032709666666666],[-79.74597766666666,26.03150475]]},"properties":{"style":"solid","thickness":1}},{"type":"Feature","geometry":{"type":"LineString","coordinates":[[-79.75373358333333,26.03721613888889],[-79.75239983333333,26.037506472222223],[-79.75114841666667,26.03801441666667],[-79.75002247222223,26.03872252777778],[-79.74906072222223,26.039606388888892],[-79.74829630555556,26.040635555555557],[-79.74775558333333,26.041774611111112],[-79.74745713888889,26.042984333333337],[-79.74741130555556,26.04422302777778]]},"properties":{"style":"solid","thickness":1}},{"type":"Feature","geometry":{"type":"LineString","coordinates":[[-79.74770594444445,26.034921888888892],[-79.74746105555556,26.03519327777778]]},"properties":{"style":"solid","thickness":1}},{"type":"Feature","geometry":{"type":"LineString","coordinates":[[-79.74730116666667,26.034459972222223],[-79.74671911111112,26.035105055555558]]},"properties":{"style":"solid","thickness":1}},{"type":"Feature","geometry":{"type":"LineString","coordinates":[[-79.74693497222222,26.033955333333335],[-79.7457846111111,26.03523025]]},"properties":{"style":"solid","thickness":1}},{"type":"Feature","geometry":{"type":"LineString","coordinates":[[-79.74661080555556,26.033404083333334],[-79.74510266666667,26.0350755]]},"properties":{"style":"solid","thickness":1}},{"type":"Feature","geometry":{"type":"LineString","coordinates":[[-79.74633402777778,26.03280033333333],[-79.745806,26.033385555555558]]},"properties":{"style":"solid","thickness":1}},{"type":"Feature","geometry":{"type":"LineString","coordinates":[[-79.74968027777778,26.036375777777778],[-79.74943538888888,26.036647194444445]]},"properties":{"style":"solid","thickness":1}},{"type":"Feature","geometry":{"type":"LineString","coordinates":[[-79.75026269444444,26.036640805555557],[-79.74968063888889,26.03728591666667]]},"properties":{"style":"solid","thickness":1}},{"type":"Feature","geometry":{"type":"LineString","coordinates":[[-79.75088366666667,26.036863111111114],[-79.74973330555555,26.038138055555557]]},"properties":{"style":"solid","thickness":1}},{"type":"Feature","geometry":{"type":"LineString","coordinates":[[-79.75154666666667,26.037038805555557],[-79.75003852777778,26.038710305555558]]},"properties":{"style":"solid","thickness":1}},{"type":"Feature","geometry":{"type":"LineString","coordinates":[[-79.75225705555556,26.037162000000002],[-79.75172902777778,26.037747250000002]]},"properties":{"style":"solid","thickness":1}},{"type":"Feature","geometry":{"type":"LineString","coordinates":[[-79.74758297222222,26.042342222222224],[-79.74705488888888,26.042927444444445]]},"properties":{"style":"solid","thickness":1}},{"type":"Feature","geometry":{"type":"LineString","coordinates":[[-79.74828630555555,26.04065225],[-79.74677808333334,26.042323694444445]]},"properties":{"style":"solid","thickness":1}},{"type":"Feature","geometry":{"type":"LineString","coordinates":[[-79.74760433333333,26.04049752777778],[-79.7464538888889,26.041772444444447]]},"properties":{"style":"solid","thickness":1}},{"type":"Feature","geometry":{"type":"LineString","coordinates":[[-79.74666977777778,26.040622722222224],[-79.74608766666667,26.041267805555556]]},"properties":{"style":"solid","thickness":1}},{"type":"Feature","geometry":{"type":"LineString","coordinates":[[-79.74592780555555,26.040534472222223],[-79.7456828888889,26.04080588888889]]},"properties":{"style":"solid","thickness":1}},{"type":"Feature","geometry":{"type":"LineString","coordinates":[[-79.74395344444444,26.03908052777778],[-79.74370852777778,26.039351944444444]]},"properties":{"style":"solid","thickness":1}},{"type":"Feature","geometry":{"type":"LineString","coordinates":[[-79.74370822222222,26.038441805555557],[-79.74312613888888,26.03908688888889]]},"properties":{"style":"solid","thickness":1}},{"type":"Feature","geometry":{"type":"LineString","coordinates":[[-79.74365561111111,26.03758963888889],[-79.74250516666667,26.038864555555556]]},"properties":{"style":"solid","thickness":1}},{"type":"Feature","geometry":{"type":"LineString","coordinates":[[-79.74335038888889,26.037017416666668],[-79.74184216666667,26.03868880555556]]},"properties":{"style":"solid","thickness":1}},{"type":"Feature","geometry":{"type":"LineString","coordinates":[[-79.74165986111112,26.037980361111114],[-79.74113177777778,26.038565555555557]]},"properties":{"style":"solid","thickness":1}},{"type":"Feature","geometry":{"type":"LineString","coordinates":[[-79.75128811111111,26.025370166666665],[-79.75207194444444,26.023590555555554],[-79.75194333333333,26.021823916666666],[-79.75090827777778,26.02015238888889]]},"properties":{"style":"solid","thickness":1}},{"type":"Feature","geometry":{"type":"LineString","coordinates":[[-79.74899847222223,26.020265888888886],[-79.74937822222222,26.025483666666666]]},"properties":{"style":"solid","thickness":1}},{"type":"Feature","geometry":{"type":"LineString","coordinates":[[-79.74385886111111,26.021809027777778],[-79.74672361111111,26.021638888888887]]},"properties":{"style":"solid","thickness":1}},{"type":"Feature","geometry":{"type":"LineString","coordinates":[[-79.74708863888888,26.02037933333333],[-79.74555844444444,26.025710555555555],[-79.7433145,26.02060347222222]]},"properties":{"style":"solid","thickness":1}},{"type":"Feature","geometry":{"type":"LineString","coordinates":[[-79.74164433333334,26.023384694444445],[-79.73927975,26.023525055555556]]},"properties":{"style":"solid","thickness":1}},{"type":"Feature","geometry":{"type":"LineString","coordinates":[[-79.73851,26.026128999999997],[-79.74182958333333,26.02593197222222],[-79.7414501388889,26.020714166666664]]},"properties":{"style":"solid","thickness":1}},{"type":"Feature","geometry":{"type":"LineString","coordinates":[[-79.73664555555555,26.02623961111111],[-79.73561066666667,26.024568],[-79.73548227777778,26.022801333333334],[-79.73626633333333,26.021021805555556]]},"properties":{"style":"solid","thickness":1}},{"type":"Feature","geometry":{"type":"LineString","coordinates":[[-79.75161911111111,26.01616025],[-79.75240944444444,26.016979805555554],[-79.75314894444445,26.017100888888887],[-79.75364911111112,26.017071166666664],[-79.75431919444445,26.016866277777776],[-79.75502936111111,26.01595752777778],[-79.75512744444444,26.014796333333333],[-79.75508258333333,26.014180055555556],[-79.75505263888888,26.013769222222223],[-79.75498025,26.013402166666665],[-79.75479597222223,26.012752916666667],[-79.75396316666667,26.011977166666668],[-79.75326919444444,26.011853388888888],[-79.75285997222223,26.011877694444443],[-79.75209897222223,26.012088],[-79.75138583333333,26.01295563888889]]},"properties":{"style":"solid","thickness":1}},{"type":"Feature","geometry":{"type":"LineString","coordinates":[[-79.74737072222223,26.014886],[-79.74585783333333,26.012293777777778]]},"properties":{"style":"solid","thickness":1}},{"type":"Feature","geometry":{"type":"LineString","coordinates":[[-79.74944983333333,26.01208038888889],[-79.74982961111111,26.017298166666667],[-79.74751061111111,26.017435944444443],[-79.74681361111111,26.017271055555554],[-79.74616269444445,26.01648447222222],[-79.74612683333334,26.015991444444445],[-79.74661269444445,26.015137333333332],[-79.74732525,26.014888694444444],[-79.74964419444444,26.014750916666667]]},"properties":{"style":"solid","thickness":1}},{"type":"Feature","geometry":{"type":"LineString","coordinates":[[-79.74399361111111,26.0124045],[-79.74437313888889,26.017622305555555],[-79.74040158333334,26.012617777777777],[-79.74078094444445,26.017835583333333]]},"properties":{"style":"solid","thickness":1}},{"type":"Feature","geometry":{"type":"LineString","coordinates":[[-79.7389166388889,26.017946249999998],[-79.73662766666666,26.01284175],[-79.73514255555556,26.018170166666664]]},"properties":{"style":"solid","thickness":1}},{"type":"Feature","geometry":{"type":"LineString","coordinates":[[-79.73327825,26.01828075],[-79.73289919444444,26.013062916666666],[-79.72962541666666,26.013257055555556]]},"properties":{"style":"solid","thickness":1}},{"type":"Feature","geometry":{"type":"LineString","coordinates":[[-79.74987183333333,26.007778416666667],[-79.75269077777777,26.00761086111111],[-79.75273863888889,26.00513225],[-79.75168036111111,26.005649055555555],[-79.75090744444445,26.005695],[-79.75016202777778,26.00549172222222],[-79.7496745,26.005066805555554],[-79.74940230555556,26.00446402777778],[-79.74935447222222,26.003806666666666],[-79.74953394444445,26.003135805555555],[-79.74995869444444,26.002697944444446],[-79.75094697222222,26.00247413888889],[-79.75162894444445,26.002433611111112],[-79.75214102777778,26.002568222222223],[-79.75258311111111,26.002995833333333]]},"properties":{"style":"solid","thickness":1}},{"type":"Feature","geometry":{"type":"LineString","coordinates":[[-79.74609808333334,26.00800263888889],[-79.74564341666667,26.00802963888889],[-79.74484955555556,26.007787944444445],[-79.74405933333334,26.00696836111111],[-79.74380277777777,26.005952027777777],[-79.74373405555556,26.005007083333332],[-79.74384119444444,26.003969138888888],[-79.7445513611111,26.003060472222224],[-79.74526386111111,26.002811833333332],[-79.74571852777778,26.002784833333333],[-79.74641544444445,26.002949722222223],[-79.74725111111111,26.00376661111111],[-79.74750769444445,26.004782916666667],[-79.74757644444445,26.005727888888888],[-79.74747230555556,26.00680688888889],[-79.74676216666667,26.00771561111111],[-79.74609808333334,26.00800263888889]]},"properties":{"style":"solid","thickness":1}},{"type":"Feature","geometry":{"type":"LineString","coordinates":[[-79.74046016666667,26.008337416666667],[-79.7400055,26.008364416666666],[-79.73921163888889,26.008122694444445],[-79.73842147222223,26.007303083333333],[-79.73816494444445,26.00628675],[-79.73809627777779,26.005341777777776],[-79.73820347222222,26.00430386111111],[-79.73891369444445,26.003395194444444],[-79.73962619444444,26.003146583333333],[-79.74008083333334,26.00311961111111],[-79.74077775,26.00328452777778],[-79.7416133888889,26.004101444444444],[-79.74186994444445,26.005117777777777],[-79.7419386388889,26.00606272222222],[-79.74183447222222,26.00714175],[-79.74112425,26.008050416666666],[-79.74046016666667,26.008337416666667]]},"properties":{"style":"solid","thickness":1}},{"type":"Feature","geometry":{"type":"LineString","coordinates":[[-79.73482222222222,26.008672],[-79.73436755555555,26.008698972222223],[-79.73357372222222,26.008457222222223],[-79.73278355555556,26.007637583333334],[-79.73252708333334,26.006621222222222],[-79.73245844444445,26.005676277777777],[-79.73256572222222,26.004638333333332],[-79.73327597222223,26.00372972222222],[-79.7339885,26.00348113888889],[-79.73444313888889,26.003454166666668],[-79.73514005555556,26.00361913888889],[-79.73597566666666,26.004436055555555],[-79.73623216666667,26.005452388888887],[-79.73630083333333,26.006397361111112],[-79.73619658333334,26.00747636111111],[-79.73548633333334,26.008385027777777],[-79.73482222222222,26.008672]]},"properties":{"style":"solid","thickness":1}},{"type":"Feature","geometry":{"type":"LineString","coordinates":[[-80.08288869444443,26.16779313888889],[-80.08274391666666,26.16829727777778],[-80.08227430555556,26.16873891666667],[-80.08160391666667,26.168945305555557],[-80.08110319444444,26.168976166666667],[-80.08040794444445,26.168853944444447],[-80.07987302777778,26.168432972222224],[-80.07961122222221,26.167995166666667],[-80.07957702777777,26.167543305555558],[-80.07973113888889,26.167162416666667],[-80.08081005555555,26.166311805555555],[-80.08246094444443,26.164559333333333],[-80.08261191666666,26.164137333333333],[-80.08257461111111,26.163644416666664],[-80.07929725,26.163846416666665]]},"properties":{"style":"solid","thickness":1}},{"type":"Feature","geometry":{"type":"LineString","coordinates":[[-80.07738547222222,26.16396422222222],[-80.07778019444444,26.169180944444445]]},"properties":{"style":"solid","thickness":1}},{"type":"Feature","geometry":{"type":"LineString","coordinates":[[-80.07422955555555,26.169399666666667],[-80.07377433333333,26.169427722222224],[-80.07297874999999,26.169187833333336],[-80.07218516666666,26.168370055555556],[-80.07192544444445,26.167354361111112],[-80.071854,26.16640961111111],[-80.07195844444443,26.16537147222222],[-80.07266702777777,26.164461222222222],[-80.07337980555555,26.16421097222222],[-80.073835,26.164182944444445],[-80.07453330555555,26.164346277777778],[-80.07537238888888,26.16516122222222],[-80.07563213888889,26.166176916666664],[-80.07570361111111,26.167121666666667],[-80.07560233333334,26.16820088888889],[-80.07489372222221,26.169111166666667],[-80.07422955555555,26.169399666666667]]},"properties":{"style":"solid","thickness":1}},{"type":"Feature","geometry":{"type":"LineString","coordinates":[[-80.07022369444444,26.169646333333336],[-80.06982933333333,26.16442958333333]]},"properties":{"style":"solid","thickness":1}},{"type":"Feature","geometry":{"type":"LineString","coordinates":[[-80.06744691666667,26.16981725],[-80.06997216666666,26.16631911111111]]},"properties":{"style":"solid","thickness":1}},{"type":"Feature","geometry":{"type":"LineString","coordinates":[[-80.0691425,26.16744316666667],[-80.06655194444444,26.164631305555552]]},"properties":{"style":"solid","thickness":1}},{"type":"Feature","geometry":{"type":"LineString","coordinates":[[-79.87663658333332,26.15621608333333],[-79.87649097222221,26.15672],[-79.8760206111111,26.157160972222222],[-79.87534997222221,26.157366416666665],[-79.87484922222221,26.15739658333333],[-79.87415427777778,26.15727336111111],[-79.87362013888888,26.156851638888888],[-79.87335913888889,26.156413444444443],[-79.87332572222222,26.155961555555553],[-79.87348047222221,26.15558086111111],[-79.87456074999999,26.154731805555553],[-79.87621449999999,26.152981666666665],[-79.87636619444444,26.152559888888888],[-79.87632975,26.152066944444442],[-79.87305238888888,26.152264305555555]]},"properties":{"style":"solid","thickness":1}},{"type":"Feature","geometry":{"type":"LineString","coordinates":[[-79.8711406111111,26.15237938888889],[-79.87152622222222,26.157596638888887]]},"properties":{"style":"solid","thickness":1}},{"type":"Feature","geometry":{"type":"LineString","coordinates":[[-79.86797558333333,26.15781033333333],[-79.86752038888888,26.157837722222222],[-79.86672527777777,26.15759672222222],[-79.86593322222221,26.15677786111111],[-79.86567527777777,26.155761777777776],[-79.8656055,26.154816916666665],[-79.86571172222222,26.153778944444444],[-79.86642180555555,26.152869694444444],[-79.86713494444444,26.15262047222222],[-79.86759013888889,26.152593083333333],[-79.8682881111111,26.152757388888887],[-79.86912566666666,26.153573527777777],[-79.86938363888888,26.154589583333333],[-79.86945344444443,26.15553444444444],[-79.86935030555554,26.1566135],[-79.86864019444444,26.157522777777775],[-79.86797558333333,26.15781033333333]]},"properties":{"style":"solid","thickness":1}},{"type":"Feature","geometry":{"type":"LineString","coordinates":[[-79.86396975,26.158051333333333],[-79.86358447222221,26.152834055555555]]},"properties":{"style":"solid","thickness":1}},{"type":"Feature","geometry":{"type":"LineString","coordinates":[[-79.86119294444444,26.158218305555554],[-79.86372399999999,26.154723777777775]]},"properties":{"style":"solid","thickness":1}},{"type":"Feature","geometry":{"type":"LineString","coordinates":[[-79.86289247222221,26.15584663888889],[-79.86030708333332,26.15303113888889]]},"properties":{"style":"solid","thickness":1}}]}
