{"type":"FeatureCollection","features":[{"type":"Feature","geometry":{"type":"LineString","coordinates":[[-80.16304891666667,26.312646361111113],[-80.16243669444445,26.29384113888889]]},"properties":{"style":"solid","thickness":1}},{"type":"Feature","geometry":{"type":"LineString","coordinates":[[-80.44648527777778,25.972008499999998],[-80.45955380555556,25.9628075]]},"properties":{"style":"solid","thickness":1}},{"type":"Feature","geometry":{"type":"LineString","coordinates":[[-80.44909597222222,25.960811055555556],[-80.45724805555555,25.973821027777777]]},"properties":{"style":"solid","thickness":1}},{"type":"Feature","geometry":{"type":"LineString","coordinates":[[-80.1484131388889,25.76378247222222],[-80.14983152777778,25.763232055555555],[-80.1491223888889,25.761947666666668],[-80.14091675,25.756442805555555],[-80.1390931388889,25.757268305555556],[-80.13787727777779,25.758644277777776],[-80.13737055555556,25.75992861111111],[-80.13554675,25.761579722222223],[-80.1351413888889,25.762405333333334],[-80.14010547222223,25.764057194444444],[-80.1484131388889,25.76378247222222]]},"properties":{"style":"solid","thickness":1}},{"type":"Feature","geometry":{"type":"LineString","coordinates":[[-80.15276961111111,25.75470025],[-80.15550472222223,25.748737083333335]]},"properties":{"style":"solid","thickness":1}},{"type":"Feature","geometry":{"type":"LineString","coordinates":[[-80.15276961111111,25.75470025],[-80.15125,25.756718527777778],[-80.14962902777778,25.759012],[-80.14729908333334,25.756076222222223],[-80.14618486111112,25.753507444444445],[-80.14709675,25.750113111111112],[-80.14750205555556,25.747911333333334],[-80.14770472222223,25.74635177777778],[-80.14537480555556,25.74772777777778],[-80.14608380555556,25.749103916666666],[-80.14426025,25.751122111111112],[-80.14304461111112,25.751488972222223],[-80.14122122222223,25.75103013888889],[-80.14182925,25.748461472222225],[-80.1446658888889,25.745159],[-80.14537508333333,25.7432325],[-80.14669202777779,25.74103077777778],[-80.14800891666667,25.739562972222224],[-80.15135155555556,25.738003472222225],[-80.15317480555557,25.73745302777778]]},"properties":{"style":"solid","thickness":1}},{"type":"Feature","geometry":{"type":"LineString","coordinates":[[-80.17039416666667,25.737635472222223],[-80.1723191388889,25.740479166666667],[-80.17454794444446,25.74249713888889],[-80.17941072222223,25.745432027777778],[-80.17991752777779,25.746808055555558],[-80.17951255555556,25.747725527777778],[-80.17748669444445,25.748276333333333],[-80.17201580555556,25.743873611111113],[-80.16502591666668,25.73910386111111],[-80.16340525000001,25.739104],[-80.16300013888889,25.739654472222224],[-80.16381058333334,25.7410305],[-80.16654577777778,25.74332377777778],[-80.17140869444445,25.748093750000002],[-80.17272594444445,25.75029536111111],[-80.17232080555556,25.75066236111111],[-80.16887613888889,25.747543611111112],[-80.16472275000001,25.746167916666668],[-80.16229152777778,25.745250666666667],[-80.16249400000001,25.743874555555557],[-80.16188611111112,25.74222327777778],[-80.15965758333334,25.74103075],[-80.16036672222222,25.742773805555558],[-80.16046816666667,25.745067305555555],[-80.15965783333334,25.74580127777778],[-80.1570241388889,25.746351805555555],[-80.15672027777778,25.74809488888889],[-80.15550472222223,25.748737083333335]]},"properties":{"style":"solid","thickness":1}},{"type":"Feature","geometry":{"type":"LineString","coordinates":[[-80.0819581111111,26.260066083333335],[-80.08705277777777,26.246308388888888],[-80.09072441666666,26.228421805555556],[-80.09133858333333,26.220991555555553],[-80.0963401111111,26.183657444444446],[-80.09827563888888,26.175585472222224],[-80.10011191666666,26.16155061111111],[-80.10103044444443,26.15329472222222],[-80.10255880555555,26.144763805555556],[-80.10388422222222,26.1349485],[-80.1044975,26.12641725],[-80.10551647222222,26.119629083333333],[-80.10541688888888,26.11458355555556],[-80.1053173611111,26.109446277777778],[-80.10633591666667,26.1032085],[-80.1080655,26.097154416666665],[-80.10857544444444,26.09192558333333],[-80.11020255555555,26.087522694444445],[-80.10979813888888,26.082201833333333],[-80.10979816666666,26.08211011111111]]},"properties":{"style":"solid","thickness":1}},{"type":"Feature","geometry":{"type":"LineString","coordinates":[[-80.0819581111111,26.260066083333335],[-80.08124438888889,26.262634277777778],[-80.08103988888888,26.26428538888889]]},"properties":{"style":"solid","thickness":1}},{"type":"Feature","geometry":{"type":"LineString","coordinates":[[-80.15317480555557,25.73745302777778],[-80.15246577777778,25.735985194444446],[-80.14983225,25.736535611111112],[-80.15044005555556,25.73332469444444]]},"properties":{"style":"solid","thickness":1}},{"type":"Feature","geometry":{"type":"LineString","coordinates":[[-80.15428894444445,25.733508194444447],[-80.15428897222223,25.734609083333336],[-80.154998,25.73561822222222],[-80.15651733333334,25.73626036111111],[-80.15834044444445,25.733875055555558],[-80.15935327777778,25.733508055555557]]},"properties":{"style":"solid","thickness":1}},{"type":"Feature","geometry":{"type":"LineString","coordinates":[[-80.16938069444446,25.73369075],[-80.1695835,25.735342055555556],[-80.17039416666667,25.737635472222223]]},"properties":{"style":"solid","thickness":1}},{"type":"Feature","geometry":{"type":"LineString","coordinates":[[-80.11591283333333,26.020005527777776],[-80.11540305555555,26.026702277777776],[-80.11499522222222,26.031931222222223]]},"properties":{"style":"solid","thickness":1}},{"type":"Feature","geometry":{"type":"LineString","coordinates":[[-80.07714219444443,26.31317727777778],[-80.07724455555555,26.312260000000002],[-80.07745230555555,26.305747083333333],[-80.07786369444445,26.29905077777778],[-80.07786697222222,26.293913722222225],[-80.07837994444444,26.28740091666667],[-80.07848622222222,26.28024575],[-80.08011955555556,26.27180711111111],[-80.08103988888888,26.26428538888889]]},"properties":{"style":"solid","thickness":1}},{"type":"Feature","geometry":{"type":"LineString","coordinates":[[-80.13775855555556,25.894052333333335],[-80.13035394444444,25.897445722222223],[-80.12903516666665,25.89854638888889],[-80.126398,25.898637666666666],[-80.12649880555554,25.90138986111111],[-80.1277156111111,25.90313311111111],[-80.12670080555554,25.90533469444444],[-80.12690330555554,25.906986027777776],[-80.1268016111111,25.90817861111111],[-80.12649699999999,25.909462916666666],[-80.12629369444444,25.91138938888889],[-80.12619127777778,25.915701111111108],[-80.12629241666666,25.917077222222222],[-80.12761105555555,25.91771963888889],[-80.1288283611111,25.917903305555555],[-80.12933616666666,25.91496775],[-80.13075691666666,25.912032333333332],[-80.13146769444444,25.908087638888887],[-80.13451108333334,25.906253277777775],[-80.13623555555556,25.905611305555553],[-80.13816297222223,25.904235444444442],[-80.14090175000001,25.903501777777777],[-80.14374197222223,25.90221763888889],[-80.14627800000001,25.89799777777778],[-80.14820516666667,25.89653002777778],[-80.15114661111112,25.89276877777778],[-80.15378355555556,25.887172694444445],[-80.15560905555556,25.884787444444445],[-80.1591585,25.882310361111113],[-80.16402619444445,25.880383555555557],[-80.16493866666667,25.87799825],[-80.16595227777778,25.873594666666666],[-80.16696608333334,25.871209333333333],[-80.16879113888889,25.869557833333335],[-80.17234008333334,25.86854827777778],[-80.17294833333334,25.867447333333335],[-80.17355575,25.861759388888892],[-80.17284475000001,25.85460377777778],[-80.17284433333334,25.852035083333334],[-80.17385800000001,25.850842305555556],[-80.17487125000001,25.847447805555554],[-80.17578266666668,25.842035],[-80.17780994444445,25.840566833333334],[-80.17953291666667,25.83854825],[-80.18115480555556,25.837905777777777],[-80.18206661111111,25.83561208333333],[-80.18155927777778,25.833593916666665],[-80.18054441666668,25.82882363888889],[-80.17983427777779,25.826346805555556],[-80.18003627777779,25.823135861111112],[-80.18094811111112,25.82130088888889]]},"properties":{"style":"solid","thickness":1}},{"type":"Feature","geometry":{"type":"LineString","coordinates":[[-80.13624680555556,25.82616486111111],[-80.13573983333335,25.827082194444444],[-80.13391511111112,25.82781588888889],[-80.13138047222222,25.8302925],[-80.13148152777777,25.832035583333333],[-80.13401519444444,25.83579725],[-80.13472461111112,25.837265194444445],[-80.13350725000001,25.842402472222222],[-80.13441880555557,25.847906972222223],[-80.13441861111112,25.849191333333334],[-80.1367503888889,25.849925527777778],[-80.14273227777778,25.848825194444444],[-80.14719294444446,25.85460502777778],[-80.1468886388889,25.857265472222224],[-80.145469,25.85955888888889],[-80.1442518888889,25.86451277777778],[-80.14293358333335,25.866072250000002],[-80.14313566666668,25.874604055555555],[-80.14313502777779,25.882401916666666],[-80.14232355555556,25.884053166666668],[-80.1413088888889,25.88928222222222],[-80.14059877777778,25.890841722222223],[-80.13775855555556,25.894052333333335]]},"properties":{"style":"solid","thickness":1}},{"type":"Feature","geometry":{"type":"LineString","coordinates":[[-80.12165016666665,25.825887194444444],[-80.12195488888888,25.823410305555555],[-80.12357969444444,25.811484444444446],[-80.12398586111111,25.80836536111111],[-80.12611572222221,25.801760472222224],[-80.12895444444443,25.79662352777778],[-80.13017222222221,25.787908416666667],[-80.13159283333333,25.777083305555553],[-80.13230302777777,25.771854194444444],[-80.13331655555555,25.769836055555555],[-80.13412786111111,25.764973916666666],[-80.13787630555557,25.76635047222222],[-80.13888925,25.76809363888889],[-80.14010472222223,25.770937694444445],[-80.141827,25.772497444444443],[-80.14344786111111,25.77561672222222],[-80.14668966666667,25.78580005555556],[-80.14719616666667,25.7888275],[-80.14577741666668,25.790203555555557],[-80.14648661111111,25.79304752777778],[-80.14871580555557,25.799469416666668],[-80.14901972222223,25.802496861111113],[-80.14861427777778,25.80469861111111]]},"properties":{"style":"solid","thickness":1}},{"type":"Feature","geometry":{"type":"LineString","coordinates":[[-80.11591283333333,26.020005527777776],[-80.11642244444444,26.0137675],[-80.11723719444444,26.005327805555556],[-80.11744291666666,25.996429250000002],[-80.11927472222222,25.980375499999997],[-80.12008952777776,25.97028444444444],[-80.12039966666666,25.949735055555557],[-80.12060522222221,25.940194277777778],[-80.12121680555555,25.929736166666668],[-80.12162627777776,25.915975416666665],[-80.12264252777777,25.90891172222222],[-80.12426805555555,25.898453777777778],[-80.12396572222221,25.890472388888888],[-80.12346022222222,25.884050527777777],[-80.12214322222222,25.878729361111112],[-80.12052461111111,25.86423416666667],[-80.120019,25.85928011111111],[-80.11981763888888,25.85414263888889],[-80.12002069444443,25.853225305555558]]},"properties":{"style":"solid","thickness":1}},{"type":"Feature","geometry":{"type":"LineString","coordinates":[[-80.18507525,26.088993249999998],[-80.19259472222222,26.093945194444444]]},"properties":{"style":"solid","thickness":1}},{"type":"Feature","geometry":{"type":"LineString","coordinates":[[-80.1850618888889,26.039822083333334],[-80.19714236111112,26.029360805555555]]},"properties":{"style":"solid","thickness":1}},{"type":"Feature","geometry":{"type":"LineString","coordinates":[[-80.12067763888888,26.04642713888889],[-80.11336730555556,26.041563222222223]]},"properties":{"style":"solid","thickness":1}},{"type":"Feature","geometry":{"type":"LineString","coordinates":[[-80.1206608611111,26.1077075],[-80.1152735,26.114402972222223]]},"properties":{"style":"solid","thickness":1}},{"type":"Feature","geometry":{"type":"LineString","coordinates":[[-80.16139533333335,26.234731222222223],[-80.16166655555556,26.234719916666666],[-80.16193777777778,26.234708222222224],[-80.162209,26.234696194444446],[-80.16248016666667,26.23468377777778],[-80.16275133333333,26.23467102777778],[-80.16302250000001,26.234657916666666],[-80.16329363888889,26.234644444444445],[-80.16356475,26.23463061111111],[-80.16383583333334,26.234616416666668],[-80.16410691666667,26.234601861111113],[-80.16437797222223,26.234586944444445],[-80.16464900000001,26.234571694444444],[-80.16492000000001,26.234556055555558],[-80.16519100000001,26.234540083333336],[-80.16546194444444,26.234523722222225],[-80.16573286111111,26.234507027777777],[-80.16600377777779,26.234489972222224],[-80.1662746388889,26.234472555555556],[-80.16654550000001,26.23445475],[-80.16681630555556,26.23443663888889],[-80.16708711111112,26.23441813888889],[-80.16735786111111,26.23439927777778],[-80.16762858333334,26.234380055555558],[-80.16789927777778,26.2343605],[-80.16816991666667,26.234340555555555],[-80.16844055555556,26.23432027777778],[-80.1687111388889,26.23429963888889],[-80.16898166666667,26.23427863888889],[-80.16925219444445,26.23425727777778],[-80.16952266666667,26.234235555555557],[-80.16979308333333,26.234213472222223],[-80.17006347222222,26.234191055555556],[-80.17033383333334,26.23416825],[-80.17060413888889,26.23414511111111],[-80.17087441666668,26.234121611111114]]},"properties":{"style":"solid","thickness":1}},{"type":"Feature","geometry":{"type":"LineString","coordinates":[[-80.20320436111112,26.23122486111111],[-80.20342880555556,26.231083944444443],[-80.20365291666667,26.230942555555554],[-80.20387669444445,26.23080072222222],[-80.20410008333333,26.230658388888887],[-80.2043231388889,26.23051561111111],[-80.20454583333334,26.230372361111108],[-80.20476816666667,26.23022863888889],[-80.20499013888889,26.230084444444444],[-80.20521172222223,26.229939805555553],[-80.20543297222223,26.229794694444443],[-80.20565383333333,26.229649111111108],[-80.20587436111111,26.22950308333333],[-80.20609447222222,26.22935658333333],[-80.20631425,26.22920961111111],[-80.20653363888889,26.229062222222222],[-80.20675263888889,26.228914333333332],[-80.20697127777778,26.228766027777777],[-80.20718952777779,26.22861725],[-80.20740741666667,26.228468027777776],[-80.20762491666667,26.22831833333333],[-80.20784202777779,26.228168194444443],[-80.20805875,26.22801761111111],[-80.20827508333333,26.22786658333333],[-80.20849102777778,26.22771511111111],[-80.20870655555557,26.227563194444443],[-80.20892172222223,26.22741083333333],[-80.2091365,26.227258027777776],[-80.20935086111112,26.227104777777775],[-80.20956483333333,26.226951083333333],[-80.20977841666667,26.22679697222222],[-80.20999158333333,26.226642388888887],[-80.21020433333334,26.226487388888888],[-80.21041672222222,26.226331944444443],[-80.21062866666666,26.226176083333332],[-80.21084022222223,26.226019777777775]]},"properties":{"style":"solid","thickness":1}},{"type":"Feature","geometry":{"type":"LineString","coordinates":[[-80.21387591666667,26.171999805555558],[-80.21370494444444,26.171800416666667],[-80.21353172222223,26.171602361111113],[-80.21335625,26.171405722222225],[-80.21317852777779,26.171210472222224],[-80.21299858333333,26.171016666666667],[-80.21281647222223,26.170824361111112],[-80.21263219444445,26.170633555555558],[-80.21244575,26.17044427777778],[-80.21225719444445,26.170256555555557],[-80.21206652777778,26.170070444444445],[-80.21187380555556,26.169885944444445],[-80.21167902777778,26.16970311111111],[-80.21148222222223,26.169521944444444],[-80.21128341666667,26.169342472222223],[-80.21108266666667,26.16916475],[-80.21087997222223,26.16898877777778],[-80.21067536111111,26.168814583333333],[-80.21046886111111,26.168642222222225],[-80.2102605,26.16847166666667],[-80.21005033333334,26.168302972222225],[-80.2098383888889,26.168136166666667],[-80.20962466666667,26.167971277777777],[-80.20940922222222,26.167808305555557],[-80.20919208333333,26.167647277777778],[-80.20897325,26.167488222222225],[-80.20875283333334,26.167331166666667],[-80.20853077777778,26.16717611111111],[-80.20830716666667,26.167023111111114],[-80.20808205555556,26.16687213888889],[-80.20785541666667,26.166723222222224],[-80.20762733333333,26.166576416666665],[-80.20739783333333,26.166431694444444],[-80.20716691666667,26.16628911111111],[-80.20693466666667,26.166148666666665],[-80.20670108333334,26.16601036111111]]},"properties":{"style":"solid","thickness":1}},{"type":"Feature","geometry":{"type":"LineString","coordinates":[[-80.14161544444445,26.166083777777775],[-80.14136597222223,26.166205277777777],[-80.14111736111111,26.166328444444442],[-80.14086966666667,26.166453333333333],[-80.1406228888889,26.166579916666667],[-80.14037705555556,26.166708166666666],[-80.14013219444445,26.166838055555555],[-80.13988830555556,26.16696963888889],[-80.13964544444445,26.16710286111111],[-80.13940361111112,26.16723775],[-80.13916280555556,26.16737425],[-80.13892308333334,26.16751236111111],[-80.13868447222222,26.167652083333333],[-80.13844694444445,26.16779341666667],[-80.13821055555556,26.167936361111114],[-80.13797530555556,26.16808086111111],[-80.13774122222223,26.16822691666667],[-80.13750836111112,26.168374555555555],[-80.13727666666668,26.168523722222222],[-80.13704622222222,26.16867441666667],[-80.13681700000001,26.16882663888889],[-80.13658905555556,26.168980361111114],[-80.1363623888889,26.169135583333336],[-80.13613702777778,26.169292305555558],[-80.13591297222223,26.169450472222223],[-80.13569025000001,26.169610083333335],[-80.1354688888889,26.169771166666667],[-80.1352488888889,26.16993366666667],[-80.13503025,26.170097555555557],[-80.13481305555557,26.170262861111112],[-80.13459725000001,26.170429555555557],[-80.1343828888889,26.170597611111113],[-80.13416997222222,26.170767],[-80.13395852777778,26.17093775],[-80.13374858333334,26.171109833333336],[-80.13354011111112,26.171283194444445]]},"properties":{"style":"solid","thickness":1}},{"type":"Feature","geometry":{"type":"LineString","coordinates":[[-80.13030741666665,26.225300722222222],[-80.13045299999999,26.225524999999998],[-80.13060341666666,26.22574747222222],[-80.13075863888888,26.225968027777775],[-80.13091866666666,26.226186555555554],[-80.13108338888888,26.226402916666665],[-80.13125277777777,26.22661697222222],[-80.13142680555555,26.226828638888886],[-80.13160538888889,26.227037805555554],[-80.13178844444444,26.227244305555555],[-80.13197591666666,26.227448055555556],[-80.13216772222222,26.227648944444443],[-80.13236380555554,26.22784683333333],[-80.13256405555555,26.228041638888886],[-80.1327683611111,26.228233222222222],[-80.13297666666666,26.228421527777776],[-80.13318886111111,26.22860644444444],[-80.13340483333334,26.22878783333333],[-80.13362450000001,26.228965638888887],[-80.13384772222223,26.229139777777775],[-80.13407438888889,26.229310138888888],[-80.13430436111112,26.229476638888887],[-80.13453758333334,26.22963922222222],[-80.1347738888889,26.229797805555553],[-80.1350131388889,26.229952305555553],[-80.13525522222223,26.230102694444444],[-80.13550000000001,26.23024886111111],[-80.13574733333334,26.230390777777775],[-80.13599711111112,26.23052836111111],[-80.13624919444445,26.23066161111111],[-80.13650341666667,26.23079047222222],[-80.13675963888889,26.230914888888886],[-80.13701775000001,26.231034833333332],[-80.13727761111112,26.231150305555555],[-80.13753905555556,26.23126122222222],[-80.13780194444445,26.23136761111111]]},"properties":{"style":"solid","thickness":1}},{"type":"Feature","geometry":{"type":"LineString","coordinates":[[-80.14742308333334,26.320084027777778],[-80.14698280555557,26.31984313888889],[-80.14654058333333,26.31960486111111],[-80.14609641666668,26.319369194444445],[-80.14565033333334,26.319136166666667],[-80.14520236111112,26.318905805555556],[-80.14475255555556,26.31867811111111],[-80.14430091666668,26.318453083333335],[-80.14384747222223,26.318230805555554],[-80.14339230555557,26.31801125],[-80.1429353888889,26.317794416666665],[-80.14247675,26.317580361111112],[-80.14201647222222,26.317369083333332],[-80.14155455555556,26.31716061111111],[-80.141091,26.316954944444443],[-80.14062588888889,26.316752083333334],[-80.14015925000001,26.316552083333335],[-80.13969108333335,26.31635491666667],[-80.13922144444444,26.31616063888889],[-80.13875036111112,26.315969222222222],[-80.13827786111112,26.315780694444445],[-80.13780397222223,26.315595083333335],[-80.13732872222224,26.31541238888889],[-80.13685219444446,26.31523263888889],[-80.13637436111112,26.315055805555556],[-80.13589527777778,26.314881944444444],[-80.13541497222222,26.31471102777778],[-80.1349335,26.314543083333334],[-80.13445088888889,26.31437813888889],[-80.13396716666668,26.314216194444445],[-80.13348236111112,26.314057222222225],[-80.13299649999999,26.313901277777777],[-80.13250963888888,26.313748361111113],[-80.13202180555555,26.313598444444445],[-80.13153302777778,26.313451555555556],[-80.13104336111111,26.313307722222223]]},"properties":{"style":"solid","thickness":1}},{"type":"Feature","geometry":{"type":"LineString","coordinates":[[-80.08773269444444,26.31240575],[-80.08723622222222,26.312529027777778],[-80.08674052777778,26.31265538888889],[-80.08624558333332,26.312784805555555],[-80.08575147222221,26.312917305555555],[-80.08525822222222,26.313052833333334],[-80.08476586111111,26.31319141666667],[-80.08427441666666,26.313333055555557],[-80.08378391666666,26.313477694444444],[-80.08329441666666,26.31362538888889],[-80.08280594444444,26.31377611111111],[-80.08231855555555,26.313929833333333],[-80.08183222222222,26.31408652777778],[-80.08134705555555,26.31424625],[-80.08086302777778,26.314408944444445],[-80.08038019444444,26.314574583333336],[-80.0798986111111,26.314743222222223],[-80.07941827777778,26.31491477777778],[-80.07893924999999,26.31508927777778],[-80.07846152777778,26.315266694444446],[-80.07798519444444,26.315447055555556],[-80.07751025,26.315630277777778],[-80.07703672222222,26.315816416666667],[-80.07656466666667,26.316005416666666],[-80.0760941111111,26.31619727777778],[-80.07562508333334,26.316391972222224],[-80.07515758333334,26.3165895],[-80.07469169444444,26.316789833333335],[-80.07422741666666,26.316992972222224],[-80.07376480555556,26.31719888888889],[-80.07330386111111,26.317407583333335],[-80.07284461111111,26.317619027777777],[-80.07238713888889,26.317833194444443],[-80.07193141666666,26.318050083333333],[-80.0714775,26.318269666666666],[-80.07102538888888,26.318491916666666]]},"properties":{"style":"solid","thickness":1}},{"type":"Feature","geometry":{"type":"LineString","coordinates":[[-80.08773269444444,26.31240575],[-80.08808405555556,26.312507055555557],[-80.08843605555555,26.312606833333334],[-80.08878866666666,26.312705083333334],[-80.08914183333333,26.312801833333335],[-80.08949558333333,26.31289702777778],[-80.08984988888888,26.312990694444444],[-80.09020475,26.313082805555556],[-80.09056016666666,26.313173388888888],[-80.09091608333333,26.313262416666667],[-80.09127252777778,26.31334988888889],[-80.09162944444444,26.313435833333333],[-80.09198686111111,26.313520194444447],[-80.09234477777777,26.313603],[-80.0927031111111,26.31368425],[-80.09306191666666,26.313763916666666],[-80.09342116666666,26.313842027777778],[-80.09378083333333,26.313918555555556],[-80.09414091666666,26.31399352777778],[-80.09450138888889,26.31406688888889],[-80.09486224999999,26.314138694444445],[-80.09522347222222,26.31420891666667],[-80.09558505555555,26.31427752777778],[-80.095947,26.314344583333334],[-80.09630927777778,26.31441002777778],[-80.0966718611111,26.31447388888889],[-80.09703477777778,26.31453613888889],[-80.09739797222221,26.314596805555556],[-80.09776144444444,26.31465588888889],[-80.09812519444444,26.31471336111111],[-80.09848919444444,26.314769222222225],[-80.09885344444444,26.314823472222223],[-80.09921791666666,26.314876138888888],[-80.0995826111111,26.314927222222224],[-80.09994752777777,26.314976666666666],[-80.10031261111111,26.31502452777778]]},"properties":{"style":"solid","thickness":1}},{"type":"Feature","geometry":{"type":"LineString","coordinates":[[-80.11829461111111,26.315404166666667],[-80.11866316666666,26.31537163888889],[-80.11903158333332,26.315337500000002],[-80.11939991666667,26.31530175],[-80.11976808333333,26.31526436111111],[-80.12013611111111,26.31522536111111],[-80.120504,26.315184722222224],[-80.12087169444443,26.315142472222224],[-80.12123922222221,26.31509861111111],[-80.12160652777777,26.315053111111112],[-80.1219736111111,26.315006],[-80.12234049999999,26.31495727777778],[-80.12270711111111,26.31490691666667],[-80.12307349999999,26.31485497222222],[-80.12343961111111,26.31480138888889],[-80.12380544444444,26.314746222222222],[-80.12417097222222,26.314689416666667],[-80.12453622222222,26.31463102777778],[-80.12490113888889,26.314571],[-80.12526572222221,26.31450938888889],[-80.12562994444444,26.314446194444447],[-80.12599383333333,26.31438138888889],[-80.1263573611111,26.314314972222224],[-80.12672047222222,26.31424697222222],[-80.12708322222221,26.31417738888889],[-80.12744552777777,26.314106194444445],[-80.12780744444444,26.314033444444444],[-80.12816891666667,26.313959083333334],[-80.12852991666666,26.313883166666667],[-80.12889047222221,26.313805666666667],[-80.12925055555554,26.313726583333334],[-80.12961016666667,26.313645944444445],[-80.12996927777778,26.31356375],[-80.1303278611111,26.313479972222222],[-80.13068591666666,26.31339463888889],[-80.13104347222222,26.31330777777778]]},"properties":{"style":"solid","thickness":1}},{"type":"Feature","geometry":{"type":"LineString","coordinates":[[-80.21044977777778,25.96708511111111],[-80.20858902777778,25.971103138888886],[-80.20206183333333,25.962590944444443]]},"properties":{"style":"solid","thickness":1}},{"type":"Feature","geometry":{"type":"LineString","coordinates":[[-80.30154188888889,25.80289777777778],[-80.27543052777777,25.80397788888889]]},"properties":{"style":"solid","thickness":1}},{"type":"Feature","geometry":{"type":"LineString","coordinates":[[-80.31483813888889,25.78609502777778],[-80.27532530555555,25.787731333333333]]},"properties":{"style":"solid","thickness":1}},{"type":"Feature","geometry":{"type":"LineString","coordinates":[[-80.30228997222223,25.799285055555558],[-80.27752236111111,25.786617333333336]]},"properties":{"style":"solid","thickness":1}},{"type":"Feature","geometry":{"type":"LineString","coordinates":[[-80.301433,25.80069936111111],[-80.26953561111111,25.802018111111114]]},"properties":{"style":"solid","thickness":1}},{"type":"Feature","geometry":{"type":"LineString","coordinates":[[-80.28867230555555,25.912646666666664],[-80.26436283333334,25.913822083333333]]},"properties":{"style":"solid","thickness":1}},{"type":"Feature","geometry":{"type":"LineString","coordinates":[[-80.28516797222223,25.899039583333334],[-80.27208008333334,25.89966663888889]]},"properties":{"style":"solid","thickness":1}},{"type":"Feature","geometry":{"type":"LineString","coordinates":[[-80.28877972222222,25.91060975],[-80.27120552777778,25.900741083333333]]},"properties":{"style":"solid","thickness":1}},{"type":"Feature","geometry":{"type":"LineString","coordinates":[[-80.24407666666667,25.99783052777778],[-80.24401633333333,26.00704725]]},"properties":{"style":"solid","thickness":1}},{"type":"Feature","geometry":{"type":"LineString","coordinates":[[-80.23966247222222,25.997531277777778],[-80.23960336111111,26.00650061111111]]},"properties":{"style":"solid","thickness":1}},{"type":"Feature","geometry":{"type":"LineString","coordinates":[[-80.24478177777777,26.002266166666665],[-80.23491458333334,26.002213083333334]]},"properties":{"style":"solid","thickness":1}},{"type":"Feature","geometry":{"type":"LineString","coordinates":[[-80.24422433333334,25.99822963888889],[-80.23431588888889,25.998176555555556]]},"properties":{"style":"solid","thickness":1}},{"type":"Feature","geometry":{"type":"LineString","coordinates":[[-80.11439572222221,26.37231152777778],[-80.10099777777778,26.384658722222223]]},"properties":{"style":"solid","thickness":1}},{"type":"Feature","geometry":{"type":"LineString","coordinates":[[-80.16653836111112,26.076949055555556],[-80.13912083333334,26.07679186111111]]},"properties":{"style":"solid","thickness":1}},{"type":"Feature","geometry":{"type":"LineString","coordinates":[[-80.1583488888889,26.06588663888889],[-80.133983,26.065742166666666]]},"properties":{"style":"solid","thickness":1}},{"type":"Feature","geometry":{"type":"LineString","coordinates":[[-80.18504761111112,26.077057305555556],[-80.1944,26.077111111111112],[-80.20355691666667,26.077159833333333]]},"properties":{"style":"solid","thickness":1}},{"type":"Feature","geometry":{"type":"LineString","coordinates":[[-80.17685641666667,26.06599316666667],[-80.19086111111112,26.06607222222222],[-80.195364,26.06609747222222]]},"properties":{"style":"solid","thickness":1}},{"type":"Feature","geometry":{"type":"LineString","coordinates":[[-80.21387161111112,26.06619977777778],[-80.23237925000001,26.066299722222222]]},"properties":{"style":"solid","thickness":1}},{"type":"Feature","geometry":{"type":"LineString","coordinates":[[-80.22206627777778,26.077256527777777],[-80.24057566666667,26.077350888888887]]},"properties":{"style":"solid","thickness":1}},{"type":"Feature","geometry":{"type":"LineString","coordinates":[[-80.2590851111111,26.07744288888889],[-80.26622777777777,26.077477777777776],[-80.27759455555555,26.07753388888889]]},"properties":{"style":"solid","thickness":1}},{"type":"Feature","geometry":{"type":"LineString","coordinates":[[-80.26622777777777,26.077477777777776],[-80.26617677777777,26.08583586111111]]},"properties":{"style":"solid","thickness":1}},{"type":"Feature","geometry":{"type":"LineString","coordinates":[[-80.25088691666667,26.066397333333335],[-80.25944166666666,26.066441666666666],[-80.26939461111111,26.066492333333333]]},"properties":{"style":"solid","thickness":1}},{"type":"Feature","geometry":{"type":"LineString","coordinates":[[-80.25944166666666,26.066441666666666],[-80.25949416666667,26.058083555555555]]},"properties":{"style":"solid","thickness":1}},{"type":"Feature","geometry":{"type":"LineString","coordinates":[[-80.28790236111111,26.066584777777777],[-80.3064101111111,26.06667486111111]]},"properties":{"style":"solid","thickness":1}},{"type":"Feature","geometry":{"type":"LineString","coordinates":[[-80.29610402777777,26.077623388888888],[-80.31461352777778,26.07771052777778]]},"properties":{"style":"solid","thickness":1}},{"type":"Feature","geometry":{"type":"LineString","coordinates":[[-80.3360111111111,26.077808333333333],[-80.33596058333333,26.086166416666664]]},"properties":{"style":"solid","thickness":1}},{"type":"Feature","geometry":{"type":"LineString","coordinates":[[-80.33312305555555,26.077795305555554],[-80.3360111111111,26.077808333333333],[-80.35163255555555,26.077884527777776]]},"properties":{"style":"solid","thickness":1}},{"type":"Feature","geometry":{"type":"LineString","coordinates":[[-80.32491791666666,26.066762583333333],[-80.32936666666666,26.066783333333333],[-80.34342572222222,26.066847694444444]]},"properties":{"style":"solid","thickness":1}},{"type":"Feature","geometry":{"type":"LineString","coordinates":[[-80.32936666666666,26.066783333333333],[-80.32941405555555,26.058425194444446]]},"properties":{"style":"solid","thickness":1}},{"type":"Feature","geometry":{"type":"LineString","coordinates":[[-80.36193358333333,26.066930361111112],[-80.38044144444444,26.067010666666665]]},"properties":{"style":"solid","thickness":1}},{"type":"Feature","geometry":{"type":"LineString","coordinates":[[-80.37014208333332,26.077972638888888],[-80.3886516388889,26.078058388888888]]},"properties":{"style":"solid","thickness":1}},{"type":"Feature","geometry":{"type":"LineString","coordinates":[[-80.39413333333334,26.078083333333332],[-80.39408841666668,26.086441444444443]]},"properties":{"style":"solid","thickness":1}},{"type":"Feature","geometry":{"type":"LineString","coordinates":[[-80.38970555555557,26.06705],[-80.38974902777778,26.05869186111111]]},"properties":{"style":"solid","thickness":1}},{"type":"Feature","geometry":{"type":"LineString","coordinates":[[-80.39894933333333,26.067088916666666],[-80.41745722222223,26.067165083333332]]},"properties":{"style":"solid","thickness":1}},{"type":"Feature","geometry":{"type":"LineString","coordinates":[[-80.40716122222223,26.07813983333333],[-80.42567083333334,26.07821811111111]]},"properties":{"style":"solid","thickness":1}},{"type":"Feature","geometry":{"type":"LineString","coordinates":[[-80.44418047222223,26.078294027777776],[-80.46269011111112,26.078367611111112]]},"properties":{"style":"solid","thickness":1}},{"type":"Feature","geometry":{"type":"LineString","coordinates":[[-80.43596516666668,26.067238916666668],[-80.45447311111111,26.067310388888888]]},"properties":{"style":"solid","thickness":1}},{"type":"Feature","geometry":{"type":"LineString","coordinates":[[-80.48119977777777,26.078438833333333],[-80.49970944444445,26.078507722222223]]},"properties":{"style":"solid","thickness":1}},{"type":"Feature","geometry":{"type":"LineString","coordinates":[[-80.47298105555556,26.0673795],[-80.49148902777777,26.067446277777776]]},"properties":{"style":"solid","thickness":1}},{"type":"Feature","geometry":{"type":"LineString","coordinates":[[-80.509997,26.067510694444444],[-80.528505,26.067572777777777]]},"properties":{"style":"solid","thickness":1}},{"type":"Feature","geometry":{"type":"LineString","coordinates":[[-80.51821913888888,26.07857425],[-80.53672883333333,26.078638444444444]]},"properties":{"style":"solid","thickness":1}},{"type":"Feature","geometry":{"type":"LineString","coordinates":[[-80.50445833333333,26.067491666666665],[-80.50449372222222,26.0591335]]},"properties":{"style":"solid","thickness":1}},{"type":"Feature","geometry":{"type":"LineString","coordinates":[[-80.52238055555556,26.078588888888888],[-80.52234466666667,26.086947]]},"properties":{"style":"solid","thickness":1}},{"type":"Feature","geometry":{"type":"LineString","coordinates":[[-80.12061163888889,26.07668263888889],[-80.1021025,26.076571055555554]]},"properties":{"style":"solid","thickness":1}},{"type":"Feature","geometry":{"type":"LineString","coordinates":[[-80.11547555555555,26.065629833333332],[-80.09696816666666,26.065515166666668]]},"properties":{"style":"solid","thickness":1}},{"type":"Feature","geometry":{"type":"LineString","coordinates":[[-80.08359341666666,26.076457138888887],[-80.0650843611111,26.07634088888889]]},"properties":{"style":"solid","thickness":1}},{"type":"Feature","geometry":{"type":"LineString","coordinates":[[-80.07846080555555,26.065398166666668],[-80.05995349999999,26.065278805555558]]},"properties":{"style":"solid","thickness":1}},{"type":"Feature","geometry":{"type":"LineString","coordinates":[[-80.04657536111111,26.076222277777777],[-80.02806638888889,26.076101305555554]]},"properties":{"style":"solid","thickness":1}},{"type":"Feature","geometry":{"type":"LineString","coordinates":[[-80.02786944444445,26.0761],[-80.02780152777778,26.084457999999998]]},"properties":{"style":"solid","thickness":1}},{"type":"Feature","geometry":{"type":"LineString","coordinates":[[-80.04144624999999,26.065157083333332],[-80.02462777777778,26.065044444444446],[-80.02293905555555,26.065033055555556]]},"properties":{"style":"solid","thickness":1}},{"type":"Feature","geometry":{"type":"LineString","coordinates":[[-80.02462777777778,26.065044444444446],[-80.02469677777778,26.05668641666667]]},"properties":{"style":"solid","thickness":1}},{"type":"Feature","geometry":{"type":"LineString","coordinates":[[-80.0095575,26.0759775],[-79.99104863888888,26.075851333333333]]},"properties":{"style":"solid","thickness":1}},{"type":"Feature","geometry":{"type":"LineString","coordinates":[[-80.00443188888889,26.064907],[-79.98592477777778,26.064778583333332]]},"properties":{"style":"solid","thickness":1}},{"type":"Feature","geometry":{"type":"LineString","coordinates":[[-79.96741772222222,26.064647833333336],[-79.94891072222222,26.064514722222224]]},"properties":{"style":"solid","thickness":1}},{"type":"Feature","geometry":{"type":"LineString","coordinates":[[-79.97253983333333,26.075722833333334],[-79.95403108333333,26.07559197222222]]},"properties":{"style":"solid","thickness":1}},{"type":"Feature","geometry":{"type":"LineString","coordinates":[[-79.93208333333334,26.06439166666667],[-79.93215902777779,26.056033722222224]]},"properties":{"style":"solid","thickness":1}},{"type":"Feature","geometry":{"type":"LineString","coordinates":[[-79.93040377777778,26.06437925],[-79.91189688888889,26.064241111111112]]},"properties":{"style":"solid","thickness":1}},{"type":"Feature","geometry":{"type":"LineString","coordinates":[[-79.9355223888889,26.07545875],[-79.91701375000001,26.075323194444444]]},"properties":{"style":"solid","thickness":1}},{"type":"Feature","geometry":{"type":"LineString","coordinates":[[-79.91125555555556,26.075280555555555],[-79.91117944444446,26.083638444444443]]},"properties":{"style":"solid","thickness":1}},{"type":"Feature","geometry":{"type":"LineString","coordinates":[[-80.11654808333333,26.24396988888889],[-80.10684408333333,26.250645333333335]]},"properties":{"style":"solid","thickness":1}},{"type":"Feature","geometry":{"type":"LineString","coordinates":[[-80.11661505555556,26.245939833333335],[-80.10602675,26.24465925]]},"properties":{"style":"solid","thickness":1}},{"type":"Feature","geometry":{"type":"LineString","coordinates":[[-80.11528194444443,26.254350444444444],[-80.10617941666666,26.243595305555555]]},"properties":{"style":"solid","thickness":1}},{"type":"Feature","geometry":{"type":"LineString","coordinates":[[-80.18086547222222,26.197574555555555],[-80.16266983333334,26.19936338888889]]},"properties":{"style":"solid","thickness":1}},{"type":"Feature","geometry":{"type":"LineString","coordinates":[[-80.17386783333333,26.19894325],[-80.16436072222223,26.192048694444445]]},"properties":{"style":"solid","thickness":1}},{"type":"Feature","geometry":{"type":"LineString","coordinates":[[-80.19928455555556,26.19576236111111],[-80.21770308333333,26.193947805555556]]},"properties":{"style":"solid","thickness":1}},{"type":"Feature","geometry":{"type":"LineString","coordinates":[[-80.23612105555556,26.192130944444443],[-80.236125,26.192130555555554],[-80.25453847222222,26.190311861111113]]},"properties":{"style":"solid","thickness":1}},{"type":"Feature","geometry":{"type":"LineString","coordinates":[[-80.27295530555556,26.188490416666667],[-80.2913716111111,26.186666666666667]]},"properties":{"style":"solid","thickness":1}},{"type":"Feature","geometry":{"type":"LineString","coordinates":[[-80.29215483333333,26.18238477777778],[-80.29316741666666,26.190693]]},"properties":{"style":"solid","thickness":1}},{"type":"Feature","geometry":{"type":"LineString","coordinates":[[-80.30978708333333,26.18483875],[-80.32820199999999,26.183008361111114]]},"properties":{"style":"solid","thickness":1}},{"type":"Feature","geometry":{"type":"LineString","coordinates":[[-80.34661633333333,26.181175666666668],[-80.36503011111111,26.17934061111111]]},"properties":{"style":"solid","thickness":1}},{"type":"Feature","geometry":{"type":"LineString","coordinates":[[-80.38344330555556,26.17750325],[-80.40185591666668,26.175663555555555]]},"properties":{"style":"solid","thickness":1}},{"type":"Feature","geometry":{"type":"LineString","coordinates":[[-80.40525925,26.171118500000002],[-80.40627966666668,26.179425944444446]]},"properties":{"style":"solid","thickness":1}},{"type":"Feature","geometry":{"type":"LineString","coordinates":[[-80.42026797222222,26.17382152777778],[-80.43867944444445,26.171977166666668]]},"properties":{"style":"solid","thickness":1}},{"type":"Feature","geometry":{"type":"LineString","coordinates":[[-80.12652952777778,26.2676375],[-80.1377796388889,26.280923666666666]]},"properties":{"style":"solid","thickness":1}},{"type":"Feature","geometry":{"type":"LineString","coordinates":[[-80.14903225,26.29420891666667],[-80.16028741666668,26.30749325]]},"properties":{"style":"solid","thickness":1}},{"type":"Feature","geometry":{"type":"LineString","coordinates":[[-80.18676252777779,26.33184288888889],[-80.17939286111111,26.336918138888887]]},"properties":{"style":"solid","thickness":1}},{"type":"Feature","geometry":{"type":"LineString","coordinates":[[-80.17154511111112,26.320776694444444],[-80.18280530555556,26.334059194444443]]},"properties":{"style":"solid","thickness":1}},{"type":"Feature","geometry":{"type":"LineString","coordinates":[[-80.19407058333334,26.347339055555555],[-80.20533847222222,26.360617944444446]]},"properties":{"style":"solid","thickness":1}},{"type":"Feature","geometry":{"type":"LineString","coordinates":[[-80.21660888888889,26.37389591666667],[-80.22788183333334,26.38717297222222]]},"properties":{"style":"solid","thickness":1}},{"type":"Feature","geometry":{"type":"LineString","coordinates":[[-80.23915733333334,26.400449111111108],[-80.25043536111112,26.41372433333333]]},"properties":{"style":"solid","thickness":1}},{"type":"Feature","geometry":{"type":"LineString","coordinates":[[-80.25437188888888,26.41148011111111],[-80.24700016666667,26.416558694444443]]},"properties":{"style":"solid","thickness":1}},{"type":"Feature","geometry":{"type":"LineString","coordinates":[[-80.09210494444444,26.26078272222222],[-80.07736330555555,26.270918555555554]]},"properties":{"style":"solid","thickness":1}},{"type":"Feature","geometry":{"type":"LineString","coordinates":[[-80.0626191111111,26.281052888888887],[-80.04787241666666,26.291185694444447]]},"properties":{"style":"solid","thickness":1}},{"type":"Feature","geometry":{"type":"LineString","coordinates":[[-80.03312319444444,26.301316944444444],[-80.0184111111111,26.311419444444446],[-80.01837144444444,26.311446694444445]]},"properties":{"style":"solid","thickness":1}},{"type":"Feature","geometry":{"type":"LineString","coordinates":[[-80.01560125,26.308095194444444],[-80.0212211111111,26.31474363888889]]},"properties":{"style":"solid","thickness":1}},{"type":"Feature","geometry":{"type":"LineString","coordinates":[[-80.00361730555555,26.321575055555556],[-79.98886066666667,26.331701916666667]]},"properties":{"style":"solid","thickness":1}},{"type":"Feature","geometry":{"type":"LineString","coordinates":[[-79.9741015,26.34182722222222],[-79.95933980555556,26.351951]]},"properties":{"style":"solid","thickness":1}},{"type":"Feature","geometry":{"type":"LineString","coordinates":[[-79.94457558333333,26.36207325],[-79.92980880555557,26.372193944444444]]},"properties":{"style":"solid","thickness":1}},{"type":"Feature","geometry":{"type":"LineString","coordinates":[[-79.92684122222222,26.36897686111111],[-79.93245894444445,26.37562863888889]]},"properties":{"style":"solid","thickness":1}},{"type":"Feature","geometry":{"type":"LineString","coordinates":[[-80.14424958333333,26.201170583333333],[-80.12582880555554,26.202975416666664]]},"properties":{"style":"solid","thickness":1}},{"type":"Feature","geometry":{"type":"LineString","coordinates":[[-80.10740738888889,26.204777333333332],[-80.0889853611111,26.206576638888887]]},"properties":{"style":"solid","thickness":1}},{"type":"Feature","geometry":{"type":"LineString","coordinates":[[-80.07868244444444,26.203378527777776],[-80.07967869444444,26.21168813888889]]},"properties":{"style":"solid","thickness":1}},{"type":"Feature","geometry":{"type":"LineString","coordinates":[[-80.03371616666666,26.21196161111111],[-80.01529202777778,26.213752]]},"properties":{"style":"solid","thickness":1}},{"type":"Feature","geometry":{"type":"LineString","coordinates":[[-80.07056283333333,26.208373833333333],[-80.05213977777777,26.210168888888887]]},"properties":{"style":"solid","thickness":1}},{"type":"Feature","geometry":{"type":"LineString","coordinates":[[-79.99686733333334,26.215540055555554],[-79.97844208333333,26.217325777777777]]},"properties":{"style":"solid","thickness":1}},{"type":"Feature","geometry":{"type":"LineString","coordinates":[[-79.96688075,26.214242055555555],[-79.96786927777778,26.22255236111111]]},"properties":{"style":"solid","thickness":1}},{"type":"Feature","geometry":{"type":"LineString","coordinates":[[-79.96001630555556,26.219109166666666],[-79.94159,26.22089022222222]]},"properties":{"style":"solid","thickness":1}},{"type":"Feature","geometry":{"type":"LineString","coordinates":[[-79.9231631388889,26.222668944444443],[-79.90473572222223,26.224445333333332]]},"properties":{"style":"solid","thickness":1}},{"type":"Feature","geometry":{"type":"LineString","coordinates":[[-79.88630780555556,26.226219388888886],[-79.86787933333332,26.227991083333333]]},"properties":{"style":"solid","thickness":1}},{"type":"Feature","geometry":{"type":"LineString","coordinates":[[-79.84945033333332,26.22976047222222],[-79.83102080555555,26.2315275]]},"properties":{"style":"solid","thickness":1}},{"type":"Feature","geometry":{"type":"LineString","coordinates":[[-80.13128333333333,26.233830333333334],[-80.14601602777779,26.22368922222222]]},"properties":{"style":"solid","thickness":1}},{"type":"Feature","geometry":{"type":"LineString","coordinates":[[-80.16074622222223,26.21354661111111],[-80.17547391666668,26.2034025]]},"properties":{"style":"solid","thickness":1}},{"type":"Feature","geometry":{"type":"LineString","coordinates":[[-80.19019858333334,26.193256277777778],[-80.20491916666667,26.183106666666667]]},"properties":{"style":"solid","thickness":1}},{"type":"Feature","geometry":{"type":"LineString","coordinates":[[-80.21963719444445,26.172955555555557],[-80.23435272222223,26.162802888888887]]},"properties":{"style":"solid","thickness":1}},{"type":"Feature","geometry":{"type":"LineString","coordinates":[[-80.24906575,26.152648749999997],[-80.26377625,26.14249308333333]]},"properties":{"style":"solid","thickness":1}},{"type":"Feature","geometry":{"type":"LineString","coordinates":[[-80.27306433333334,26.130817027777777],[-80.27869136111111,26.13745513888889]]},"properties":{"style":"solid","thickness":1}},{"type":"Feature","geometry":{"type":"LineString","coordinates":[[-80.18407094444444,26.192220916666667],[-80.18969588888889,26.19886236111111]]},"properties":{"style":"solid","thickness":1}},{"type":"Feature","geometry":{"type":"LineString","coordinates":[[-80.09493816666667,26.23030536111111],[-80.08369947222222,26.217014527777778]]},"properties":{"style":"solid","thickness":1}},{"type":"Feature","geometry":{"type":"LineString","coordinates":[[-80.07246327777777,26.203722805555554],[-80.06122958333333,26.19043013888889]]},"properties":{"style":"solid","thickness":1}},{"type":"Feature","geometry":{"type":"LineString","coordinates":[[-80.04999847222221,26.177136555555556],[-80.03877005555556,26.163841972222222]]},"properties":{"style":"solid","thickness":1}},{"type":"Feature","geometry":{"type":"LineString","coordinates":[[-80.02754416666667,26.150546444444444],[-80.01632077777778,26.137250055555555]]},"properties":{"style":"solid","thickness":1}},{"type":"Feature","geometry":{"type":"LineString","coordinates":[[-80.00509988888889,26.12395275],[-79.99388152777777,26.110654583333336]]},"properties":{"style":"solid","thickness":1}},{"type":"Feature","geometry":{"type":"LineString","coordinates":[[-80.05649749999999,26.177936000000003],[-80.04913011111111,26.183002805555557]]},"properties":{"style":"solid","thickness":1}},{"type":"Feature","geometry":{"type":"LineString","coordinates":[[-79.99459652777777,26.104604194444445],[-79.98723108333333,26.109667944444446]]},"properties":{"style":"solid","thickness":1}},{"type":"Feature","geometry":{"type":"LineString","coordinates":[[-80.17828780555556,25.983535],[-80.1738831388889,25.99303777777778],[-80.16736080555556,25.984615722222223]]},"properties":{"style":"solid","thickness":1}},{"type":"Feature","geometry":{"type":"LineString","coordinates":[[-80.19777338888889,25.976558166666663],[-80.19337055555556,25.986061555555555],[-80.18684722222223,25.97764036111111]]},"properties":{"style":"solid","thickness":1}},{"type":"Feature","geometry":{"type":"LineString","coordinates":[[-80.21633677777778,25.95746958333333],[-80.21193613888889,25.96697358333333],[-80.20540894444444,25.95846152777778]]},"properties":{"style":"solid","thickness":1}},{"type":"Feature","geometry":{"type":"LineString","coordinates":[[-80.19242422222223,25.762714944444443],[-80.18802891666667,25.772218388888888],[-80.18151775000001,25.763796777777777]]},"properties":{"style":"solid","thickness":1}},{"type":"Feature","geometry":{"type":"LineString","coordinates":[[-80.35249922222222,25.808398083333334],[-80.35498666666666,25.807166972222223],[-80.35699044444443,25.805351666666667],[-80.35834847222222,25.803099083333333],[-80.35895088888888,25.80059152777778],[-80.35874897222222,25.79803188888889],[-80.35775913888888,25.795627250000003],[-80.3560615,25.793572166666667],[-80.35379341666666,25.79203288888889],[-80.35113841666666,25.791133972222223],[-80.34831127777777,25.790948111111113],[-80.34554069444444,25.791490361111112],[-80.34305077777778,25.792716805555557],[-80.34104297222221,25.794528305555556],[-80.33967975,25.796778250000003],[-80.33907141666666,25.799284638888892],[-80.33926727777778,25.801844666666668],[-80.34025147222222,25.804251222222224],[-80.34194444444444,25.806309527777778],[-80.34420922222222,25.807853083333335],[-80.34686255555555,25.808756944444447],[-80.34968969444444,25.808947944444444],[-80.35246188888888,25.80841063888889],[-80.35249922222222,25.808398083333334]]},"properties":{"style":"solid","thickness":1}},{"type":"Feature","geometry":{"type":"LineString","coordinates":[[-80.36977252777777,26.00748088888889],[-80.36016030555555,26.008440916666668],[-80.35909833333332,25.99975502777778],[-80.3687098611111,25.998795083333334],[-80.36977252777777,26.00748088888889]]},"properties":{"style":"solid","thickness":1}},{"type":"Feature","geometry":{"type":"LineString","coordinates":[[-80.24940422222222,26.063867416666668],[-80.24500230555556,26.07337225],[-80.23846683333333,26.064861833333335]]},"properties":{"style":"solid","thickness":1}},{"type":"Feature","geometry":{"type":"LineString","coordinates":[[-80.13076777777778,26.07637411111111],[-80.12635583333332,26.085875305555554],[-80.11982825,26.077359555555557]]},"properties":{"style":"solid","thickness":1}},{"type":"Feature","geometry":{"type":"LineString","coordinates":[[-80.1402343888889,25.982506583333333],[-80.13062236111111,25.983451333333335],[-80.12957747222221,25.974763749999997],[-80.13918880555556,25.973819055555555],[-80.1402343888889,25.982506583333333]]},"properties":{"style":"solid","thickness":1}},{"type":"Feature","geometry":{"type":"LineString","coordinates":[[-80.34207091666666,25.633890027777777],[-80.34692844444444,25.633613083333334],[-80.3414606111111,25.62627575],[-80.34631783333333,25.625998833333334],[-80.34207091666666,25.633890027777777]]},"properties":{"style":"solid","thickness":1}},{"type":"Feature","geometry":{"type":"LineString","coordinates":[[-80.16461866666667,25.737970722222222],[-80.16948091666667,25.737699777777777],[-80.16401925000001,25.730355749999998],[-80.16888119444445,25.730084805555553],[-80.16461866666667,25.737970722222222]]},"properties":{"style":"solid","thickness":1}},{"type":"Feature","geometry":{"type":"LineString","coordinates":[[-80.06804438888888,26.509804833333334],[-80.0736526111111,26.50944652777778],[-80.06734763888889,26.50099786111111],[-80.07295541666666,26.500639555555555],[-80.06804438888888,26.509804833333334]]},"properties":{"style":"solid","thickness":1}},{"type":"Feature","geometry":{"type":"LineString","coordinates":[[-80.33604388888888,25.690643527777777],[-80.34161272222222,25.69027475],[-80.33533194444443,25.68183627777778],[-80.34090036111111,25.681467555555557],[-80.33604388888888,25.690643527777777]]},"properties":{"style":"solid","thickness":1}},{"type":"Feature","geometry":{"type":"LineString","coordinates":[[-80.13794444444446,26.107917611111112],[-80.14353333333334,26.107556444444445],[-80.13724466666667,26.09911013888889],[-80.14283313888889,26.098749027777778],[-80.13794444444446,26.107917611111112]]},"properties":{"style":"solid","thickness":1}},{"type":"Feature","geometry":{"type":"LineString","coordinates":[[-80.42905155555556,25.48520075],[-80.43461061111111,25.484828444444446],[-80.42833405555557,25.476393694444443],[-80.43389269444445,25.47602144444444],[-80.42905155555556,25.48520075]]},"properties":{"style":"solid","thickness":1}},{"type":"Feature","geometry":{"type":"LineString","coordinates":[[-80.20953688888889,25.79769688888889],[-80.21511108333334,25.797332944444445],[-80.20883358333333,25.788889194444447],[-80.21440736111111,25.788525305555556],[-80.20953688888889,25.79769688888889]]},"properties":{"style":"solid","thickness":1}},{"type":"Feature","geometry":{"type":"LineString","coordinates":[[-80.09503669444445,26.927249055555556],[-80.10066480555555,26.92688975],[-80.09433541666667,26.918443500000002],[-80.09996311111111,26.918084222222223],[-80.09503669444445,26.927249055555556]]},"properties":{"style":"solid","thickness":1}},{"type":"Feature","geometry":{"type":"LineString","coordinates":[[-80.51992544444444,25.011507972222223],[-80.52546261111111,25.011132305555556],[-80.51920427777777,25.00270097222222],[-80.52474102777778,25.002325333333335],[-80.51992544444444,25.011507972222223]]},"properties":{"style":"solid","thickness":1}},{"type":"Feature","geometry":{"type":"LineString","coordinates":[[-80.17886444444444,26.023335055555556],[-80.18444925,26.022972305555555],[-80.17816208333333,26.01452761111111],[-80.1837465,26.014164916666665],[-80.17886444444444,26.023335055555556]]},"properties":{"style":"solid","thickness":1}},{"type":"Feature","geometry":{"type":"LineString","coordinates":[[-80.30870288888889,26.017670555555554],[-80.31428702777778,26.01730286111111],[-80.30799097222221,26.00886375],[-80.31357472222221,26.008496055555554],[-80.30870288888889,26.017670555555554]]},"properties":{"style":"solid","thickness":1}},{"type":"Feature","geometry":{"type":"LineString","coordinates":[[-80.20987133333334,25.744585833333336],[-80.21544302777778,25.74422186111111],[-80.20916830555556,25.735778055555556],[-80.21473961111111,25.73541413888889],[-80.20987133333334,25.744585833333336]]},"properties":{"style":"solid","thickness":1}},{"type":"Feature","geometry":{"type":"LineString","coordinates":[[-80.29223555555555,25.74550386111111],[-80.29780705555555,25.74513677777778],[-80.2915265,25.7366965],[-80.29709758333333,25.736329416666667],[-80.29223555555555,25.74550386111111]]},"properties":{"style":"solid","thickness":1}},{"type":"Feature","geometry":{"type":"LineString","coordinates":[[-80.13889486111111,25.818973472222222],[-80.14447025000001,25.81861222222222],[-80.1381966388889,25.810165472222224],[-80.14377161111112,25.80980427777778],[-80.13889486111111,25.818973472222222]]},"properties":{"style":"solid","thickness":1}},{"type":"Feature","geometry":{"type":"LineString","coordinates":[[-80.08289933333333,26.833249],[-80.08852294444443,26.83289013888889],[-80.08219952777777,26.824443111111112],[-80.08782269444444,26.82408427777778],[-80.08289933333333,26.833249]]},"properties":{"style":"solid","thickness":1}},{"type":"Feature","geometry":{"type":"LineString","coordinates":[[-80.32417827777778,25.891170944444443],[-80.32975644444444,25.89080263888889],[-80.323466,25.882363972222223],[-80.32904375,25.881995694444445],[-80.32417827777778,25.891170944444443]]},"properties":{"style":"solid","thickness":1}},{"type":"Feature","geometry":{"type":"LineString","coordinates":[[-80.24907555555555,26.68922427777778],[-80.25469172222222,26.688858944444444],[-80.24836405555556,26.68041875],[-80.25397980555556,26.680053444444447],[-80.24907555555555,26.68922427777778]]},"properties":{"style":"solid","thickness":1}},{"type":"Feature","geometry":{"type":"LineString","coordinates":[[-80.3557415,25.57075502777778],[-80.36130472222221,25.570385527777777],[-80.35502883333332,25.56194772222222],[-80.36059163888888,25.56157825],[-80.3557415,25.57075502777778]]},"properties":{"style":"solid","thickness":1}},{"type":"Feature","geometry":{"type":"LineString","coordinates":[[-80.05881658333332,26.761026472222223],[-80.06443677777777,26.760668527777778],[-80.05811899999999,26.752220277777777],[-80.06373877777777,26.75186236111111],[-80.05881658333332,26.761026472222223]]},"properties":{"style":"solid","thickness":1}},{"type":"Feature","geometry":{"type":"LineString","coordinates":[[-80.19780263888889,26.36089052777778],[-80.20340330555555,26.36052713888889],[-80.19709691666667,26.35208391666667],[-80.20269719444445,26.35172052777778],[-80.19780263888889,26.36089052777778]]},"properties":{"style":"solid","thickness":1}},{"type":"Feature","geometry":{"type":"LineString","coordinates":[[-80.38368369444446,25.735701527777778],[-80.38925447222223,25.735330944444446],[-80.38296797222222,25.726894583333333],[-80.38853833333334,25.726524027777778],[-80.38368369444446,25.735701527777778]]},"properties":{"style":"solid","thickness":1}},{"type":"Feature","geometry":{"type":"LineString","coordinates":[[-80.25322444444444,26.216586083333333],[-80.25881811111111,26.21622052777778],[-80.25251544444444,26.207779388888888],[-80.25810872222222,26.20741386111111],[-80.25322444444444,26.216586083333333]]},"properties":{"style":"solid","thickness":1}},{"type":"Feature","geometry":{"type":"LineString","coordinates":[[-80.25800422222223,26.127891805555556],[-80.26359369444444,26.127526055555556],[-80.25729541666666,26.119084972222222],[-80.26288447222223,26.11871925],[-80.25800422222223,26.127891805555556]]},"properties":{"style":"solid","thickness":1}},{"type":"Feature","geometry":{"type":"LineString","coordinates":[[-80.11955122222221,26.28280597222222],[-80.12514841666666,26.282445555555555],[-80.11885180555555,26.273998805555554],[-80.12444858333333,26.273638416666667],[-80.11955122222221,26.28280597222222]]},"properties":{"style":"solid","thickness":1}},{"type":"Feature","geometry":{"type":"LineString","coordinates":[[-80.08973772222221,26.602471750000003],[-80.09535030555556,26.602112611111114],[-80.08903880555555,26.59366511111111],[-80.09465097222221,26.593306],[-80.08973772222221,26.602471750000003]]},"properties":{"style":"solid","thickness":1}},{"type":"Feature","geometry":{"type":"LineString","coordinates":[[-80.17198880555556,26.06966597222222],[-80.17198880555556,26.071500694444445]]},"properties":{"style":"solid","thickness":1}},{"type":"Feature","geometry":{"type":"LineString","coordinates":[[-80.17148091666667,26.0694825],[-80.17148091666667,26.071684166666667]]},"properties":{"style":"solid","thickness":1}},{"type":"Feature","geometry":{"type":"LineString","coordinates":[[-80.17097305555556,26.0694825],[-80.17097305555556,26.071684166666667]]},"properties":{"style":"solid","thickness":1}},{"type":"Feature","geometry":{"type":"LineString","coordinates":[[-80.17046516666667,26.06966597222222],[-80.17046516666667,26.071500694444445]]},"properties":{"style":"solid","thickness":1}},{"type":"Feature","geometry":{"type":"LineString","coordinates":[[-80.16995727777778,26.07058333333333],[-80.16996516666667,26.070713388888887],[-80.16999055555556,26.07084936111111],[-80.17003588888889,26.070988666666665],[-80.17010302777778,26.07112797222222],[-80.17019294444445,26.071263305555554],[-80.1703055,26.071390305555557],[-80.17043908333333,26.071504472222223],[-80.17059075,26.071601805555556],[-80.17075636111112,26.071679],[-80.17093088888889,26.071734027777776],[-80.17110891666667,26.07176611111111],[-80.17128527777778,26.07177588888889],[-80.17145538888889,26.071765083333332],[-80.17161558333333,26.07173622222222],[-80.17176322222222,26.071692388888888],[-80.17189677777779,26.071636777777776],[-80.17201872222223,26.071570472222223],[-80.17213783333334,26.071488277777778],[-80.17225141666667,26.071388944444443],[-80.17235555555555,26.07127238888889],[-80.17244588888889,26.071139444444444],[-80.17251827777778,26.07099211111111],[-80.17256888888889,26.070833444444443],[-80.17259497222223,26.07066752777778],[-80.17259497222223,26.07049911111111],[-80.17256888888889,26.070333194444444],[-80.17251825000001,26.070174555555557],[-80.17244588888889,26.070027194444446],[-80.17235552777778,26.069894277777777],[-80.17225141666667,26.069777722222224],[-80.17213780555556,26.06967838888889],[-80.17201872222223,26.069596194444443],[-80.17189675,26.069529888888887],[-80.17176322222222,26.06947425],[-80.17161555555556,26.069430444444443],[-80.17145538888889,26.069401583333335],[-80.17128527777778,26.069390777777777],[-80.17110891666667,26.069400527777777],[-80.17093088888889,26.069432638888888],[-80.17075638888889,26.069487666666667],[-80.17059077777779,26.06956486111111],[-80.17043908333333,26.069662166666667],[-80.1703055,26.06977636111111],[-80.17019297222222,26.069903361111113],[-80.17010302777778,26.070038694444445],[-80.17003588888889,26.070178],[-80.16999055555556,26.070317305555555],[-80.16996516666667,26.07045325],[-80.16995727777778,26.07058333333333]]},"properties":{"style":"solid","thickness":1}},{"type":"Feature","geometry":{"type":"LineString","coordinates":[[-80.09946761111111,26.37900738888889],[-80.09591277777777,26.37922647222222]]},"properties":{"style":"solid","thickness":1}},{"type":"Feature","geometry":{"type":"LineString","coordinates":[[-80.10825802777777,26.385910083333332],[-80.10850158333332,26.389111944444444]]},"properties":{"style":"solid","thickness":1}},{"type":"Feature","geometry":{"type":"LineString","coordinates":[[-80.10713091666666,26.371089916666666],[-80.10688744444444,26.367888]]},"properties":{"style":"solid","thickness":1}},{"type":"Feature","geometry":{"type":"LineString","coordinates":[[-80.11592122222221,26.37799216666667],[-80.11947597222222,26.377772583333332]]},"properties":{"style":"solid","thickness":1}},{"type":"Feature","geometry":{"type":"LineString","coordinates":[[-80.09946761111111,26.37900738888889],[-80.1000456111111,26.381275416666668],[-80.10137441666666,26.383271027777777],[-80.10332366666665,26.384798305555556],[-80.105702,26.38570738888889],[-80.10827591666666,26.385908944444445],[-80.11079277777777,26.38538325],[-80.11300544444444,26.38418188888889],[-80.11469675,26.38242277777778],[-80.11570066666665,26.38027863888889],[-80.11591866666666,26.37795991666667],[-80.11532944444444,26.375694250000002],[-80.1139908611111,26.373704],[-80.11203430555555,26.372184472222223],[-80.10965183333333,26.371284833333334],[-80.10707724999999,26.37109338888889],[-80.10456325,26.37162888888889],[-80.10235655555555,26.37283877777778],[-80.10067372222221,26.37460436111111],[-80.09967994444445,26.376752305555556],[-80.09946761111111,26.37900738888889]]},"properties":{"style":"solid","thickness":1}},{"type":"Feature","geometry":{"type":"LineString","coordinates":[[-80.12531847222222,26.442653055555557],[-80.13092325,26.442292444444444],[-80.12461772222221,26.43384627777778],[-80.13022205555555,26.433485722222223],[-80.12531847222222,26.442653055555557]]},"properties":{"style":"solid","thickness":1}}]}
