{"type":"FeatureCollection","features":[{"type":"Feature","geometry":{"type":"LineString","coordinates":[[-80.15276961111111,25.75470025],[-80.15550472222223,25.748737083333335]]},"properties":{"style":"solid","thickness":1}},{"type":"Feature","geometry":{"type":"LineString","coordinates":[[-80.0819581111111,26.260066083333335],[-80.08124438888889,26.262634277777778],[-80.08103988888888,26.26428538888889]]},"properties":{"style":"solid","thickness":1}},{"type":"Feature","geometry":{"type":"LineString","coordinates":[[-80.15712319444445,25.68240861111111],[-80.15681933333335,25.67828027777778],[-80.15590813888889,25.677271166666667],[-80.15489572222222,25.674977666666667],[-80.15600927777778,25.673142833333333],[-80.15580677777778,25.672041944444445],[-80.15702147222223,25.668647500000002],[-80.15752755555556,25.666537444444444],[-80.15995702777778,25.666262138888886],[-80.16137438888889,25.668188611111113],[-80.16451313888889,25.674151555555557],[-80.1674493888889,25.677545694444447],[-80.16987958333334,25.68075636111111],[-80.17028466666667,25.681673722222225],[-80.16917105555557,25.681949055555556],[-80.16167911111111,25.682133194444447],[-80.15712319444445,25.68240861111111]]},"properties":{"style":"solid","thickness":1}},{"type":"Feature","geometry":{"type":"LineString","coordinates":[[-80.07714219444443,26.31317727777778],[-80.07724455555555,26.312260000000002],[-80.07745230555555,26.305747083333333],[-80.07786369444445,26.29905077777778],[-80.07786697222222,26.293913722222225],[-80.07837994444444,26.28740091666667],[-80.07848622222222,26.28024575],[-80.08011955555556,26.27180711111111],[-80.08103988888888,26.26428538888889]]},"properties":{"style":"solid","thickness":1}},{"type":"Feature","geometry":{"type":"LineString","coordinates":[[-80.13775855555556,25.894052333333335],[-80.13035394444444,25.897445722222223],[-80.12903516666665,25.89854638888889],[-80.126398,25.898637666666666],[-80.12649880555554,25.90138986111111],[-80.1277156111111,25.90313311111111],[-80.12670080555554,25.90533469444444],[-80.12690330555554,25.906986027777776],[-80.1268016111111,25.90817861111111],[-80.12649699999999,25.909462916666666],[-80.12629369444444,25.91138938888889],[-80.12619127777778,25.915701111111108],[-80.12629241666666,25.917077222222222],[-80.12761105555555,25.91771963888889],[-80.1288283611111,25.917903305555555],[-80.12933616666666,25.91496775],[-80.13075691666666,25.912032333333332],[-80.13146769444444,25.908087638888887],[-80.13451108333334,25.906253277777775],[-80.13623555555556,25.905611305555553],[-80.13816297222223,25.904235444444442],[-80.14090175000001,25.903501777777777],[-80.14374197222223,25.90221763888889],[-80.14627800000001,25.89799777777778],[-80.14820516666667,25.89653002777778],[-80.15114661111112,25.89276877777778],[-80.15378355555556,25.887172694444445],[-80.15560905555556,25.884787444444445],[-80.1591585,25.882310361111113],[-80.16402619444445,25.880383555555557],[-80.16493866666667,25.87799825],[-80.16595227777778,25.873594666666666],[-80.16696608333334,25.871209333333333],[-80.16879113888889,25.869557833333335],[-80.17234008333334,25.86854827777778],[-80.17294833333334,25.867447333333335],[-80.17355575,25.861759388888892],[-80.17284475000001,25.85460377777778],[-80.17284433333334,25.852035083333334],[-80.17385800000001,25.850842305555556],[-80.17487125000001,25.847447805555554],[-80.17578266666668,25.842035],[-80.17780994444445,25.840566833333334],[-80.17953291666667,25.83854825],[-80.18115480555556,25.837905777777777],[-80.18206661111111,25.83561208333333],[-80.18155927777778,25.833593916666665],[-80.18054441666668,25.82882363888889],[-80.17983427777779,25.826346805555556],[-80.18003627777779,25.823135861111112],[-80.18094811111112,25.82130088888889]]},"properties":{"style":"solid","thickness":1}},{"type":"Feature","geometry":{"type":"LineString","coordinates":[[-80.1484131388889,25.76378247222222],[-80.14983152777778,25.763232055555555],[-80.1491223888889,25.761947666666668],[-80.14091675,25.756442805555555],[-80.1390931388889,25.757268305555556],[-80.13787727777779,25.758644277777776],[-80.13737055555556,25.75992861111111],[-80.13554675,25.761579722222223],[-80.1351413888889,25.762405333333334],[-80.14010547222223,25.764057194444444],[-80.1484131388889,25.76378247222222]]},"properties":{"style":"solid","thickness":1}},{"type":"Feature","geometry":{"type":"LineString","coordinates":[[-80.15276961111111,25.75470025],[-80.15125,25.756718527777778],[-80.14962902777778,25.759012],[-80.14729908333334,25.756076222222223],[-80.14618486111112,25.753507444444445],[-80.14709675,25.750113111111112],[-80.14750205555556,25.747911333333334],[-80.14770472222223,25.74635177777778],[-80.14537480555556,25.74772777777778],[-80.14608380555556,25.749103916666666],[-80.14426025,25.751122111111112],[-80.14304461111112,25.751488972222223],[-80.14122122222223,25.75103013888889],[-80.14182925,25.748461472222225],[-80.1446658888889,25.745159],[-80.14537508333333,25.7432325],[-80.14669202777779,25.74103077777778],[-80.14800891666667,25.739562972222224],[-80.15135155555556,25.738003472222225],[-80.15317480555557,25.73745302777778],[-80.15246577777778,25.735985194444446],[-80.14983225,25.736535611111112],[-80.15054133333334,25.73304947222222],[-80.15125036111111,25.73204033333333],[-80.1537825,25.732315555555555],[-80.15428894444445,25.732499055555554],[-80.15428897222223,25.734609083333336],[-80.154998,25.73561822222222],[-80.15651733333334,25.73626036111111],[-80.15834044444445,25.733875055555558],[-80.16583541666667,25.731397583333333],[-80.16725347222223,25.73203963888889],[-80.16917794444444,25.732314666666664],[-80.1695835,25.735342055555556],[-80.17039416666667,25.737635472222223],[-80.1723191388889,25.740479166666667],[-80.17454794444446,25.74249713888889],[-80.17941072222223,25.745432027777778],[-80.17991752777779,25.746808055555558],[-80.17951255555556,25.747725527777778],[-80.17748669444445,25.748276333333333],[-80.17201580555556,25.743873611111113],[-80.16502591666668,25.73910386111111],[-80.16340525000001,25.739104],[-80.16300013888889,25.739654472222224],[-80.16381058333334,25.7410305],[-80.16654577777778,25.74332377777778],[-80.17140869444445,25.748093750000002],[-80.17272594444445,25.75029536111111],[-80.17232080555556,25.75066236111111],[-80.16887613888889,25.747543611111112],[-80.16472275000001,25.746167916666668],[-80.16229152777778,25.745250666666667],[-80.16249400000001,25.743874555555557],[-80.16188611111112,25.74222327777778],[-80.15965758333334,25.74103075],[-80.16036672222222,25.742773805555558],[-80.16046816666667,25.745067305555555],[-80.15965783333334,25.74580127777778],[-80.1570241388889,25.746351805555555],[-80.15672027777778,25.74809488888889],[-80.15550472222223,25.748737083333335]]},"properties":{"style":"solid","thickness":1}},{"type":"Feature","geometry":{"type":"LineString","coordinates":[[-80.14861711111112,25.727361527777777],[-80.1494276388889,25.717820527777775],[-80.15094680555556,25.71451788888889],[-80.15327602777778,25.70892172222222],[-80.15661750000001,25.699655888888888],[-80.15742741666668,25.69580275],[-80.15752822222223,25.684335166666667],[-80.16552647222223,25.683417277777778],[-80.16684272222223,25.684151083333333],[-80.16745019444446,25.684059277777777],[-80.16775377777778,25.682958361111112],[-80.16856372222223,25.68286652777778],[-80.17099369444445,25.683783666666667],[-80.17271455555556,25.681948611111114],[-80.17443569444445,25.682040111111114],[-80.17534697222223,25.682590416666667],[-80.1766633888889,25.683874583333335],[-80.17909355555555,25.68525027777778],[-80.17970116666667,25.685800611111112],[-80.17949886111111,25.686626305555556],[-80.17818283333334,25.687543944444446],[-80.17727166666667,25.687819333333334],[-80.17615766666667,25.686351666666667],[-80.17403125,25.685067611111112],[-80.17312005555556,25.6851595],[-80.17301897222222,25.68616863888889],[-80.17362655555556,25.686719],[-80.17555052777779,25.688186583333334],[-80.17777816666667,25.689011861111112],[-80.17879077777778,25.689653888888888],[-80.17808230555556,25.69093838888889],[-80.17534905555556,25.693599305555555],[-80.17372947222222,25.69616827777778],[-80.17200841666667,25.697911583333333],[-80.17119869444446,25.70002172222222],[-80.17059125,25.70075575],[-80.16907252777779,25.701948555555553],[-80.17008566666667,25.705618055555554],[-80.17261741666667,25.70681036111111],[-80.17514936111111,25.708553055555555],[-80.17717483333334,25.709378388888886],[-80.17758016666667,25.710754444444444],[-80.17585855555556,25.71038775],[-80.17474469444446,25.71075488888889],[-80.17363075,25.710663333333333],[-80.17221302777779,25.710846999999998],[-80.17160533333333,25.710296638888888],[-80.16988361111112,25.70901247222222],[-80.16623822222223,25.710572444444445],[-80.163099,25.71130663888889],[-80.162694,25.712132333333333],[-80.16431430555556,25.712223944444442],[-80.1641118888889,25.713600055555556],[-80.16178283333333,25.715710277777777],[-80.16269436111112,25.71653586111111],[-80.16056780555556,25.71928822222222],[-80.15925127777778,25.71974697222222],[-80.15864372222222,25.721765305555554],[-80.15732713888889,25.722499277777775],[-80.15590927777778,25.72350844444444],[-80.15651705555557,25.727086305555552],[-80.15884652777778,25.726811027777774],[-80.15752991666668,25.728187166666665],[-80.15378247222223,25.729288138888887],[-80.14861711111112,25.727361527777777]]},"properties":{"style":"solid","thickness":1}},{"type":"Feature","geometry":{"type":"LineString","coordinates":[[-80.0819581111111,26.260066083333335],[-80.08705277777777,26.246308388888888],[-80.09072441666666,26.228421805555556],[-80.09133858333333,26.220991555555553],[-80.0963401111111,26.183657444444446],[-80.09827563888888,26.175585472222224],[-80.10011191666666,26.16155061111111],[-80.10103044444443,26.15329472222222],[-80.10255880555555,26.144763805555556],[-80.10388422222222,26.1349485],[-80.1044975,26.12641725],[-80.10551647222222,26.119629083333333],[-80.10541688888888,26.11458355555556],[-80.1053173611111,26.109446277777778],[-80.10633591666667,26.1032085],[-80.1080655,26.097154416666665],[-80.10857544444444,26.09192558333333],[-80.11020255555555,26.087522694444445],[-80.10979813888888,26.082201833333333],[-80.11091797222221,26.075505361111112],[-80.11163177777777,26.067707916666667],[-80.11102463888888,26.06119438888889],[-80.11173863888888,26.05257127777778],[-80.11326336111111,26.048627000000003],[-80.11478894444444,26.041747083333334],[-80.114995,26.03257338888889],[-80.11540305555555,26.026702277777776],[-80.11642244444444,26.0137675],[-80.11723719444444,26.005327805555556],[-80.11744291666666,25.996429250000002],[-80.11927472222222,25.980375499999997],[-80.12008952777776,25.97028444444444],[-80.12039966666666,25.949735055555557],[-80.12060522222221,25.940194277777778],[-80.12121680555555,25.929736166666668],[-80.12162627777776,25.915975416666665],[-80.12264252777777,25.90891172222222],[-80.12426805555555,25.898453777777778],[-80.12396572222221,25.890472388888888],[-80.12346022222222,25.884050527777777],[-80.12214322222222,25.878729361111112],[-80.12052461111111,25.86423416666667],[-80.120019,25.85928011111111],[-80.11981763888888,25.85414263888889],[-80.1201223611111,25.852216194444445]]},"properties":{"style":"solid","thickness":1}},{"type":"Feature","geometry":{"type":"LineString","coordinates":[[-80.12053291666666,25.833960055555554],[-80.12195488888888,25.823410305555555],[-80.12357969444444,25.811484444444446],[-80.12398586111111,25.80836536111111],[-80.12611572222221,25.801760472222224],[-80.12895444444443,25.79662352777778],[-80.13017222222221,25.787908416666667],[-80.13159283333333,25.777083305555553],[-80.13230302777777,25.771854194444444],[-80.13331655555555,25.769836055555555],[-80.13412786111111,25.764973916666666],[-80.13787630555557,25.76635047222222],[-80.13888925,25.76809363888889],[-80.14010472222223,25.770937694444445],[-80.141827,25.772497444444443],[-80.14344786111111,25.77561672222222],[-80.14668966666667,25.78580005555556],[-80.14719616666667,25.7888275],[-80.14577741666668,25.790203555555557],[-80.14648661111111,25.79304752777778],[-80.14871580555557,25.799469416666668],[-80.14901972222223,25.802496861111113],[-80.14851291666668,25.805065555555558],[-80.14831011111112,25.807175583333333]]},"properties":{"style":"solid","thickness":1}},{"type":"Feature","geometry":{"type":"LineString","coordinates":[[-80.13726072222222,25.824146694444444],[-80.13705791666668,25.824788833333333],[-80.13573983333335,25.827082194444444],[-80.13391511111112,25.82781588888889],[-80.13138047222222,25.8302925],[-80.13148152777777,25.832035583333333],[-80.13401519444444,25.83579725],[-80.13472461111112,25.837265194444445],[-80.13350725000001,25.842402472222222],[-80.13441880555557,25.847906972222223],[-80.13441861111112,25.849191333333334],[-80.1367503888889,25.849925527777778],[-80.14273227777778,25.848825194444444],[-80.14719294444446,25.85460502777778],[-80.1468886388889,25.857265472222224],[-80.145469,25.85955888888889],[-80.1442518888889,25.86451277777778],[-80.14293358333335,25.866072250000002],[-80.14313566666668,25.874604055555555],[-80.14313502777779,25.882401916666666],[-80.14232355555556,25.884053166666668],[-80.1413088888889,25.88928222222222],[-80.14059877777778,25.890841722222223],[-80.13775855555556,25.894052333333335]]},"properties":{"style":"solid","thickness":1}},{"type":"Feature","geometry":{"type":"LineString","coordinates":[[-80.1850618888889,26.039822083333334],[-80.19714236111112,26.029360805555555]]},"properties":{"style":"solid","thickness":1}},{"type":"Feature","geometry":{"type":"LineString","coordinates":[[-80.1206608611111,26.1077075],[-80.1152735,26.114402972222223]]},"properties":{"style":"solid","thickness":1}},{"type":"Feature","geometry":{"type":"LineString","coordinates":[[-80.12067763888888,26.04642713888889],[-80.11336730555556,26.041563222222223]]},"properties":{"style":"solid","thickness":1}},{"type":"Feature","geometry":{"type":"LineString","coordinates":[[-80.20320436111112,26.23122486111111],[-80.20340580555556,26.231098416666665],[-80.20360697222222,26.23097161111111],[-80.20380786111112,26.230844416666667],[-80.20400847222223,26.230716833333332],[-80.20420880555555,26.23058888888889],[-80.20440883333333,26.230460583333333],[-80.20460858333334,26.23033186111111],[-80.20480802777779,26.230202805555553],[-80.20500719444445,26.230073333333333],[-80.20520605555556,26.229943527777777],[-80.2054046388889,26.229813305555552],[-80.20560291666666,26.22968275],[-80.20580088888889,26.229551805555555],[-80.20599858333334,26.2294205],[-80.20619597222222,26.229288805555555],[-80.20639305555555,26.229156749999998],[-80.20658983333334,26.22902433333333],[-80.20678630555555,26.228891555555553],[-80.20698247222222,26.228758416666665],[-80.20717836111112,26.228624888888888],[-80.20737391666667,26.228490999999998],[-80.20756916666667,26.22835675],[-80.20776411111112,26.22822213888889],[-80.20795875,26.228087166666665],[-80.20815308333334,26.227951833333332],[-80.20834708333334,26.227816166666663],[-80.20854080555556,26.22768011111111],[-80.20873416666667,26.227543694444442],[-80.20892725,26.227406916666666],[-80.20912,26.227269805555554],[-80.20931241666666,26.22713233333333],[-80.20950452777778,26.22699447222222],[-80.20969630555555,26.226856305555554],[-80.20988777777778,26.22671775],[-80.21007891666667,26.226578861111108],[-80.21026972222222,26.22643961111111],[-80.21046022222222,26.226300027777775],[-80.2106503888889,26.226160083333333],[-80.21084022222223,26.226019777777775]]},"properties":{"style":"solid","thickness":1}},{"type":"Feature","geometry":{"type":"LineString","coordinates":[[-80.21387591666667,26.171999805555558],[-80.21372258333334,26.171820805555555],[-80.21356744444445,26.17164288888889],[-80.21341047222222,26.171466083333335],[-80.21325169444445,26.17129038888889],[-80.21309113888888,26.17111588888889],[-80.21292880555556,26.17094252777778],[-80.21276472222222,26.17077038888889],[-80.21259888888889,26.170599472222225],[-80.21243130555555,26.17042977777778],[-80.21226205555556,26.170261361111113],[-80.21209108333333,26.17009422222222],[-80.21191844444445,26.16992838888889],[-80.21174416666668,26.16976386111111],[-80.21156825,26.169600694444444],[-80.21139072222222,26.16943888888889],[-80.21121158333334,26.169278472222224],[-80.21103086111111,26.169119472222224],[-80.21084861111112,26.16896186111111],[-80.21066480555555,26.168805694444444],[-80.2104795,26.168651],[-80.21029269444445,26.16849777777778],[-80.21010441666667,26.168346055555556],[-80.20991466666666,26.168195833333336],[-80.20972352777778,26.16804713888889],[-80.20953097222223,26.1679],[-80.20933702777778,26.167754416666668],[-80.20914172222223,26.16761038888889],[-80.20894508333333,26.167467972222223],[-80.2087471388889,26.167327166666666],[-80.20854791666667,26.167187972222223],[-80.20834741666667,26.16705041666667],[-80.20814569444445,26.1669145],[-80.20794275,26.166780250000002],[-80.2077386388889,26.166647666666666],[-80.20753336111112,26.166516805555553],[-80.20732691666667,26.16638761111111],[-80.2071193888889,26.166260138888887],[-80.20691077777778,26.16613436111111],[-80.20670108333334,26.16601036111111]]},"properties":{"style":"solid","thickness":1}},{"type":"Feature","geometry":{"type":"LineString","coordinates":[[-80.14161544444445,26.166083777777775],[-80.14139150000001,26.16619272222222],[-80.14116827777778,26.166303055555556],[-80.14094577777779,26.16641472222222],[-80.140724,26.166527777777777],[-80.14050300000001,26.166642166666666],[-80.14028275000001,26.16675791666667],[-80.14006330555556,26.166875],[-80.13984463888889,26.166993444444447],[-80.13962680555557,26.167113194444447],[-80.13940977777779,26.16723425],[-80.13919361111111,26.16735663888889],[-80.13897830555557,26.167480333333334],[-80.13876388888889,26.167605333333334],[-80.13855033333334,26.167731611111112],[-80.13833769444444,26.167859194444446],[-80.13812597222223,26.167988027777778],[-80.13791516666667,26.16811816666667],[-80.13770533333334,26.16824952777778],[-80.13749644444445,26.168382166666667],[-80.13728852777778,26.16851602777778],[-80.13708158333334,26.16865113888889],[-80.13687566666667,26.168787472222224],[-80.13667075000001,26.168925],[-80.13646683333334,26.16906377777778],[-80.13626400000001,26.169203722222225],[-80.13606219444445,26.169344861111114],[-80.13586144444444,26.169487166666666],[-80.13566177777778,26.169630666666666],[-80.13546322222223,26.169775305555557],[-80.13526575,26.169921111111112],[-80.1350693888889,26.17006802777778],[-80.13487416666668,26.170216111111113],[-80.13468008333334,26.17036527777778],[-80.1344871388889,26.170515555555557],[-80.13429536111111,26.170666944444445],[-80.13410477777778,26.170819416666667],[-80.13391533333333,26.170972944444447],[-80.13372711111111,26.171127555555557],[-80.13354011111112,26.171283194444445]]},"properties":{"style":"solid","thickness":1}},{"type":"Feature","geometry":{"type":"LineString","coordinates":[[-80.13030741666665,26.225300722222222],[-80.13043783333333,26.225502083333332],[-80.13057216666667,26.22570197222222],[-80.1307103611111,26.22590036111111],[-80.13085244444444,26.226097138888885],[-80.13099833333332,26.22629222222222],[-80.131148,26.226485527777776],[-80.13130141666666,26.226676944444442],[-80.13145852777777,26.226866388888887],[-80.13161930555555,26.227053777777776],[-80.13178369444444,26.227239055555554],[-80.13195163888888,26.22742208333333],[-80.13212308333333,26.227602833333332],[-80.13229797222222,26.227781194444443],[-80.13247625,26.22795711111111],[-80.13265783333333,26.22813047222222],[-80.13284269444443,26.22830122222222],[-80.13303072222222,26.228469277777776],[-80.13322186111111,26.22863458333333],[-80.13341602777778,26.228797055555553],[-80.13361313888889,26.22895661111111],[-80.1338131388889,26.22911322222222],[-80.13401594444446,26.22926683333333],[-80.13422144444445,26.22941733333333],[-80.13442955555556,26.22956469444444],[-80.13464022222223,26.22970886111111],[-80.13485330555557,26.229849777777776],[-80.13506875,26.229987388888887],[-80.13528644444445,26.230121666666665],[-80.13550630555557,26.230252555555555],[-80.13572822222223,26.230379999999997],[-80.13595211111112,26.230504],[-80.13617786111112,26.23062447222222],[-80.13640538888889,26.230741444444444],[-80.13663458333335,26.230854833333332],[-80.13686533333335,26.23096463888889],[-80.13709752777778,26.23107086111111],[-80.13733111111112,26.231173416666664],[-80.13756594444445,26.23127236111111],[-80.13780194444445,26.23136761111111]]},"properties":{"style":"solid","thickness":1}},{"type":"Feature","geometry":{"type":"LineString","coordinates":[[-80.16139219444445,26.2347755],[-80.16163561111112,26.234765361111112],[-80.16187902777779,26.234754916666667],[-80.16212241666668,26.234744194444445],[-80.16236577777778,26.234733194444445],[-80.1626091388889,26.23472188888889],[-80.1628525,26.234710305555556],[-80.16309583333334,26.234698416666667],[-80.16333916666667,26.23468625],[-80.16358247222223,26.234673805555556],[-80.16382575,26.234661055555556],[-80.16406902777778,26.23464802777778],[-80.16431227777778,26.234634694444445],[-80.16455552777778,26.234621083333334],[-80.16479875,26.234607166666667],[-80.16504194444445,26.234593],[-80.16528511111112,26.2345785],[-80.16552827777778,26.23456375],[-80.16577141666667,26.234548694444445],[-80.16601452777779,26.234533333333335],[-80.1662576388889,26.234517722222222],[-80.16650069444445,26.23450177777778],[-80.16674375000001,26.234485583333335],[-80.16698677777778,26.234469083333334],[-80.16722977777778,26.23445227777778],[-80.16747272222223,26.234435222222224],[-80.16771566666667,26.234417833333335],[-80.16795861111112,26.234400194444447],[-80.16820150000001,26.23438225],[-80.16844436111111,26.23436402777778],[-80.16868719444444,26.2343455],[-80.16893,26.234326694444444],[-80.16917275,26.234307611111113],[-80.1694155,26.234288222222222],[-80.16965822222222,26.234268555555555],[-80.16990088888889,26.234248583333333],[-80.17014352777778,26.234228333333334],[-80.17038616666667,26.234207805555556],[-80.17062872222223,26.234186972222222],[-80.17087127777778,26.234165861111112]]},"properties":{"style":"solid","thickness":1}},{"type":"Feature","geometry":{"type":"LineString","coordinates":[[-80.49167263888889,25.586003388888887],[-80.4921345,25.585801055555553],[-80.49259463888889,25.585594694444442],[-80.493053,25.585384333333334],[-80.4935095,25.585169916666665],[-80.49396408333334,25.584951555555556],[-80.49441669444444,25.584729222222222],[-80.49486725,25.584502916666665],[-80.49531572222223,25.58427272222222],[-80.49576205555556,25.58403861111111],[-80.4962061388889,25.58380063888889],[-80.49664791666667,25.583558805555555],[-80.49708738888889,25.583313166666667],[-80.49752441666666,25.58306372222222],[-80.49795902777778,25.582810527777777],[-80.49839108333333,25.582553583333333],[-80.49882055555555,25.582292972222223],[-80.49924738888889,25.582028666666666],[-80.49967152777778,25.58176072222222],[-80.50009291666667,25.581489194444444],[-80.5005115,25.581214111111112],[-80.50092722222222,25.580935472222222],[-80.50134002777777,25.580653333333334],[-80.50174983333334,25.580367777777777],[-80.50215663888889,25.58007877777778],[-80.5025603888889,25.579786416666668],[-80.50296097222223,25.579490694444445],[-80.50335841666667,25.579191694444443],[-80.50375261111111,25.578889444444446],[-80.50414355555556,25.578583972222223],[-80.50453116666667,25.57827536111111],[-80.50491541666666,25.577963583333332],[-80.50529625,25.577648777777778],[-80.5056736111111,25.577330916666668],[-80.5060475,25.577010055555554],[-80.50641783333333,25.576686277777778],[-80.50678458333333,25.576359611111112],[-80.50714772222223,25.576030111111113],[-80.50750719444444,25.575697805555556],[-80.50786297222223,25.575362777777777]]},"properties":{"style":"solid","thickness":1}},{"type":"Feature","geometry":{"type":"LineString","coordinates":[[-80.51882502777778,25.560192694444446],[-80.51902177777778,25.559763111111113],[-80.51921430555555,25.55933152777778],[-80.51940252777777,25.558898],[-80.51958644444444,25.55846261111111],[-80.51976602777778,25.55802538888889],[-80.51994119444444,25.557586416666666],[-80.52011197222222,25.557145694444444],[-80.52027830555555,25.556703333333335],[-80.52044016666666,25.556259333333333],[-80.52059752777778,25.555813805555555],[-80.52075036111111,25.555366777777778],[-80.5208986388889,25.554918305555557],[-80.52104236111111,25.554468444444446],[-80.52118147222222,25.554017277777778],[-80.52131597222223,25.553564833333333],[-80.52144583333333,25.553111166666667],[-80.52157102777778,25.55265636111111],[-80.52169155555555,25.55220047222222],[-80.52180736111112,25.551743527777777],[-80.52191847222223,25.55128563888889],[-80.5220248611111,25.550826805555555],[-80.52212652777777,25.55036713888889],[-80.52222341666666,25.549906694444445],[-80.52231558333334,25.5494455],[-80.52240294444444,25.548983638888892],[-80.52248552777777,25.548521194444447],[-80.52256336111111,25.548058166666667],[-80.52263636111111,25.54759466666667],[-80.52270458333334,25.54713075],[-80.522768,25.546666444444448],[-80.52282663888889,25.54620186111111],[-80.52288044444444,25.54573702777778],[-80.52292947222222,25.545272],[-80.52297369444445,25.544806861111113],[-80.52301313888889,25.544341666666668],[-80.52304775,25.543876472222223],[-80.5230776111111,25.543411333333335],[-80.52310266666666,25.542946305555557],[-80.52312297222223,25.542481472222224]]},"properties":{"style":"solid","thickness":1}},{"type":"Feature","geometry":{"type":"LineString","coordinates":[[-80.52020358333333,25.52454938888889],[-80.52003644444444,25.52411075],[-80.51986469444445,25.523673194444445],[-80.51968836111111,25.523236777777775],[-80.51950747222222,25.522801555555553],[-80.519322,25.522367555555554],[-80.51913197222223,25.52193488888889],[-80.51893741666666,25.52150358333333],[-80.5187383611111,25.521073694444443],[-80.51853480555556,25.520645305555554],[-80.51832677777777,25.520218444444442],[-80.51811427777778,25.519793194444443],[-80.51789736111111,25.519369583333333],[-80.51767605555555,25.518947694444442],[-80.51745033333333,25.51852758333333],[-80.51722027777778,25.51810927777778],[-80.51698588888888,25.517692888888888],[-80.51674719444445,25.517278416666667],[-80.51650422222222,25.516865916666667],[-80.51625702777778,25.516455472222223],[-80.51600561111111,25.51604713888889],[-80.51575,25.515640972222222],[-80.51549027777777,25.515236972222223],[-80.51522644444445,25.51483525],[-80.51495852777778,25.51443586111111],[-80.51468658333333,25.514038805555554],[-80.51441063888889,25.513644166666666],[-80.51413072222222,25.51325197222222],[-80.51384691666667,25.512862305555554],[-80.51355922222223,25.51247516666667],[-80.51326769444445,25.512090666666666],[-80.51297236111111,25.511708777777777],[-80.51267330555555,25.511329611111112],[-80.51237052777778,25.510953194444443],[-80.51206408333333,25.510579555555555],[-80.51175405555556,25.510208722222224],[-80.51144044444445,25.50984077777778],[-80.51112333333333,25.50947575],[-80.51080275,25.509113666666668],[-80.51047875,25.50875458333333]]},"properties":{"style":"solid","thickness":1}},{"type":"Feature","geometry":{"type":"LineString","coordinates":[[-80.4951596111111,25.49708588888889],[-80.4947135,25.496858444444445],[-80.49426472222223,25.496634555555556],[-80.49381333333334,25.496414305555557],[-80.49335938888889,25.496197694444444],[-80.49290297222223,25.49598475],[-80.49244408333334,25.495775555555557],[-80.49198280555555,25.49557011111111],[-80.49151919444445,25.495368472222225],[-80.49105330555555,25.49517063888889],[-80.49058522222222,25.494976666666666],[-80.49011494444444,25.494786583333333],[-80.48964258333334,25.49460038888889],[-80.48916816666667,25.49441813888889],[-80.48869177777777,25.494239888888888],[-80.48821347222223,25.49406561111111],[-80.48773327777778,25.493895333333334],[-80.48725130555556,25.49372913888889],[-80.48676758333333,25.493567000000002],[-80.48628219444444,25.493408944444447],[-80.48579516666666,25.493255],[-80.48530661111111,25.493105166666666],[-80.48481658333334,25.492959527777778],[-80.48432511111112,25.49281802777778],[-80.48383230555555,25.49268072222222],[-80.48333819444444,25.492547611111114],[-80.48284286111111,25.492418694444446],[-80.48234636111111,25.492294027777778],[-80.48184877777778,25.492173611111113],[-80.48135013888889,25.492057444444445],[-80.48085055555556,25.49194552777778],[-80.48035008333333,25.491837888888888],[-80.47984877777778,25.49173452777778],[-80.47934669444444,25.491635444444444],[-80.47884391666666,25.49154066666667],[-80.47834052777777,25.491450194444447],[-80.47783655555556,25.491364],[-80.47733208333334,25.49128211111111],[-80.47682719444444,25.49120452777778],[-80.47632194444445,25.491131250000002]]},"properties":{"style":"solid","thickness":1}},{"type":"Feature","geometry":{"type":"LineString","coordinates":[[-80.45640222222222,25.491624916666666],[-80.4559001388889,25.491723500000003],[-80.45539866666667,25.49182641666667],[-80.45489791666667,25.49193361111111],[-80.45439791666666,25.49204513888889],[-80.45389875000001,25.492160944444446],[-80.45340047222223,25.492281055555555],[-80.45290313888889,25.492405472222224],[-80.45240686111111,25.49253413888889],[-80.45191166666667,25.492667083333334],[-80.4514176388889,25.492804250000002],[-80.45092483333333,25.492945694444444],[-80.45043333333334,25.493091361111112],[-80.44994316666667,25.493241222222224],[-80.44945444444444,25.493395305555556],[-80.44896722222222,25.493553555555557],[-80.44848155555556,25.493715972222223],[-80.4479975,25.493882527777778],[-80.44751513888889,25.494053222222224],[-80.44703452777779,25.494228],[-80.44655572222223,25.494406861111113],[-80.44607877777779,25.49458977777778],[-80.44560380555556,25.49477675],[-80.44513080555556,25.494967694444444],[-80.44465986111112,25.49516263888889],[-80.44419105555556,25.495361527777778],[-80.44372444444444,25.495564333333334],[-80.44326005555556,25.495771055555558],[-80.44279797222222,25.495981611111112],[-80.44233825,25.496196],[-80.44188094444445,25.496414194444444],[-80.44142611111111,25.49663616666667],[-80.44097380555556,25.49686186111111],[-80.44052408333334,25.49709125],[-80.440077,25.49732427777778],[-80.43963261111111,25.497560944444444],[-80.43919097222222,25.497801194444445],[-80.43875213888889,25.498045],[-80.4383161388889,25.49829227777778],[-80.43788302777779,25.498543055555558]]},"properties":{"style":"solid","thickness":1}},{"type":"Feature","geometry":{"type":"LineString","coordinates":[[-80.42331341666667,25.510965694444444],[-80.42301180555556,25.511340916666665],[-80.42271377777779,25.511718972222223],[-80.4224193888889,25.512099833333334],[-80.42212872222223,25.51248338888889],[-80.42184177777779,25.51286963888889],[-80.42155861111111,25.513258555555556],[-80.42127930555556,25.513650055555555],[-80.42100383333334,25.51404411111111],[-80.42073230555556,25.514440666666665],[-80.42046472222222,25.514839694444444],[-80.4202011388889,25.515241111111113],[-80.41994158333334,25.515644916666666],[-80.41968611111112,25.516051],[-80.41943472222222,25.51645936111111],[-80.4191875,25.516869916666664],[-80.41894444444445,25.517282638888886],[-80.41870561111112,25.517697444444444],[-80.41847102777778,25.518114305555553],[-80.41824072222222,25.518533166666664],[-80.41801472222222,25.51895397222222],[-80.41779305555556,25.519376666666666],[-80.41757577777778,25.519801166666667],[-80.41736288888889,25.520227444444444],[-80.41715441666668,25.52065547222222],[-80.41695038888889,25.52108513888889],[-80.41675083333334,25.521516388888887],[-80.41655575,25.521949222222222],[-80.41636519444445,25.522383527777777],[-80.41617916666667,25.522819249999998],[-80.41599772222223,25.52325636111111],[-80.41582080555555,25.523694777777777],[-80.4156485,25.524134444444442],[-80.41548080555556,25.52457533333333],[-80.41531769444445,25.52501733333333],[-80.41515925,25.525460416666665],[-80.41500541666667,25.525904527777776],[-80.41485625,25.52634958333333],[-80.41471175000001,25.526795527777775],[-80.4145718888889,25.527242333333334]]},"properties":{"style":"solid","thickness":1}},{"type":"Feature","geometry":{"type":"LineString","coordinates":[[-80.41277144444445,25.545339555555557],[-80.41282094444445,25.54580263888889],[-80.41287522222223,25.54626563888889],[-80.41293427777778,25.54672852777778],[-80.4129981388889,25.547191222222224],[-80.41306675,25.547653694444445],[-80.41314016666668,25.548115833333334],[-80.4132183888889,25.548577611111114],[-80.41330136111112,25.549038944444447],[-80.41338911111112,25.549499805555556],[-80.41348166666667,25.549960111111112],[-80.41357897222223,25.550419805555556],[-80.41368102777778,25.550878833333336],[-80.41378786111112,25.551337111111113],[-80.41389941666667,25.551794583333333],[-80.41401572222223,25.552251222222225],[-80.41413675000001,25.552706944444445],[-80.41426247222223,25.553161694444444],[-80.41439291666667,25.55361538888889],[-80.414528,25.554068],[-80.41466777777778,25.554519444444445],[-80.41481219444445,25.554969694444445],[-80.41496122222223,25.555418638888888],[-80.41511483333333,25.555866277777778],[-80.41527305555556,25.556312527777777],[-80.41543583333333,25.556757333333334],[-80.4156031388889,25.55720061111111],[-80.41577494444445,25.55764236111111],[-80.41595122222223,25.558082472222225],[-80.41613197222223,25.55852088888889],[-80.4163171388889,25.55895761111111],[-80.41650669444445,25.559392527777778],[-80.4167006388889,25.559825611111112],[-80.4168988888889,25.560256805555557],[-80.41710144444446,25.560686055555557],[-80.41730827777778,25.561113305555555],[-80.41751933333333,25.561538527777778],[-80.41773455555555,25.561961611111112],[-80.41795397222222,25.562382583333335],[-80.41817747222223,25.562801333333333]]},"properties":{"style":"solid","thickness":1}},{"type":"Feature","geometry":{"type":"LineString","coordinates":[[-80.43007491666667,25.577377138888888],[-80.43045077777778,25.57769286111111],[-80.4308301388889,25.578005666666666],[-80.43121297222223,25.5783155],[-80.43159922222223,25.578622333333332],[-80.4319888888889,25.578926083333332],[-80.4323818888889,25.57922675],[-80.43277816666667,25.579524222222222],[-80.43317772222223,25.57981852777778],[-80.43358047222223,25.580109583333332],[-80.4339863888889,25.58039736111111],[-80.43439538888889,25.580681833333333],[-80.43480747222223,25.580962916666667],[-80.43522255555555,25.581240583333333],[-80.43564061111111,25.581514833333333],[-80.43606155555555,25.581785583333332],[-80.43648533333334,25.582052805555556],[-80.43691194444445,25.58231647222222],[-80.43734127777778,25.582576555555555],[-80.43777330555555,25.582833],[-80.43820794444444,25.58308577777778],[-80.43864519444445,25.58333486111111],[-80.43908494444445,25.58358022222222],[-80.43952713888889,25.58382183333333],[-80.43997175,25.58405963888889],[-80.44041869444445,25.58429361111111],[-80.44086791666668,25.58452375],[-80.44131936111111,25.584750027777776],[-80.44177297222222,25.584972388888886],[-80.44222869444445,25.585190833333332],[-80.44268644444445,25.58540533333333],[-80.44314613888889,25.58561586111111],[-80.44360777777779,25.58582238888889],[-80.44407125000001,25.586024916666666],[-80.44453652777779,25.58622338888889],[-80.4450035,25.586417833333332],[-80.44547213888889,25.586608194444445],[-80.4459423888889,25.58679447222222],[-80.4464141388889,25.58697663888889],[-80.44688736111111,25.587154694444443]]},"properties":{"style":"solid","thickness":1}},{"type":"Feature","geometry":{"type":"LineString","coordinates":[[-80.45918183333333,25.590276305555555],[-80.45959569444445,25.590334388888888],[-80.46001022222222,25.590389638888887],[-80.46042544444445,25.590442083333333],[-80.46084127777777,25.59049169444444],[-80.46125769444444,25.590538444444444],[-80.46167466666667,25.59058236111111],[-80.46209213888889,25.590623416666666],[-80.46251011111111,25.59066163888889],[-80.46292852777778,25.590696944444442],[-80.46334736111112,25.590729416666665],[-80.46376658333334,25.590759],[-80.46418611111112,25.590785666666665],[-80.46460597222223,25.590809472222222],[-80.46502608333334,25.590830388888886],[-80.46544641666667,25.590848416666667],[-80.46586697222223,25.590863527777778],[-80.46628766666667,25.590875722222222],[-80.46670847222222,25.590885055555553],[-80.46712938888889,25.590891444444445],[-80.46755033333334,25.590894944444443],[-80.46797127777778,25.590895555555555],[-80.46839222222222,25.59089322222222],[-80.46881308333333,25.590888027777776],[-80.4692338611111,25.59087988888889],[-80.4696545,25.590868888888888],[-80.47007497222222,25.59085497222222],[-80.47049522222223,25.590838138888888],[-80.47091525,25.590818444444444],[-80.47133497222222,25.59079583333333],[-80.4717543888889,25.59077036111111],[-80.47217347222222,25.590742],[-80.47259213888888,25.59071075],[-80.4730103888889,25.590676638888887],[-80.47342819444445,25.590639666666664],[-80.47384547222222,25.590599833333332],[-80.47426225,25.590557138888887],[-80.47467844444445,25.59051161111111],[-80.47509402777779,25.590463277777776],[-80.47550897222223,25.590412083333334]]},"properties":{"style":"solid","thickness":1}},{"type":"Feature","geometry":{"type":"LineString","coordinates":[[-80.21043836111112,25.96710975],[-80.20858902777778,25.971103138888886],[-80.20206541666667,25.96268261111111]]},"properties":{"style":"solid","thickness":1}},{"type":"Feature","geometry":{"type":"LineString","coordinates":[[-79.503033,26.076496],[-79.503033,26.076496],[-79.498056,26.060833000000002]]},"properties":{"style":"solid","thickness":1}},{"type":"Feature","geometry":{"type":"LineString","coordinates":[[-79.582979,26.137560999999998],[-79.582979,26.137560999999998],[-79.503033,26.076496]]},"properties":{"style":"solid","thickness":1}},{"type":"Feature","geometry":{"type":"LineString","coordinates":[[-79.582979,26.137560999999998],[-79.582979,26.137560999999998],[-79.617222,26.211111]]},"properties":{"style":"solid","thickness":1}},{"type":"Feature","geometry":{"type":"LineString","coordinates":[[-79.617222,26.211111],[-79.617222,26.211111],[-79.7,26.383333]]},"properties":{"style":"solid","thickness":1}},{"type":"Feature","geometry":{"type":"LineString","coordinates":[[-79.7,26.383333],[-79.7,26.383333],[-79.865669,26.383444]]},"properties":{"style":"solid","thickness":1}},{"type":"Feature","geometry":{"type":"LineString","coordinates":[[-79.865669,26.383444],[-79.865669,26.383444],[-79.970442,26.383542]]},"properties":{"style":"solid","thickness":1}},{"type":"Feature","geometry":{"type":"LineString","coordinates":[[-79.970442,26.383542],[-79.970442,26.383542],[-80.05221399999999,26.383539]]},"properties":{"style":"solid","thickness":1}},{"type":"Feature","geometry":{"type":"LineString","coordinates":[[-80.16388900000001,26.383333],[-80.16388900000001,26.383333],[-80.180712,26.383371999999998]]},"properties":{"style":"solid","thickness":1}},{"type":"Feature","geometry":{"type":"LineString","coordinates":[[-80.180712,26.383371999999998],[-80.180712,26.383371999999998],[-80.358322,26.383625]]},"properties":{"style":"solid","thickness":1}},{"type":"Feature","geometry":{"type":"LineString","coordinates":[[-80.358322,26.383625],[-80.358322,26.383625],[-80.67194400000001,26.383333]]},"properties":{"style":"solid","thickness":1}},{"type":"Feature","geometry":{"type":"LineString","coordinates":[[-80.67194400000001,26.383333],[-80.67194400000001,26.383333],[-80.747644,26.313203]]},"properties":{"style":"solid","thickness":1}},{"type":"Feature","geometry":{"type":"LineString","coordinates":[[-80.747644,26.313203],[-80.747644,26.313203],[-80.89027800000001,26.180556000000003]]},"properties":{"style":"solid","thickness":1}},{"type":"Feature","geometry":{"type":"LineString","coordinates":[[-80.89027800000001,26.180556000000003],[-80.89027800000001,26.180556000000003],[-80.967622,26.104678]]},"properties":{"style":"solid","thickness":1}},{"type":"Feature","geometry":{"type":"LineString","coordinates":[[-80.967622,26.104678],[-80.967622,26.104678],[-80.976744,26.022050999999998]]},"properties":{"style":"solid","thickness":1}},{"type":"Feature","geometry":{"type":"LineString","coordinates":[[-80.976744,26.022050999999998],[-80.976744,26.022050999999998],[-80.985281,25.944728]]},"properties":{"style":"solid","thickness":1}},{"type":"Feature","geometry":{"type":"LineString","coordinates":[[-80.985281,25.944728],[-80.985281,25.944728],[-81.006484,25.748862000000003]]},"properties":{"style":"solid","thickness":1}},{"type":"Feature","geometry":{"type":"LineString","coordinates":[[-81.006484,25.748862000000003],[-81.006484,25.748862000000003],[-80.875,25.6375]]},"properties":{"style":"solid","thickness":1}},{"type":"Feature","geometry":{"type":"LineString","coordinates":[[-80.875,25.6375],[-80.875,25.6375],[-80.86066,25.616023000000002]]},"properties":{"style":"solid","thickness":1}},{"type":"Feature","geometry":{"type":"LineString","coordinates":[[-80.86066,25.616023000000002],[-80.86066,25.616023000000002],[-80.754167,25.462222]]},"properties":{"style":"solid","thickness":1}},{"type":"Feature","geometry":{"type":"LineString","coordinates":[[-80.754167,25.462222],[-80.754167,25.462222],[-80.742574,25.446868]]},"properties":{"style":"solid","thickness":1}},{"type":"Feature","geometry":{"type":"LineString","coordinates":[[-79.700018,25.707328999999998],[-79.700018,25.707328999999998],[-79.7,25.75]]},"properties":{"style":"solid","thickness":1}},{"type":"Feature","geometry":{"type":"LineString","coordinates":[[-79.7,25.75],[-79.7,25.75],[-79.652932,25.822751]]},"properties":{"style":"solid","thickness":1}},{"type":"Feature","geometry":{"type":"LineString","coordinates":[[-79.652932,25.822751],[-79.652932,25.822751],[-79.57034999999999,25.949947]]},"properties":{"style":"solid","thickness":1}},{"type":"Feature","geometry":{"type":"LineString","coordinates":[[-79.57034999999999,25.949947],[-79.57034999999999,25.949947],[-79.539998,25.996554]]},"properties":{"style":"solid","thickness":1}},{"type":"Feature","geometry":{"type":"LineString","coordinates":[[-79.539998,25.996554],[-79.539998,25.996554],[-79.498056,26.060833000000002]]},"properties":{"style":"solid","thickness":1}},{"type":"Feature","geometry":{"type":"LineString","coordinates":[[-80.16388900000001,26.383333],[-80.16388900000001,26.383333],[-80.164383,26.363789]]},"properties":{"style":"solid","thickness":1}},{"type":"Feature","geometry":{"type":"LineString","coordinates":[[-80.164383,26.363789],[-80.164383,26.363789],[-80.15989400000001,26.350067000000003]]},"properties":{"style":"solid","thickness":1}},{"type":"Feature","geometry":{"type":"LineString","coordinates":[[-80.15989400000001,26.350067000000003],[-80.15989400000001,26.350067000000003],[-80.15136100000001,26.337982999999998]]},"properties":{"style":"solid","thickness":1}},{"type":"Feature","geometry":{"type":"LineString","coordinates":[[-80.12315,26.321769],[-80.12315,26.321769],[-80.106342,26.319869]]},"properties":{"style":"solid","thickness":1}},{"type":"Feature","geometry":{"type":"LineString","coordinates":[[-80.106342,26.319869],[-80.106342,26.319869],[-80.08497799999999,26.324047]]},"properties":{"style":"solid","thickness":1}},{"type":"Feature","geometry":{"type":"LineString","coordinates":[[-80.059964,26.342719],[-80.059964,26.342719],[-80.051956,26.35905]]},"properties":{"style":"solid","thickness":1}},{"type":"Feature","geometry":{"type":"LineString","coordinates":[[-80.051956,26.35905],[-80.051956,26.35905],[-80.050364,26.373275]]},"properties":{"style":"solid","thickness":1}},{"type":"Feature","geometry":{"type":"LineString","coordinates":[[-80.050364,26.373275],[-80.050364,26.373275],[-80.05221399999999,26.383539]]},"properties":{"style":"solid","thickness":1}},{"type":"Feature","geometry":{"type":"LineString","coordinates":[[-79.68400425,26.39181027777778],[-79.68400425,26.39181027777778],[-79.65200575,26.408759472222222]]},"properties":{"style":"solid","thickness":1}},{"type":"Feature","geometry":{"type":"LineString","coordinates":[[-79.47992530555555,26.057476944444446],[-79.47992530555555,26.057476944444446],[-79.443591,26.05110175]]},"properties":{"style":"solid","thickness":1}},{"type":"Feature","geometry":{"type":"LineString","coordinates":[[-80.75435708333333,25.434021972222222],[-80.75435708333333,25.434021972222222],[-80.77288394444444,25.40545708333333]]},"properties":{"style":"solid","thickness":1}},{"type":"Feature","geometry":{"type":"LineString","coordinates":[[-81.05605733333333,25.799204111111113],[-81.05605733333333,25.799204111111113],[-81.01916402777778,25.800775722222223]]},"properties":{"style":"solid","thickness":1}},{"type":"Feature","geometry":{"type":"LineString","coordinates":[[-80.9282911388889,26.21714638888889],[-80.9282911388889,26.21714638888889],[-80.90294816666668,26.192752444444444]]},"properties":{"style":"solid","thickness":1}},{"type":"Feature","geometry":{"type":"LineString","coordinates":[[-80.66114766666668,26.52976613888889],[-80.66114766666668,26.52976613888889],[-80.67261422222222,26.561566305555555]]},"properties":{"style":"solid","thickness":1}},{"type":"Feature","geometry":{"type":"LineString","coordinates":[[-80.15274655555557,26.399864666666666],[-80.15274655555557,26.399864666666666],[-80.15824202777779,26.432927722222225]]},"properties":{"style":"solid","thickness":1}},{"type":"Feature","geometry":{"type":"LineString","coordinates":[[-80.19242055555556,26.093963055555555],[-80.19242055555556,26.093963055555555],[-80.18516541666666,26.089120194444444]]},"properties":{"style":"solid","thickness":1}},{"type":"Feature","geometry":{"type":"LineString","coordinates":[[-80.44008375,25.652635333333333],[-80.42491488888889,25.653279194444444]]},"properties":{"style":"solid","thickness":1}},{"type":"Feature","geometry":{"type":"LineString","coordinates":[[-80.44109527777778,25.642900833333332],[-80.42290666666668,25.643673777777778]]},"properties":{"style":"solid","thickness":1}},{"type":"Feature","geometry":{"type":"LineString","coordinates":[[-80.44079327777779,25.650570527777777],[-80.43113919444446,25.643892277777777]]},"properties":{"style":"solid","thickness":1}},{"type":"Feature","geometry":{"type":"LineString","coordinates":[[-80.39644380555556,25.47850686111111],[-80.37068902777777,25.498594416666666]]},"properties":{"style":"solid","thickness":1}},{"type":"Feature","geometry":{"type":"LineString","coordinates":[[-80.30154188888889,25.80289777777778],[-80.27543052777777,25.80397788888889]]},"properties":{"style":"solid","thickness":1}},{"type":"Feature","geometry":{"type":"LineString","coordinates":[[-80.31483813888889,25.78609502777778],[-80.27532530555555,25.787731333333333]]},"properties":{"style":"solid","thickness":1}},{"type":"Feature","geometry":{"type":"LineString","coordinates":[[-80.30228997222223,25.799285055555558],[-80.27752236111111,25.786617333333336]]},"properties":{"style":"solid","thickness":1}},{"type":"Feature","geometry":{"type":"LineString","coordinates":[[-80.301433,25.80069936111111],[-80.26953561111111,25.802018111111114]]},"properties":{"style":"solid","thickness":1}},{"type":"Feature","geometry":{"type":"LineString","coordinates":[[-80.28867230555555,25.912646666666664],[-80.26436283333334,25.913822083333333]]},"properties":{"style":"solid","thickness":1}},{"type":"Feature","geometry":{"type":"LineString","coordinates":[[-80.28516797222223,25.899039583333334],[-80.27208008333334,25.89966663888889]]},"properties":{"style":"solid","thickness":1}},{"type":"Feature","geometry":{"type":"LineString","coordinates":[[-80.28877972222222,25.91060975],[-80.27120552777778,25.900741083333333]]},"properties":{"style":"solid","thickness":1}},{"type":"Feature","geometry":{"type":"LineString","coordinates":[[-80.24407666666667,25.99783052777778],[-80.24401633333333,26.00704725]]},"properties":{"style":"solid","thickness":1}},{"type":"Feature","geometry":{"type":"LineString","coordinates":[[-80.23966247222222,25.997531277777778],[-80.23960336111111,26.00650061111111]]},"properties":{"style":"solid","thickness":1}},{"type":"Feature","geometry":{"type":"LineString","coordinates":[[-80.24478177777777,26.002266166666665],[-80.23491458333334,26.002213083333334]]},"properties":{"style":"solid","thickness":1}},{"type":"Feature","geometry":{"type":"LineString","coordinates":[[-80.24422433333334,25.99822963888889],[-80.23431588888889,25.998176555555556]]},"properties":{"style":"solid","thickness":1}},{"type":"Feature","geometry":{"type":"LineString","coordinates":[[-80.11654808333333,26.24396988888889],[-80.10684408333333,26.250645333333335]]},"properties":{"style":"solid","thickness":1}},{"type":"Feature","geometry":{"type":"LineString","coordinates":[[-80.11661505555556,26.245939833333335],[-80.10602675,26.24465925]]},"properties":{"style":"solid","thickness":1}},{"type":"Feature","geometry":{"type":"LineString","coordinates":[[-80.11528194444443,26.254350444444444],[-80.10617941666666,26.243595305555555]]},"properties":{"style":"solid","thickness":1}},{"type":"Feature","geometry":{"type":"LineString","coordinates":[[-80.17386783333333,26.19894325],[-80.16436072222223,26.192048694444445]]},"properties":{"style":"solid","thickness":1}},{"type":"Feature","geometry":{"type":"LineString","coordinates":[[-80.18086547222222,26.197574555555555],[-80.16266983333334,26.19936338888889]]},"properties":{"style":"solid","thickness":1}},{"type":"Feature","geometry":{"type":"LineString","coordinates":[[-80.16653836111112,26.076949055555556],[-80.13912083333334,26.07679186111111]]},"properties":{"style":"solid","thickness":1}},{"type":"Feature","geometry":{"type":"LineString","coordinates":[[-80.1583488888889,26.06588663888889],[-80.133983,26.065742166666666]]},"properties":{"style":"solid","thickness":1}},{"type":"Feature","geometry":{"type":"LineString","coordinates":[[-80.17685641666667,26.06599316666667],[-80.19086111111112,26.06607222222222],[-80.195364,26.06609747222222]]},"properties":{"style":"solid","thickness":1}},{"type":"Feature","geometry":{"type":"LineString","coordinates":[[-80.18504761111112,26.077057305555556],[-80.1944,26.077111111111112],[-80.20355691666667,26.077159833333333]]},"properties":{"style":"solid","thickness":1}},{"type":"Feature","geometry":{"type":"LineString","coordinates":[[-80.22206627777778,26.077256527777777],[-80.24057566666667,26.077350888888887]]},"properties":{"style":"solid","thickness":1}},{"type":"Feature","geometry":{"type":"LineString","coordinates":[[-80.21387161111112,26.06619977777778],[-80.23237925000001,26.066299722222222]]},"properties":{"style":"solid","thickness":1}},{"type":"Feature","geometry":{"type":"LineString","coordinates":[[-80.2590851111111,26.07744288888889],[-80.26622777777777,26.077477777777776],[-80.27759455555555,26.07753388888889]]},"properties":{"style":"solid","thickness":1}},{"type":"Feature","geometry":{"type":"LineString","coordinates":[[-80.26622777777777,26.077477777777776],[-80.26617677777777,26.08583586111111]]},"properties":{"style":"solid","thickness":1}},{"type":"Feature","geometry":{"type":"LineString","coordinates":[[-80.25088691666667,26.066397333333335],[-80.25944166666666,26.066441666666666],[-80.26939461111111,26.066492333333333]]},"properties":{"style":"solid","thickness":1}},{"type":"Feature","geometry":{"type":"LineString","coordinates":[[-80.25944166666666,26.066441666666666],[-80.25949416666667,26.058083555555555]]},"properties":{"style":"solid","thickness":1}},{"type":"Feature","geometry":{"type":"LineString","coordinates":[[-80.29610402777777,26.077623388888888],[-80.31461352777778,26.07771052777778]]},"properties":{"style":"solid","thickness":1}},{"type":"Feature","geometry":{"type":"LineString","coordinates":[[-80.28790236111111,26.066584777777777],[-80.3064101111111,26.06667486111111]]},"properties":{"style":"solid","thickness":1}},{"type":"Feature","geometry":{"type":"LineString","coordinates":[[-80.33312305555555,26.077795305555554],[-80.3360111111111,26.077808333333333],[-80.35163255555555,26.077884527777776]]},"properties":{"style":"solid","thickness":1}},{"type":"Feature","geometry":{"type":"LineString","coordinates":[[-80.3360111111111,26.077808333333333],[-80.33596058333333,26.086166416666664]]},"properties":{"style":"solid","thickness":1}},{"type":"Feature","geometry":{"type":"LineString","coordinates":[[-80.32491791666666,26.066762583333333],[-80.32936666666666,26.066783333333333],[-80.34342572222222,26.066847694444444]]},"properties":{"style":"solid","thickness":1}},{"type":"Feature","geometry":{"type":"LineString","coordinates":[[-80.32936666666666,26.066783333333333],[-80.32941405555555,26.058425194444446]]},"properties":{"style":"solid","thickness":1}},{"type":"Feature","geometry":{"type":"LineString","coordinates":[[-80.37014208333332,26.077972638888888],[-80.3886516388889,26.078058388888888]]},"properties":{"style":"solid","thickness":1}},{"type":"Feature","geometry":{"type":"LineString","coordinates":[[-80.39413333333334,26.078083333333332],[-80.39408841666668,26.086441444444443]]},"properties":{"style":"solid","thickness":1}},{"type":"Feature","geometry":{"type":"LineString","coordinates":[[-80.38970555555557,26.06705],[-80.38974902777778,26.05869186111111]]},"properties":{"style":"solid","thickness":1}},{"type":"Feature","geometry":{"type":"LineString","coordinates":[[-80.36193358333333,26.066930361111112],[-80.38044144444444,26.067010666666665]]},"properties":{"style":"solid","thickness":1}},{"type":"Feature","geometry":{"type":"LineString","coordinates":[[-80.39894933333333,26.067088916666666],[-80.41745722222223,26.067165083333332]]},"properties":{"style":"solid","thickness":1}},{"type":"Feature","geometry":{"type":"LineString","coordinates":[[-80.40716122222223,26.07813983333333],[-80.42567083333334,26.07821811111111]]},"properties":{"style":"solid","thickness":1}},{"type":"Feature","geometry":{"type":"LineString","coordinates":[[-80.43596516666668,26.067238916666668],[-80.45447311111111,26.067310388888888]]},"properties":{"style":"solid","thickness":1}},{"type":"Feature","geometry":{"type":"LineString","coordinates":[[-80.44418047222223,26.078294027777776],[-80.46269011111112,26.078367611111112]]},"properties":{"style":"solid","thickness":1}},{"type":"Feature","geometry":{"type":"LineString","coordinates":[[-80.48119977777777,26.078438833333333],[-80.49970944444445,26.078507722222223]]},"properties":{"style":"solid","thickness":1}},{"type":"Feature","geometry":{"type":"LineString","coordinates":[[-80.47298105555556,26.0673795],[-80.49148902777777,26.067446277777776]]},"properties":{"style":"solid","thickness":1}},{"type":"Feature","geometry":{"type":"LineString","coordinates":[[-80.50445833333333,26.067491666666665],[-80.50449372222222,26.0591335]]},"properties":{"style":"solid","thickness":1}},{"type":"Feature","geometry":{"type":"LineString","coordinates":[[-80.51821913888888,26.07857425],[-80.53672883333333,26.078638444444444]]},"properties":{"style":"solid","thickness":1}},{"type":"Feature","geometry":{"type":"LineString","coordinates":[[-80.52238055555556,26.078588888888888],[-80.52234466666667,26.086947]]},"properties":{"style":"solid","thickness":1}},{"type":"Feature","geometry":{"type":"LineString","coordinates":[[-80.55523855555555,26.078700277777777],[-80.57374827777777,26.07875975]]},"properties":{"style":"solid","thickness":1}},{"type":"Feature","geometry":{"type":"LineString","coordinates":[[-80.54701299999999,26.0676325],[-80.565521,26.06768988888889]]},"properties":{"style":"solid","thickness":1}},{"type":"Feature","geometry":{"type":"LineString","coordinates":[[-80.509997,26.067510694444444],[-80.528505,26.067572777777777]]},"properties":{"style":"solid","thickness":1}},{"type":"Feature","geometry":{"type":"LineString","coordinates":[[-80.592258,26.078816888888888],[-80.61076772222222,26.078871666666668]]},"properties":{"style":"solid","thickness":1}},{"type":"Feature","geometry":{"type":"LineString","coordinates":[[-80.62927744444444,26.07892411111111],[-80.64778719444445,26.078974194444445]]},"properties":{"style":"solid","thickness":1}},{"type":"Feature","geometry":{"type":"LineString","coordinates":[[-80.66629691666667,26.079021916666665],[-80.68480663888889,26.079067305555554]]},"properties":{"style":"solid","thickness":1}},{"type":"Feature","geometry":{"type":"LineString","coordinates":[[-80.7033163888889,26.079110333333333],[-80.72182611111111,26.079151027777776]]},"properties":{"style":"solid","thickness":1}},{"type":"Feature","geometry":{"type":"LineString","coordinates":[[-80.584029,26.067744916666665],[-80.60253702777777,26.067797583333334]]},"properties":{"style":"solid","thickness":1}},{"type":"Feature","geometry":{"type":"LineString","coordinates":[[-80.62104505555556,26.067847916666665],[-80.63955308333334,26.067895916666668]]},"properties":{"style":"solid","thickness":1}},{"type":"Feature","geometry":{"type":"LineString","coordinates":[[-80.65806108333334,26.067941555555556],[-80.67656911111112,26.067984833333334]]},"properties":{"style":"solid","thickness":1}},{"type":"Feature","geometry":{"type":"LineString","coordinates":[[-80.69507713888889,26.068025777777777],[-80.71358513888889,26.068064361111112]]},"properties":{"style":"solid","thickness":1}},{"type":"Feature","geometry":{"type":"LineString","coordinates":[[-80.38344330555556,26.17750325],[-80.40185591666668,26.175663555555555]]},"properties":{"style":"solid","thickness":1}},{"type":"Feature","geometry":{"type":"LineString","coordinates":[[-80.42026797222222,26.17382152777778],[-80.43867944444445,26.171977166666668]]},"properties":{"style":"solid","thickness":1}},{"type":"Feature","geometry":{"type":"LineString","coordinates":[[-80.40525925,26.171118500000002],[-80.40627966666668,26.179425944444446]]},"properties":{"style":"solid","thickness":1}},{"type":"Feature","geometry":{"type":"LineString","coordinates":[[-80.34661633333333,26.181175666666668],[-80.36503011111111,26.17934061111111]]},"properties":{"style":"solid","thickness":1}},{"type":"Feature","geometry":{"type":"LineString","coordinates":[[-80.30978708333333,26.18483875],[-80.32820199999999,26.183008361111114]]},"properties":{"style":"solid","thickness":1}},{"type":"Feature","geometry":{"type":"LineString","coordinates":[[-80.27295530555556,26.188490416666667],[-80.2913716111111,26.186666666666667]]},"properties":{"style":"solid","thickness":1}},{"type":"Feature","geometry":{"type":"LineString","coordinates":[[-80.29215483333333,26.18238477777778],[-80.29316741666666,26.190693]]},"properties":{"style":"solid","thickness":1}},{"type":"Feature","geometry":{"type":"LineString","coordinates":[[-80.23612105555556,26.192130944444443],[-80.236125,26.192130555555554],[-80.25453847222222,26.190311861111113]]},"properties":{"style":"solid","thickness":1}},{"type":"Feature","geometry":{"type":"LineString","coordinates":[[-80.19928455555556,26.19576236111111],[-80.21770308333333,26.193947805555556]]},"properties":{"style":"solid","thickness":1}},{"type":"Feature","geometry":{"type":"LineString","coordinates":[[-80.14903225,26.29420891666667],[-80.16028741666668,26.30749325]]},"properties":{"style":"solid","thickness":1}},{"type":"Feature","geometry":{"type":"LineString","coordinates":[[-80.18676252777779,26.33184288888889],[-80.17939286111111,26.336918138888887]]},"properties":{"style":"solid","thickness":1}},{"type":"Feature","geometry":{"type":"LineString","coordinates":[[-80.17154511111112,26.320776694444444],[-80.18280530555556,26.334059194444443]]},"properties":{"style":"solid","thickness":1}},{"type":"Feature","geometry":{"type":"LineString","coordinates":[[-80.19407058333334,26.347339055555555],[-80.20533847222222,26.360617944444446]]},"properties":{"style":"solid","thickness":1}},{"type":"Feature","geometry":{"type":"LineString","coordinates":[[-80.21660888888889,26.37389591666667],[-80.22788183333334,26.38717297222222]]},"properties":{"style":"solid","thickness":1}},{"type":"Feature","geometry":{"type":"LineString","coordinates":[[-80.23915733333334,26.400449111111108],[-80.25043536111112,26.41372433333333]]},"properties":{"style":"solid","thickness":1}},{"type":"Feature","geometry":{"type":"LineString","coordinates":[[-80.25437188888888,26.41148011111111],[-80.24700016666667,26.416558694444443]]},"properties":{"style":"solid","thickness":1}},{"type":"Feature","geometry":{"type":"LineString","coordinates":[[-80.12652952777778,26.2676375],[-80.1377796388889,26.280923666666666]]},"properties":{"style":"solid","thickness":1}},{"type":"Feature","geometry":{"type":"LineString","coordinates":[[-80.89027800000001,26.180556000000003],[-80.89151244444444,26.19723388888889]]},"properties":{"style":"solid","thickness":1}},{"type":"Feature","geometry":{"type":"LineString","coordinates":[[-80.89274727777779,26.213911694444445],[-80.89398247222223,26.230589416666664]]},"properties":{"style":"solid","thickness":1}},{"type":"Feature","geometry":{"type":"LineString","coordinates":[[-80.89521805555556,26.247267027777777],[-80.896454,26.263944583333334]]},"properties":{"style":"solid","thickness":1}},{"type":"Feature","geometry":{"type":"LineString","coordinates":[[-80.89769030555556,26.280622055555554],[-80.89813169444444,26.286574666666667],[-80.88988227777779,26.294336027777778]]},"properties":{"style":"solid","thickness":1}},{"type":"Feature","geometry":{"type":"LineString","coordinates":[[-80.87705208333333,26.30640425],[-80.86421924999999,26.31847133333333]]},"properties":{"style":"solid","thickness":1}},{"type":"Feature","geometry":{"type":"LineString","coordinates":[[-80.85138380555556,26.33053725],[-80.83854572222222,26.342602027777776]]},"properties":{"style":"solid","thickness":1}},{"type":"Feature","geometry":{"type":"LineString","coordinates":[[-80.82570502777777,26.35466566666667],[-80.81286172222222,26.366728138888888]]},"properties":{"style":"solid","thickness":1}},{"type":"Feature","geometry":{"type":"LineString","coordinates":[[-80.80000997222221,26.378784444444445],[-80.78714925,26.39083411111111]]},"properties":{"style":"solid","thickness":1}},{"type":"Feature","geometry":{"type":"LineString","coordinates":[[-80.77428591666667,26.402882583333334],[-80.76141994444444,26.41492994444444]]},"properties":{"style":"solid","thickness":1}},{"type":"Feature","geometry":{"type":"LineString","coordinates":[[-80.74855133333334,26.426976111111113],[-80.73568011111111,26.43902111111111]]},"properties":{"style":"solid","thickness":1}},{"type":"Feature","geometry":{"type":"LineString","coordinates":[[-80.72280625,26.45106497222222],[-80.70992975,26.46310763888889]]},"properties":{"style":"solid","thickness":1}},{"type":"Feature","geometry":{"type":"LineString","coordinates":[[-80.69705061111111,26.475149166666665],[-80.68416886111112,26.4871895]]},"properties":{"style":"solid","thickness":1}},{"type":"Feature","geometry":{"type":"LineString","coordinates":[[-80.67128444444445,26.499228666666667],[-80.65839741666667,26.511266694444444]]},"properties":{"style":"solid","thickness":1}},{"type":"Feature","geometry":{"type":"LineString","coordinates":[[-80.64100969444445,26.51380602777778],[-80.62243172222222,26.513830527777777]]},"properties":{"style":"solid","thickness":1}},{"type":"Feature","geometry":{"type":"LineString","coordinates":[[-80.60385369444444,26.513852611111112],[-80.58527566666666,26.513872361111112]]},"properties":{"style":"solid","thickness":1}},{"type":"Feature","geometry":{"type":"LineString","coordinates":[[-80.56669761111111,26.513889694444444],[-80.54811952777777,26.513904666666665]]},"properties":{"style":"solid","thickness":1}},{"type":"Feature","geometry":{"type":"LineString","coordinates":[[-80.52954144444445,26.51391727777778],[-80.51096333333334,26.5139275]]},"properties":{"style":"solid","thickness":1}},{"type":"Feature","geometry":{"type":"LineString","coordinates":[[-80.49238522222223,26.513935333333333],[-80.47380711111111,26.513940805555556]]},"properties":{"style":"solid","thickness":1}},{"type":"Feature","geometry":{"type":"LineString","coordinates":[[-80.45522897222223,26.513943916666666],[-80.43665083333333,26.51394463888889]]},"properties":{"style":"solid","thickness":1}},{"type":"Feature","geometry":{"type":"LineString","coordinates":[[-80.41807266666667,26.51394297222222],[-80.39949452777779,26.513938944444444]]},"properties":{"style":"solid","thickness":1}},{"type":"Feature","geometry":{"type":"LineString","coordinates":[[-80.3809163611111,26.51393252777778],[-80.36233822222222,26.51392375]]},"properties":{"style":"solid","thickness":1}},{"type":"Feature","geometry":{"type":"LineString","coordinates":[[-80.34376005555555,26.513912583333333],[-80.32639999999999,26.5139],[-80.32518191666666,26.513900222222222]]},"properties":{"style":"solid","thickness":1}},{"type":"Feature","geometry":{"type":"LineString","coordinates":[[-80.30660375,26.513902305555554],[-80.28802558333334,26.513902]]},"properties":{"style":"solid","thickness":1}},{"type":"Feature","geometry":{"type":"LineString","coordinates":[[-80.27099902777778,26.511358972222222],[-80.26103583333334,26.497252194444446]]},"properties":{"style":"solid","thickness":1}},{"type":"Feature","geometry":{"type":"LineString","coordinates":[[-80.25107505555556,26.48314472222222],[-80.24111663888888,26.46903647222222]]},"properties":{"style":"solid","thickness":1}},{"type":"Feature","geometry":{"type":"LineString","coordinates":[[-80.23116061111111,26.4549275],[-80.22120697222222,26.440817805555557]]},"properties":{"style":"solid","thickness":1}},{"type":"Feature","geometry":{"type":"LineString","coordinates":[[-80.19136036111111,26.398484277777776],[-80.18141625,26.38437161111111]]},"properties":{"style":"solid","thickness":1}},{"type":"Feature","geometry":{"type":"LineString","coordinates":[[-80.21125572222222,26.426707361111113],[-80.20130686111112,26.412596166666667]]},"properties":{"style":"solid","thickness":1}},{"type":"Feature","geometry":{"type":"LineString","coordinates":[[-79.970442,26.383542],[-79.96362144444444,26.399086722222222]]},"properties":{"style":"solid","thickness":1}},{"type":"Feature","geometry":{"type":"LineString","coordinates":[[-79.95679908333334,26.414631027777776],[-79.952442,26.424556000000003],[-79.94573133333334,26.424574222222223]]},"properties":{"style":"solid","thickness":1}},{"type":"Feature","geometry":{"type":"LineString","coordinates":[[-79.92716747222222,26.424623055555557],[-79.90860363888889,26.4246695]]},"properties":{"style":"solid","thickness":1}},{"type":"Feature","geometry":{"type":"LineString","coordinates":[[-79.89003977777779,26.424713555555556],[-79.87147594444444,26.42475527777778]]},"properties":{"style":"solid","thickness":1}},{"type":"Feature","geometry":{"type":"LineString","coordinates":[[-79.85291211111111,26.424794583333334],[-79.84731099999999,26.424806],[-79.85212238888889,26.413968666666666]]},"properties":{"style":"solid","thickness":1}},{"type":"Feature","geometry":{"type":"LineString","coordinates":[[-79.85901119444443,26.39844822222222],[-79.865669,26.383444]]},"properties":{"style":"solid","thickness":1}},{"type":"Feature","geometry":{"type":"LineString","coordinates":[[-80.17828780555556,25.983535],[-80.1738831388889,25.99303777777778],[-80.16736080555556,25.984615722222223]]},"properties":{"style":"solid","thickness":1}},{"type":"Feature","geometry":{"type":"LineString","coordinates":[[-80.19777338888889,25.976558166666663],[-80.19337055555556,25.986061555555555],[-80.18684722222223,25.97764036111111]]},"properties":{"style":"solid","thickness":1}},{"type":"Feature","geometry":{"type":"LineString","coordinates":[[-80.21633677777778,25.95746958333333],[-80.21193613888889,25.96697358333333],[-80.20540894444444,25.95846152777778]]},"properties":{"style":"solid","thickness":1}},{"type":"Feature","geometry":{"type":"LineString","coordinates":[[-80.19242422222223,25.762714944444443],[-80.18802891666667,25.772218388888888],[-80.18151775000001,25.763796777777777]]},"properties":{"style":"solid","thickness":1}},{"type":"Feature","geometry":{"type":"LineString","coordinates":[[-80.36977252777777,26.00748088888889],[-80.36016030555555,26.008440916666668],[-80.35909833333332,25.99975502777778],[-80.3687098611111,25.998795083333334],[-80.36977252777777,26.00748088888889]]},"properties":{"style":"solid","thickness":1}},{"type":"Feature","geometry":{"type":"LineString","coordinates":[[-80.1591253888889,25.759886055555555],[-80.16140219444445,25.758358194444444],[-80.16311177777779,25.756311611111112],[-80.16411586111111,25.753911944444443],[-80.16433316666667,25.751353305555554],[-80.16374622222223,25.748842777777778],[-80.16240255555556,25.746583472222223],[-80.16041088888889,25.744758166666667],[-80.1579323888889,25.74351452777778],[-80.15516755555556,25.742953194444446],[-80.15234005555556,25.74311952777778],[-80.1496786388889,25.744000083333333],[-80.14739858333334,25.745523666666667],[-80.1456843888889,25.747566972222224],[-80.14467472222223,25.749964722222224],[-80.14445136111112,25.752522916666667],[-80.1450323888889,25.755034583333334],[-80.14637086111112,25.757296472222222],[-80.1483585,25.759125555555556],[-80.1508345,25.760373805555556],[-80.15359847222223,25.76094022222222],[-80.15642672222222,25.760778972222223],[-80.15909041666667,25.759903083333334],[-80.1591253888889,25.759886055555555]]},"properties":{"style":"solid","thickness":1}},{"type":"Feature","geometry":{"type":"LineString","coordinates":[[-80.1402343888889,25.982506583333333],[-80.13062236111111,25.983451333333335],[-80.12957747222221,25.974763749999997],[-80.13918880555556,25.973819055555555],[-80.1402343888889,25.982506583333333]]},"properties":{"style":"solid","thickness":1}},{"type":"Feature","geometry":{"type":"LineString","coordinates":[[-80.24634947222222,26.567755944444443],[-80.24192844444444,26.577259555555557],[-80.23536880555555,26.568841694444444]]},"properties":{"style":"solid","thickness":1}},{"type":"Feature","geometry":{"type":"LineString","coordinates":[[-80.0865455,26.68766311111111],[-80.08913958333333,26.68726291666667],[-80.09147455555555,26.686171694444443],[-80.09332827777777,26.68449325],[-80.09452452777778,26.682387222222225],[-80.0949495,26.68005391666667],[-80.0945628611111,26.677715222222222],[-80.09340144444444,26.675593555555558],[-80.09157566666666,26.673890694444445],[-80.08925922222221,26.67276852777778],[-80.08667236111111,26.67233375],[-80.08406105555555,26.67262775],[-80.08167358333333,26.67362252777778],[-80.07973697222222,26.675223527777778],[-80.07843538888889,26.677278472222223],[-80.07789263888888,26.679592],[-80.07816038888889,26.681944083333335],[-80.07921322222222,26.684111],[-80.08095105555554,26.68588672222222],[-80.08320858333333,26.687102305555555],[-80.08577113888889,26.68764213888889],[-80.0865455,26.68766311111111]]},"properties":{"style":"solid","thickness":1}},{"type":"Feature","geometry":{"type":"LineString","coordinates":[[-80.21616575,26.579785083333334],[-80.21163622222223,26.589199333333333]]},"properties":{"style":"solid","thickness":1}},{"type":"Feature","geometry":{"type":"LineString","coordinates":[[-80.21163622222223,26.589199333333333],[-80.20477225,26.580789833333334]]},"properties":{"style":"solid","thickness":1}},{"type":"Feature","geometry":{"type":"LineString","coordinates":[[-80.47273575,25.530903444444444],[-80.46837152777778,25.540415472222225],[-80.46185319444444,25.53200647222222]]},"properties":{"style":"solid","thickness":1}},{"type":"Feature","geometry":{"type":"LineString","coordinates":[[-80.19495541666667,26.229010694444444],[-80.19495580555557,26.23084536111111]]},"properties":{"style":"solid","thickness":1}},{"type":"Feature","geometry":{"type":"LineString","coordinates":[[-80.19444683333333,26.228827305555555],[-80.19444725000001,26.231028916666666]]},"properties":{"style":"solid","thickness":1}},{"type":"Feature","geometry":{"type":"LineString","coordinates":[[-80.19393827777778,26.228827388888888],[-80.19393869444445,26.231029]]},"properties":{"style":"solid","thickness":1}},{"type":"Feature","geometry":{"type":"LineString","coordinates":[[-80.19342975,26.229010916666667],[-80.19343008333334,26.23084561111111]]},"properties":{"style":"solid","thickness":1}},{"type":"Feature","geometry":{"type":"LineString","coordinates":[[-80.19292133333333,26.22992833333333],[-80.19292925,26.230058416666665],[-80.19295472222223,26.23019436111111],[-80.19300013888889,26.230333638888887],[-80.19306738888889,26.230472944444443],[-80.19315747222223,26.230608277777776],[-80.19327016666666,26.230735222222222],[-80.19340397222223,26.23084938888889],[-80.1935558888889,26.230946694444444],[-80.19372172222222,26.231023861111108],[-80.19389647222222,26.231078861111108],[-80.19407477777779,26.231110916666665],[-80.19425136111111,26.231120666666666],[-80.19442169444444,26.23110983333333],[-80.19458211111112,26.231080944444443],[-80.19472994444445,26.23103711111111],[-80.19486366666668,26.230981444444442],[-80.19498577777779,26.230915138888886],[-80.195105,26.230832916666664],[-80.19521875000001,26.230733583333333],[-80.19532297222223,26.230617],[-80.19541344444445,26.230484055555554],[-80.19548586111111,26.23033672222222],[-80.19553652777778,26.230178027777775],[-80.19556261111111,26.23001213888889],[-80.19556258333334,26.22984372222222],[-80.19553641666667,26.229677805555554],[-80.19548569444444,26.229519166666666],[-80.19541319444444,26.22937183333333],[-80.19532269444444,26.229238916666667],[-80.19521841666668,26.229122388888886],[-80.19510463888889,26.22902308333333],[-80.19498536111111,26.228940916666666],[-80.19486325,26.228874638888886],[-80.19472950000001,26.228819027777774],[-80.19458163888889,26.22877522222222],[-80.19442125,26.228746416666667],[-80.19425091666668,26.22873561111111],[-80.19407430555556,26.228745416666666],[-80.19389602777778,26.228777527777776],[-80.19372130555556,26.228832583333332],[-80.1935555,26.228909805555553],[-80.19340361111111,26.229007138888885],[-80.19326988888889,26.22912136111111],[-80.19315722222223,26.22924836111111],[-80.19306719444445,26.229383694444444],[-80.19299997222222,26.229523027777777],[-80.19295461111112,26.229662305555554],[-80.19292922222223,26.229798277777775],[-80.19292133333333,26.22992833333333]]},"properties":{"style":"solid","thickness":1}},{"type":"Feature","geometry":{"type":"LineString","coordinates":[[-80.34207091666666,25.633890027777777],[-80.34692844444444,25.633613083333334],[-80.3414606111111,25.62627575],[-80.34631783333333,25.625998833333334],[-80.34207091666666,25.633890027777777]]},"properties":{"style":"solid","thickness":1}},{"type":"Feature","geometry":{"type":"LineString","coordinates":[[-80.16461866666667,25.737970722222222],[-80.16948091666667,25.737699777777777],[-80.16401925000001,25.730355749999998],[-80.16888119444445,25.730084805555553],[-80.16461866666667,25.737970722222222]]},"properties":{"style":"solid","thickness":1}},{"type":"Feature","geometry":{"type":"LineString","coordinates":[[-80.06804438888888,26.509804833333334],[-80.0736526111111,26.50944652777778],[-80.06734763888889,26.50099786111111],[-80.07295541666666,26.500639555555555],[-80.06804438888888,26.509804833333334]]},"properties":{"style":"solid","thickness":1}},{"type":"Feature","geometry":{"type":"LineString","coordinates":[[-80.33604388888888,25.690643527777777],[-80.34161272222222,25.69027475],[-80.33533194444443,25.68183627777778],[-80.34090036111111,25.681467555555557],[-80.33604388888888,25.690643527777777]]},"properties":{"style":"solid","thickness":1}},{"type":"Feature","geometry":{"type":"LineString","coordinates":[[-80.13794444444446,26.107917611111112],[-80.14353333333334,26.107556444444445],[-80.13724466666667,26.09911013888889],[-80.14283313888889,26.098749027777778],[-80.13794444444446,26.107917611111112]]},"properties":{"style":"solid","thickness":1}},{"type":"Feature","geometry":{"type":"LineString","coordinates":[[-80.42905155555556,25.48520075],[-80.43461061111111,25.484828444444446],[-80.42833405555557,25.476393694444443],[-80.43389269444445,25.47602144444444],[-80.42905155555556,25.48520075]]},"properties":{"style":"solid","thickness":1}},{"type":"Feature","geometry":{"type":"LineString","coordinates":[[-80.20953688888889,25.79769688888889],[-80.21511108333334,25.797332944444445],[-80.20883358333333,25.788889194444447],[-80.21440736111111,25.788525305555556],[-80.20953688888889,25.79769688888889]]},"properties":{"style":"solid","thickness":1}},{"type":"Feature","geometry":{"type":"LineString","coordinates":[[-80.09503669444445,26.927249055555556],[-80.10066480555555,26.92688975],[-80.09433541666667,26.918443500000002],[-80.09996311111111,26.918084222222223],[-80.09503669444445,26.927249055555556]]},"properties":{"style":"solid","thickness":1}},{"type":"Feature","geometry":{"type":"LineString","coordinates":[[-80.51992544444444,25.011507972222223],[-80.52546261111111,25.011132305555556],[-80.51920427777777,25.00270097222222],[-80.52474102777778,25.002325333333335],[-80.51992544444444,25.011507972222223]]},"properties":{"style":"solid","thickness":1}},{"type":"Feature","geometry":{"type":"LineString","coordinates":[[-80.17886444444444,26.023335055555556],[-80.18444925,26.022972305555555],[-80.17816208333333,26.01452761111111],[-80.1837465,26.014164916666665],[-80.17886444444444,26.023335055555556]]},"properties":{"style":"solid","thickness":1}},{"type":"Feature","geometry":{"type":"LineString","coordinates":[[-80.30870288888889,26.017670555555554],[-80.31428702777778,26.01730286111111],[-80.30799097222221,26.00886375],[-80.31357472222221,26.008496055555554],[-80.30870288888889,26.017670555555554]]},"properties":{"style":"solid","thickness":1}},{"type":"Feature","geometry":{"type":"LineString","coordinates":[[-80.20987133333334,25.744585833333336],[-80.21544302777778,25.74422186111111],[-80.20916830555556,25.735778055555556],[-80.21473961111111,25.73541413888889],[-80.20987133333334,25.744585833333336]]},"properties":{"style":"solid","thickness":1}},{"type":"Feature","geometry":{"type":"LineString","coordinates":[[-80.29223555555555,25.74550386111111],[-80.29780705555555,25.74513677777778],[-80.2915265,25.7366965],[-80.29709758333333,25.736329416666667],[-80.29223555555555,25.74550386111111]]},"properties":{"style":"solid","thickness":1}},{"type":"Feature","geometry":{"type":"LineString","coordinates":[[-80.13889486111111,25.818973472222222],[-80.14447025000001,25.81861222222222],[-80.1381966388889,25.810165472222224],[-80.14377161111112,25.80980427777778],[-80.13889486111111,25.818973472222222]]},"properties":{"style":"solid","thickness":1}},{"type":"Feature","geometry":{"type":"LineString","coordinates":[[-80.08289933333333,26.833249],[-80.08852294444443,26.83289013888889],[-80.08219952777777,26.824443111111112],[-80.08782269444444,26.82408427777778],[-80.08289933333333,26.833249]]},"properties":{"style":"solid","thickness":1}},{"type":"Feature","geometry":{"type":"LineString","coordinates":[[-80.32417827777778,25.891170944444443],[-80.32975644444444,25.89080263888889],[-80.323466,25.882363972222223],[-80.32904375,25.881995694444445],[-80.32417827777778,25.891170944444443]]},"properties":{"style":"solid","thickness":1}},{"type":"Feature","geometry":{"type":"LineString","coordinates":[[-80.24907555555555,26.68922427777778],[-80.25469172222222,26.688858944444444],[-80.24836405555556,26.68041875],[-80.25397980555556,26.680053444444447],[-80.24907555555555,26.68922427777778]]},"properties":{"style":"solid","thickness":1}},{"type":"Feature","geometry":{"type":"LineString","coordinates":[[-80.3557415,25.57075502777778],[-80.36130472222221,25.570385527777777],[-80.35502883333332,25.56194772222222],[-80.36059163888888,25.56157825],[-80.3557415,25.57075502777778]]},"properties":{"style":"solid","thickness":1}},{"type":"Feature","geometry":{"type":"LineString","coordinates":[[-80.05881658333332,26.761026472222223],[-80.06443677777777,26.760668527777778],[-80.05811899999999,26.752220277777777],[-80.06373877777777,26.75186236111111],[-80.05881658333332,26.761026472222223]]},"properties":{"style":"solid","thickness":1}},{"type":"Feature","geometry":{"type":"LineString","coordinates":[[-80.19780263888889,26.36089052777778],[-80.20340330555555,26.36052713888889],[-80.19709691666667,26.35208391666667],[-80.20269719444445,26.35172052777778],[-80.19780263888889,26.36089052777778]]},"properties":{"style":"solid","thickness":1}},{"type":"Feature","geometry":{"type":"LineString","coordinates":[[-80.38368369444446,25.735701527777778],[-80.38925447222223,25.735330944444446],[-80.38296797222222,25.726894583333333],[-80.38853833333334,25.726524027777778],[-80.38368369444446,25.735701527777778]]},"properties":{"style":"solid","thickness":1}},{"type":"Feature","geometry":{"type":"LineString","coordinates":[[-80.25322444444444,26.216586083333333],[-80.25881811111111,26.21622052777778],[-80.25251544444444,26.207779388888888],[-80.25810872222222,26.20741386111111],[-80.25322444444444,26.216586083333333]]},"properties":{"style":"solid","thickness":1}},{"type":"Feature","geometry":{"type":"LineString","coordinates":[[-80.25800422222223,26.127891805555556],[-80.26359369444444,26.127526055555556],[-80.25729541666666,26.119084972222222],[-80.26288447222223,26.11871925],[-80.25800422222223,26.127891805555556]]},"properties":{"style":"solid","thickness":1}},{"type":"Feature","geometry":{"type":"LineString","coordinates":[[-80.11955122222221,26.28280597222222],[-80.12514841666666,26.282445555555555],[-80.11885180555555,26.273998805555554],[-80.12444858333333,26.273638416666667],[-80.11955122222221,26.28280597222222]]},"properties":{"style":"solid","thickness":1}},{"type":"Feature","geometry":{"type":"LineString","coordinates":[[-80.08973772222221,26.602471750000003],[-80.09535030555556,26.602112611111114],[-80.08903880555555,26.59366511111111],[-80.09465097222221,26.593306],[-80.08973772222221,26.602471750000003]]},"properties":{"style":"solid","thickness":1}},{"type":"Feature","geometry":{"type":"LineString","coordinates":[[-80.09785208333332,26.37910697222222],[-80.09359919444444,26.379369027777777]]},"properties":{"style":"solid","thickness":1}},{"type":"Feature","geometry":{"type":"LineString","coordinates":[[-80.10836872222221,26.387365194444445],[-80.1086601111111,26.391195833333335]]},"properties":{"style":"solid","thickness":1}},{"type":"Feature","geometry":{"type":"LineString","coordinates":[[-80.10702027777778,26.36963477777778],[-80.106729,26.36580413888889]]},"properties":{"style":"solid","thickness":1}},{"type":"Feature","geometry":{"type":"LineString","coordinates":[[-80.11753669444444,26.377892361111112],[-80.12178949999999,26.37762961111111]]},"properties":{"style":"solid","thickness":1}},{"type":"Feature","geometry":{"type":"LineString","coordinates":[[-80.11250233333332,26.386213944444442],[-80.11341263888889,26.385694194444444],[-80.1143015,26.38505013888889],[-80.11514166666666,26.384276833333335],[-80.11590233333332,26.383375444444443],[-80.11655113888888,26.382354638888888],[-80.11705711111111,26.381231472222222],[-80.11739380555555,26.380031333333335],[-80.11754266666667,26.378786305555558],[-80.11749555555555,26.377532694444444],[-80.11725575,26.376307611111113],[-80.11683758333332,26.375145222222223],[-80.11626438888888,26.374073972222224],[-80.11556541666666,26.37311438888889],[-80.11477258333333,26.372278722222223],[-80.11391727777777,26.371571222222222],[-80.11302827777777,26.370989444444444],[-80.11210463888888,26.370514583333335],[-80.11107666666666,26.37011438888889],[-80.10994502777777,26.369808805555557],[-80.10872363888889,26.36962161111111],[-80.10743427777777,26.369574833333335],[-80.10610655555556,26.369686138888888],[-80.10477644444444,26.369966333333334],[-80.10348358333333,26.370417083333333],[-80.10226783333333,26.371030055555558],[-80.10116522222222,26.371787027777778],[-80.10020455555555,26.372661833333336],[-80.09940494444444,26.37362311111111],[-80.09877499999999,26.374637583333335],[-80.09831344444444,26.37567327777778],[-80.09801088888888,26.37670197222222],[-80.09785208333332,26.377700555555556],[-80.09781849999999,26.378658055555555],[-80.09790419444444,26.379644833333334],[-80.09812655555555,26.380671500000002],[-80.09850283333333,26.381717194444445],[-80.09904549999999,26.382755583333335],[-80.09975966666666,26.383755805555555],[-80.10064113888889,26.384684611111112],[-80.10167525,26.385509222222222],[-80.10283708333333,26.386200805555553],[-80.10409330555555,26.386737416666666],[-80.10540524999999,26.38710633333333],[-80.10673283333333,26.387305027777778],[-80.10803822222222,26.387340527777777],[-80.10928905555555,26.38722772222222],[-80.11046019444444,26.386986916666665],[-80.11153452777778,26.386641166666667],[-80.11250233333332,26.386213944444442]]},"properties":{"style":"solid","thickness":1}},{"type":"Feature","geometry":{"type":"LineString","coordinates":[[-80.33391522222222,25.431475333333335],[-80.33478272222222,25.4389475],[-80.32650616666666,25.43218438888889],[-80.32737322222222,25.439656583333335]]},"properties":{"style":"solid","thickness":1}},{"type":"Feature","geometry":{"type":"LineString","coordinates":[[-80.2932391388889,25.79690666666667],[-80.29438566666667,25.797944583333337]]},"properties":{"style":"solid","thickness":1}},{"type":"Feature","geometry":{"type":"LineString","coordinates":[[-80.29283783333334,25.797062333333336],[-80.29421369444444,25.798307833333336]]},"properties":{"style":"solid","thickness":1}},{"type":"Feature","geometry":{"type":"LineString","coordinates":[[-80.29255119444444,25.797321833333335],[-80.29392705555556,25.798567333333335]]},"properties":{"style":"solid","thickness":1}},{"type":"Feature","geometry":{"type":"LineString","coordinates":[[-80.29237922222222,25.797685083333334],[-80.29352575,25.79872302777778]]},"properties":{"style":"solid","thickness":1}},{"type":"Feature","geometry":{"type":"LineString","coordinates":[[-80.29266583333333,25.79846352777778],[-80.29275158333333,25.798533083333336],[-80.2928508611111,25.79859702777778],[-80.2929635,25.79865266666667],[-80.29308844444444,25.798697166666667],[-80.29322377777778,25.798727805555558],[-80.29336666666667,25.79874213888889],[-80.29351341666667,25.798738472222222],[-80.29365983333334,25.79871602777778],[-80.29380155555555,25.798675111111113],[-80.29393441666666,25.798617055555557],[-80.29405494444444,25.798544250000003],[-80.29416058333334,25.798459694444446],[-80.29424983333332,25.79836666666667],[-80.29432222222222,25.798268500000002],[-80.29437816666666,25.79816827777778],[-80.29441874999999,25.798068555555556],[-80.29444616666666,25.797968750000003],[-80.294462,25.797861416666667],[-80.29446405555555,25.797747194444447],[-80.29444997222222,25.797628055555556],[-80.29441788888889,25.797506694444447],[-80.29436666666666,25.797386361111112],[-80.29429608333334,25.797270722222223],[-80.2942071111111,25.797163555555557],[-80.29410188888889,25.79706827777778],[-80.29398347222222,25.796987750000003],[-80.29385574999999,25.796923861111114],[-80.29372283333333,25.796877472222224],[-80.29358877777777,25.796848444444446],[-80.29345716666667,25.796835694444447],[-80.293331,25.79683755555556],[-80.29321241666666,25.79685188888889],[-80.29310216666667,25.796876694444446],[-80.29299202777777,25.796913472222222],[-80.29288130555555,25.796964111111112],[-80.2927728611111,25.797029611111114],[-80.29267011111111,25.79711041666667],[-80.29257666666666,25.797206055555556],[-80.29249625,25.797315166666667],[-80.29243213888888,25.797435444444446],[-80.29238691666666,25.797563722222225],[-80.29236213888889,25.797696277777778],[-80.29235808333333,25.797829111111113],[-80.29237394444445,25.797958444444447],[-80.29240775,25.798080972222223],[-80.29245691666667,25.798194083333335],[-80.2925183888889,25.79829602777778],[-80.29258899999999,25.798385916666668],[-80.29266583333333,25.79846352777778]]},"properties":{"style":"solid","thickness":1}},{"type":"Feature","geometry":{"type":"LineString","coordinates":[[-80.17198880555556,26.06966597222222],[-80.17198880555556,26.071500694444445]]},"properties":{"style":"solid","thickness":1}},{"type":"Feature","geometry":{"type":"LineString","coordinates":[[-80.17148091666667,26.0694825],[-80.17148091666667,26.071684166666667]]},"properties":{"style":"solid","thickness":1}},{"type":"Feature","geometry":{"type":"LineString","coordinates":[[-80.17097305555556,26.0694825],[-80.17097305555556,26.071684166666667]]},"properties":{"style":"solid","thickness":1}},{"type":"Feature","geometry":{"type":"LineString","coordinates":[[-80.17046516666667,26.06966597222222],[-80.17046516666667,26.071500694444445]]},"properties":{"style":"solid","thickness":1}},{"type":"Feature","geometry":{"type":"LineString","coordinates":[[-80.16995727777778,26.07058333333333],[-80.16996516666667,26.070713388888887],[-80.16999055555556,26.07084936111111],[-80.17003588888889,26.070988666666665],[-80.17010302777778,26.07112797222222],[-80.17019294444445,26.071263305555554],[-80.1703055,26.071390305555557],[-80.17043908333333,26.071504472222223],[-80.17059075,26.071601805555556],[-80.17075636111112,26.071679],[-80.17093088888889,26.071734027777776],[-80.17110891666667,26.07176611111111],[-80.17128527777778,26.07177588888889],[-80.17145538888889,26.071765083333332],[-80.17161558333333,26.07173622222222],[-80.17176322222222,26.071692388888888],[-80.17189677777779,26.071636777777776],[-80.17201872222223,26.071570472222223],[-80.17213783333334,26.071488277777778],[-80.17225141666667,26.071388944444443],[-80.17235555555555,26.07127238888889],[-80.17244588888889,26.071139444444444],[-80.17251827777778,26.07099211111111],[-80.17256888888889,26.070833444444443],[-80.17259497222223,26.07066752777778],[-80.17259497222223,26.07049911111111],[-80.17256888888889,26.070333194444444],[-80.17251825000001,26.070174555555557],[-80.17244588888889,26.070027194444446],[-80.17235552777778,26.069894277777777],[-80.17225141666667,26.069777722222224],[-80.17213780555556,26.06967838888889],[-80.17201872222223,26.069596194444443],[-80.17189675,26.069529888888887],[-80.17176322222222,26.06947425],[-80.17161555555556,26.069430444444443],[-80.17145538888889,26.069401583333335],[-80.17128527777778,26.069390777777777],[-80.17110891666667,26.069400527777777],[-80.17093088888889,26.069432638888888],[-80.17075638888889,26.069487666666667],[-80.17059077777779,26.06956486111111],[-80.17043908333333,26.069662166666667],[-80.1703055,26.06977636111111],[-80.17019297222222,26.069903361111113],[-80.17010302777778,26.070038694444445],[-80.17003588888889,26.070178],[-80.16999055555556,26.070317305555555],[-80.16996516666667,26.07045325],[-80.16995727777778,26.07058333333333]]},"properties":{"style":"solid","thickness":1}},{"type":"Feature","geometry":{"type":"LineString","coordinates":[[-80.12531847222222,26.442653055555557],[-80.13092325,26.442292444444444],[-80.12461772222221,26.43384627777778],[-80.13022205555555,26.433485722222223],[-80.12531847222222,26.442653055555557]]},"properties":{"style":"solid","thickness":1}}]}
