{"type":"FeatureCollection","features":[{"type":"Feature","geometry":{"type":"LineString","coordinates":[[-79.92277519444445,26.402210166666666],[-79.90572516666667,26.403239194444442]]},"properties":{"style":"solid","thickness":1}},{"type":"Feature","geometry":{"type":"LineString","coordinates":[[-79.97056413888889,26.310040722222222],[-79.95352780555555,26.311075416666668]]},"properties":{"style":"solid","thickness":1}},{"type":"Feature","geometry":{"type":"LineString","coordinates":[[-80.38489030555556,26.13357],[-80.36788291666666,26.13465325]]},"properties":{"style":"solid","thickness":1}},{"type":"Feature","geometry":{"type":"LineString","coordinates":[[-80.06169352777778,26.148560083333333],[-80.04468113888889,26.149605583333333]]},"properties":{"style":"solid","thickness":1}},{"type":"Feature","geometry":{"type":"LineString","coordinates":[[-80.63518394444445,26.196586583333335],[-80.63518394444445,26.196586583333335],[-80.15420800000001,26.19825]]},"properties":{"style":"solid","thickness":1}},{"type":"Feature","geometry":{"type":"LineString","coordinates":[[-80.15420800000001,26.19825],[-80.15420800000001,26.19825],[-80.09964152777778,26.197937222222222]]},"properties":{"style":"solid","thickness":1}},{"type":"Feature","geometry":{"type":"LineString","coordinates":[[-80.09964152777778,26.197937222222222],[-80.09964152777778,26.197937222222222],[-80.09889147222222,26.38297463888889]]},"properties":{"style":"solid","thickness":1}},{"type":"Feature","geometry":{"type":"LineString","coordinates":[[-80.09889147222222,26.38297463888889],[-80.09889147222222,26.38297463888889],[-79.6998598888889,26.383649944444443]]},"properties":{"style":"solid","thickness":1}},{"type":"Feature","geometry":{"type":"LineString","coordinates":[[-79.6998598888889,26.383649944444443],[-79.6998598888889,26.383649944444443],[-79.78686677777777,26.326247833333333]]},"properties":{"style":"solid","thickness":1}},{"type":"Feature","geometry":{"type":"LineString","coordinates":[[-79.78686677777777,26.326247833333333],[-79.78686677777777,26.326247833333333],[-79.83112027777777,26.286404]]},"properties":{"style":"solid","thickness":1}},{"type":"Feature","geometry":{"type":"LineString","coordinates":[[-79.83112027777777,26.286404],[-79.83112027777777,26.286404],[-79.900964,26.222682]]},"properties":{"style":"solid","thickness":1}},{"type":"Feature","geometry":{"type":"LineString","coordinates":[[-79.900964,26.222682],[-79.900964,26.222682],[-79.9526298888889,26.173625750000003]]},"properties":{"style":"solid","thickness":1}},{"type":"Feature","geometry":{"type":"LineString","coordinates":[[-79.9526298888889,26.173625750000003],[-79.9526298888889,26.173625750000003],[-79.95788030555556,26.152015527777777]]},"properties":{"style":"solid","thickness":1}},{"type":"Feature","geometry":{"type":"LineString","coordinates":[[-79.95788030555556,26.152015527777777],[-79.95788030555556,26.152015527777777],[-79.96388077777777,26.070301944444445]]},"properties":{"style":"solid","thickness":1}},{"type":"Feature","geometry":{"type":"LineString","coordinates":[[-79.96388077777777,26.070301944444445],[-79.96388077777777,26.070301944444445],[-80.150464,26.072078]]},"properties":{"style":"solid","thickness":1}},{"type":"Feature","geometry":{"type":"LineString","coordinates":[[-80.150464,26.072078],[-80.150464,26.072078],[-80.52267502777778,26.073678527777776]]},"properties":{"style":"solid","thickness":1}},{"type":"Feature","geometry":{"type":"LineString","coordinates":[[-80.63518394444445,26.19591127777778],[-80.63518394444445,26.19591127777778],[-80.52342508333334,26.07435386111111]]},"properties":{"style":"solid","thickness":1}},{"type":"Feature","geometry":{"type":"LineString","coordinates":[[-80.150464,26.072078],[-80.150464,26.072078],[-80.15420800000001,26.19825]]},"properties":{"style":"solid","thickness":1}},{"type":"Feature","geometry":{"type":"LineString","coordinates":[[-80.099025,26.219123],[-80.099025,26.219123],[-79.900964,26.222682]]},"properties":{"style":"solid","thickness":1}},{"type":"Feature","geometry":{"type":"LineString","coordinates":[[-79.970442,26.383542],[-79.970442,26.383542],[-79.95337994444445,26.424169083333336]]},"properties":{"style":"solid","thickness":1}},{"type":"Feature","geometry":{"type":"LineString","coordinates":[[-79.95337994444445,26.424169083333336],[-79.95337994444445,26.424169083333336],[-79.84912169444443,26.424169083333336]]},"properties":{"style":"solid","thickness":1}},{"type":"Feature","geometry":{"type":"LineString","coordinates":[[-79.84912169444443,26.424169083333336],[-79.84912169444443,26.424169083333336],[-79.865669,26.383444]]},"properties":{"style":"solid","thickness":1}},{"type":"Feature","geometry":{"type":"LineString","coordinates":[[-80.17198880555556,26.06966597222222],[-80.17198880555556,26.071500694444445]]},"properties":{"style":"solid","thickness":1}},{"type":"Feature","geometry":{"type":"LineString","coordinates":[[-80.17148091666667,26.0694825],[-80.17148091666667,26.071684166666667]]},"properties":{"style":"solid","thickness":1}},{"type":"Feature","geometry":{"type":"LineString","coordinates":[[-80.17097305555556,26.0694825],[-80.17097305555556,26.071684166666667]]},"properties":{"style":"solid","thickness":1}},{"type":"Feature","geometry":{"type":"LineString","coordinates":[[-80.17046516666667,26.06966597222222],[-80.17046516666667,26.071500694444445]]},"properties":{"style":"solid","thickness":1}},{"type":"Feature","geometry":{"type":"LineString","coordinates":[[-80.16995727777778,26.07058333333333],[-80.16996516666667,26.070713388888887],[-80.16999055555556,26.07084936111111],[-80.17003588888889,26.070988666666665],[-80.17010302777778,26.07112797222222],[-80.17019294444445,26.071263305555554],[-80.1703055,26.071390305555557],[-80.17043908333333,26.071504472222223],[-80.17059075,26.071601805555556],[-80.17075636111112,26.071679],[-80.17093088888889,26.071734027777776],[-80.17110891666667,26.07176611111111],[-80.17128527777778,26.07177588888889],[-80.17145538888889,26.071765083333332],[-80.17161558333333,26.07173622222222],[-80.17176322222222,26.071692388888888],[-80.17189677777779,26.071636777777776],[-80.17201872222223,26.071570472222223],[-80.17213783333334,26.071488277777778],[-80.17225141666667,26.071388944444443],[-80.17235555555555,26.07127238888889],[-80.17244588888889,26.071139444444444],[-80.17251827777778,26.07099211111111],[-80.17256888888889,26.070833444444443],[-80.17259497222223,26.07066752777778],[-80.17259497222223,26.07049911111111],[-80.17256888888889,26.070333194444444],[-80.17251825000001,26.070174555555557],[-80.17244588888889,26.070027194444446],[-80.17235552777778,26.069894277777777],[-80.17225141666667,26.069777722222224],[-80.17213780555556,26.06967838888889],[-80.17201872222223,26.069596194444443],[-80.17189675,26.069529888888887],[-80.17176322222222,26.06947425],[-80.17161555555556,26.069430444444443],[-80.17145538888889,26.069401583333335],[-80.17128527777778,26.069390777777777],[-80.17110891666667,26.069400527777777],[-80.17093088888889,26.069432638888888],[-80.17075638888889,26.069487666666667],[-80.17059077777779,26.06956486111111],[-80.17043908333333,26.069662166666667],[-80.1703055,26.06977636111111],[-80.17019297222222,26.069903361111113],[-80.17010302777778,26.070038694444445],[-80.17003588888889,26.070178],[-80.16999055555556,26.070317305555555],[-80.16996516666667,26.07045325],[-80.16995727777778,26.07058333333333]]},"properties":{"style":"solid","thickness":1}},{"type":"Feature","geometry":{"type":"LineString","coordinates":[[-79.92220900000001,26.412904972222222],[-79.91644094444445,26.413455277777775],[-79.91947805555556,26.40450288888889]]},"properties":{"style":"solid","thickness":1}},{"type":"Feature","geometry":{"type":"LineString","coordinates":[[-79.90764919444445,26.40890508333333],[-79.90788711111112,26.410928694444443],[-79.9082466388889,26.41205397222222],[-79.90845991666667,26.412579305555553],[-79.90873222222223,26.41296261111111],[-79.90972633333334,26.41368633333333],[-79.91066491666668,26.41393788888889],[-79.91096455555557,26.413909333333333],[-79.91182380555556,26.413486361111108],[-79.9125526388889,26.41259833333333],[-79.91280466666667,26.412165055555555],[-79.91289102777779,26.411611138888887],[-79.9129808888889,26.410442999999997],[-79.9127428888889,26.408419416666664],[-79.91238330555557,26.407294166666667],[-79.91217005555556,26.406768805555554],[-79.91182283333333,26.406392666666665],[-79.91090369444446,26.405661805555553],[-79.90996516666667,26.40541025],[-79.90966552777779,26.405438805555555],[-79.90880633333335,26.405861777777776],[-79.90800261111112,26.406756916666666],[-79.90782547222223,26.407183055555553],[-79.90773911111111,26.40773697222222],[-79.90764919444445,26.40890508333333]]},"properties":{"style":"solid","thickness":1}},{"type":"Feature","geometry":{"type":"LineString","coordinates":[[-79.92120019444445,26.39936147222222],[-79.91543280555557,26.39991175],[-79.9184696388889,26.39095933333333]]},"properties":{"style":"solid","thickness":1}},{"type":"Feature","geometry":{"type":"LineString","coordinates":[[-79.90664208333334,26.395361472222223],[-79.90687994444446,26.397385083333333],[-79.90723944444446,26.398510388888887],[-79.90745269444444,26.399035722222223],[-79.90772497222223,26.39941902777778],[-79.90871894444444,26.400142777777777],[-79.90965741666668,26.40039433333333],[-79.90995702777778,26.400365777777775],[-79.91081619444445,26.399942777777778],[-79.91154494444444,26.399054777777778],[-79.91179694444445,26.3986215],[-79.91188330555556,26.398067583333333],[-79.91197316666667,26.396899444444443],[-79.91173522222223,26.39487586111111],[-79.91137569444444,26.393750583333333],[-79.91116244444444,26.39322522222222],[-79.91081527777779,26.39284908333333],[-79.90989625,26.392118194444443],[-79.90895783333333,26.39186663888889],[-79.90865825,26.391895194444444],[-79.90779911111112,26.392318166666666],[-79.90699550000001,26.393213305555555],[-79.9068183888889,26.393639444444442],[-79.906732,26.39419336111111],[-79.90664208333334,26.395361472222223]]},"properties":{"style":"solid","thickness":1}},{"type":"Feature","geometry":{"type":"LineString","coordinates":[[-79.96765402777778,26.316868194444446],[-79.9654835,26.317076166666666],[-79.9642335,26.3161045],[-79.96403605555555,26.31571413888889],[-79.96384658333334,26.315391222222225],[-79.96375111111111,26.314581805555555],[-79.96397888888889,26.313946055555558],[-79.96435636111111,26.313295944444445],[-79.96477358333334,26.312983111111112],[-79.96504908333334,26.312752083333333],[-79.96562397222222,26.31249236111111],[-79.9669711388889,26.312363277777777],[-79.96759375,26.31250825],[-79.96808261111111,26.312802472222224],[-79.96851252777778,26.31323877777778],[-79.96880075,26.313756861111113],[-79.96893130555556,26.31422186111111],[-79.96901088888889,26.31489638888889],[-79.96897583333333,26.315240805555558],[-79.96879905555556,26.315667027777778],[-79.96852355555556,26.315898083333334],[-79.96765402777778,26.316868194444446],[-79.96839130555556,26.31734325],[-79.96882922222223,26.317847],[-79.96901869444444,26.318169916666665],[-79.96914605555556,26.31924913888889],[-79.96886733333334,26.320094444444443],[-79.96866666666666,26.320318305555556],[-79.96802486111112,26.320652666666668],[-79.96759963888888,26.320898055555556],[-79.96662661111111,26.32099127777778],[-79.96592911111111,26.320853472222222],[-79.96486855555555,26.320204722222222],[-79.96467908333334,26.319881805555557],[-79.96453583333333,26.318667694444443],[-79.96468080555556,26.31797163888889],[-79.96474772222223,26.31789702777778],[-79.96509011111111,26.31759136111111],[-79.9654835,26.317076166666666]]},"properties":{"style":"solid","thickness":1}},{"type":"Feature","geometry":{"type":"LineString","coordinates":[[-79.95575202777778,26.316712166666665],[-79.95599058333333,26.31873575],[-79.95635033333333,26.319860944444443],[-79.9565636388889,26.320386222222222],[-79.95683588888889,26.320769416666668],[-79.95782952777778,26.32149286111111],[-79.95876747222222,26.321744111111112],[-79.9590668888889,26.321715444444443],[-79.95992530555556,26.321292166666666],[-79.96065316666667,26.32040388888889],[-79.96090483333333,26.3199705],[-79.96099088888889,26.31941652777778],[-79.96108022222222,26.31824836111111],[-79.96084158333333,26.31622477777778],[-79.96048180555556,26.315099611111112],[-79.9602685,26.314574333333333],[-79.95992138888889,26.314198277777777],[-79.95900266666666,26.313467694444444],[-79.95806475,26.313216444444446],[-79.95776538888889,26.31324511111111],[-79.95690702777777,26.31366838888889],[-79.95610430555556,26.314563805555558],[-79.95592747222223,26.314990027777778],[-79.95584138888889,26.315543972222223],[-79.95575202777778,26.316712166666665]]},"properties":{"style":"solid","thickness":1}},{"type":"Feature","geometry":{"type":"LineString","coordinates":[[-79.96500677777777,26.30743766666667],[-79.96593516666667,26.306325472222223],[-79.96672183333334,26.305295083333334],[-79.96736677777778,26.3043465],[-79.9677521388889,26.303763833333335],[-79.96804675,26.303053472222224],[-79.96811683333334,26.302364611111113],[-79.96812005555556,26.30175036111111],[-79.96797683333334,26.300536222222224],[-79.96769661111111,26.300085583333335],[-79.96734952777778,26.29970955555556],[-79.9669945,26.299266083333336],[-79.96535930555555,26.298877055555558],[-79.96446130555556,26.298963111111114],[-79.96354413888889,26.2995285],[-79.96341036111112,26.29967775],[-79.96287533333333,26.300274722222223],[-79.9628163888889,26.30041677777778],[-79.96262841666667,26.301389805555555],[-79.96270797222222,26.302064333333334],[-79.96291333333333,26.30252213888889],[-79.96311072222223,26.302912527777778],[-79.96346577777778,26.303356],[-79.96412016666667,26.303770805555555],[-79.96475066666667,26.30398325],[-79.96513283333334,26.304014861111114],[-79.96565669444445,26.30396466666667],[-79.96602291666667,26.30386136111111],[-79.9672315,26.303199805555558],[-79.96812480555556,26.302432055555556]]},"properties":{"style":"solid","thickness":1}},{"type":"Feature","geometry":{"type":"LineString","coordinates":[[-79.95451563888889,26.303190027777777],[-79.95475413888889,26.30521361111111],[-79.95511380555556,26.306338805555555],[-79.95532708333333,26.306864083333334],[-79.95559933333334,26.307247305555556],[-79.95659283333333,26.30797075],[-79.95753066666667,26.308222],[-79.95783002777777,26.308193333333335],[-79.95868836111111,26.307770055555558],[-79.95941616666667,26.306881805555555],[-79.95966780555555,26.30644841666667],[-79.95975386111111,26.305894444444444],[-79.95984316666667,26.30472625],[-79.95960458333333,26.302702694444445],[-79.95924486111112,26.3015775],[-79.95903158333334,26.30105222222222],[-79.95868452777778,26.30067616666667],[-79.95776588888889,26.299945583333336],[-79.95682811111111,26.299694333333335],[-79.95652877777778,26.299723],[-79.9556705,26.30014625],[-79.95486786111111,26.301041666666666],[-79.95469105555556,26.30146788888889],[-79.954605,26.302021833333335],[-79.95451563888889,26.303190027777777]]},"properties":{"style":"solid","thickness":1}},{"type":"Feature","geometry":{"type":"LineString","coordinates":[[-80.38436716666668,26.144267361111112],[-80.37861433333333,26.144836027777778],[-80.3816096111111,26.13587336111111]]},"properties":{"style":"solid","thickness":1}},{"type":"Feature","geometry":{"type":"LineString","coordinates":[[-80.36982472222222,26.140313444444445],[-80.37007,26.142336416666666],[-80.37043313888888,26.14346063888889],[-80.37064797222222,26.14398536111111],[-80.37092116666666,26.144367805555554],[-80.37191583333333,26.145088444444443],[-80.37285327777776,26.145337027777778],[-80.37315213888888,26.1453075],[-80.37400780555555,26.144881777777776],[-80.3747315,26.14399138888889],[-80.37498127777778,26.14355725],[-80.37506524999999,26.143003027777777],[-80.37515036111111,26.141834527777778],[-80.374905,26.139811555555553],[-80.37454183333332,26.13868736111111],[-80.374327,26.138162666666666],[-80.37397908333332,26.13778758333333],[-80.37305916666666,26.137059583333333],[-80.37212180555555,26.136810999999998],[-80.37182297222222,26.136840499999998],[-80.3709673611111,26.13726625],[-80.37016894444444,26.138164],[-80.36999388888889,26.138590722222222],[-80.36990986111111,26.139144944444443],[-80.36982472222222,26.140313444444445]]},"properties":{"style":"solid","thickness":1}},{"type":"Feature","geometry":{"type":"LineString","coordinates":[[-80.37821972222221,26.131160833333333],[-80.38165608333333,26.130821166666667],[-80.38211069444444,26.127091194444446],[-80.38147111111111,26.12742738888889],[-80.38091441666666,26.127823638888888],[-80.37956977777777,26.127956555555556],[-80.3788811111111,26.12788813888889],[-80.37815972222222,26.12755],[-80.37729819444444,26.126679777777778],[-80.37705063888889,26.125885361111113],[-80.37692797222222,26.124873861111112],[-80.37728619444444,26.124087805555558],[-80.3777191111111,26.12329436111111],[-80.37791866666666,26.12306991666667],[-80.37832597222221,26.122688444444446],[-80.37905661111111,26.12247975],[-80.37987827777778,26.12239852777778],[-80.38049222222222,26.122474305555556],[-80.38127194444444,26.122670194444446],[-80.38200966666666,26.12314316666667],[-80.38210891666667,26.123338083333334]]},"properties":{"style":"solid","thickness":1}},{"type":"Feature","geometry":{"type":"LineString","coordinates":[[-80.36884169444444,26.126764694444446],[-80.36908691666666,26.128787694444444],[-80.36944999999999,26.129911916666668],[-80.36966480555554,26.13043661111111],[-80.36993797222222,26.130819083333336],[-80.37093252777777,26.13153972222222],[-80.37186986111111,26.131788305555556],[-80.37216866666667,26.131758805555556],[-80.37302425,26.131333055555555],[-80.3737478611111,26.130442666666667],[-80.37399761111111,26.130008555555555],[-80.37408161111111,26.129454333333335],[-80.37416669444444,26.128285833333333],[-80.37392138888889,26.126262833333335],[-80.37355827777778,26.12513861111111],[-80.37334347222222,26.124613916666668],[-80.37299561111111,26.124238861111113],[-80.37207580555555,26.123510833333334],[-80.37113852777777,26.12326225],[-80.37083972222221,26.12329175],[-80.36998419444444,26.12371747222222],[-80.36918588888888,26.12461522222222],[-80.36901083333332,26.125041972222224],[-80.36892683333333,26.125596194444444],[-80.36884169444444,26.126764694444446]]},"properties":{"style":"solid","thickness":1}},{"type":"Feature","geometry":{"type":"LineString","coordinates":[[-80.06114119444445,26.159256166666665],[-80.05538613888889,26.159812055555555],[-80.05840616666666,26.150856138888887]]},"properties":{"style":"solid","thickness":1}},{"type":"Feature","geometry":{"type":"LineString","coordinates":[[-80.04660777777778,26.155270027777778],[-80.04684758333333,26.157293555555555],[-80.04720769444444,26.158418555555553],[-80.0474211111111,26.158943722222222],[-80.04769330555555,26.159326777777775],[-80.04868613888888,26.16004961111111],[-80.04962302777777,26.160300305555555],[-80.04992197222222,26.160271444444444],[-80.05077891666666,26.15984758333333],[-80.05150511111111,26.158958833333333],[-80.0517561111111,26.15852525],[-80.05184161111112,26.15797122222222],[-80.05192988888889,26.156802916666667],[-80.05169002777778,26.154779416666667],[-80.05132988888889,26.153654416666665],[-80.05111644444445,26.15312925],[-80.05076952777777,26.152753416666666],[-80.04985147222222,26.15202338888889],[-80.04891466666666,26.15177272222222],[-80.04861569444444,26.151801555555554],[-80.04775883333333,26.152225388888887],[-80.04695791666667,26.15312136111111],[-80.04678163888889,26.153547694444445],[-80.0466961111111,26.15410175],[-80.04660777777778,26.155270027777778]]},"properties":{"style":"solid","thickness":1}},{"type":"Feature","geometry":{"type":"LineString","coordinates":[[-80.05614169444443,26.145960416666668],[-80.05706797222221,26.14484761111111],[-80.05785277777777,26.143816694444443],[-80.05849608333332,26.142867638888887],[-80.05888047222221,26.14228472222222],[-80.05917413888889,26.14157411111111],[-80.05924361111111,26.140885194444444],[-80.05924633333333,26.140270916666665],[-80.0591023611111,26.139056805555555],[-80.05882219444445,26.138606333333332],[-80.05847527777777,26.1382305],[-80.05812038888888,26.137787222222222],[-80.05648711111111,26.13739922222222],[-80.05559038888889,26.13748586111111],[-80.05467491666667,26.138051833333332],[-80.05454144444444,26.138201166666665],[-80.05400758333333,26.138798527777777],[-80.05394886111111,26.13894063888889],[-80.05376188888889,26.139913805555555],[-80.05384186111111,26.140588305555553],[-80.05404727777777,26.141046027777776],[-80.05424472222222,26.14143627777778],[-80.05459961111112,26.14187958333333],[-80.05525344444445,26.142293972222223],[-80.05588327777778,26.142506027777777],[-80.05626491666666,26.14253738888889],[-80.05678802777777,26.14248686111111],[-80.05715369444444,26.142383305555555],[-80.05836011111111,26.141721],[-80.05925161111111,26.140952638888887]]},"properties":{"style":"solid","thickness":1}},{"type":"Feature","geometry":{"type":"LineString","coordinates":[[-80.0456615,26.14171922222222],[-80.04590125,26.14374275],[-80.04626133333333,26.144867777777776],[-80.04647472222221,26.145392944444446],[-80.04674688888889,26.145775999999998],[-80.04773958333332,26.146498833333332],[-80.0486763611111,26.14674952777778],[-80.04897530555556,26.146720666666667],[-80.04983213888889,26.146296833333334],[-80.05055825,26.145408055555556],[-80.05080922222221,26.1449745],[-80.05089472222222,26.144420472222222],[-80.050983,26.143252166666667],[-80.05074316666666,26.14122863888889],[-80.05038308333333,26.14010363888889],[-80.05016966666666,26.139578472222222],[-80.04982277777778,26.13920263888889],[-80.04890486111111,26.138472583333332],[-80.04796813888889,26.138221916666666],[-80.04766922222223,26.138250777777778],[-80.04681244444444,26.138674583333334],[-80.04601161111111,26.139570555555554],[-80.0458353611111,26.139996888888888],[-80.04574983333333,26.140550944444445],[-80.0456615,26.14171922222222]]},"properties":{"style":"solid","thickness":1}},{"type":"Feature","geometry":{"type":"LineString","coordinates":[[-80.14407822222223,26.103819305555557],[-80.13898852777778,26.101694166666668]]},"properties":{"style":"solid","thickness":1}},{"type":"Feature","geometry":{"type":"LineString","coordinates":[[-80.13923116666668,26.104235944444447],[-80.14377575,26.101283333333335]]},"properties":{"style":"solid","thickness":1}},{"type":"Feature","geometry":{"type":"LineString","coordinates":[[-80.14177602777778,26.10529852777778],[-80.14117116666668,26.100226583333335]]},"properties":{"style":"solid","thickness":1}},{"type":"Feature","geometry":{"type":"LineString","coordinates":[[-80.13622130555557,26.099779833333333],[-80.13703825,26.106632361111114]]},"properties":{"style":"solid","thickness":1}},{"type":"Feature","geometry":{"type":"LineString","coordinates":[[-80.13351897222223,26.103481111111112],[-80.13011258333333,26.103812027777778]]},"properties":{"style":"solid","thickness":1}},{"type":"Feature","geometry":{"type":"LineString","coordinates":[[-80.13034480555555,26.107282722222223],[-80.13393058333334,26.10693436111111],[-80.13311383333333,26.100081805555558]]},"properties":{"style":"solid","thickness":1}},{"type":"Feature","geometry":{"type":"LineString","coordinates":[[-80.12187894444443,26.101172972222223],[-80.1206631111111,26.108222861111113],[-80.11733713888889,26.101613833333335],[-80.11606125,26.1086695],[-80.11303433333333,26.10203138888889]]},"properties":{"style":"solid","thickness":1}},{"type":"Feature","geometry":{"type":"LineString","coordinates":[[-80.1105243611111,26.10227488888889],[-80.11133983333333,26.109127583333336]]},"properties":{"style":"solid","thickness":1}},{"type":"Feature","geometry":{"type":"LineString","coordinates":[[-80.10747649999999,26.102570500000002],[-80.10500469444443,26.109741972222224],[-80.10108194444445,26.10319052777778]]},"properties":{"style":"solid","thickness":1}},{"type":"Feature","geometry":{"type":"LineString","coordinates":[[-80.10666397222222,26.10488713888889],[-80.10236099999999,26.105304361111113]]},"properties":{"style":"solid","thickness":1}},{"type":"Feature","geometry":{"type":"LineString","coordinates":[[-80.09400772222222,26.110807833333336],[-80.09319325,26.103955055555556],[-80.09026483333332,26.104238722222224]]},"properties":{"style":"solid","thickness":1}},{"type":"Feature","geometry":{"type":"LineString","coordinates":[[-80.08787427777777,26.10447027777778],[-80.08540124999999,26.11164138888889],[-80.08147952777777,26.10508941666667]]},"properties":{"style":"solid","thickness":1}},{"type":"Feature","geometry":{"type":"LineString","coordinates":[[-80.08706136111111,26.106786777777778],[-80.08275825,26.107203416666668]]},"properties":{"style":"solid","thickness":1}},{"type":"Feature","geometry":{"type":"LineString","coordinates":[[-80.07896941666667,26.10533238888889],[-80.07978308333333,26.112185250000003],[-80.07221597222222,26.10598586111111],[-80.07302924999999,26.11283875]]},"properties":{"style":"solid","thickness":1}},{"type":"Feature","geometry":{"type":"LineString","coordinates":[[-80.06976558333334,26.10622288888889],[-80.07057875,26.11307577777778],[-80.06794891666667,26.11333011111111],[-80.0672188611111,26.11329152777778],[-80.06690080555555,26.113158555555557],[-80.0663778611111,26.112827083333336],[-80.06559022222221,26.11230286111111],[-80.0650288611111,26.111647611111113],[-80.06484530555555,26.111119555555558],[-80.0646341111111,26.10933888888889],[-80.06469602777777,26.108841694444447],[-80.06497783333333,26.108159500000003],[-80.06535138888889,26.107741333333333],[-80.06571216666666,26.107215222222223],[-80.06626502777777,26.106779722222225],[-80.066963,26.106548500000002],[-80.06737497222223,26.106454083333336],[-80.06976558333334,26.10622288888889]]},"properties":{"style":"solid","thickness":1}},{"type":"Feature","geometry":{"type":"LineString","coordinates":[[-80.0618765,26.106985694444447],[-80.06268919444445,26.11383863888889]]},"properties":{"style":"solid","thickness":1}},{"type":"Feature","geometry":{"type":"LineString","coordinates":[[-80.05876863888889,26.10728605555556],[-80.05958116666666,26.114139027777778],[-80.05201497222222,26.107938583333336],[-80.05282711111111,26.114791583333336]]},"properties":{"style":"solid","thickness":1}},{"type":"Feature","geometry":{"type":"LineString","coordinates":[[-80.04447005555555,26.114670750000002],[-80.0447475,26.114971444444446],[-80.04532377777778,26.11524327777778],[-80.04569519444445,26.115316583333335],[-80.04673047222222,26.11538036111111],[-80.0470891111111,26.115345722222223],[-80.04779358333333,26.115168555555556],[-80.0483721111111,26.114948944444446],[-80.04848525,26.114883444444445],[-80.04887169444444,26.114573250000003],[-80.04925172222222,26.114209083333336],[-80.04986027777778,26.113222472222223],[-80.05005680555556,26.112330250000003],[-80.04991616666666,26.11114311111111],[-80.04971988888889,26.11050713888889],[-80.04942327777778,26.110044583333334],[-80.04901352777777,26.109647527777778],[-80.04866994444444,26.109298666666668],[-80.04813425,26.10885916666667],[-80.04763052777777,26.1086895],[-80.04712683333334,26.108519833333336],[-80.04669566666666,26.108452305555556],[-80.0456198611111,26.108556194444446],[-80.04503494444444,26.108721805555557],[-80.04458236111111,26.108983805555557],[-80.04407641666667,26.109305555555558],[-80.04374975,26.109609972222223],[-80.04322875,26.110315194444446],[-80.04292766666667,26.110835472222224],[-80.04284647222222,26.11117077777778],[-80.04294872222222,26.11203413888889],[-80.04545902777778,26.11179180555556]]},"properties":{"style":"solid","thickness":1}},{"type":"Feature","geometry":{"type":"LineString","coordinates":[[-80.03190705555555,26.116810805555556],[-80.03555316666666,26.116459111111112],[-80.034742,26.10960602777778],[-80.03103633333333,26.109963472222223]]},"properties":{"style":"solid","thickness":1}},{"type":"Feature","geometry":{"type":"LineString","coordinates":[[-80.03514438888888,26.113005583333333],[-80.03161791666666,26.11334575]]},"properties":{"style":"solid","thickness":1}},{"type":"Feature","geometry":{"type":"LineString","coordinates":[[-80.0288248611111,26.11017675],[-80.02634816666666,26.117346833333333],[-80.0224295,26.110793333333334]]},"properties":{"style":"solid","thickness":1}},{"type":"Feature","geometry":{"type":"LineString","coordinates":[[-80.02801074999999,26.112492916666667],[-80.02370725,26.112907805555558]]},"properties":{"style":"solid","thickness":1}},{"type":"Feature","geometry":{"type":"LineString","coordinates":[[-80.01729919444445,26.117509444444444],[-80.01790094444445,26.117997250000002],[-80.01802688888888,26.118039694444445],[-80.01881669444444,26.11807275],[-80.01946144444445,26.117901472222222],[-80.01979458333334,26.117651055555555],[-80.02012130555555,26.117346694444446],[-80.02036275,26.11683222222222],[-80.020216,26.11559111111111],[-80.01979994444444,26.11514],[-80.01953533333334,26.114947194444447],[-80.01860047222222,26.114709833333336],[-80.01755244444445,26.114537916666666],[-80.01679691666666,26.11428325],[-80.01651955555556,26.11398252777778],[-80.01631072222222,26.113238555555558],[-80.01634733333333,26.11252552777778],[-80.01659516666666,26.112065055555558],[-80.0168685,26.111820416666667],[-80.01708844444444,26.111635500000002],[-80.01736816666667,26.111444805555557],[-80.0180065,26.111219583333334],[-80.01836513888888,26.11118502777778],[-80.0187365,26.111258388888892],[-80.01924019444445,26.111428166666666],[-80.01956455555556,26.111615194444447],[-80.020034,26.112006583333336]]},"properties":{"style":"solid","thickness":1}},{"type":"Feature","geometry":{"type":"LineString","coordinates":[[-80.01439341666666,26.11849888888889],[-80.01008966666667,26.11891336111111]]},"properties":{"style":"solid","thickness":1}},{"type":"Feature","geometry":{"type":"LineString","coordinates":[[-80.01230130555555,26.11870038888889],[-80.0114915,26.111847194444447]]},"properties":{"style":"solid","thickness":1}},{"type":"Feature","geometry":{"type":"LineString","coordinates":[[-80.00724763888888,26.116349055555556],[-80.00605216666666,26.11646413888889],[-80.00592466666667,26.11538488888889],[-80.0071201388889,26.115269805555556],[-80.00724763888888,26.116349055555556]]},"properties":{"style":"solid","thickness":1}},{"type":"Feature","geometry":{"type":"LineString","coordinates":[[-80.00689702777778,26.113381111111114],[-80.00570158333333,26.113496222222224],[-80.00557411111112,26.112416972222224],[-80.00676955555555,26.112301861111114],[-80.00689702777778,26.113381111111114]]},"properties":{"style":"solid","thickness":1}},{"type":"Feature","geometry":{"type":"LineString","coordinates":[[-79.99537216666667,26.12022066666667],[-79.9961135,26.119330722222223],[-79.99674161111112,26.11850625],[-79.99725655555555,26.117747222222224],[-79.99756425,26.117281000000002],[-79.99779941666667,26.116712638888888],[-79.99785525,26.1161615],[-79.99785769444445,26.115670083333335],[-79.99774302777777,26.114698750000002],[-79.99751913888889,26.11433827777778],[-79.99724180555556,26.114037500000002],[-79.99695813888889,26.113682750000002],[-79.99565194444445,26.113371805555555],[-79.99493469444444,26.113440805555555],[-79.99420222222223,26.113893305555557],[-79.99409541666667,26.114012722222224],[-79.99366816666667,26.11449041666667],[-79.99362113888888,26.114604083333333],[-79.99347119444444,26.115382583333336],[-79.99353488888889,26.115922194444448],[-79.993699,26.116288444444447],[-79.99385675,26.116600722222223],[-79.99414044444444,26.116955472222223],[-79.99466322222223,26.117287222222224],[-79.99516688888889,26.117457055555555],[-79.99547213888889,26.11748227777778],[-79.99589055555556,26.117442027777777],[-79.99618305555556,26.117359305555556],[-79.99714827777778,26.11682986111111],[-79.99786163888889,26.116215472222223]]},"properties":{"style":"solid","thickness":1}},{"type":"Feature","geometry":{"type":"LineString","coordinates":[[-79.98699152777777,26.116824277777777],[-79.9871825,26.118443166666665],[-79.98747002777777,26.119343305555557],[-79.98764052777778,26.119763527777778],[-79.98785805555556,26.120070055555555],[-79.98865175,26.120648666666668],[-79.98940091666667,26.120849500000002],[-79.98964,26.1208265],[-79.9903255,26.120487722222222],[-79.99090663888889,26.119776944444446],[-79.99110752777779,26.119430166666668],[-79.99117613888889,26.118986972222224],[-79.99124722222223,26.11805236111111],[-79.99105619444444,26.116433472222223],[-79.9907686388889,26.115533333333335],[-79.99059816666667,26.115113111111114],[-79.99032086111112,26.114812333333333],[-79.98958694444444,26.114228],[-79.98883783333333,26.114027166666666],[-79.98859875,26.11405013888889],[-79.98791330555555,26.11438891666667],[-79.98727238888888,26.115105444444445],[-79.98713127777778,26.115446472222224],[-79.98706263888889,26.115889666666668],[-79.98699152777777,26.116824277777777]]},"properties":{"style":"solid","thickness":1}},{"type":"Feature","geometry":{"type":"LineString","coordinates":[[-79.98458280555556,26.117929027777777],[-79.98087672222222,26.118285194444447]]},"properties":{"style":"solid","thickness":1}},{"type":"Feature","geometry":{"type":"LineString","coordinates":[[-79.97712994444444,26.118808916666666],[-79.97539641666667,26.118975416666668],[-79.97439802777778,26.11819813888889],[-79.97424030555555,26.117885833333332],[-79.97408897222222,26.1176275],[-79.9740126388889,26.116979944444445],[-79.97419452777778,26.116471305555557],[-79.97449591666667,26.11595116666667],[-79.9748291388889,26.11570086111111],[-79.97504916666666,26.115516000000003],[-79.97550827777778,26.115308194444445],[-79.97658422222223,26.115204833333333],[-79.9770815,26.11532077777778],[-79.97747194444445,26.11555613888889],[-79.97781533333334,26.115905166666668],[-79.97804555555555,26.11631966666667],[-79.9781498611111,26.116691666666668],[-79.97821347222222,26.117231305555556],[-79.9781855,26.11750686111111],[-79.97804433333333,26.117847861111112],[-79.97782433333333,26.11803272222222],[-79.97712994444444,26.118808916666666],[-79.97771880555555,26.119188944444446],[-79.97806858333334,26.119591916666668],[-79.97821994444445,26.11985025],[-79.97832172222222,26.120713666666667],[-79.97809919444444,26.121389944444445],[-79.97793894444445,26.121569083333334],[-79.97742638888889,26.12183661111111],[-79.97708680555556,26.12203297222222],[-79.97630969444445,26.12210761111111],[-79.97575261111112,26.12199738888889],[-79.97490552777778,26.121478444444445],[-79.97475416666667,26.12122011111111],[-79.97463969444445,26.120248750000002],[-79.97475541666667,26.11969188888889],[-79.97480883333334,26.119632194444446],[-79.97508227777777,26.119387638888888],[-79.97539641666667,26.118975416666668]]},"properties":{"style":"solid","thickness":1}},{"type":"Feature","geometry":{"type":"LineString","coordinates":[[-79.96762422222223,26.118684861111113],[-79.96781494444444,26.120303777777778],[-79.96810233333333,26.121203944444446],[-79.96827275,26.121624166666667],[-79.96849022222223,26.12193075],[-79.96928386111111,26.122509444444447],[-79.97003297222223,26.12271038888889],[-79.97027208333334,26.122687444444445],[-79.97095763888889,26.12234875],[-79.97153888888889,26.121638027777777],[-79.97173986111112,26.12129127777778],[-79.97180855555555,26.120848083333335],[-79.97187977777779,26.1199135],[-79.97168902777778,26.118294583333334],[-79.97140161111112,26.117394416666667],[-79.97123119444444,26.11697416666667],[-79.97095394444445,26.11667336111111],[-79.97022011111112,26.11608891666667],[-79.96947102777779,26.115887972222225],[-79.96923191666667,26.115910944444447],[-79.96854641666667,26.116249638888892],[-79.9679053888889,26.116966055555555],[-79.96776419444444,26.117307055555557],[-79.9676955,26.11775025],[-79.96762422222223,26.118684861111113]]},"properties":{"style":"solid","thickness":1}},{"type":"Feature","geometry":{"type":"LineString","coordinates":[[-80.29404247222222,25.796860694444447],[-80.2940425,25.798694861111112]]},"properties":{"style":"solid","thickness":1}},{"type":"Feature","geometry":{"type":"LineString","coordinates":[[-80.29353594444444,25.79667727777778],[-80.29353594444444,25.798878277777778]]},"properties":{"style":"solid","thickness":1}},{"type":"Feature","geometry":{"type":"LineString","coordinates":[[-80.29302941666667,25.79667727777778],[-80.29302941666667,25.798878277777778]]},"properties":{"style":"solid","thickness":1}},{"type":"Feature","geometry":{"type":"LineString","coordinates":[[-80.29252286111111,25.796860694444447],[-80.29252286111111,25.798694861111112]]},"properties":{"style":"solid","thickness":1}},{"type":"Feature","geometry":{"type":"LineString","coordinates":[[-80.29201633333334,25.797777777777778],[-80.29202419444444,25.797907805555557],[-80.2920495,25.798043722222225],[-80.29209472222222,25.798182972222225],[-80.29216169444445,25.798322250000002],[-80.29225138888889,25.798457555555558],[-80.29236361111111,25.7985845],[-80.2924968611111,25.79869863888889],[-80.2926481388889,25.798795944444446],[-80.29281330555555,25.798873111111114],[-80.29298736111112,25.798928111111113],[-80.29316491666667,25.798960222222224],[-80.29334083333333,25.798969972222224],[-80.29351047222222,25.79895916666667],[-80.29367024999999,25.798930333333335],[-80.2938175,25.798886500000002],[-80.29395069444445,25.79883088888889],[-80.29407233333333,25.798764611111114],[-80.2941911111111,25.798682444444445],[-80.29430441666666,25.79858313888889],[-80.29440825,25.798466611111113],[-80.29449836111111,25.798333722222225],[-80.29457055555555,25.798186444444447],[-80.29462102777778,25.798027805555556],[-80.29464705555556,25.797861944444445],[-80.29464702777777,25.797693583333334],[-80.29462102777778,25.797527722222224],[-80.29457052777778,25.797369111111113],[-80.29449836111111,25.79722180555556],[-80.29440825,25.797088916666667],[-80.29430438888889,25.79697238888889],[-80.29419108333333,25.79687311111111],[-80.29407230555556,25.796790944444446],[-80.29395069444445,25.79672466666667],[-80.2938175,25.796669055555558],[-80.29367022222222,25.796625222222225],[-80.29351047222222,25.79659638888889],[-80.29334083333333,25.796585583333336],[-80.29316491666667,25.796595333333336],[-80.29298736111112,25.79662741666667],[-80.29281330555555,25.79668241666667],[-80.2926481388889,25.796759611111113],[-80.2924968611111,25.79685688888889],[-80.29236363888889,25.796971055555556],[-80.29225138888889,25.797098000000002],[-80.29216169444445,25.797233305555558],[-80.29209472222222,25.797372555555558],[-80.29204952777778,25.79751180555556],[-80.29202419444444,25.797647750000003],[-80.29201633333334,25.797777777777778]]},"properties":{"style":"solid","thickness":1}}]}
