{"type":"FeatureCollection","features":[{"type":"Feature","geometry":{"type":"LineString","coordinates":[[-80.94481977777778,25.732399666666666],[-80.92787505555556,25.733547722222223]]},"properties":{"style":"solid","thickness":1}},{"type":"Feature","geometry":{"type":"LineString","coordinates":[[-80.67233875000001,25.672347083333335],[-80.6553996388889,25.673463583333334]]},"properties":{"style":"solid","thickness":1}},{"type":"Feature","geometry":{"type":"LineString","coordinates":[[-80.44595247222223,25.755721722222223],[-80.4289993888889,25.756812027777777]]},"properties":{"style":"solid","thickness":1}},{"type":"Feature","geometry":{"type":"LineString","coordinates":[[-80.33652233333333,25.719877888888888],[-80.31957330555555,25.720955555555555]]},"properties":{"style":"solid","thickness":1}},{"type":"Feature","geometry":{"type":"LineString","coordinates":[[-80.30860947222222,25.652095749999997],[-80.29166977777777,25.653170194444442]]},"properties":{"style":"solid","thickness":1}},{"type":"Feature","geometry":{"type":"LineString","coordinates":[[-80.01358486111111,25.651829333333332],[-79.99664269444445,25.652869638888887]]},"properties":{"style":"solid","thickness":1}},{"type":"Feature","geometry":{"type":"LineString","coordinates":[[-80.13196138888888,25.4507905],[-80.11504838888888,25.451844583333333]]},"properties":{"style":"solid","thickness":1}},{"type":"Feature","geometry":{"type":"LineString","coordinates":[[-80.4515301388889,25.380347694444445],[-80.43462980555556,25.38143861111111]]},"properties":{"style":"solid","thickness":1}},{"type":"Feature","geometry":{"type":"LineString","coordinates":[[-80.89063800000001,25.766527],[-80.89063800000001,25.766527],[-80.875,25.6375]]},"properties":{"style":"solid","thickness":1}},{"type":"Feature","geometry":{"type":"LineString","coordinates":[[-80.875,25.6375],[-80.875,25.6375],[-81.00637633333334,25.74889591666667]]},"properties":{"style":"solid","thickness":1}},{"type":"Feature","geometry":{"type":"LineString","coordinates":[[-81.00637633333334,25.74889591666667],[-81.00637633333334,25.74889591666667],[-81.00534677777777,25.76048275]]},"properties":{"style":"solid","thickness":1}},{"type":"Feature","geometry":{"type":"LineString","coordinates":[[-81.00534677777777,25.76048275],[-81.00534677777777,25.76048275],[-80.89063800000001,25.766527]]},"properties":{"style":"solid","thickness":1}},{"type":"Feature","geometry":{"type":"LineString","coordinates":[[-80.875,25.6375],[-80.875,25.6375],[-80.754167,25.462222]]},"properties":{"style":"solid","thickness":1}},{"type":"Feature","geometry":{"type":"LineString","coordinates":[[-80.754167,25.462222],[-80.754167,25.462222],[-80.59473899999999,25.581678]]},"properties":{"style":"solid","thickness":1}},{"type":"Feature","geometry":{"type":"LineString","coordinates":[[-80.59473899999999,25.581678],[-80.59473899999999,25.581678],[-80.406631,25.651006]]},"properties":{"style":"solid","thickness":1}},{"type":"Feature","geometry":{"type":"LineString","coordinates":[[-80.406631,25.651006],[-80.406631,25.651006],[-80.42107800000001,25.718338999999997]]},"properties":{"style":"solid","thickness":1}},{"type":"Feature","geometry":{"type":"LineString","coordinates":[[-80.42107800000001,25.718338999999997],[-80.42107800000001,25.718338999999997],[-80.43346100000001,25.719519]]},"properties":{"style":"solid","thickness":1}},{"type":"Feature","geometry":{"type":"LineString","coordinates":[[-80.43346100000001,25.719519],[-80.43346100000001,25.719519],[-80.442142,25.718811]]},"properties":{"style":"solid","thickness":1}},{"type":"Feature","geometry":{"type":"LineString","coordinates":[[-80.442142,25.718811],[-80.442142,25.718811],[-80.456,25.716974999999998]]},"properties":{"style":"solid","thickness":1}},{"type":"Feature","geometry":{"type":"LineString","coordinates":[[-80.456,25.716974999999998],[-80.456,25.716974999999998],[-80.46541400000001,25.735097]]},"properties":{"style":"solid","thickness":1}},{"type":"Feature","geometry":{"type":"LineString","coordinates":[[-80.46541400000001,25.735097],[-80.46541400000001,25.735097],[-80.470033,25.748889000000002]]},"properties":{"style":"solid","thickness":1}},{"type":"Feature","geometry":{"type":"LineString","coordinates":[[-80.470033,25.748889000000002],[-80.470033,25.748889000000002],[-80.47394200000001,25.763967]]},"properties":{"style":"solid","thickness":1}},{"type":"Feature","geometry":{"type":"LineString","coordinates":[[-80.47394200000001,25.763967],[-80.47394200000001,25.763967],[-80.475589,25.772197]]},"properties":{"style":"solid","thickness":1}},{"type":"Feature","geometry":{"type":"LineString","coordinates":[[-80.475589,25.772197],[-80.475589,25.772197],[-80.47712800000001,25.785675]]},"properties":{"style":"solid","thickness":1}},{"type":"Feature","geometry":{"type":"LineString","coordinates":[[-80.47712800000001,25.785675],[-80.47712800000001,25.785675],[-80.89063800000001,25.766527]]},"properties":{"style":"solid","thickness":1}},{"type":"Feature","geometry":{"type":"LineString","coordinates":[[-80.42107800000001,25.718338999999997],[-80.42107800000001,25.718338999999997],[-80.291372,25.794558000000002]]},"properties":{"style":"solid","thickness":1}},{"type":"Feature","geometry":{"type":"LineString","coordinates":[[-80.47712800000001,25.785675],[-80.47712800000001,25.785675],[-80.291372,25.794558000000002]]},"properties":{"style":"solid","thickness":1}},{"type":"Feature","geometry":{"type":"LineString","coordinates":[[-80.291372,25.794558000000002],[-80.291372,25.794558000000002],[-80.266486,25.671631]]},"properties":{"style":"solid","thickness":1}},{"type":"Feature","geometry":{"type":"LineString","coordinates":[[-80.266486,25.671631],[-80.266486,25.671631],[-80.3578,25.671461]]},"properties":{"style":"solid","thickness":1}},{"type":"Feature","geometry":{"type":"LineString","coordinates":[[-80.3578,25.671461],[-80.3578,25.671461],[-80.360647,25.678297]]},"properties":{"style":"solid","thickness":1}},{"type":"Feature","geometry":{"type":"LineString","coordinates":[[-80.360647,25.678297],[-80.360647,25.678297],[-80.37097499999999,25.693086]]},"properties":{"style":"solid","thickness":1}},{"type":"Feature","geometry":{"type":"LineString","coordinates":[[-80.37097499999999,25.693086],[-80.37097499999999,25.693086],[-80.38010799999999,25.701107999999998]]},"properties":{"style":"solid","thickness":1}},{"type":"Feature","geometry":{"type":"LineString","coordinates":[[-80.38010799999999,25.701107999999998],[-80.38010799999999,25.701107999999998],[-80.39378900000001,25.710058]]},"properties":{"style":"solid","thickness":1}},{"type":"Feature","geometry":{"type":"LineString","coordinates":[[-80.39378900000001,25.710058],[-80.39378900000001,25.710058],[-80.40756400000001,25.715214]]},"properties":{"style":"solid","thickness":1}},{"type":"Feature","geometry":{"type":"LineString","coordinates":[[-80.40756400000001,25.715214],[-80.40756400000001,25.715214],[-80.42107800000001,25.718338999999997]]},"properties":{"style":"solid","thickness":1}},{"type":"Feature","geometry":{"type":"LineString","coordinates":[[-80.406631,25.651006],[-80.406631,25.651006],[-80.258889,25.619444]]},"properties":{"style":"solid","thickness":1}},{"type":"Feature","geometry":{"type":"LineString","coordinates":[[-80.258889,25.619444],[-80.258889,25.619444],[-80.266486,25.671631]]},"properties":{"style":"solid","thickness":1}},{"type":"Feature","geometry":{"type":"LineString","coordinates":[[-80.754167,25.462222],[-80.754167,25.462222],[-80.522222,25.493889]]},"properties":{"style":"solid","thickness":1}},{"type":"Feature","geometry":{"type":"LineString","coordinates":[[-80.522222,25.493889],[-80.522222,25.493889],[-80.448611,25.558889]]},"properties":{"style":"solid","thickness":1}},{"type":"Feature","geometry":{"type":"LineString","coordinates":[[-80.448611,25.558889],[-80.448611,25.558889],[-80.43234600000001,25.570536999999998]]},"properties":{"style":"solid","thickness":1}},{"type":"Feature","geometry":{"type":"LineString","coordinates":[[-80.43234600000001,25.570536999999998],[-80.43234600000001,25.570536999999998],[-80.41154200000001,25.579023]]},"properties":{"style":"solid","thickness":1}},{"type":"Feature","geometry":{"type":"LineString","coordinates":[[-80.41154200000001,25.579023],[-80.41154200000001,25.579023],[-80.388822,25.582555]]},"properties":{"style":"solid","thickness":1}},{"type":"Feature","geometry":{"type":"LineString","coordinates":[[-80.388822,25.582555],[-80.388822,25.582555],[-80.36553699999999,25.580924]]},"properties":{"style":"solid","thickness":1}},{"type":"Feature","geometry":{"type":"LineString","coordinates":[[-80.36553699999999,25.580924],[-80.36553699999999,25.580924],[-80.343075,25.574226]]},"properties":{"style":"solid","thickness":1}},{"type":"Feature","geometry":{"type":"LineString","coordinates":[[-80.343075,25.574226],[-80.343075,25.574226],[-80.322771,25.562859]]},"properties":{"style":"solid","thickness":1}},{"type":"Feature","geometry":{"type":"LineString","coordinates":[[-80.322771,25.562859],[-80.322771,25.562859],[-80.30583299999999,25.547500000000003]]},"properties":{"style":"solid","thickness":1}},{"type":"Feature","geometry":{"type":"LineString","coordinates":[[-80.30583299999999,25.547500000000003],[-80.30583299999999,25.547500000000003],[-80.268889,25.503333]]},"properties":{"style":"solid","thickness":1}},{"type":"Feature","geometry":{"type":"LineString","coordinates":[[-80.268889,25.503333],[-80.268889,25.503333],[-80.1875,25.254167]]},"properties":{"style":"solid","thickness":1}},{"type":"Feature","geometry":{"type":"LineString","coordinates":[[-80.1875,25.254167],[-80.1875,25.254167],[-79.87069433333333,25.3546885]]},"properties":{"style":"solid","thickness":1}},{"type":"Feature","geometry":{"type":"LineString","coordinates":[[-79.83776399999999,25.375999],[-79.83776399999999,25.375999],[-79.87088708333333,25.354710111111114]]},"properties":{"style":"solid","thickness":1}},{"type":"Feature","geometry":{"type":"LineString","coordinates":[[-79.83776399999999,25.375999],[-79.83776399999999,25.375999],[-79.70061352777778,25.466029777777777]]},"properties":{"style":"solid","thickness":1}},{"type":"Feature","geometry":{"type":"LineString","coordinates":[[-79.70061352777778,25.466029777777777],[-79.70061352777778,25.466029777777777],[-79.70061352777778,25.70736986111111]]},"properties":{"style":"solid","thickness":1}},{"type":"Feature","geometry":{"type":"LineString","coordinates":[[-79.70061352777778,25.70736986111111],[-79.70061352777778,25.70736986111111],[-79.91831566666667,25.81207825]]},"properties":{"style":"solid","thickness":1}},{"type":"Feature","geometry":{"type":"LineString","coordinates":[[-79.91831566666667,25.81207825],[-79.91831566666667,25.81207825],[-80.291372,25.794558000000002]]},"properties":{"style":"solid","thickness":1}},{"type":"Feature","geometry":{"type":"LineString","coordinates":[[-80.754167,25.462222],[-80.754167,25.462222],[-80.682046,25.367067583333334]]},"properties":{"style":"solid","thickness":1}},{"type":"Feature","geometry":{"type":"LineString","coordinates":[[-80.682046,25.367067583333334],[-80.682046,25.367067583333334],[-80.46576211111112,25.16531238888889]]},"properties":{"style":"solid","thickness":1}},{"type":"Feature","geometry":{"type":"LineString","coordinates":[[-80.46718036111112,25.16595086111111],[-80.46718036111112,25.16595086111111],[-80.1875,25.254167]]},"properties":{"style":"solid","thickness":1}},{"type":"Feature","geometry":{"type":"LineString","coordinates":[[-80.258889,25.619444],[-80.258889,25.619444],[-80.043667,25.544942000000002]]},"properties":{"style":"solid","thickness":1}},{"type":"Feature","geometry":{"type":"LineString","coordinates":[[-80.043667,25.544942000000002],[-80.043667,25.544942000000002],[-79.83776399999999,25.375999]]},"properties":{"style":"solid","thickness":1}},{"type":"Feature","geometry":{"type":"LineString","coordinates":[[-80.89737413888889,25.79795341666667],[-80.89385605555556,25.7815425]]},"properties":{"style":"solid","thickness":1}},{"type":"Feature","geometry":{"type":"LineString","coordinates":[[-81.00396355555556,25.771994027777776],[-81.0021508611111,25.78863027777778]]},"properties":{"style":"solid","thickness":1}},{"type":"Feature","geometry":{"type":"LineString","coordinates":[[-80.89737777777779,25.79795277777778],[-80.91575641666667,25.796323]]},"properties":{"style":"solid","thickness":1}},{"type":"Feature","geometry":{"type":"LineString","coordinates":[[-80.98377469444445,25.790270861111114],[-81.0021508611111,25.78863027777778]]},"properties":{"style":"solid","thickness":1}},{"type":"Feature","geometry":{"type":"LineString","coordinates":[[-80.94038683333333,25.743371250000003],[-80.94130172222222,25.742252805555555],[-80.94207625,25.741217111111112],[-80.94271036111111,25.74026413888889],[-80.9430891388889,25.73967888888889],[-80.94337655555556,25.738966472222224],[-80.94344069444445,25.738277083333333],[-80.94343888888889,25.73766277777778],[-80.94328644444445,25.736449500000003],[-80.9430038888889,25.736000694444446],[-80.9426553888889,25.735626944444444],[-80.94229844444445,25.735185805555556],[-80.9406678888889,25.73480763888889],[-80.93977486111112,25.734899694444444],[-80.93886666666667,25.735471222222223],[-80.93873477777778,25.73562136111111],[-80.9382071388889,25.736221944444445],[-80.93814966666667,25.736364416666667],[-80.9379705,25.73733877777778],[-80.93805516666667,25.738012805555556],[-80.93826327777778,25.738469305555558],[-80.93846294444445,25.73885838888889],[-80.93881988888889,25.739299555555558],[-80.93947452777778,25.73971002777778],[-80.94010377777778,25.73991827777778],[-80.94048436111112,25.739947333333333],[-80.94100533333334,25.739893666666667],[-80.94136897222222,25.73978788888889],[-80.94256638888889,25.739118277777777],[-80.94344916666667,25.7383445]]},"properties":{"style":"solid","thickness":1}},{"type":"Feature","geometry":{"type":"LineString","coordinates":[[-80.92991108333334,25.73919313888889],[-80.93016497222223,25.741215305555556],[-80.93053211111112,25.742338194444446],[-80.93074866666667,25.742862083333335],[-80.93102269444445,25.74324352777778],[-80.93201736111112,25.743960416666667],[-80.93295280555556,25.744205444444447],[-80.9332505,25.74417477777778],[-80.93410127777778,25.743745750000002],[-80.93481836111111,25.742852555555558],[-80.93506527777778,25.742417472222222],[-80.9351463888889,25.74186288888889],[-80.93522575,25.740694027777778],[-80.93497180555556,25.73867188888889],[-80.9346046388889,25.737549],[-80.93438805555556,25.737025083333336],[-80.93403958333333,25.736651333333334],[-80.9331193888889,25.735926805555557],[-80.93218402777778,25.735681777777778],[-80.93188636111111,25.735712444444445],[-80.9310356388889,25.736141444444446],[-80.9302441388889,25.73704227777778],[-80.93007163888889,25.737469694444446],[-80.9299905,25.73802427777778],[-80.92991108333334,25.73919313888889]]},"properties":{"style":"solid","thickness":1}},{"type":"Feature","geometry":{"type":"LineString","coordinates":[[-80.94237147222222,25.72753347222222],[-80.94236480555556,25.728080388888888],[-80.94225830555555,25.72843275],[-80.94181361111112,25.729093083333332],[-80.941401,25.72940872222222],[-80.94098836111111,25.72972436111111],[-80.94033555555556,25.729928194444444],[-80.93996347222223,25.729966527777776],[-80.93912797222222,25.729916083333332],[-80.93839894444444,25.729513277777777],[-80.93789319444444,25.729087472222222],[-80.93776797222223,25.728690694444442],[-80.93759866666667,25.72734261111111],[-80.93784552777778,25.7269075],[-80.93830716666668,25.726381999999997],[-80.93890916666668,25.72577375],[-80.93943005555556,25.725720055555556]]},"properties":{"style":"solid","thickness":1}},{"type":"Feature","geometry":{"type":"LineString","coordinates":[[-80.93890916666668,25.72577375],[-80.93795694444445,25.725393916666665],[-80.93762541666668,25.72515497222222],[-80.93719408333334,25.724721499999998],[-80.93709427777779,25.72452694444444],[-80.93694369444445,25.72392797222222],[-80.93691830555557,25.72372575],[-80.93692497222223,25.72317886111111],[-80.93702302777778,25.722759083333333],[-80.93733583333334,25.722248916666665],[-80.93773997222223,25.72186588888889],[-80.93843327777778,25.721384777777775],[-80.94014472222223,25.721208388888886],[-80.940691,25.721356916666664],[-80.94157727777778,25.721811777777777],[-80.94174302777778,25.721931249999997],[-80.94205094444445,25.722582277777775],[-80.94208480555555,25.722851888888886]]},"properties":{"style":"solid","thickness":1}},{"type":"Feature","geometry":{"type":"LineString","coordinates":[[-80.9289426388889,25.725639805555552],[-80.92919647222223,25.727661972222222],[-80.92956355555556,25.72878486111111],[-80.92978008333334,25.729308777777778],[-80.93005411111112,25.72969022222222],[-80.9310486388889,25.73040711111111],[-80.93198397222223,25.73065213888889],[-80.9322816388889,25.73062147222222],[-80.93313233333333,25.73019247222222],[-80.93384933333334,25.729299277777777],[-80.93409622222222,25.728864194444444],[-80.93417733333334,25.728309611111108],[-80.93425669444444,25.72714072222222],[-80.93400277777778,25.72511858333333],[-80.93363566666667,25.723995694444444],[-80.9334191388889,25.723471805555555],[-80.93307072222223,25.723098027777777],[-80.93215061111111,25.7223735],[-80.93121536111111,25.722128444444444],[-80.93091772222223,25.72215911111111],[-80.93006708333334,25.722588111111108],[-80.92927566666667,25.723488944444444],[-80.92910319444445,25.723916361111108],[-80.92902205555556,25.72447094444444],[-80.9289426388889,25.725639805555552]]},"properties":{"style":"solid","thickness":1}},{"type":"Feature","geometry":{"type":"LineString","coordinates":[[-80.67184313888889,25.683046333333333],[-80.66611391666667,25.68362625],[-80.66907622222223,25.674657]]},"properties":{"style":"solid","thickness":1}},{"type":"Feature","geometry":{"type":"LineString","coordinates":[[-80.65734744444445,25.679120472222223],[-80.65759661111112,25.68114313888889],[-80.65796102777779,25.682266722222224],[-80.65817627777778,25.68279105555556],[-80.65844933333334,25.68317302777778],[-80.65944188888889,25.683891777777777],[-80.66037630555556,25.684138555555556],[-80.66067391666667,25.684108444444444],[-80.66152527777778,25.683681],[-80.66224402777779,25.68278913888889],[-80.66249180555556,25.682354472222222],[-80.66257416666667,25.681800055555556],[-80.66265613888889,25.680631277777778],[-80.6624068888889,25.678608611111112],[-80.66204244444445,25.677485027777777],[-80.66182719444446,25.676960694444446],[-80.66147975000001,25.67658627777778],[-80.6605616388889,25.67586002777778],[-80.65962727777779,25.675613222222225],[-80.65932966666668,25.675643333333333],[-80.6584783888889,25.676070777777777],[-80.65768522222223,25.676970166666667],[-80.65751183333334,25.67739727777778],[-80.65742947222223,25.677951694444445],[-80.65734744444445,25.679120472222223]]},"properties":{"style":"solid","thickness":1}},{"type":"Feature","geometry":{"type":"LineString","coordinates":[[-80.66990269444445,25.667476222222223],[-80.66989477777778,25.66802311111111],[-80.66978755555556,25.66837527777778],[-80.66934155555556,25.669034805555558],[-80.66892841666667,25.669349694444445],[-80.66851527777779,25.669664555555556],[-80.66786233333333,25.669867194444446],[-80.66749033333333,25.669904833333334],[-80.66665536111111,25.669852833333334],[-80.66592761111112,25.669448666666668],[-80.66542305555556,25.66902188888889],[-80.66529880555557,25.66862488888889],[-80.66513263888889,25.667276444444447],[-80.66538036111112,25.66684177777778],[-80.66584297222222,25.66631711111111],[-80.66644605555557,25.66570997222222],[-80.66696683333333,25.66565725]]},"properties":{"style":"solid","thickness":1}},{"type":"Feature","geometry":{"type":"LineString","coordinates":[[-80.66644605555557,25.66570997222222],[-80.66549516666667,25.665328388888888],[-80.66516436111111,25.665088805555555],[-80.66473422222222,25.664654499999997],[-80.6646348888889,25.66445975],[-80.66448572222222,25.6638605],[-80.66446080555556,25.66365822222222],[-80.66446875000001,25.663111305555553],[-80.66456769444444,25.66269172222222],[-80.6648815,25.66218211111111],[-80.66528630555555,25.661799833333333],[-80.6659803888889,25.66132],[-80.66769141666667,25.661146805555553],[-80.66823708333334,25.66129636111111],[-80.66912186111112,25.661752888888888],[-80.66928727777778,25.661872666666664],[-80.66959355555556,25.662524277777777],[-80.66962680555557,25.66279397222222]]},"properties":{"style":"solid","thickness":1}},{"type":"Feature","geometry":{"type":"LineString","coordinates":[[-80.65648466666667,25.665557472222222],[-80.65673377777779,25.66758013888889],[-80.6570981388889,25.668703750000002],[-80.6573133888889,25.669228083333334],[-80.65758638888889,25.66961002777778],[-80.65857883333334,25.670328805555556],[-80.6595131388889,25.670575583333335],[-80.65981072222223,25.670545472222223],[-80.66066197222223,25.67011802777778],[-80.66138069444445,25.669226166666668],[-80.66162844444445,25.668791527777778],[-80.66171077777778,25.668237083333334],[-80.66179275,25.667068333333333],[-80.66154355555557,25.665045666666664],[-80.66117916666667,25.663922055555553],[-80.66096391666667,25.66339772222222],[-80.66061652777779,25.663023305555555],[-80.65969852777778,25.662297027777775],[-80.65876427777778,25.66205025],[-80.65846669444446,25.66208036111111],[-80.6576155,25.662507777777776],[-80.65682241666667,25.663407166666666],[-80.65664905555556,25.663834277777777],[-80.65656669444445,25.664388694444444],[-80.65648466666667,25.665557472222222]]},"properties":{"style":"solid","thickness":1}},{"type":"Feature","geometry":{"type":"LineString","coordinates":[[-80.44543636111112,25.76642011111111],[-80.43970202777778,25.766991194444444],[-80.44268330555556,25.758026583333333]]},"properties":{"style":"solid","thickness":1}},{"type":"Feature","geometry":{"type":"LineString","coordinates":[[-80.43093791666666,25.76247188888889],[-80.43118344444444,25.764494916666667],[-80.43154600000001,25.765619083333334],[-80.43176041666668,25.76614372222222],[-80.43203294444444,25.766526111111112],[-80.43302483333333,25.76724638888889],[-80.43395944444445,25.76749461111111],[-80.43425733333333,25.767464944444445],[-80.43511008333334,25.76703883333333],[-80.43583102777778,25.766148083333334],[-80.43607980555556,25.765713805555556],[-80.43616325,25.76515952777778],[-80.43624747222222,25.763990888888888],[-80.43600186111111,25.76196786111111],[-80.43563927777778,25.760843722222223],[-80.43542486111112,25.760319055555556],[-80.43507786111111,25.75994411111111],[-80.4341605,25.759216444444444],[-80.43322594444444,25.758968194444446],[-80.43292808333334,25.758997861111112],[-80.43207538888889,25.759423972222223],[-80.43127997222223,25.760322111111112],[-80.43110566666667,25.760748944444444],[-80.43102219444445,25.76130325],[-80.43093791666666,25.76247188888889]]},"properties":{"style":"solid","thickness":1}},{"type":"Feature","geometry":{"type":"LineString","coordinates":[[-80.43426991666666,25.74849263888889],[-80.43451547222223,25.750515666666665],[-80.434878,25.751639805555556],[-80.43509241666668,25.752164472222223],[-80.43536491666667,25.752546833333334],[-80.43635672222223,25.753267083333334],[-80.43729122222223,25.753515305555556],[-80.43758908333334,25.75348563888889],[-80.43844172222222,25.7530595],[-80.43916255555555,25.752168722222223],[-80.43941127777778,25.75173447222222],[-80.43949469444445,25.751180166666668],[-80.43957888888889,25.75001152777778],[-80.43933327777778,25.7479885],[-80.43897069444445,25.74686436111111],[-80.43875627777778,25.746339694444444],[-80.43840930555555,25.745964750000002],[-80.43749202777778,25.745237111111113],[-80.43655758333334,25.74498888888889],[-80.43625975,25.745018555555557],[-80.43540716666666,25.745444694444444],[-80.4346118888889,25.746342861111113],[-80.43443761111112,25.746769694444446],[-80.43435416666667,25.747324000000003],[-80.43426991666666,25.74849263888889]]},"properties":{"style":"solid","thickness":1}},{"type":"Feature","geometry":{"type":"LineString","coordinates":[[-80.33514902777777,25.728544222222222],[-80.33513958333333,25.72909111111111],[-80.33503130555555,25.729443027777776],[-80.33458327777777,25.730101527777776],[-80.33416905555555,25.73041547222222],[-80.33375480555556,25.730729388888886],[-80.33310097222221,25.730930527777776],[-80.33272866666667,25.730967333333332],[-80.33189338888889,25.730913416666667],[-80.33116641666666,25.730507555555555],[-80.33066280555555,25.73007963888889],[-80.33053958333333,25.72968236111111],[-80.33037708333333,25.728333527777774],[-80.33062616666666,25.727899444444443],[-80.33109047222221,25.72737586111111],[-80.33169555555556,25.72677008333333],[-80.33221672222221,25.726718555555554]]},"properties":{"style":"solid","thickness":1}},{"type":"Feature","geometry":{"type":"LineString","coordinates":[[-80.33169555555556,25.72677008333333],[-80.33074522222222,25.72638633333333],[-80.33041488888888,25.726146],[-80.32998574999999,25.72571072222222],[-80.32988694444444,25.72551575],[-80.32973936111111,25.724916138888887],[-80.32971497222222,25.724713805555552],[-80.32972444444444,25.724166916666665],[-80.3298246111111,25.723747555555555],[-80.33014,25.723238694444444],[-80.33054608333333,25.72285733333333],[-80.33124186111111,25.722379083333333],[-80.33295422222221,25.722209777777778],[-80.33349977777777,25.72236058333333],[-80.33438375,25.722819138888887],[-80.33454891666666,25.722939277777776],[-80.33485352777777,25.72359161111111],[-80.33488602777777,25.72386136111111]]},"properties":{"style":"solid","thickness":1}},{"type":"Feature","geometry":{"type":"LineString","coordinates":[[-80.32172947222222,25.726594805555553],[-80.32197308333333,25.728618055555554],[-80.3223345,25.72974247222222],[-80.3225483611111,25.730267305555554],[-80.32282047222222,25.730649888888887],[-80.32381141666666,25.731370888888886],[-80.32474549999999,25.731619833333333],[-80.32504333333333,25.731590388888886],[-80.32589622222221,25.731164916666664],[-80.32661777777777,25.730274694444443],[-80.32686686111111,25.729840611111108],[-80.32695077777777,25.72928636111111],[-80.32703605555555,25.728117805555552],[-80.3267923611111,25.726094555555555],[-80.32643091666667,25.72497013888889],[-80.32621702777777,25.724445333333332],[-80.3258705,25.72407011111111],[-80.32495405555555,25.72334175],[-80.32401999999999,25.723092833333332],[-80.32372219444444,25.72312225],[-80.3228693611111,25.72354772222222],[-80.32207338888888,25.724445277777775],[-80.32189875,25.724871999999998],[-80.32181477777777,25.725426249999998],[-80.32172947222222,25.726594805555553]]},"properties":{"style":"solid","thickness":1}},{"type":"Feature","geometry":{"type":"LineString","coordinates":[[-80.3248498611111,25.712640027777777],[-80.3250935,25.71466325],[-80.32545488888888,25.715787694444444],[-80.32566874999999,25.7163125],[-80.32594083333333,25.71669508333333],[-80.32693169444444,25.717416083333333],[-80.32786569444444,25.717664999999997],[-80.32816347222222,25.717635555555553],[-80.32901625,25.717210055555555],[-80.32973769444445,25.716319805555553],[-80.32998674999999,25.71588572222222],[-80.33007063888888,25.71533147222222],[-80.33015586111111,25.71416288888889],[-80.32991216666666,25.712139666666666],[-80.32955072222222,25.71101525],[-80.3293368611111,25.710490444444442],[-80.32899033333332,25.71011522222222],[-80.32807397222221,25.70938688888889],[-80.32714005555555,25.709137972222223],[-80.32684227777777,25.709167416666666],[-80.32598955555555,25.70959288888889],[-80.32519366666666,25.710490472222222],[-80.32501905555556,25.710917194444445],[-80.32493513888889,25.711471444444445],[-80.3248498611111,25.712640027777777]]},"properties":{"style":"solid","thickness":1}},{"type":"Feature","geometry":{"type":"LineString","coordinates":[[-80.30723494444445,25.660761916666665],[-80.30722538888888,25.661308805555553],[-80.30711708333332,25.66166072222222],[-80.30666913888889,25.662319138888886],[-80.30625508333333,25.662633],[-80.305841,25.66294686111111],[-80.30518747222222,25.66314786111111],[-80.30481538888888,25.663184583333333],[-80.30398058333333,25.663130527777778],[-80.3032541111111,25.662724527777776],[-80.30275086111111,25.6622965],[-80.30262783333333,25.661899194444445],[-80.30246572222222,25.660550333333333],[-80.30271474999999,25.660116277777778],[-80.30317891666667,25.659592777777775],[-80.30378380555555,25.65898711111111],[-80.30430472222221,25.658935694444445]]},"properties":{"style":"solid","thickness":1}},{"type":"Feature","geometry":{"type":"LineString","coordinates":[[-80.30378380555555,25.65898711111111],[-80.30283411111111,25.658603166666666],[-80.30250402777777,25.658362777777775],[-80.30207525,25.657927388888886],[-80.3019765,25.657732416666665],[-80.30182916666666,25.65713275],[-80.30180486111111,25.65693044444444],[-80.30181441666666,25.656383555555553],[-80.30191463888889,25.655964194444444],[-80.30222997222222,25.65545536111111],[-80.30263591666666,25.655074083333332],[-80.30333138888889,25.65459597222222],[-80.3050428611111,25.654427],[-80.30558805555555,25.654577888888888],[-80.30647141666667,25.65503661111111],[-80.30663644444444,25.655156805555553],[-80.30694075,25.655809194444444],[-80.30697319444444,25.656078972222222]]},"properties":{"style":"solid","thickness":1}},{"type":"Feature","geometry":{"type":"LineString","coordinates":[[-80.29382338888888,25.658809916666666],[-80.2940663888889,25.66083322222222],[-80.2944273611111,25.66195775],[-80.29464097222223,25.66248261111111],[-80.29491283333333,25.66286525],[-80.29590305555556,25.66358647222222],[-80.29683658333333,25.66383558333333],[-80.29713425,25.663806194444444],[-80.29798672222222,25.663380888888888],[-80.29870808333334,25.662490777777776],[-80.29895713888888,25.662056749999998],[-80.29904113888888,25.661502499999997],[-80.2991266388889,25.660333944444442],[-80.29888355555555,25.65831063888889],[-80.29852258333334,25.65718613888889],[-80.29830894444444,25.656661277777776],[-80.29796266666666,25.656285999999998],[-80.29704691666666,25.655557444444444],[-80.29611347222222,25.65530833333333],[-80.29581580555555,25.655337694444444],[-80.29496336111112,25.655763027777777],[-80.2941676111111,25.656660444444444],[-80.29399297222223,25.657087138888887],[-80.29390894444444,25.65764136111111],[-80.29382338888888,25.658809916666666]]},"properties":{"style":"solid","thickness":1}},{"type":"Feature","geometry":{"type":"LineString","coordinates":[[-80.30618855555555,25.647218805555553],[-80.306179,25.647765694444445],[-80.30607069444444,25.64811761111111],[-80.30562280555556,25.648776027777778],[-80.30520877777778,25.64908986111111],[-80.30479475,25.64940372222222],[-80.30414130555555,25.64960472222222],[-80.30376925,25.649641444444445],[-80.30293455555555,25.64958738888889],[-80.30220816666666,25.649181388888888],[-80.30170497222223,25.648753361111112],[-80.30158194444444,25.648356027777776],[-80.30141988888889,25.647007166666665],[-80.30166888888888,25.64657313888889],[-80.30213302777777,25.64604961111111],[-80.30273783333332,25.645443944444445],[-80.30325866666666,25.645392527777776]]},"properties":{"style":"solid","thickness":1}},{"type":"Feature","geometry":{"type":"LineString","coordinates":[[-80.30273783333332,25.645443944444445],[-80.30178825,25.64506],[-80.30145822222222,25.64481961111111],[-80.30102947222223,25.64438422222222],[-80.30093074999999,25.64418925],[-80.30078341666666,25.643589583333334],[-80.3007591111111,25.643387277777776],[-80.30076869444444,25.642840361111112],[-80.30086888888889,25.64242102777778],[-80.30118419444445,25.641912194444444],[-80.30159008333334,25.641530916666667],[-80.3022855,25.641052805555557],[-80.30399677777777,25.640883833333334],[-80.30454188888889,25.64103475],[-80.30542516666667,25.641493472222223],[-80.30559019444445,25.641613666666665],[-80.30589444444445,25.642266055555556],[-80.30592688888889,25.642535833333334]]},"properties":{"style":"solid","thickness":1}},{"type":"Feature","geometry":{"type":"LineString","coordinates":[[-80.29277855555556,25.645266694444445],[-80.2930215,25.647290027777778],[-80.29338238888889,25.648414527777778],[-80.293596,25.648939416666668],[-80.29386783333334,25.649322055555555],[-80.29485791666667,25.650043277777776],[-80.29579133333333,25.650292388888886],[-80.29608897222222,25.650263027777775],[-80.29694136111111,25.649837694444443],[-80.29766263888888,25.64894761111111],[-80.29791166666666,25.648513555555557],[-80.29799566666667,25.647959333333333],[-80.29808116666666,25.64679075],[-80.29783813888889,25.644767444444444],[-80.29747719444444,25.643642944444444],[-80.29726358333333,25.643118083333334],[-80.29691736111111,25.642742805555557],[-80.29600172222221,25.642014222222222],[-80.2950683888889,25.64176511111111],[-80.29477075,25.6417945],[-80.29391841666667,25.642219805555555],[-80.29312275,25.643117222222223],[-80.29294811111112,25.643543916666665],[-80.29286408333333,25.64409813888889],[-80.29277855555556,25.645266694444445]]},"properties":{"style":"solid","thickness":1}},{"type":"Feature","geometry":{"type":"LineString","coordinates":[[-80.01502455555556,25.662197027777776],[-80.01390805555556,25.662305],[-80.01292319444444,25.65394013888889]]},"properties":{"style":"solid","thickness":1}},{"type":"Feature","geometry":{"type":"LineString","coordinates":[[-80.00616697222222,25.66305347222222],[-80.00708994444444,25.66194086111111],[-80.007872,25.66091008333333],[-80.00851311111111,25.659961166666665],[-80.00889616666667,25.659378305555553],[-80.00918891666667,25.65866775],[-80.0092583888889,25.657978749999998],[-80.00926136111111,25.657364416666667],[-80.00911844444444,25.656150166666666],[-80.00883955555555,25.655699555555554],[-80.00849422222223,25.65532358333333],[-80.00814091666666,25.65488013888889],[-80.00651441666666,25.654491583333332],[-80.00562125,25.654577916666664],[-80.00470925,25.655143666666664],[-80.00457625,25.65529297222222],[-80.00404433333334,25.655890194444442],[-80.00398577777777,25.656032305555556],[-80.00379916666667,25.6570055],[-80.00387852777777,25.657680083333332],[-80.00408297222222,25.658137916666664],[-80.00427944444445,25.658528277777776],[-80.00463272222223,25.65897172222222],[-80.00528375,25.659386388888887],[-80.00591097222222,25.659598666666664],[-80.00629105555555,25.659630138888886],[-80.00681208333333,25.659579777777775],[-80.00717630555556,25.65947636111111],[-80.00837811111111,25.65881436111111],[-80.00926633333333,25.65804622222222]]},"properties":{"style":"solid","thickness":1}},{"type":"Feature","geometry":{"type":"LineString","coordinates":[[-79.99573075,25.65880847222222],[-79.99596872222223,25.66083225],[-79.99632688888889,25.6619575],[-79.99653922222222,25.662482777777775],[-79.99681013888889,25.66286597222222],[-79.99779855555556,25.663589194444445],[-79.99873144444445,25.66384022222222],[-79.99902919444445,25.663811444444445],[-79.99988272222222,25.663387861111108],[-80.00060627777778,25.66249922222222],[-80.00085638888889,25.66206572222222],[-80.00094177777778,25.661511666666666],[-80.00103016666667,25.660343277777777],[-80.00079211111111,25.658319499999998],[-80.00043391666667,25.65719425],[-80.00022158333333,25.65666897222222],[-79.99987625,25.65629297222222],[-79.99896230555555,25.65556258333333],[-79.99802947222223,25.655311555555553],[-79.99773175,25.65534033333333],[-79.99687825,25.655763916666665],[-79.99608027777778,25.656659694444443],[-79.99590458333333,25.657086027777776],[-79.99581919444445,25.65764008333333],[-79.99573075,25.65880847222222]]},"properties":{"style":"solid","thickness":1}},{"type":"Feature","geometry":{"type":"LineString","coordinates":[[-80.012597,25.648788666666665],[-80.01148061111111,25.64889663888889],[-80.01049602777778,25.64053175]]},"properties":{"style":"solid","thickness":1}},{"type":"Feature","geometry":{"type":"LineString","coordinates":[[-80.00679183333334,25.64935002777778],[-80.00567544444445,25.649457944444443],[-80.00469125,25.641092999999998]]},"properties":{"style":"solid","thickness":1}},{"type":"Feature","geometry":{"type":"LineString","coordinates":[[-79.9961335,25.64512663888889],[-79.99637147222222,25.647150416666666],[-79.9967296111111,25.648275666666667],[-79.99694191666667,25.648800944444442],[-79.99721277777778,25.649184138888888],[-79.99820111111111,25.64990736111111],[-79.99913388888889,25.650158388888887],[-79.99943158333333,25.650129611111108],[-80.00028502777778,25.64970602777778],[-80.0010085,25.64881738888889],[-80.00125858333334,25.64838386111111],[-80.00134397222222,25.647829805555556],[-80.00143233333333,25.646661416666667],[-80.00119430555556,25.644637638888888],[-80.00083613888889,25.643512388888887],[-80.00062380555555,25.64298711111111],[-80.00027852777778,25.642611111111112],[-79.99936466666666,25.641880722222222],[-79.99843197222222,25.641629722222223],[-79.99813427777778,25.641658472222222],[-79.9972808888889,25.642082055555555],[-79.996483,25.64297786111111],[-79.99630733333333,25.643404194444443],[-79.99622194444444,25.64395825],[-79.9961335,25.64512663888889]]},"properties":{"style":"solid","thickness":1}},{"type":"Feature","geometry":{"type":"LineString","coordinates":[[-80.13340891666667,25.461157333333333],[-80.13229438888888,25.461266249999998],[-80.13130288888888,25.45290188888889]]},"properties":{"style":"solid","thickness":1}},{"type":"Feature","geometry":{"type":"LineString","coordinates":[[-80.12456691666667,25.462021027777777],[-80.12548724999999,25.46090761111111],[-80.12626697222221,25.459876166666668],[-80.12690608333332,25.458926694444443],[-80.12728794444443,25.458343527777778],[-80.1275795,25.457632694444445],[-80.12764816666666,25.456943638888887],[-80.12765052777777,25.456329277777776],[-80.12750666666666,25.45511511111111],[-80.12722780555555,25.454664694444443],[-80.12688266666666,25.454289],[-80.12652949999999,25.453845833333332],[-80.12490530555554,25.453458583333333],[-80.12401374999999,25.453545638888887],[-80.12310380555554,25.45411213888889],[-80.12297119444443,25.454261555555554],[-80.12244072222222,25.454859222222222],[-80.12238241666665,25.45500138888889],[-80.12219708333333,25.455974777777776],[-80.12227697222221,25.45664933333333],[-80.12248149999999,25.457107],[-80.12267805555555,25.457497222222223],[-80.12303119444444,25.45794038888889],[-80.12368155555555,25.45835452777778],[-80.12430791666667,25.458566305555554],[-80.12468741666666,25.4585975],[-80.12520752777777,25.458546694444443],[-80.12557102777777,25.458442972222223],[-80.12677019444443,25.457779972222223],[-80.12765616666665,25.45701108333333]]},"properties":{"style":"solid","thickness":1}},{"type":"Feature","geometry":{"type":"LineString","coordinates":[[-80.1141438611111,25.45778436111111],[-80.11438344444444,25.459808027777775],[-80.1147421111111,25.460933],[-80.1149546111111,25.461458138888887],[-80.11522544444443,25.46184113888889],[-80.11621294444444,25.46256358333333],[-80.11714452777777,25.462813833333332],[-80.11744175,25.462784833333334],[-80.11829344444443,25.462360527777776],[-80.11901491666666,25.461471277777775],[-80.11926419444444,25.461037555555556],[-80.11934888888888,25.460483416666666],[-80.11943597222222,25.459314916666667],[-80.11919630555555,25.45729125],[-80.1188376111111,25.456166277777776],[-80.11862508333333,25.45564113888889],[-80.11827997222221,25.455265416666666],[-80.11736683333332,25.454535749999998],[-80.11643530555556,25.45428547222222],[-80.1161381111111,25.4543145],[-80.11528644444444,25.454738777777777],[-80.11449069444444,25.45563525],[-80.11431569444444,25.45606172222222],[-80.11423099999999,25.45661586111111],[-80.1141438611111,25.45778436111111]]},"properties":{"style":"solid","thickness":1}},{"type":"Feature","geometry":{"type":"LineString","coordinates":[[-80.12955161111111,25.4459105],[-80.12954127777778,25.446457388888888],[-80.12943266666666,25.446809194444445],[-80.12898455555555,25.447467083333333],[-80.12857075,25.447780444444444],[-80.12815697222221,25.448093805555555],[-80.12750430555555,25.448294027777777],[-80.12713283333332,25.448330305555555],[-80.12629961111111,25.44827522222222],[-80.125575,25.447868361111112],[-80.12507330555555,25.447439694444444],[-80.12495105555556,25.447042222222223],[-80.12479124999999,25.44569313888889],[-80.12504047222221,25.44525938888889],[-80.12550455555555,25.444736416666668],[-80.12610927777777,25.44413147222222],[-80.12662930555555,25.444080666666668]]},"properties":{"style":"solid","thickness":1}},{"type":"Feature","geometry":{"type":"LineString","coordinates":[[-80.12610927777777,25.44413147222222],[-80.12516183333332,25.44374636111111],[-80.12483269444444,25.443505555555557],[-80.12440530555556,25.443069666666666],[-80.12430702777777,25.442874555555555],[-80.12416083333332,25.442274694444446],[-80.12413686111111,25.442072333333332],[-80.12414722222222,25.441525444444444],[-80.1242478611111,25.441106194444444],[-80.1245633611111,25.440597750000002],[-80.12496916666666,25.440216944444444],[-80.1256641111111,25.439739638888888],[-80.12737274999999,25.43957275],[-80.12791675,25.439724305555554],[-80.12879788888888,25.44018411111111],[-80.12896244444444,25.4403045],[-80.12926524999999,25.440957277777777],[-80.12929722222222,25.44122711111111]]},"properties":{"style":"solid","thickness":1}},{"type":"Feature","geometry":{"type":"LineString","coordinates":[[-80.11616686111111,25.44394225],[-80.11640644444444,25.44596588888889],[-80.1167651111111,25.44709088888889],[-80.11697761111111,25.447616027777777],[-80.11724841666665,25.447999],[-80.11823580555554,25.448721444444445],[-80.11916727777778,25.448971666666665],[-80.11946447222222,25.448942666666667],[-80.12031605555555,25.448518361111113],[-80.12103744444444,25.447629111111112],[-80.12128669444444,25.44719536111111],[-80.1213713611111,25.446641222222222],[-80.12145841666666,25.445472722222224],[-80.12121875,25.443449055555554],[-80.12086005555555,25.442324083333332],[-80.12064755555555,25.441798944444443],[-80.12030247222222,25.44142325],[-80.11938941666666,25.440693555555555],[-80.11845799999999,25.440443305555554],[-80.11816083333332,25.440472333333332],[-80.11730927777778,25.44089663888889],[-80.1165136111111,25.44179311111111],[-80.11633866666666,25.44221961111111],[-80.11625397222221,25.44277375],[-80.11616686111111,25.44394225]]},"properties":{"style":"solid","thickness":1}},{"type":"Feature","geometry":{"type":"LineString","coordinates":[[-80.45300419444445,25.390711444444445],[-80.45189058333334,25.390822777777778],[-80.45087761111111,25.382460527777777]]},"properties":{"style":"solid","thickness":1}},{"type":"Feature","geometry":{"type":"LineString","coordinates":[[-80.44416961111112,25.39159436111111],[-80.4450865,25.390478972222223],[-80.44586305555556,25.389445805555557],[-80.44649927777778,25.388494944444442],[-80.44687936111112,25.387910944444442],[-80.4471688888889,25.38719947222222],[-80.44723569444444,25.38651025],[-80.44723641666667,25.38589588888889],[-80.44708941666667,25.384681999999998],[-80.44680955555556,25.384232194444444],[-80.44646361111111,25.38385725],[-80.4461095,25.38341486111111],[-80.44448522222223,25.38303113888889],[-80.44359441666667,25.383120138888888],[-80.44268650000001,25.383688638888888],[-80.44255436111112,25.383838333333333],[-80.44202577777779,25.384437166666665],[-80.44196786111111,25.38457947222222],[-80.44178522222222,25.38555325],[-80.44186686111111,25.38622763888889],[-80.44207247222222,25.38668486111111],[-80.44226994444445,25.387074666666667],[-80.44262402777778,25.387517055555556],[-80.44327511111112,25.387929805555554],[-80.44390166666668,25.388140222222223],[-80.44428102777778,25.388170555555554],[-80.44480069444445,25.388118638888887],[-80.44516372222223,25.38801411111111],[-80.44636044444445,25.387348499999998],[-80.44724386111112,25.386577694444444]]},"properties":{"style":"solid","thickness":1}},{"type":"Feature","geometry":{"type":"LineString","coordinates":[[-80.43374147222222,25.38738038888889],[-80.43398625,25.389403527777777],[-80.43434769444445,25.39052775],[-80.43456147222223,25.391052444444444],[-80.43483313888889,25.39143483333333],[-80.43582197222223,25.39215513888889],[-80.43675366666668,25.39240336111111],[-80.43705063888889,25.392373694444444],[-80.43790072222222,25.391947555555554],[-80.43861944444444,25.39105672222222],[-80.43886741666667,25.390622444444443],[-80.43895061111111,25.39006811111111],[-80.43903455555557,25.388899416666668],[-80.43878969444445,25.386876277777777],[-80.43842822222223,25.385752083333333],[-80.43821444444445,25.38522738888889],[-80.43786852777778,25.384852416666668],[-80.43695397222223,25.38412472222222],[-80.43602233333334,25.3838765],[-80.4357253888889,25.38390613888889],[-80.43487536111111,25.384332277777776],[-80.43408244444444,25.3852305],[-80.43390866666667,25.38565736111111],[-80.43382547222222,25.386211694444444],[-80.43374147222222,25.38738038888889]]},"properties":{"style":"solid","thickness":1}},{"type":"Feature","geometry":{"type":"LineString","coordinates":[[-80.44372058333333,25.371301916666667],[-80.44891652777778,25.37078261111111],[-80.44534541666667,25.37789666666667],[-80.44433297222223,25.36953436111111]]},"properties":{"style":"solid","thickness":1}},{"type":"Feature","geometry":{"type":"LineString","coordinates":[[-80.43572677777779,25.373533777777777],[-80.43597155555555,25.375556916666667],[-80.43633297222223,25.37668113888889],[-80.43654672222223,25.377205805555555],[-80.4368183888889,25.377588194444446],[-80.43780711111111,25.3783085],[-80.43873872222223,25.378556694444445],[-80.4390356388889,25.378527055555555],[-80.4398856388889,25.378100888888888],[-80.44060422222222,25.377210055555555],[-80.44085219444445,25.37677575],[-80.44093533333334,25.376221416666667],[-80.44101927777778,25.37505272222222],[-80.4407743888889,25.373029583333334],[-80.44041294444445,25.37190538888889],[-80.44019919444445,25.371380722222224],[-80.43985330555556,25.371005750000002],[-80.43893886111111,25.370278055555556],[-80.43800733333333,25.370029833333334],[-80.43771041666668,25.3700595],[-80.43686047222222,25.37048563888889],[-80.43606766666667,25.371383861111113],[-80.43589391666667,25.37181075],[-80.43581075,25.372365083333335],[-80.43572677777779,25.373533777777777]]},"properties":{"style":"solid","thickness":1}},{"type":"Feature","geometry":{"type":"LineString","coordinates":[[-80.29439686111111,25.79790280555556],[-80.29328525,25.79689652777778]]},"properties":{"style":"solid","thickness":1}},{"type":"Feature","geometry":{"type":"LineString","coordinates":[[-80.2942423611111,25.79828188888889],[-80.2928665,25.79703638888889]]},"properties":{"style":"solid","thickness":1}},{"type":"Feature","geometry":{"type":"LineString","coordinates":[[-80.29395572222222,25.79854138888889],[-80.29257986111111,25.797295861111113]]},"properties":{"style":"solid","thickness":1}},{"type":"Feature","geometry":{"type":"LineString","coordinates":[[-80.29353697222221,25.79868125],[-80.29242533333333,25.797674944444445]]},"properties":{"style":"solid","thickness":1}},{"type":"Feature","geometry":{"type":"LineString","coordinates":[[-80.29266583333333,25.79846352777778],[-80.29281088888888,25.798573166666667],[-80.29297522222222,25.798657555555558],[-80.29315358333334,25.798714055555557],[-80.29334019444444,25.798740833333333],[-80.29352911111111,25.798736972222223],[-80.29371422222222,25.798702666666667],[-80.29388958333332,25.798639],[-80.29404958333333,25.798548],[-80.29418905555555,25.798432583333334],[-80.29430352777777,25.798296500000003],[-80.29438930555555,25.798144083333334],[-80.2944436388889,25.79798027777778],[-80.29446480555555,25.797810305555558],[-80.29445208333333,25.797639638888892],[-80.29440591666666,25.79747377777778],[-80.29432777777778,25.79731802777778],[-80.29422016666666,25.797177416666667],[-80.29408655555555,25.797056472222224],[-80.29393125,25.796959083333334],[-80.29375919444445,25.796888333333335],[-80.29357597222221,25.79684652777778],[-80.29338747222222,25.796835027777778],[-80.29319969444444,25.796854194444446],[-80.29301872222221,25.79690338888889],[-80.2928503611111,25.79698102777778],[-80.29270002777777,25.79708463888889],[-80.29257255555555,25.797210916666668],[-80.29247202777778,25.797355722222225],[-80.29240169444444,25.797514500000002],[-80.29236377777778,25.79768205555556],[-80.29235952777778,25.797853055555557],[-80.2923891111111,25.798022000000003],[-80.2924515,25.798183472222224],[-80.29254475,25.798332222222225],[-80.29266583333333,25.79846352777778]]},"properties":{"style":"solid","thickness":1}}]}
