{"type":"FeatureCollection","features":[{"type":"Feature","geometry":{"type":"LineString","coordinates":[[-80.22048972222223,25.81485813888889],[-80.22048972222223,25.81485813888889],[-80.20987902777777,25.806798750000002]]},"properties":{"style":"solid","thickness":1}},{"type":"Feature","geometry":{"type":"LineString","coordinates":[[-80.2071756388889,25.806853194444447],[-80.2071756388889,25.806853194444447],[-80.19827225,25.816457916666668]]},"properties":{"style":"solid","thickness":1}},{"type":"Feature","geometry":{"type":"LineString","coordinates":[[-80.1464923888889,25.81787222222222],[-80.1464923888889,25.81787222222222],[-80.13588144444445,25.809812833333336]]},"properties":{"style":"solid","thickness":1}},{"type":"Feature","geometry":{"type":"LineString","coordinates":[[-80.13323533333333,25.80997752777778],[-80.13323533333333,25.80997752777778],[-80.12433169444444,25.819582222222223]]},"properties":{"style":"solid","thickness":1}},{"type":"Feature","geometry":{"type":"LineString","coordinates":[[-80.07224555555555,25.820689333333334],[-80.07224555555555,25.820689333333334],[-80.06163441666666,25.81262988888889]]},"properties":{"style":"solid","thickness":1}},{"type":"Feature","geometry":{"type":"LineString","coordinates":[[-80.05927022222222,25.81278936111111],[-80.05927022222222,25.81278936111111],[-80.05036638888889,25.822394083333332]]},"properties":{"style":"solid","thickness":1}},{"type":"Feature","geometry":{"type":"LineString","coordinates":[[-79.99882608333334,25.823682277777777],[-79.99882608333334,25.823682277777777],[-79.98821463888889,25.815622861111112]]},"properties":{"style":"solid","thickness":1}},{"type":"Feature","geometry":{"type":"LineString","coordinates":[[-79.98540644444445,25.815815222222223],[-79.98540644444445,25.815815222222223],[-79.97650241666666,25.825419916666668]]},"properties":{"style":"solid","thickness":1}},{"type":"Feature","geometry":{"type":"LineString","coordinates":[[-79.92510375,25.826797527777778],[-79.92510375,25.826797527777778],[-79.91449208333334,25.818738083333333]]},"properties":{"style":"solid","thickness":1}},{"type":"Feature","geometry":{"type":"LineString","coordinates":[[-79.91171772222222,25.818508916666666],[-79.91171772222222,25.818508916666666],[-79.90281350000001,25.82811363888889]]},"properties":{"style":"solid","thickness":1}},{"type":"Feature","geometry":{"type":"LineString","coordinates":[[-79.85089724999999,25.829360333333334],[-79.85089724999999,25.829360333333334],[-79.84028530555555,25.821300944444445]]},"properties":{"style":"solid","thickness":1}},{"type":"Feature","geometry":{"type":"LineString","coordinates":[[-79.83774594444444,25.821330694444445],[-79.83774594444444,25.821330694444445],[-79.8288415,25.83093538888889]]},"properties":{"style":"solid","thickness":1}},{"type":"Feature","geometry":{"type":"LineString","coordinates":[[-80.00572930555556,25.750368555555557],[-79.89387180555556,25.757188055555556]]},"properties":{"style":"solid","thickness":1}},{"type":"Feature","geometry":{"type":"LineString","coordinates":[[-80.00572930555556,25.750368555555557],[-80.0016206388889,25.695419555555556]]},"properties":{"style":"solid","thickness":1}},{"type":"Feature","geometry":{"type":"LineString","coordinates":[[-79.89387180555556,25.757188055555556],[-79.8898141388889,25.70223625]]},"properties":{"style":"solid","thickness":1}},{"type":"Feature","geometry":{"type":"LineString","coordinates":[[-80.0016206388889,25.695419555555556],[-79.8898141388889,25.70223625]]},"properties":{"style":"solid","thickness":1}},{"type":"Feature","geometry":{"type":"LineString","coordinates":[[-80.29397861111111,25.797054972222224],[-80.29397861111111,25.798522805555557]]},"properties":{"style":"solid","thickness":1}},{"type":"Feature","geometry":{"type":"LineString","coordinates":[[-80.29357325,25.796908194444445],[-80.29357325,25.798669583333336]]},"properties":{"style":"solid","thickness":1}},{"type":"Feature","geometry":{"type":"LineString","coordinates":[[-80.29316788888889,25.796908194444445],[-80.29316788888889,25.798669583333336]]},"properties":{"style":"solid","thickness":1}},{"type":"Feature","geometry":{"type":"LineString","coordinates":[[-80.29276252777778,25.797054972222224],[-80.29276252777778,25.798522805555557]]},"properties":{"style":"solid","thickness":1}},{"type":"Feature","geometry":{"type":"LineString","coordinates":[[-80.29235716666666,25.797788888888892],[-80.29236344444445,25.797892944444445],[-80.29238372222223,25.798001722222224],[-80.29241988888889,25.798113166666667],[-80.29247347222223,25.798224611111113],[-80.29254525,25.79833288888889],[-80.29263508333334,25.798434472222223],[-80.29274169444444,25.798525833333336],[-80.29286277777777,25.798603694444445],[-80.29299494444444,25.798665444444445],[-80.29313422222222,25.798709472222225],[-80.29327633333334,25.79873513888889],[-80.29341711111111,25.798742972222225],[-80.29355288888888,25.798734305555556],[-80.29368072222222,25.798711222222224],[-80.29379858333333,25.798676166666667],[-80.29390516666666,25.79863166666667],[-80.2940025,25.79857861111111],[-80.29409755555555,25.798512861111114],[-80.29418822222222,25.798433388888892],[-80.29427133333333,25.79834013888889],[-80.29434344444444,25.798233805555558],[-80.29440122222222,25.798115916666667],[-80.29444161111111,25.797988972222225],[-80.29446241666666,25.797856250000002],[-80.29446241666666,25.797721527777778],[-80.29444161111111,25.79758877777778],[-80.29440119444445,25.797461833333337],[-80.29434344444444,25.797343972222222],[-80.29427133333333,25.79723761111111],[-80.29418822222222,25.797144361111112],[-80.29409755555555,25.797064916666667],[-80.2940025,25.79699913888889],[-80.29390516666666,25.79694611111111],[-80.29379855555555,25.796901611111114],[-80.29368072222222,25.79686652777778],[-80.29355286111111,25.796843472222225],[-80.29341711111111,25.79683480555556],[-80.29327633333334,25.796842611111114],[-80.29313425,25.796868305555556],[-80.29299494444444,25.79691230555556],[-80.29286277777777,25.796974083333335],[-80.29274172222222,25.797051944444448],[-80.29263508333334,25.797143277777778],[-80.29254527777778,25.79724488888889],[-80.29247347222223,25.797353166666667],[-80.29241988888889,25.797464611111113],[-80.29238372222223,25.797576055555556],[-80.29236344444445,25.797684833333335],[-80.29235716666666,25.797788888888892]]},"properties":{"style":"solid","thickness":1}},{"type":"Feature","geometry":{"type":"LineString","coordinates":[[-79.99460002777778,25.732656388888888],[-79.9946021111111,25.731822805555552]]},"properties":{"style":"solid","thickness":1}},{"type":"Feature","geometry":{"type":"LineString","coordinates":[[-79.99436247222222,25.73275497222222],[-79.99436505555556,25.731723249999998]]},"properties":{"style":"solid","thickness":1}},{"type":"Feature","geometry":{"type":"LineString","coordinates":[[-79.99412516666666,25.7327545],[-79.99412775,25.73172275]]},"properties":{"style":"solid","thickness":1}},{"type":"Feature","geometry":{"type":"LineString","coordinates":[[-79.99388811111112,25.732654916666664],[-79.99389019444445,25.731821333333333]]},"properties":{"style":"solid","thickness":1}},{"type":"Feature","geometry":{"type":"LineString","coordinates":[[-79.99362811111111,25.73223761111111],[-79.99399861111111,25.732751194444443],[-79.99466616666666,25.73264736111111],[-79.99482630555556,25.732051249999998],[-79.99428605555556,25.731681249999998],[-79.99369644444444,25.73198322222222],[-79.99362811111111,25.73223761111111]]},"properties":{"style":"solid","thickness":1}},{"type":"Feature","geometry":{"type":"LineString","coordinates":[[-79.99180211111111,25.746236333333336],[-79.99214361111112,25.746413583333336],[-79.99253219444445,25.74648886111111],[-79.99383916666667,25.746408722222224],[-79.99432188888889,25.74628002777778],[-79.99448158333334,25.746220694444446],[-79.99526525,25.74572675],[-79.9957185,25.745203500000002],[-79.99584497222223,25.744700277777778],[-79.99615980555555,25.74378916666667],[-79.99607497222222,25.742654805555556],[-79.9959255,25.742118972222222],[-79.99572897222222,25.74168513888889],[-79.99547427777777,25.741205305555557],[-79.99488916666667,25.740696166666666],[-79.99381766666667,25.740266416666667],[-79.99309869444444,25.740161861111112],[-79.99249969444445,25.740198583333335],[-79.9917483888889,25.74039327777778],[-79.99148716666667,25.740557944444447],[-79.99127672222222,25.74066991666667]]},"properties":{"style":"solid","thickness":1}},{"type":"Feature","geometry":{"type":"LineString","coordinates":[[-79.98948258333334,25.746675777777778],[-79.98901461111112,25.740412222222222],[-79.98634633333333,25.740575694444445]]},"properties":{"style":"solid","thickness":1}},{"type":"Feature","geometry":{"type":"LineString","coordinates":[[-79.9807148888889,25.747212805555556],[-79.9816951388889,25.747152805555558],[-79.98218155555556,25.747073472222223],[-79.98312866666667,25.746569555555556],[-79.98399183333333,25.745674444444447],[-79.98427069444445,25.74501327777778],[-79.9843751388889,25.74421416666667],[-79.98432727777778,25.743573],[-79.98417416666666,25.742987833333334],[-79.98385402777778,25.742363361111114],[-79.98319608333334,25.741610944444446],[-79.98295986111111,25.74137766666667],[-79.98250211111112,25.741108444444446],[-79.98155430555556,25.740869194444446],[-79.98041075,25.740939222222224],[-79.97987355555556,25.741071194444444],[-79.97934372222223,25.74130180555556],[-79.97902802777779,25.74146977777778],[-79.97851291666667,25.741897666666667],[-79.97806697222222,25.7425195],[-79.97793305555555,25.742924055555555],[-79.97782488888889,25.743673861111112],[-79.97791322222223,25.74485752777778],[-79.97849166666667,25.746011194444446],[-79.97884783333333,25.74638575],[-79.97925480555556,25.74670766666667],[-79.97965441666666,25.746930916666667],[-79.97976702777778,25.746973555555556],[-79.9807148888889,25.747212805555556]]},"properties":{"style":"solid","thickness":1}},{"type":"Feature","geometry":{"type":"LineString","coordinates":[[-79.97277063888889,25.747054861111113],[-79.97329755555556,25.747518083333333],[-79.9734101388889,25.74756075],[-79.97412547222223,25.747616083333334],[-79.97471713888889,25.747480777777778],[-79.97502916666667,25.74726352777778],[-79.97533752777778,25.746996916666667],[-79.97557669444444,25.746536388888888],[-79.97549208333334,25.74540202777778],[-79.97513222222223,25.744978166666666],[-79.97489969444445,25.744794194444445],[-79.97406075,25.74454825],[-79.97311661111111,25.744358305555558],[-79.97244105555556,25.74410236111111],[-79.97220116666666,25.74381975],[-79.97204075,25.743135944444447],[-79.97210186111111,25.74248811111111],[-79.97234472222222,25.74207691666667],[-79.97260227777778,25.741862972222222],[-79.97280908333333,25.741701694444444],[-79.97307030555555,25.741537083333334],[-79.97365827777777,25.741352472222225],[-79.97398502777779,25.741332472222222],[-79.97431911111111,25.74141113888889],[-79.97476947222222,25.74158175],[-79.97505647222222,25.74176238888889],[-79.97546708333334,25.74213361111111]]},"properties":{"style":"solid","thickness":1}},{"type":"Feature","geometry":{"type":"LineString","coordinates":[[-79.96677355555556,25.74806563888889],[-79.97009552777779,25.747862555555557],[-79.96962858333333,25.741598944444444],[-79.96625233333333,25.741805361111112]]},"properties":{"style":"solid","thickness":1}},{"type":"Feature","geometry":{"type":"LineString","coordinates":[[-79.96986022222222,25.744706083333334],[-79.96664725000001,25.74490252777778]]},"properties":{"style":"solid","thickness":1}},{"type":"Feature","geometry":{"type":"LineString","coordinates":[[-79.964183,25.741931833333336],[-79.96464966666667,25.748195472222225],[-79.9622535,25.74834186111111],[-79.96159263888889,25.748283166666667],[-79.96130933333333,25.748151833333335],[-79.96084794444445,25.747833194444446],[-79.96015402777778,25.747330611111114],[-79.95967061111111,25.746716055555556],[-79.95952497222223,25.746229500000002],[-79.95940377777778,25.744601944444444],[-79.9594796388889,25.744151416666668],[-79.95976230555556,25.74353961111111],[-79.96011780555556,25.743171083333333],[-79.96046594444445,25.742703916666667],[-79.96098477777778,25.742325416666667],[-79.96162725,25.74213752777778],[-79.96200475,25.742064916666667],[-79.964183,25.741931833333336]]},"properties":{"style":"solid","thickness":1}},{"type":"Feature","geometry":{"type":"LineString","coordinates":[[-79.95036441666667,25.745896916666666],[-79.94768272222223,25.742939250000003]]},"properties":{"style":"solid","thickness":1}},{"type":"Feature","geometry":{"type":"LineString","coordinates":[[-79.95209372222223,25.742670111111114],[-79.95255975,25.74893377777778],[-79.94983677777778,25.749099944444445],[-79.94961161111111,25.749014583333334],[-79.94910680555556,25.748847194444444],[-79.94857997222222,25.74838388888889],[-79.94832547222222,25.747903972222222],[-79.94828144444445,25.74731213888889],[-79.94846261111111,25.74680563888889],[-79.94891605555556,25.746282555555556],[-79.9493915,25.74605536111111],[-79.949602,25.745943444444446],[-79.9523248888889,25.74577727777778]]},"properties":{"style":"solid","thickness":1}},{"type":"Feature","geometry":{"type":"LineString","coordinates":[[-79.94591569444445,25.749339111111112],[-79.94554533333334,25.744357750000002],[-79.94547252777778,25.744114472222222],[-79.94505466666666,25.743644500000002],[-79.9447603888889,25.743365194444447],[-79.94431005555556,25.743194472222225],[-79.94370736111111,25.74318166666667],[-79.94283605555556,25.743234805555556],[-79.94234961111111,25.743314],[-79.94171444444444,25.743600444444446],[-79.9413588888889,25.743968916666667],[-79.94116305555556,25.74427811111111],[-79.94108713888889,25.74472863888889],[-79.94144997222223,25.74961136111111]]},"properties":{"style":"solid","thickness":1}},{"type":"Feature","geometry":{"type":"LineString","coordinates":[[-79.93869730555556,25.743487055555555],[-79.93916266666668,25.74975075],[-79.93254361111111,25.74386188888889],[-79.9330086388889,25.750125611111113]]},"properties":{"style":"solid","thickness":1}},{"type":"Feature","geometry":{"type":"LineString","coordinates":[[-79.93077577777778,25.750261555555557],[-79.92845927777778,25.744110555555558],[-79.92663675,25.750513472222224],[-79.92426602777778,25.744365722222224],[-79.92271558333334,25.75075202777778]]},"properties":{"style":"solid","thickness":1}},{"type":"Feature","geometry":{"type":"LineString","coordinates":[[-79.92001830555556,25.744624055555555],[-79.91748730555555,25.751069916666665],[-79.91419125,25.74497827777778]]},"properties":{"style":"solid","thickness":1}},{"type":"Feature","geometry":{"type":"LineString","coordinates":[[-79.91918794444445,25.746705833333333],[-79.91526686111112,25.74694416666667]]},"properties":{"style":"solid","thickness":1}},{"type":"Feature","geometry":{"type":"LineString","coordinates":[[-79.91236794444445,25.75138102777778],[-79.90973755555557,25.747626888888888],[-79.90773869444445,25.751662166666666]]},"properties":{"style":"solid","thickness":1}},{"type":"Feature","geometry":{"type":"LineString","coordinates":[[-79.90973755555557,25.747626888888888],[-79.90956591666668,25.745308805555556]]},"properties":{"style":"solid","thickness":1}},{"type":"Feature","geometry":{"type":"LineString","coordinates":[[-79.90240844444445,25.751341666666665],[-79.90293511111112,25.751805138888887],[-79.90304766666667,25.751847833333333],[-79.90376297222222,25.7519035],[-79.90435475000001,25.7517685],[-79.90466691666667,25.75155138888889],[-79.90497544444445,25.751284944444443],[-79.90521491666668,25.750824527777777],[-79.90513094444445,25.74969013888889],[-79.90477133333334,25.749266083333335],[-79.9045388888889,25.749082027777778],[-79.90370008333333,25.74883566666667],[-79.90275600000001,25.748645250000003],[-79.90208058333334,25.748389],[-79.90184083333334,25.74810627777778],[-79.90168083333334,25.74742238888889],[-79.90174233333335,25.74677461111111],[-79.90198541666668,25.7463635],[-79.90224313888889,25.746149694444444],[-79.90245002777779,25.74598852777778],[-79.90271136111112,25.74582402777778],[-79.90329947222223,25.745639722222222],[-79.90362622222223,25.74561988888889],[-79.90396027777778,25.745698694444446],[-79.90441055555556,25.745869527777778],[-79.90469744444445,25.74605027777778],[-79.90510786111112,25.746421722222223]]},"properties":{"style":"solid","thickness":1}},{"type":"Feature","geometry":{"type":"LineString","coordinates":[[-79.98615133333334,25.732602861111108],[-79.98346905555556,25.729645833333333]]},"properties":{"style":"solid","thickness":1}},{"type":"Feature","geometry":{"type":"LineString","coordinates":[[-79.98787947222222,25.72937561111111],[-79.98834733333334,25.735639194444445],[-79.98562472222223,25.735806],[-79.98539955555556,25.735720722222222],[-79.98489475,25.73555347222222],[-79.98436783333334,25.73509027777778],[-79.98411319444445,25.734610444444446],[-79.98406902777778,25.734018583333334],[-79.98425,25.733512055555558],[-79.98470325,25.73298883333333],[-79.98517855555555,25.732761555555555],[-79.985389,25.732649555555554],[-79.98811155555556,25.73248275]]},"properties":{"style":"solid","thickness":1}},{"type":"Feature","geometry":{"type":"LineString","coordinates":[[-79.98170411111111,25.73604613888889],[-79.97938530555555,25.729895916666663],[-79.97756569444445,25.7362995],[-79.97519263888888,25.730152527777776],[-79.97364508333334,25.736539416666666]]},"properties":{"style":"solid","thickness":1}},{"type":"Feature","geometry":{"type":"LineString","coordinates":[[-79.97135802777778,25.73667930555556],[-79.96872611111111,25.73292625],[-79.9667295,25.736962333333334]]},"properties":{"style":"solid","thickness":1}},{"type":"Feature","geometry":{"type":"LineString","coordinates":[[-79.96872611111111,25.73292625],[-79.96855336111112,25.730608194444443]]},"properties":{"style":"solid","thickness":1}},{"type":"Feature","geometry":{"type":"LineString","coordinates":[[-79.95952197222222,25.735668722222222],[-79.95954400000001,25.73596463888889],[-79.95946080555557,25.736316527777777],[-79.95927602777778,25.736773722222225],[-79.95908025,25.737082944444445],[-79.95876822222222,25.737300166666667],[-79.95833991666667,25.737425416666667],[-79.95752311111112,25.737475305555556],[-79.95691677777778,25.73741325],[-79.95663350000001,25.737281916666667],[-79.95622661111112,25.736959944444447],[-79.95609936111111,25.736720000000002],[-79.95596108333334,25.736332083333334],[-79.95590236111111,25.735542944444447],[-79.95598922222223,25.73524038888889],[-79.95640222222222,25.734174722222225],[-79.95700425,25.73344436111111],[-79.95796908333334,25.73244408333333],[-79.95912966666667,25.731134583333333],[-79.95569925000001,25.731344083333333]]},"properties":{"style":"solid","thickness":1}},{"type":"Feature","geometry":{"type":"LineString","coordinates":[[-79.95098494444444,25.73782488888889],[-79.95169225000001,25.737038555555557],[-79.95229433333334,25.736308194444444],[-79.95279116666667,25.73563380555556],[-79.95308852777778,25.73521927777778],[-79.95332411111112,25.734709472222224],[-79.95339630555556,25.734209611111112],[-79.95341772222223,25.733762416666668],[-79.95335166666666,25.732874638888887],[-79.9531626388889,25.73253938888889],[-79.95292280555556,25.732256749999998],[-79.95267930555556,25.731924805555554],[-79.95150647222222,25.731600027777777],[-79.95085305555556,25.731639916666666],[-79.95017086111112,25.732028333333332],[-79.95006930555556,25.732133638888886],[-79.94966302777779,25.732554777777775],[-79.94961591666667,25.732656749999997],[-79.94944947222223,25.7333605],[-79.94948613888889,25.73385372222222],[-79.94962072222222,25.734192305555556],[-79.9497516388889,25.734481583333334],[-79.9499951388889,25.734813555555558],[-79.95045644444444,25.735132194444446],[-79.95090675,25.73530291666667],[-79.95118266666667,25.73533561111111],[-79.95156383333334,25.735312333333333],[-79.95183244444445,25.73524641666667],[-79.95272877777778,25.73479536111111],[-79.95339997222223,25.734258944444445]]},"properties":{"style":"solid","thickness":1}},{"type":"Feature","geometry":{"type":"LineString","coordinates":[[-79.94531216666667,25.735099222222225],[-79.94263083333334,25.732141444444444]]},"properties":{"style":"solid","thickness":1}},{"type":"Feature","geometry":{"type":"LineString","coordinates":[[-79.94704144444445,25.73187247222222],[-79.94750719444446,25.738136166666667],[-79.94478444444445,25.738302222222224],[-79.94455930555556,25.738216861111113],[-79.94405455555555,25.738049444444446],[-79.94352780555556,25.73758613888889],[-79.94327330555556,25.737106222222224],[-79.94322933333333,25.736514361111112],[-79.9434105,25.73600788888889],[-79.94386391666667,25.735484805555558],[-79.94433933333333,25.73525763888889],[-79.94454980555555,25.735145694444444],[-79.94727247222222,25.73497963888889]]},"properties":{"style":"solid","thickness":1}},{"type":"Feature","geometry":{"type":"LineString","coordinates":[[-79.93142097222223,25.738819250000002],[-79.93176236111111,25.73899663888889],[-79.93215086111111,25.739072055555557],[-79.93345780555556,25.738992472222222],[-79.93394058333334,25.738863972222223],[-79.93410027777779,25.738804722222223],[-79.93488413888889,25.738311083333333],[-79.93533761111111,25.737788000000002],[-79.93546436111112,25.737284861111114],[-79.93577961111112,25.73637386111111],[-79.93569536111112,25.735239472222222],[-79.93554616666667,25.734703583333335],[-79.93534986111112,25.734269666666666],[-79.93509541666667,25.733789722222223],[-79.93451061111111,25.73328036111111],[-79.9334393888889,25.732850166666665],[-79.93272052777779,25.73274533333333],[-79.93212152777778,25.732781805555554],[-79.93137019444445,25.732976166666663],[-79.93110891666667,25.73314072222222],[-79.93089841666666,25.73325261111111]]},"properties":{"style":"solid","thickness":1}},{"type":"Feature","geometry":{"type":"LineString","coordinates":[[-79.92910136111112,25.739257722222224],[-79.92863655555556,25.73299397222222],[-79.92596838888889,25.73315636111111]]},"properties":{"style":"solid","thickness":1}},{"type":"Feature","geometry":{"type":"LineString","coordinates":[[-79.92110327777779,25.739100305555557],[-79.92162994444445,25.739563694444445],[-79.92174250000001,25.73960638888889],[-79.92245775,25.739661972222223],[-79.92304944444444,25.73952688888889],[-79.92336155555556,25.73930975],[-79.92367,25.73904325],[-79.92390936111111,25.738582805555556],[-79.92382522222222,25.737448416666666],[-79.92346558333334,25.737024416666667],[-79.92323313888889,25.73684038888889],[-79.92239436111112,25.73659413888889],[-79.92145036111111,25.736403833333334],[-79.92077497222223,25.736147666666668],[-79.92053522222223,25.735864972222224],[-79.92037511111111,25.73518111111111],[-79.92043650000001,25.734533305555555],[-79.9206795,25.734122194444446],[-79.92093716666668,25.733908333333336],[-79.921144,25.73374713888889],[-79.92140530555557,25.73358261111111],[-79.92199330555556,25.733398222222224],[-79.92232002777779,25.733378333333334],[-79.92265405555555,25.73345711111111],[-79.92310430555555,25.73362788888889],[-79.92339122222222,25.73380861111111],[-79.92380163888889,25.734180000000002]]},"properties":{"style":"solid","thickness":1}},{"type":"Feature","geometry":{"type":"LineString","coordinates":[[-79.91796377777779,25.73364325],[-79.918428,25.73990702777778],[-79.91603191666667,25.740052694444444],[-79.9153711388889,25.73999377777778],[-79.91508788888889,25.73986236111111],[-79.91462666666668,25.739543583333333],[-79.913933,25.73904075],[-79.91344986111112,25.738426055555557],[-79.91330441666668,25.737939472222223],[-79.91318386111112,25.736311861111112],[-79.91325988888889,25.735861361111112],[-79.91354277777778,25.73524963888889],[-79.9138983888889,25.73488125],[-79.91424666666667,25.734414194444444],[-79.9147656388889,25.734035833333333],[-79.91540811111112,25.733848166666668],[-79.91578563888889,25.733775666666666],[-79.91796377777779,25.73364325]]},"properties":{"style":"solid","thickness":1}}]}
