{"type":"FeatureCollection","features":[{"type":"Feature","geometry":{"type":"LineString","coordinates":[[-80.2932391388889,25.79690666666667],[-80.29438566666667,25.797944583333337]]},"properties":{"style":"solid","thickness":1}},{"type":"Feature","geometry":{"type":"LineString","coordinates":[[-80.29283783333334,25.797062333333336],[-80.29421369444444,25.798307833333336]]},"properties":{"style":"solid","thickness":1}},{"type":"Feature","geometry":{"type":"LineString","coordinates":[[-80.29255119444444,25.797321833333335],[-80.29392705555556,25.798567333333335]]},"properties":{"style":"solid","thickness":1}},{"type":"Feature","geometry":{"type":"LineString","coordinates":[[-80.29237922222222,25.797685083333334],[-80.29352575,25.79872302777778]]},"properties":{"style":"solid","thickness":1}},{"type":"Feature","geometry":{"type":"LineString","coordinates":[[-80.29266583333333,25.79846352777778],[-80.29275158333333,25.798533083333336],[-80.2928508611111,25.79859702777778],[-80.2929635,25.79865266666667],[-80.29308844444444,25.798697166666667],[-80.29322377777778,25.798727805555558],[-80.29336666666667,25.79874213888889],[-80.29351341666667,25.798738472222222],[-80.29365983333334,25.79871602777778],[-80.29380155555555,25.798675111111113],[-80.29393441666666,25.798617055555557],[-80.29405494444444,25.798544250000003],[-80.29416058333334,25.798459694444446],[-80.29424983333332,25.79836666666667],[-80.29432222222222,25.798268500000002],[-80.29437816666666,25.79816827777778],[-80.29441874999999,25.798068555555556],[-80.29444616666666,25.797968750000003],[-80.294462,25.797861416666667],[-80.29446405555555,25.797747194444447],[-80.29444997222222,25.797628055555556],[-80.29441788888889,25.797506694444447],[-80.29436666666666,25.797386361111112],[-80.29429608333334,25.797270722222223],[-80.2942071111111,25.797163555555557],[-80.29410188888889,25.79706827777778],[-80.29398347222222,25.796987750000003],[-80.29385574999999,25.796923861111114],[-80.29372283333333,25.796877472222224],[-80.29358877777777,25.796848444444446],[-80.29345716666667,25.796835694444447],[-80.293331,25.79683755555556],[-80.29321241666666,25.79685188888889],[-80.29310216666667,25.796876694444446],[-80.29299202777777,25.796913472222222],[-80.29288130555555,25.796964111111112],[-80.2927728611111,25.797029611111114],[-80.29267011111111,25.79711041666667],[-80.29257666666666,25.797206055555556],[-80.29249625,25.797315166666667],[-80.29243213888888,25.797435444444446],[-80.29238691666666,25.797563722222225],[-80.29236213888889,25.797696277777778],[-80.29235808333333,25.797829111111113],[-80.29237394444445,25.797958444444447],[-80.29240775,25.798080972222223],[-80.29245691666667,25.798194083333335],[-80.2925183888889,25.79829602777778],[-80.29258899999999,25.798385916666668],[-80.29266583333333,25.79846352777778]]},"properties":{"style":"solid","thickness":1}},{"type":"Feature","geometry":{"type":"LineString","coordinates":[[-80.1504638888889,26.07207777777778],[-80.14943333333333,26.04351666666667],[-80.14580000000001,25.96321111111111]]},"properties":{"style":"solid","thickness":1}},{"type":"Feature","geometry":{"type":"LineString","coordinates":[[-80.1504638888889,26.07207777777778],[-80.13364444444446,26.071983333333332],[-79.96457777777778,26.070891666666668],[-79.8956388888889,26.07041388888889],[-79.83401666666666,26.069972222222223],[-79.78285277777778,26.06940277777778],[-79.63615277777778,26.06767222222222],[-79.55,26.066666666666666],[-79.49805555555555,26.060833333333335]]},"properties":{"style":"solid","thickness":1}},{"type":"Feature","geometry":{"type":"LineString","coordinates":[[-80.13364444444446,26.071983333333332],[-80.13313333333333,26.043325000000003],[-80.14943333333333,26.04351666666667]]},"properties":{"style":"solid","thickness":1}},{"type":"Feature","geometry":{"type":"LineString","coordinates":[[-80.13313333333333,26.043325000000003],[-79.96640555555555,26.041275000000002],[-79.96457777777778,26.070891666666668]]},"properties":{"style":"solid","thickness":1}},{"type":"Feature","geometry":{"type":"LineString","coordinates":[[-79.96640555555555,26.041275000000002],[-79.83458055555555,26.039658333333335],[-79.78116944444444,26.03938888888889],[-79.78285277777778,26.06940277777778]]},"properties":{"style":"solid","thickness":1}},{"type":"Feature","geometry":{"type":"LineString","coordinates":[[-79.78116944444444,26.03938888888889],[-79.59479444444445,26.037100000000002],[-79.55,26.066666666666666]]},"properties":{"style":"solid","thickness":1}},{"type":"Feature","geometry":{"type":"LineString","coordinates":[[-79.96640555555555,26.041275000000002],[-79.97236666666667,25.96334722222222],[-79.99961944444445,25.96335277777778],[-80.14580000000001,25.96321111111111]]},"properties":{"style":"solid","thickness":1}},{"type":"Feature","geometry":{"type":"LineString","coordinates":[[-80.14580000000001,25.96321111111111],[-80.24617222222223,25.963224999999998],[-80.28958333333333,25.96318611111111],[-80.29028333333333,25.912605555555555],[-80.29080277777777,25.867763888888888],[-80.22366666666667,25.867594444444446],[-80.12355277777777,25.867572222222222],[-80.11815277777777,25.85653611111111],[-80.11301666666667,25.843130555555554],[-80.1099,25.83271111111111],[-80.10706666666665,25.81949722222222],[-80.10580277777777,25.809527777777777],[-80.10533055555555,25.802658333333333]]},"properties":{"style":"solid","thickness":1}},{"type":"Feature","geometry":{"type":"LineString","coordinates":[[-79.97236666666667,25.96334722222222],[-79.83601388888889,25.962605555555555],[-79.70054444444445,25.96289722222222],[-79.69958611111112,25.821925]]},"properties":{"style":"solid","thickness":1}},{"type":"Feature","geometry":{"type":"LineString","coordinates":[[-80.10533055555555,25.802658333333333],[-80.06152222222222,25.805344444444444],[-79.99938333333334,25.80848611111111],[-79.91828333333333,25.81258888888889],[-79.69958611111112,25.821925],[-79.65293333333334,25.82275],[-79.57034999999999,25.94994722222222],[-79.53999722222223,25.99655277777778],[-79.49805555555555,26.060833333333335]]},"properties":{"style":"solid","thickness":1}},{"type":"Feature","geometry":{"type":"LineString","coordinates":[[-79.97236666666667,25.96334722222222],[-79.95691111111111,25.93982777777778],[-79.94041666666666,25.904975],[-79.93115277777778,25.876466666666666],[-79.92214166666668,25.841491666666666],[-79.91828333333333,25.81258888888889]]},"properties":{"style":"solid","thickness":1}},{"type":"Feature","geometry":{"type":"LineString","coordinates":[[-80.18344794444445,26.054316444444446],[-80.14079719444445,26.05493188888889]]},"properties":{"style":"solid","thickness":1}},{"type":"Feature","geometry":{"type":"LineString","coordinates":[[-80.15155191666668,26.060007555555558],[-80.14079719444445,26.05493188888889],[-80.15136791666667,26.04955080555556]]},"properties":{"style":"solid","thickness":1}},{"type":"Feature","geometry":{"type":"LineString","coordinates":[[-79.81739016666667,25.897130861111112],[-79.81811588888888,25.897764944444443],[-79.81827077777777,25.897823166666665],[-79.81925388888888,25.897896944444444],[-79.82006644444444,25.89770947222222],[-79.82049441666666,25.89741036111111],[-79.82091713888889,25.897043583333332],[-79.82124408333333,25.896410833333334],[-79.82112363888889,25.89485436111111],[-79.82062758333333,25.894273722222223],[-79.8203073611111,25.894021972222223],[-79.81915369444444,25.893687],[-79.81785561111111,25.893429138888887],[-79.81692638888889,25.893079944444445],[-79.81659572222222,25.89269283333333],[-79.81637280555556,25.891754888888887],[-79.81645436111111,25.890865666666667],[-79.81678658333333,25.890300611111112],[-79.81713969444444,25.890006222222222],[-79.81742324999999,25.88978427777778],[-79.81778163888889,25.889557555555555],[-79.81858888888888,25.889302444444443],[-79.81903777777778,25.889274027777777],[-79.8194971111111,25.88938097222222],[-79.82011658333333,25.88961375],[-79.8205116111111,25.889860777777777],[-79.82107722222221,25.890369]]},"properties":{"style":"solid","thickness":1}},{"type":"Feature","geometry":{"type":"LineString","coordinates":[[-79.80014330555555,25.89869747222222],[-79.80061313888889,25.898939805555557],[-79.8011473611111,25.899042055555554],[-79.80294305555556,25.898928583333333],[-79.803606,25.898750694444445],[-79.80382522222222,25.898668833333332],[-79.80490047222222,25.897988833333333],[-79.80552155555556,25.897269527777777],[-79.80569375,25.89657861111111],[-79.80612333333333,25.895327388888887],[-79.80600308333334,25.893770888888888],[-79.80579591666667,25.893035944444446],[-79.80552441666666,25.892441055555555],[-79.8051728611111,25.89178325],[-79.80436719444444,25.891086138888888],[-79.80289341666666,25.89049925],[-79.80190511111111,25.890357694444443],[-79.80108213888889,25.890409694444443],[-79.80005041666666,25.89067888888889],[-79.799692,25.89090552777778],[-79.79940319444444,25.891059777777777]]},"properties":{"style":"solid","thickness":1}},{"type":"Feature","geometry":{"type":"LineString","coordinates":[[-79.79662825,25.895043277777777],[-79.79198947222223,25.89533613888889]]},"properties":{"style":"solid","thickness":1}},{"type":"Feature","geometry":{"type":"LineString","coordinates":[[-79.78415758333333,25.900046472222222],[-79.78759941666667,25.89982938888889],[-79.78821544444445,25.896118333333334],[-79.78756294444445,25.89643152777778],[-79.78699047222221,25.896807666666668],[-79.78564369444445,25.89689261111111],[-79.78495988888889,25.896799722222223],[-79.78425519444444,25.896436166666668],[-79.78343397222223,25.895535888888887],[-79.78322172222222,25.894733249999998],[-79.7831435,25.89371813888889],[-79.78353502777777,25.892945416666667],[-79.78400136111111,25.89216797222222],[-79.78421016666667,25.891950777777776],[-79.78463297222223,25.89158411111111],[-79.78537072222223,25.891401555555554],[-79.78619369444445,25.89134963888889],[-79.78680266666666,25.89144725],[-79.78757172222222,25.89167075],[-79.78828683333333,25.892169638888888],[-79.78837730555556,25.892367944444445]]},"properties":{"style":"solid","thickness":1}},{"type":"Feature","geometry":{"type":"LineString","coordinates":[[-79.77499680555556,25.895319694444446],[-79.77515316666667,25.897349916666666],[-79.77546622222222,25.89848625],[-79.77565755555555,25.899018194444444],[-79.77591330555555,25.89941011111111],[-79.77687372222222,25.90016561111111],[-79.77779766666667,25.900447416666665],[-79.77809694444444,25.900428555555553],[-79.77896875,25.900033583333332],[-79.77972922222222,25.89916963888889],[-79.77999722222222,25.898744722222222],[-79.78010516666667,25.898193888888887],[-79.78024097222222,25.897029277777776],[-79.78008452777777,25.894999055555555],[-79.77977144444445,25.89386272222222],[-79.77958008333333,25.893330777777777],[-79.77924952777778,25.892943583333334],[-79.77836397222222,25.892183361111112],[-79.77744008333333,25.891901583333333],[-79.77714083333333,25.891920444444445],[-79.77626908333333,25.89231538888889],[-79.77543380555555,25.893184055555555],[-79.77524061111112,25.89360425],[-79.77513266666666,25.894155083333334],[-79.77499680555556,25.895319694444446]]},"properties":{"style":"solid","thickness":1}},{"type":"Feature","geometry":{"type":"LineString","coordinates":[[-80.06183352777778,25.8868495],[-80.0625605,25.887482388888888],[-80.0627155,25.887540333333334],[-80.06369869444444,25.887612444444443],[-80.06451075,25.88742361111111],[-80.06493805555556,25.887123777777777],[-80.06536,25.886756277777778],[-80.0656856111111,25.88612297222222],[-80.06556194444444,25.88456672222222],[-80.06506474999999,25.883986944444445],[-80.06474402777778,25.883735722222223],[-80.06358977777778,25.883402694444445],[-80.06229130555555,25.883147055555558],[-80.06136144444444,25.882799416666668],[-80.06103,25.88241288888889],[-80.06080516666667,25.881475305555558],[-80.06088488888889,25.880585944444444],[-80.06121588888888,25.880020333333334],[-80.06156838888889,25.87972538888889],[-80.06185144444444,25.879502944444447],[-80.06220930555556,25.87927563888889],[-80.06301594444444,25.879019166666666],[-80.06346475,25.87898997222222],[-80.06392427777777,25.87909613888889],[-80.06454416666666,25.87932786111111],[-80.06493966666666,25.87957422222222],[-80.06550625,25.880081472222223]]},"properties":{"style":"solid","thickness":1}},{"type":"Feature","geometry":{"type":"LineString","coordinates":[[-80.04459158333333,25.888445277777777],[-80.04506188888888,25.88868683333333],[-80.04559625,25.888788166666668],[-80.04739152777778,25.888671666666667],[-80.04805402777778,25.888492638888888],[-80.04827308333333,25.888410416666666],[-80.04934683333333,25.88772861111111],[-80.04996638888889,25.887008277777777],[-80.05013711111111,25.886317055555555],[-80.05056408333333,25.88506511111111],[-80.05044061111111,25.883508833333334],[-80.05023194444445,25.88277425],[-80.04995922222221,25.882179833333335],[-80.0496063611111,25.881522611111112],[-80.04879930555555,25.88082686111111],[-80.04732447222221,25.88024247222222],[-80.046336,25.880102583333333],[-80.04551319444444,25.880155972222223],[-80.04448211111111,25.880426916666668],[-80.04412422222222,25.880654194444446],[-80.04383575,25.880808916666666]]},"properties":{"style":"solid","thickness":1}},{"type":"Feature","geometry":{"type":"LineString","coordinates":[[-80.04106930555555,25.884797083333332],[-80.03643158333333,25.885097777777776]]},"properties":{"style":"solid","thickness":1}},{"type":"Feature","geometry":{"type":"LineString","coordinates":[[-80.03351472222222,25.887191166666668],[-80.03354688888889,25.887597166666666],[-80.03343477777777,25.888080527777777],[-80.03318380555555,25.88870888888889],[-80.03291672222223,25.889134249999998],[-80.03248933333333,25.889433999999998],[-80.03190161111111,25.889608111111112],[-80.03077952777778,25.889680805555557],[-80.02994597222222,25.889598777777778],[-80.0295558611111,25.889420027777778],[-80.02899472222222,25.888980277777776],[-80.02881833333333,25.888651638888888],[-80.02862588888888,25.888120027777777],[-80.02854016666666,25.88703738888889],[-80.02865763888889,25.886621694444443],[-80.02921838888889,25.88515713888889],[-80.03004102777777,25.884151694444444],[-80.03136047222222,25.88277397222222],[-80.03294691666666,25.88097088888889],[-80.02823452777778,25.881276194444446]]},"properties":{"style":"solid","thickness":1}},{"type":"Feature","geometry":{"type":"LineString","coordinates":[[-80.02018852777778,25.885061666666665],[-80.02034908333333,25.88709161111111],[-80.02066447222222,25.88822738888889],[-80.02085688888889,25.888759027777777],[-80.02111341666667,25.8891505],[-80.02207530555556,25.889904388888887],[-80.02299975,25.89018461111111],[-80.02329897222222,25.890165222222222],[-80.0241698611111,25.889768805555555],[-80.02492847222221,25.888903555555554],[-80.02519558333333,25.888478194444446],[-80.02530236111112,25.887927166666667],[-80.02543575,25.886762333333333],[-80.02527511111111,25.88473238888889],[-80.02495966666666,25.88359661111111],[-80.02476725,25.883065000000002],[-80.02443591666666,25.88267836111111],[-80.02354886111111,25.88191966666667],[-80.02262449999999,25.881639444444446],[-80.02232527777778,25.881658805555556],[-80.02145444444444,25.88205525],[-80.02062105555555,25.882925305555556],[-80.02042875,25.883345833333333],[-80.02032197222222,25.88389683333333],[-80.02018852777778,25.885061666666665]]},"properties":{"style":"solid","thickness":1}},{"type":"Feature","geometry":{"type":"LineString","coordinates":[[-80.08341544444444,25.997044527777778],[-80.08414319444444,25.997677333333336],[-80.08429833333332,25.99773525],[-80.08528247222222,25.997807222222225],[-80.08609527777777,25.997618305555555],[-80.08652294444444,25.99731841666667],[-80.08694522222221,25.996950861111113],[-80.08727102777777,25.99631752777778],[-80.087147,25.99476127777778],[-80.08664925,25.994181555555556],[-80.08632819444443,25.993930416666668],[-80.08517280555554,25.99359752777778],[-80.08387305555556,25.99334202777778],[-80.08294227777778,25.99299452777778],[-80.08261044444444,25.992608027777777],[-80.08238525,25.991670472222225],[-80.08246491666667,25.990781138888888],[-80.08279613888888,25.990215472222225],[-80.08314891666666,25.989920444444447],[-80.08343222222221,25.989697972222224],[-80.08379038888889,25.98947063888889],[-80.08459775,25.989214055555557],[-80.08504697222222,25.989184833333333],[-80.08550694444445,25.98929091666667],[-80.08612744444444,25.989522583333333],[-80.0865233611111,25.989768861111113],[-80.08709058333334,25.990276055555558]]},"properties":{"style":"solid","thickness":1}},{"type":"Feature","geometry":{"type":"LineString","coordinates":[[-80.06615747222222,25.998642500000003],[-80.06662825,25.998883972222224],[-80.06716311111111,25.99898525],[-80.06896011111111,25.99886852777778],[-80.06962319444445,25.998689416666668],[-80.06984244444445,25.998607166666666],[-80.07091708333333,25.99792522222222],[-80.07153711111111,25.99720480555556],[-80.07170788888888,25.996513583333336],[-80.07213508333334,25.995261583333335],[-80.07201125,25.993705333333335],[-80.07180227777778,25.99297075],[-80.07152922222222,25.99237638888889],[-80.07117588888889,25.991719222222223],[-80.070368,25.991023583333334],[-80.06889166666666,25.99043936111111],[-80.06790222222222,25.990299611111112],[-80.06707866666666,25.990353111111112],[-80.06604663888889,25.990624166666667],[-80.06568844444445,25.99085147222222],[-80.06539972222222,25.99100625]]},"properties":{"style":"solid","thickness":1}},{"type":"Feature","geometry":{"type":"LineString","coordinates":[[-80.06263130555556,25.99499475],[-80.05798922222222,25.995296055555556]]},"properties":{"style":"solid","thickness":1}},{"type":"Feature","geometry":{"type":"LineString","coordinates":[[-80.05016119444444,26.000020555555555],[-80.05360544444444,25.999797222222224],[-80.05421375,25.996085083333334],[-80.05356138888888,25.996399444444446],[-80.05298927777777,25.996776611111112],[-80.05164155555555,25.99686402777778],[-80.05095694444444,25.99677238888889],[-80.05025086111111,25.99641011111111],[-80.04942691666666,25.995511333333333],[-80.04921272222222,25.994709083333333],[-80.04913216666667,25.99369413888889],[-80.04952230555556,25.992920694444447],[-80.04998730555555,25.992142416666667],[-80.05019580555555,25.991924861111112],[-80.05061816666667,25.991557416666666],[-80.05135613888889,25.991373527777778],[-80.05217969444445,25.99132011111111],[-80.05278938888888,25.991416611111113],[-80.05355958333332,25.991638694444447],[-80.05427641666667,25.992136305555558],[-80.05436741666666,25.992334444444445]]},"properties":{"style":"solid","thickness":1}},{"type":"Feature","geometry":{"type":"LineString","coordinates":[[-80.0409821388889,25.995310472222222],[-80.04114313888888,25.99734038888889],[-80.04145897222222,25.99847613888889],[-80.04165166666667,25.99900775],[-80.04190849999999,25.999399194444447],[-80.04287141666667,26.000152944444444],[-80.04379675,26.000433055555554],[-80.04409627777778,26.00041363888889],[-80.04496794444444,26.00001711111111],[-80.04572713888889,25.99915177777778],[-80.04599441666666,25.99872636111111],[-80.04610119444445,25.998175361111112],[-80.04623455555556,25.997010500000002],[-80.04607347222222,25.994980583333334],[-80.04575755555555,25.99384486111111],[-80.0455648611111,25.99331325],[-80.04523316666666,25.99292666666667],[-80.04434516666666,25.992168055555556],[-80.04341988888889,25.991887972222223],[-80.04312041666667,25.991907361111114],[-80.04224880555556,25.99230388888889],[-80.04141475,25.993174083333333],[-80.04122233333334,25.993594611111114],[-80.04111552777778,25.99414561111111],[-80.0409821388889,25.995310472222222]]},"properties":{"style":"solid","thickness":1}},{"type":"Feature","geometry":{"type":"LineString","coordinates":[[-79.70994913888889,25.999657055555556],[-79.71067491666668,26.000291694444446],[-79.71082986111111,26.00035],[-79.71181377777778,26.0004245],[-79.71262719444445,26.000237666666667],[-79.71305577777778,25.99993888888889],[-79.71347919444445,25.999572416666666],[-79.71380702777778,25.998939916666668],[-79.71368786111111,25.99738341666667],[-79.71319191666667,25.996802416666668],[-79.71287166666667,25.996550444444445],[-79.71171730555555,25.99621461111111],[-79.71041836111111,25.995955805555557],[-79.70948866666667,25.99560591666667],[-79.70915805555556,25.995218583333333],[-79.70893580555556,25.994280500000002],[-79.70901825,25.99339136111111],[-79.70935125,25.992826555555556],[-79.70970494444445,25.992532444444446],[-79.70998894444445,25.992310722222225],[-79.71034783333333,25.992084277777778],[-79.711156,25.991829777777777],[-79.71160527777778,25.991801694444444],[-79.71206494444445,25.991908944444447],[-79.71268472222222,25.992142222222224],[-79.71307986111111,25.9923895],[-79.71364547222223,25.99289813888889]]},"properties":{"style":"solid","thickness":1}},{"type":"Feature","geometry":{"type":"LineString","coordinates":[[-79.69268619444445,26.001210805555555],[-79.69315619444446,26.0014535],[-79.69369075,26.00155613888889],[-79.69548808333333,26.001444],[-79.69615175,26.00126661111111],[-79.69637125,26.001184916666666],[-79.69744802777778,26.00050575],[-79.69807030555556,25.999786916666668],[-79.69824325,25.99909613888889],[-79.69867436111112,25.997845277777778],[-79.69855541666666,25.99628875],[-79.69834875000001,25.995553666666666],[-79.69807755555556,25.994958611111112],[-79.69772630555556,25.994300527777778],[-79.69692055555556,25.993602833333334],[-79.69544605555556,25.993014861111114],[-79.69445705555556,25.992872583333334],[-79.69363336111111,25.992923972222222],[-79.69260047222222,25.99319238888889],[-79.69224155555555,25.99341877777778],[-79.69195236111112,25.993572805555555]]},"properties":{"style":"solid","thickness":1}},{"type":"Feature","geometry":{"type":"LineString","coordinates":[[-79.68917144444445,25.99755411111111],[-79.68452844444445,25.99784352777778]]},"properties":{"style":"solid","thickness":1}},{"type":"Feature","geometry":{"type":"LineString","coordinates":[[-79.68170841666667,26.002303083333334],[-79.67594186111111,26.002662222222224],[-79.67933044444445,25.99381552777778]]},"properties":{"style":"solid","thickness":1}},{"type":"Feature","geometry":{"type":"LineString","coordinates":[[-79.66737155555556,25.997823750000002],[-79.66752619444445,25.999854055555556],[-79.6678385,26.000990555555557],[-79.6680295,26.001522666666666],[-79.66828511111112,26.00191475],[-79.66924566666667,26.002670944444443],[-79.67017013888889,26.002953416666667],[-79.67046969444445,26.002934777777778],[-79.67134261111111,26.0025405],[-79.6721045,26.00167711111111],[-79.67237311111111,26.001252416666667],[-79.6724816388889,26.000701694444444],[-79.67261863888889,25.999537194444446],[-79.67246391666667,25.99750691666667],[-79.67215158333333,25.996370416666668],[-79.67196055555556,25.995838305555555],[-79.67163005555555,25.99545088888889],[-79.67074444444445,25.994690055555555],[-79.66982002777779,25.994407583333334],[-79.6695205,25.994426222222224],[-79.6686476388889,25.9948205],[-79.66781086111112,25.99568852777778],[-79.6676171388889,25.996108555555555],[-79.66750861111112,25.996659277777777],[-79.66737155555556,25.997823750000002]]},"properties":{"style":"solid","thickness":1}},{"type":"Feature","geometry":{"type":"LineString","coordinates":[[-79.89943091666667,26.05728763888889],[-79.90287711111111,26.05706786111111],[-79.9034903888889,26.053356444444447],[-79.90283733333334,26.05367013888889],[-79.90226444444446,26.054046694444445],[-79.90091600000001,26.054132694444444],[-79.90023116666667,26.054040361111113],[-79.89952522222222,26.053677333333333],[-79.89870202777779,26.05277775],[-79.89848875000001,26.051975305555555],[-79.89840941666667,26.05096027777778],[-79.89880075,26.05018725],[-79.89926694444445,26.049409472222223],[-79.89947583333334,26.04919213888889],[-79.89989886111111,26.04882513888889],[-79.9006373888889,26.04864202777778],[-79.90146141666668,26.048589472222226],[-79.90207130555557,26.048686583333335],[-79.90284155555557,26.048909472222224],[-79.90355811111111,26.049407805555557],[-79.9036488888889,26.04960602777778]]},"properties":{"style":"solid","thickness":1}},{"type":"Feature","geometry":{"type":"LineString","coordinates":[[-79.89025347222223,26.05256813888889],[-79.89041197222222,26.054598194444445],[-79.89072655555556,26.05573425],[-79.89091866666668,26.056266027777777],[-79.89117511111112,26.056657722222223],[-79.89213752777779,26.05741247222222],[-79.89306294444445,26.05769352777778],[-79.8933626388889,26.057674444444444],[-79.89423519444445,26.057278805555555],[-79.89499586111111,26.05641427777778],[-79.89526380555556,26.055989166666667],[-79.89537136111112,26.055438277777778],[-79.89550622222222,26.054273583333334],[-79.8953476388889,26.05224352777778],[-79.89503305555556,26.0511075],[-79.89484094444445,26.050575694444444],[-79.89450958333335,26.050188777777777],[-79.89362211111111,26.04942927777778],[-79.89269675000001,26.049148222222225],[-79.89239708333334,26.049167305555557],[-79.89152455555556,26.049562944444446],[-79.89068900000001,26.050432222222224],[-79.89049597222223,26.050852555555558],[-79.89038841666667,26.051403444444446],[-79.89025347222223,26.05256813888889]]},"properties":{"style":"solid","thickness":1}},{"type":"Feature","geometry":{"type":"LineString","coordinates":[[-79.88719158333333,26.053851222222224],[-79.88254680555555,26.054146944444444]]},"properties":{"style":"solid","thickness":1}},{"type":"Feature","geometry":{"type":"LineString","coordinates":[[-79.87973283333332,26.058610305555558],[-79.87396408333332,26.05897722222222],[-79.87733963888888,26.050125972222222]]},"properties":{"style":"solid","thickness":1}},{"type":"Feature","geometry":{"type":"LineString","coordinates":[[-79.86538158333333,26.05415038888889],[-79.86553966666666,26.056180472222223],[-79.865854,26.057316555555555],[-79.866046,26.05784838888889],[-79.86630236111111,26.05824013888889],[-79.86726463888888,26.05899502777778],[-79.86819002777777,26.05927625],[-79.86848969444443,26.05925722222222],[-79.86936238888889,26.058861722222222],[-79.87012322222222,26.057997333333333],[-79.87039125,26.05757227777778],[-79.87049891666666,26.057021388888888],[-79.87063405555556,26.055856722222224],[-79.87047588888888,26.05382663888889],[-79.87016152777777,26.052690555555557],[-79.86996952777777,26.052158722222224],[-79.86963822222222,26.05177175],[-79.86875091666666,26.051012111111113],[-79.86782558333333,26.05073088888889],[-79.86752594444444,26.050749944444444],[-79.86665330555554,26.051145416666667],[-79.86581758333332,26.052014555555555],[-79.86562444444444,26.052434861111113],[-79.86551677777777,26.05298572222222],[-79.86538158333333,26.05415038888889]]},"properties":{"style":"solid","thickness":1}},{"type":"Feature","geometry":{"type":"LineString","coordinates":[[-79.73690594444444,26.054158583333333],[-79.73763222222222,26.054793083333333],[-79.73778725,26.05485138888889],[-79.73877163888889,26.054925694444446],[-79.73958538888888,26.054738722222222],[-79.7400141388889,26.054439861111113],[-79.74043766666666,26.054073305555555],[-79.7407655,26.05344075],[-79.74064594444445,26.05188425],[-79.7401496388889,26.051303361111113],[-79.73982916666667,26.051051444444447],[-79.73867419444444,26.050715833333335],[-79.73737455555556,26.05045725],[-79.73644436111111,26.05010752777778],[-79.7361135,26.04972025],[-79.73589094444445,26.048782194444446],[-79.73597322222223,26.04789305555556],[-79.73630625,26.047328194444447],[-79.73666005555556,26.04703402777778],[-79.73694413888889,26.046812222222226],[-79.73730313888889,26.046585722222225],[-79.7381116388889,26.046331083333335],[-79.73856113888888,26.04630291666667],[-79.73902102777778,26.046410083333335],[-79.73964116666667,26.046643222222222],[-79.74003652777778,26.046890444444447],[-79.74060252777778,26.047398972222222]]},"properties":{"style":"solid","thickness":1}},{"type":"Feature","geometry":{"type":"LineString","coordinates":[[-79.71963519444445,26.0557155],[-79.72010547222223,26.055958083333334],[-79.72064033333334,26.05606063888889],[-79.72243847222222,26.055948194444444],[-79.72310241666666,26.055770666666668],[-79.723322,26.055688916666668],[-79.72439913888888,26.055009555555557],[-79.72502155555556,26.05429061111111],[-79.72519441666667,26.053599805555557],[-79.72562547222222,26.052348861111113],[-79.72550611111112,26.050792333333334],[-79.72529916666667,26.050057305555555],[-79.72502772222222,26.049462277777778],[-79.7246761388889,26.04880427777778],[-79.72386988888888,26.048106722222222],[-79.72239455555555,26.047519027777778],[-79.72140505555556,26.047376916666668],[-79.72058097222222,26.047428472222222],[-79.71954766666667,26.047697083333336],[-79.7191886388889,26.04792352777778],[-79.71889933333334,26.04807761111111]]},"properties":{"style":"solid","thickness":1}},{"type":"Feature","geometry":{"type":"LineString","coordinates":[[-79.71611797222222,26.05205941666667],[-79.71147286111112,26.052349694444445]]},"properties":{"style":"solid","thickness":1}},{"type":"Feature","geometry":{"type":"LineString","coordinates":[[-79.69475741666668,26.052305],[-79.69491258333333,26.05433525],[-79.69522527777778,26.055471722222222],[-79.69541650000001,26.05600377777778],[-79.69567230555556,26.056395833333333],[-79.6966335,26.057151861111112],[-79.69755847222223,26.057434166666667],[-79.69785816666668,26.057415472222225],[-79.69873138888889,26.057021000000002],[-79.69949347222223,26.056157472222225],[-79.69976211111111,26.055732722222224],[-79.69987055555556,26.055181972222222],[-79.70000733333333,26.054017472222224],[-79.69985208333334,26.051987222222223],[-79.69953936111112,26.050850750000002],[-79.69934811111112,26.050318694444446],[-79.69901738888889,26.049931333333333],[-79.69813116666667,26.04917066666667],[-79.69720627777778,26.048888361111114],[-79.69690658333333,26.048907055555556],[-79.69603341666667,26.049301500000002],[-79.69519644444445,26.05016966666667],[-79.69500272222223,26.05058975],[-79.69489425,26.051140500000002],[-79.69475741666668,26.052305]]},"properties":{"style":"solid","thickness":1}},{"type":"Feature","geometry":{"type":"LineString","coordinates":[[-79.67872133333334,26.05425602777778],[-79.68007786111112,26.051315666666667],[-79.68154791666667,26.049864194444446],[-79.68312125,26.049766222222225],[-79.684723,26.051026416666666],[-79.6848315,26.052447611111113],[-79.68117825,26.055871],[-79.68127638888889,26.057156833333334],[-79.68250355555556,26.05844038888889],[-79.68340269444445,26.05838438888889],[-79.68449816666667,26.056956222222222],[-79.68440000000001,26.055670361111112],[-79.67742727777778,26.05012072222222]]},"properties":{"style":"solid","thickness":1}},{"type":"Feature","geometry":{"type":"LineString","coordinates":[[-79.66316725,26.05957513888889],[-79.66661391666668,26.059360916666666],[-79.66723458333334,26.05565052777778],[-79.66658088888889,26.055963138888888],[-79.66600725,26.05633877777778],[-79.66465861111112,26.056422611111113],[-79.66397397222222,26.056329166666668],[-79.66326869444445,26.055965],[-79.66244730555556,26.055064083333335],[-79.66223561111111,26.05426127777778],[-79.66215830555556,26.05324613888889],[-79.6625511388889,26.05247375],[-79.66301891666667,26.05169672222222],[-79.66322822222223,26.051479722222222],[-79.663652,26.051113416666666],[-79.66439088888889,26.0509315],[-79.66521505555556,26.05088027777778],[-79.66582472222223,26.050978361111113],[-79.66659458333334,26.051202500000002],[-79.6673101388889,26.051702000000002],[-79.66740052777779,26.051900361111112]]},"properties":{"style":"solid","thickness":1}},{"type":"Feature","geometry":{"type":"LineString","coordinates":[[-79.65399905555556,26.054840777777777],[-79.65415352777778,26.056871083333334],[-79.65446583333333,26.05800763888889],[-79.6546568888889,26.05853975],[-79.65491255555555,26.058931861111112],[-79.65587350000001,26.05968813888889],[-79.65679838888889,26.05997072222222],[-79.65709811111111,26.059952111111112],[-79.65797147222223,26.05955788888889],[-79.65873386111112,26.058694583333335],[-79.65900266666667,26.058269916666667],[-79.65911130555556,26.057719194444445],[-79.6592485,26.056554722222224],[-79.65909394444445,26.054524444444446],[-79.65878158333334,26.05338788888889],[-79.65859052777779,26.05285577777778],[-79.65825991666667,26.052468333333334],[-79.65737394444444,26.05170738888889],[-79.65644911111112,26.051424833333336],[-79.65614944444445,26.051443444444445],[-79.65527611111112,26.051837666666668],[-79.65443883333334,26.052705583333335],[-79.65424494444446,26.053125611111113],[-79.65413627777778,26.053676333333335],[-79.65399905555556,26.054840777777777]]},"properties":{"style":"solid","thickness":1}},{"type":"Feature","geometry":{"type":"LineString","coordinates":[[-79.65093455555557,26.056118916666666],[-79.64628913888889,26.056407111111113]]},"properties":{"style":"solid","thickness":1}},{"type":"Feature","geometry":{"type":"LineString","coordinates":[[-79.64346625,26.06086588888889],[-79.63769669444446,26.061223472222224],[-79.64108986111111,26.05237772222222]]},"properties":{"style":"solid","thickness":1}},{"type":"Feature","geometry":{"type":"LineString","coordinates":[[-79.62912366666666,26.05638275],[-79.62927772222221,26.058413083333335],[-79.62958980555555,26.05954966666667],[-79.62978075,26.060081833333335],[-79.63003633333332,26.060473972222223],[-79.63099713888889,26.061230444444444],[-79.63192197222222,26.06151313888889],[-79.63222169444444,26.061494583333335],[-79.63309516666666,26.06110052777778],[-79.63385772222223,26.060237361111113],[-79.63412661111111,26.059812722222222],[-79.63423536111112,26.059262027777777],[-79.63437280555556,26.058097583333335],[-79.63421866666667,26.056067277777778],[-79.63390655555557,26.054930694444444],[-79.63371561111111,26.054398555555558],[-79.63338508333334,26.05401102777778],[-79.63249925,26.053249944444445],[-79.63157447222221,26.052967250000002],[-79.63127477777778,26.052985805555558],[-79.6304013611111,26.05337986111111],[-79.62956388888888,26.05424763888889],[-79.62936991666666,26.05466763888889],[-79.62926116666667,26.055218333333332],[-79.62912366666666,26.05638275]]},"properties":{"style":"solid","thickness":1}},{"type":"Feature","geometry":{"type":"LineString","coordinates":[[-80.05897072222221,26.061225333333333],[-80.06241672222222,26.061001805555556],[-80.06302508333333,26.057289694444446],[-80.06237238888889,26.057604083333334],[-80.06180002777778,26.057981277777778],[-80.0604516111111,26.05806875],[-80.05976663888889,26.057977166666667],[-80.05906016666667,26.05761491666667],[-80.05823575,26.056716222222224],[-80.05802138888889,26.055914],[-80.05794069444444,26.054899055555556],[-80.058331,26.05412561111111],[-80.05879619444444,26.053347305555555],[-80.05900477777777,26.05312975],[-80.05942733333333,26.052762277777777],[-80.06016563888889,26.052578361111113],[-80.06098963888888,26.05252488888889],[-80.06159966666667,26.052621333333335],[-80.06237027777777,26.05284338888889],[-80.0630875,26.053340944444447],[-80.06317855555555,26.053539083333334]]},"properties":{"style":"solid","thickness":1}},{"type":"Feature","geometry":{"type":"LineString","coordinates":[[-80.0497866111111,26.056515833333336],[-80.04994783333333,26.05854575],[-80.05026391666667,26.059681444444447],[-80.05045675,26.060213027777777],[-80.05071375,26.060604444444444],[-80.05167719444444,26.06135816666667],[-80.05260305555555,26.061638194444445],[-80.05290269444444,26.061618777777777],[-80.05377477777778,26.061222194444444],[-80.05453430555555,26.060356833333334],[-80.05480169444444,26.059931416666668],[-80.05490852777777,26.05938038888889],[-80.05504183333333,26.058215555555556],[-80.05488052777777,26.056185666666668],[-80.05456438888889,26.05504997222222],[-80.05437155555555,26.05451838888889],[-80.05403966666667,26.054131833333333],[-80.0531511388889,26.053373305555557],[-80.05222536111111,26.05309325],[-80.05192572222222,26.053112666666667],[-80.05105369444445,26.05350925],[-80.05021927777777,26.054379444444447],[-80.05002680555555,26.0548],[-80.04991997222223,26.055351],[-80.0497866111111,26.056515833333336]]},"properties":{"style":"solid","thickness":1}},{"type":"Feature","geometry":{"type":"LineString","coordinates":[[-80.20134300000001,26.05546025],[-80.20137577777778,26.055866194444445],[-80.20126419444445,26.056349666666666],[-80.20101369444444,26.056978305555557],[-80.20074683333334,26.05740397222222],[-80.20031925,26.057704194444444],[-80.19973091666667,26.057878972222223],[-80.19860733333334,26.057952944444445],[-80.19777244444445,26.057871861111114],[-80.19738155555557,26.05769352777778],[-80.196819,26.057254416666666],[-80.19664191666666,26.056926],[-80.19644844444444,26.056394583333333],[-80.19636111111112,26.055312083333334],[-80.19647819444445,26.05489627777778],[-80.19703769444445,26.053431083333333],[-80.1978601388889,26.052424722222224],[-80.19917955555556,26.051045527777777],[-80.20076580555556,26.04924066666667],[-80.19604705555555,26.04955127777778]]},"properties":{"style":"solid","thickness":1}},{"type":"Feature","geometry":{"type":"LineString","coordinates":[[-80.18849497222223,26.058618194444445],[-80.19194069444445,26.058391611111112],[-80.19254497222222,26.054678944444444],[-80.19189266666667,26.054993916666668],[-80.19132069444444,26.055371611111113],[-80.18997241666668,26.055460305555556],[-80.18928736111111,26.055369305555555],[-80.1885805,26.055007694444445],[-80.18775511111112,26.054109750000002],[-80.18753988888889,26.053307694444445],[-80.18745811111111,26.052292805555556],[-80.18784755555556,26.05151902777778],[-80.18831188888889,26.050740305555557],[-80.18852022222222,26.050522555555556],[-80.18894236111112,26.050154722222224],[-80.18968047222222,26.04997013888889],[-80.1905043888889,26.049915944444447],[-80.1911145,26.050011861111113],[-80.19188533333333,26.05023322222222],[-80.19260308333334,26.05073013888889],[-80.19269436111111,26.050928194444445]]},"properties":{"style":"solid","thickness":1}},{"type":"Feature","geometry":{"type":"LineString","coordinates":[[-79.81338227777778,25.89391625],[-79.80911766666667,25.894186]]},"properties":{"style":"solid","thickness":1}},{"type":"Feature","geometry":{"type":"LineString","coordinates":[[-79.80922799999999,25.898531277777778],[-79.81371722222222,25.898247333333334],[-79.81305258333333,25.889652833333333]]},"properties":{"style":"solid","thickness":1}},{"type":"Feature","geometry":{"type":"LineString","coordinates":[[-80.05781938888889,25.883641722222222],[-80.05355575,25.883918666666666]]},"properties":{"style":"solid","thickness":1}},{"type":"Feature","geometry":{"type":"LineString","coordinates":[[-80.05367505555556,25.88826375],[-80.05816324999999,25.887972194444444],[-80.05748094444444,25.87937888888889]]},"properties":{"style":"solid","thickness":1}},{"type":"Feature","geometry":{"type":"LineString","coordinates":[[-80.07939702777777,25.993837250000002],[-80.07512938888888,25.994114777777778]]},"properties":{"style":"solid","thickness":1}},{"type":"Feature","geometry":{"type":"LineString","coordinates":[[-80.07524947222223,25.998459805555555],[-80.07974188888889,25.998167694444444],[-80.07905758333332,25.9895745]]},"properties":{"style":"solid","thickness":1}},{"type":"Feature","geometry":{"type":"LineString","coordinates":[[-79.70594077777778,25.996439583333334],[-79.70167227777777,25.99670613888889]]},"properties":{"style":"solid","thickness":1}},{"type":"Feature","geometry":{"type":"LineString","coordinates":[[-79.70177875,26.00105138888889],[-79.70627205555556,26.000770777777777],[-79.70561466666668,25.992176027777777]]},"properties":{"style":"solid","thickness":1}},{"type":"Feature","geometry":{"type":"LineString","coordinates":[[-79.73289497222223,26.050941833333333],[-79.72862452777778,26.051209194444446]]},"properties":{"style":"solid","thickness":1}},{"type":"Feature","geometry":{"type":"LineString","coordinates":[[-79.72873202777778,26.055554416666666],[-79.73322738888889,26.055273],[-79.73256777777777,26.046678333333336]]},"properties":{"style":"solid","thickness":1}},{"type":"Feature","geometry":{"type":"LineString","coordinates":[[-79.70811730555556,26.054735222222224],[-79.70808380555556,26.055281305555557],[-79.70795986111112,26.055629055555556],[-79.70748202777779,26.056270861111113],[-79.70705319444444,26.056569638888888],[-79.70662436111111,26.056868416666667],[-79.7059603888889,26.057045861111114],[-79.70558577777778,26.05706925],[-79.70475125,26.056985333333333],[-79.70404069444444,26.056553722222223],[-79.70355488888889,26.056108055555555],[-79.70344891666667,26.055706666666666],[-79.70334536111112,26.05435316666667],[-79.703614,26.05392841666667],[-79.70410222222222,26.053421944444445],[-79.70473508333333,26.052838444444443],[-79.70525955555556,26.052805722222224]]},"properties":{"style":"solid","thickness":1}},{"type":"Feature","geometry":{"type":"LineString","coordinates":[[-79.70473508333333,26.052838444444443],[-79.70379977777777,26.052420833333333],[-79.7034793888889,26.052168861111113],[-79.70306855555556,26.0517185],[-79.70297808333333,26.05152013888889],[-79.70285658333334,26.05091575],[-79.70284105555555,26.050712722222222],[-79.70287455555555,26.05016663888889],[-79.70299333333334,26.04975125],[-79.70333169444444,26.04925413888889],[-79.70375533333333,26.048887694444446],[-79.70447347222222,26.04843488888889],[-79.70619661111111,26.048327305555556],[-79.70673658333334,26.048497583333337],[-79.70760211111111,26.04898752777778],[-79.70776230555556,26.04911352777778],[-79.70803886111112,26.049776222222224],[-79.70805958333334,26.050046944444446]]},"properties":{"style":"solid","thickness":1}}]}
