{"type":"FeatureCollection","features":[{"type":"Feature","geometry":{"type":"LineString","coordinates":[[-80.76834613888889,25.570113527777778],[-80.75142238888888,25.571241055555554]]},"properties":{"style":"solid","thickness":1}},{"type":"Feature","geometry":{"type":"LineString","coordinates":[[-80.33134380555555,25.68727211111111],[-80.31439933333333,25.68834916666667]]},"properties":{"style":"solid","thickness":1}},{"type":"Feature","geometry":{"type":"LineString","coordinates":[[-80.01692877777778,25.620604888888888],[-79.99999102777778,25.621645611111113]]},"properties":{"style":"solid","thickness":1}},{"type":"Feature","geometry":{"type":"LineString","coordinates":[[-80.291372,25.794558000000002],[-80.291372,25.794558000000002],[-80.42107800000001,25.718338999999997]]},"properties":{"style":"solid","thickness":1}},{"type":"Feature","geometry":{"type":"LineString","coordinates":[[-80.42107800000001,25.718338999999997],[-80.42107800000001,25.718338999999997],[-80.406631,25.651006]]},"properties":{"style":"solid","thickness":1}},{"type":"Feature","geometry":{"type":"LineString","coordinates":[[-80.406631,25.651006],[-80.406631,25.651006],[-80.258889,25.619444]]},"properties":{"style":"solid","thickness":1}},{"type":"Feature","geometry":{"type":"LineString","coordinates":[[-80.258889,25.619444],[-80.258889,25.619444],[-80.266486,25.671631]]},"properties":{"style":"solid","thickness":1}},{"type":"Feature","geometry":{"type":"LineString","coordinates":[[-80.266486,25.671631],[-80.266486,25.671631],[-80.278203,25.731091999999997]]},"properties":{"style":"solid","thickness":1}},{"type":"Feature","geometry":{"type":"LineString","coordinates":[[-80.278203,25.731091999999997],[-80.278203,25.731091999999997],[-80.291372,25.794558000000002]]},"properties":{"style":"solid","thickness":1}},{"type":"Feature","geometry":{"type":"LineString","coordinates":[[-80.291372,25.794558000000002],[-80.291372,25.794558000000002],[-79.65414475,25.822800861111112]]},"properties":{"style":"solid","thickness":1}},{"type":"Feature","geometry":{"type":"LineString","coordinates":[[-79.65414475,25.822800861111112],[-79.65414475,25.822800861111112],[-79.70007538888889,25.750431638888887]]},"properties":{"style":"solid","thickness":1}},{"type":"Feature","geometry":{"type":"LineString","coordinates":[[-79.70007538888889,25.750431638888887],[-79.70007538888889,25.750431638888887],[-79.70007538888889,25.46784713888889]]},"properties":{"style":"solid","thickness":1}},{"type":"Feature","geometry":{"type":"LineString","coordinates":[[-79.70007538888889,25.46735483333333],[-79.70007538888889,25.46735483333333],[-79.8389608611111,25.375293333333335]]},"properties":{"style":"solid","thickness":1}},{"type":"Feature","geometry":{"type":"LineString","coordinates":[[-79.8389608611111,25.375293333333335],[-79.8389608611111,25.375293333333335],[-80.04400833333334,25.54612402777778]]},"properties":{"style":"solid","thickness":1}},{"type":"Feature","geometry":{"type":"LineString","coordinates":[[-80.04400833333334,25.545139416666668],[-80.04400833333334,25.545139416666668],[-80.258889,25.619444]]},"properties":{"style":"solid","thickness":1}},{"type":"Feature","geometry":{"type":"LineString","coordinates":[[-80.406631,25.651006],[-80.406631,25.651006],[-80.59462913888889,25.581077861111112]]},"properties":{"style":"solid","thickness":1}},{"type":"Feature","geometry":{"type":"LineString","coordinates":[[-80.59462913888889,25.581077861111112],[-80.59462913888889,25.581077861111112],[-80.75374597222222,25.462924083333334]]},"properties":{"style":"solid","thickness":1}},{"type":"Feature","geometry":{"type":"LineString","coordinates":[[-80.75319919444445,25.461939444444443],[-80.75319919444445,25.461939444444443],[-80.87513408333332,25.63670861111111]]},"properties":{"style":"solid","thickness":1}},{"type":"Feature","geometry":{"type":"LineString","coordinates":[[-80.87513408333332,25.63670861111111],[-80.87513408333332,25.63670861111111],[-80.89099108333335,25.765693194444445]]},"properties":{"style":"solid","thickness":1}},{"type":"Feature","geometry":{"type":"LineString","coordinates":[[-80.89099108333335,25.765693194444445],[-80.89099108333335,25.765693194444445],[-80.60884577777777,25.779970111111112]]},"properties":{"style":"solid","thickness":1}},{"type":"Feature","geometry":{"type":"LineString","coordinates":[[-80.60945233333332,25.779917527777776],[-80.60945233333332,25.779917527777776],[-80.29148794444444,25.79442313888889]]},"properties":{"style":"solid","thickness":1}},{"type":"Feature","geometry":{"type":"LineString","coordinates":[[-80.2932391388889,25.79690666666667],[-80.29438566666667,25.797944583333337]]},"properties":{"style":"solid","thickness":1}},{"type":"Feature","geometry":{"type":"LineString","coordinates":[[-80.29283783333334,25.797062333333336],[-80.29421369444444,25.798307833333336]]},"properties":{"style":"solid","thickness":1}},{"type":"Feature","geometry":{"type":"LineString","coordinates":[[-80.29255119444444,25.797321833333335],[-80.29392705555556,25.798567333333335]]},"properties":{"style":"solid","thickness":1}},{"type":"Feature","geometry":{"type":"LineString","coordinates":[[-80.29237922222222,25.797685083333334],[-80.29352575,25.79872302777778]]},"properties":{"style":"solid","thickness":1}},{"type":"Feature","geometry":{"type":"LineString","coordinates":[[-80.29266583333333,25.79846352777778],[-80.29275158333333,25.798533083333336],[-80.2928508611111,25.79859702777778],[-80.2929635,25.79865266666667],[-80.29308844444444,25.798697166666667],[-80.29322377777778,25.798727805555558],[-80.29336666666667,25.79874213888889],[-80.29351341666667,25.798738472222222],[-80.29365983333334,25.79871602777778],[-80.29380155555555,25.798675111111113],[-80.29393441666666,25.798617055555557],[-80.29405494444444,25.798544250000003],[-80.29416058333334,25.798459694444446],[-80.29424983333332,25.79836666666667],[-80.29432222222222,25.798268500000002],[-80.29437816666666,25.79816827777778],[-80.29441874999999,25.798068555555556],[-80.29444616666666,25.797968750000003],[-80.294462,25.797861416666667],[-80.29446405555555,25.797747194444447],[-80.29444997222222,25.797628055555556],[-80.29441788888889,25.797506694444447],[-80.29436666666666,25.797386361111112],[-80.29429608333334,25.797270722222223],[-80.2942071111111,25.797163555555557],[-80.29410188888889,25.79706827777778],[-80.29398347222222,25.796987750000003],[-80.29385574999999,25.796923861111114],[-80.29372283333333,25.796877472222224],[-80.29358877777777,25.796848444444446],[-80.29345716666667,25.796835694444447],[-80.293331,25.79683755555556],[-80.29321241666666,25.79685188888889],[-80.29310216666667,25.796876694444446],[-80.29299202777777,25.796913472222222],[-80.29288130555555,25.796964111111112],[-80.2927728611111,25.797029611111114],[-80.29267011111111,25.79711041666667],[-80.29257666666666,25.797206055555556],[-80.29249625,25.797315166666667],[-80.29243213888888,25.797435444444446],[-80.29238691666666,25.797563722222225],[-80.29236213888889,25.797696277777778],[-80.29235808333333,25.797829111111113],[-80.29237394444445,25.797958444444447],[-80.29240775,25.798080972222223],[-80.29245691666667,25.798194083333335],[-80.2925183888889,25.79829602777778],[-80.29258899999999,25.798385916666668],[-80.29266583333333,25.79846352777778]]},"properties":{"style":"solid","thickness":1}},{"type":"Feature","geometry":{"type":"LineString","coordinates":[[-80.76984977777778,25.58047363888889],[-80.76873475,25.58058738888889],[-80.76769816666666,25.572227694444443]]},"properties":{"style":"solid","thickness":1}},{"type":"Feature","geometry":{"type":"LineString","coordinates":[[-80.76100377777777,25.581375722222223],[-80.76191913888889,25.58025836111111],[-80.76269416666666,25.579223555555554],[-80.76332888888889,25.57827136111111],[-80.76370802777778,25.57768652777778],[-80.76399613888888,25.576974472222222],[-80.76406122222222,25.57628513888889],[-80.7640603611111,25.575670805555557],[-80.76390991666666,25.574457305555555],[-80.76362844444445,25.574008111111112],[-80.76328097222222,25.573633916666665],[-80.76292513888889,25.573192333333335],[-80.76129733333333,25.57281213888889],[-80.76040536111111,25.572903083333333],[-80.75949752777778,25.5734735],[-80.75936558333333,25.5736235],[-80.75883775,25.574223444444446],[-80.7587801388889,25.57436586111111],[-80.75859975,25.575340027777777],[-80.75868330555555,25.576014194444443],[-80.75889044444445,25.57647097222222],[-80.75908922222222,25.576860305555556],[-80.75944505555556,25.577301916666666],[-80.76009822222223,25.577713222222222],[-80.76072630555555,25.577922277777777],[-80.76110633333333,25.577951805555557],[-80.76162666666667,25.57789875],[-80.76199,25.577793444444445],[-80.76318683333334,25.577125249999998],[-80.76406958333334,25.576352555555555]]},"properties":{"style":"solid","thickness":1}},{"type":"Feature","geometry":{"type":"LineString","coordinates":[[-80.75054830555555,25.5771845],[-80.75079880555556,25.579207055555557],[-80.75116375,25.580330444444446],[-80.75137922222223,25.580854638888887],[-80.75165233333334,25.581236416666666],[-80.75264461111111,25.581954555555555],[-80.75357841666667,25.58220075],[-80.75387577777778,25.582170444444444],[-80.75472605555555,25.58174247222222],[-80.75544352777777,25.580850138888888],[-80.75569075,25.580415333333335],[-80.75577261111111,25.579860833333335],[-80.7558536111111,25.578692],[-80.75560302777778,25.57666947222222],[-80.75523805555555,25.575546111111112],[-80.75502255555556,25.575021916666667],[-80.75467511111111,25.574647694444444],[-80.75375725,25.573922],[-80.7528235,25.573675805555556],[-80.75252616666667,25.57370611111111],[-80.75167591666667,25.574134083333334],[-80.75088413888889,25.575033972222222],[-80.75071122222222,25.575461194444443],[-80.75062936111111,25.576015694444443],[-80.75054830555555,25.5771845]]},"properties":{"style":"solid","thickness":1}},{"type":"Feature","geometry":{"type":"LineString","coordinates":[[-80.76440241666667,25.563417944444446],[-80.76224697222223,25.56363775],[-80.76099841666667,25.56267275],[-80.76079963888888,25.56228338888889],[-80.76060922222223,25.561961472222222],[-80.76050897222223,25.561152444444446],[-80.76073108333334,25.560515388888888],[-80.76110183333333,25.559863166666666],[-80.76151436111111,25.55954802777778],[-80.76178658333333,25.559315444444444],[-80.76235611111112,25.559052555555557],[-80.76369391666667,25.55891613888889],[-80.76431355555556,25.55905775],[-80.76480127777778,25.559349361111114],[-80.76523138888889,25.55978338888889],[-80.76552122222222,25.5603],[-80.76565402777777,25.560764333333335],[-80.7657376111111,25.5614385],[-80.76570508333333,25.561783166666668],[-80.76553225,25.562210416666666],[-80.76526,25.56244297222222],[-80.76440241666667,25.563417944444446],[-80.76513819444445,25.563889055555556],[-80.76557669444445,25.564390500000002],[-80.76576713888889,25.564712416666666],[-80.76590083333333,25.56579111111111],[-80.7656295,25.566638],[-80.76543158333334,25.566863],[-80.76479608333334,25.567200888888888],[-80.76437516666667,25.56744861111111],[-80.76340891666666,25.567547166666667],[-80.7627148888889,25.56741311111111],[-80.76165672222223,25.566770055555555],[-80.76146627777777,25.56644811111111],[-80.76131588888889,25.565234611111112],[-80.76145533333333,25.564537694444446],[-80.76152130555556,25.564462694444444],[-80.7618595,25.56415513888889],[-80.76224697222223,25.56363775]]},"properties":{"style":"solid","thickness":1}},{"type":"Feature","geometry":{"type":"LineString","coordinates":[[-80.75257458333333,25.563326555555555],[-80.75282508333333,25.56534911111111],[-80.75319,25.566472472222223],[-80.75340547222223,25.566996666666668],[-80.75367855555555,25.567378472222224],[-80.75467072222222,25.568096583333332],[-80.75560441666667,25.568342777777776],[-80.75590175,25.56831247222222],[-80.75675191666667,25.56788447222222],[-80.75746930555556,25.566992111111112],[-80.7577165,25.566557305555556],[-80.75779833333333,25.566002805555556],[-80.75787930555556,25.564834],[-80.75762872222222,25.562811472222222],[-80.75726375,25.561688083333333],[-80.75704827777778,25.56116388888889],[-80.75670088888889,25.560789694444445],[-80.75578308333333,25.560064],[-80.75484944444445,25.559817833333334],[-80.75455216666667,25.55984813888889],[-80.75370202777778,25.56027611111111],[-80.75291033333333,25.56117602777778],[-80.75273744444445,25.56160325],[-80.75265561111111,25.562157722222224],[-80.75257458333333,25.563326555555555]]},"properties":{"style":"solid","thickness":1}},{"type":"Feature","geometry":{"type":"LineString","coordinates":[[-80.33281130555555,25.69763661111111],[-80.33169477777777,25.69774702777778],[-80.3306875,25.689384333333333]]},"properties":{"style":"solid","thickness":1}},{"type":"Feature","geometry":{"type":"LineString","coordinates":[[-80.32395336111111,25.698512277777777],[-80.32487366666666,25.697397666666667],[-80.32565322222221,25.696365194444446],[-80.32629202777777,25.695414888888887],[-80.32667366666666,25.694831222222223],[-80.32696463888888,25.694120027777778],[-80.32703227777777,25.69343088888889],[-80.32703363888889,25.692816555555556],[-80.32688747222223,25.69160261111111],[-80.32660733333333,25.691152583333334],[-80.32626086111111,25.69077738888889],[-80.32590630555555,25.69033472222222],[-80.32427827777778,25.689949666666667],[-80.32338508333333,25.690037944444445],[-80.32247430555555,25.690605666666666],[-80.32234166666666,25.69075527777778],[-80.32181116666666,25.691353638888888],[-80.32175294444444,25.691495888888888],[-80.3215688611111,25.69246947222222],[-80.32165005555555,25.69314388888889],[-80.32185575,25.693601277777777],[-80.32205330555556,25.693991222222223],[-80.32240788888889,25.694433888888888],[-80.32306019444444,25.69484713888889],[-80.32368813888888,25.695058055555556],[-80.32406844444444,25.695088722222224],[-80.32458947222221,25.695037222222222],[-80.32495352777778,25.694933],[-80.32615397222222,25.69426838888889],[-80.32704041666666,25.693498333333334]]},"properties":{"style":"solid","thickness":1}},{"type":"Feature","geometry":{"type":"LineString","coordinates":[[-80.31350283333333,25.694289944444446],[-80.31374622222222,25.696313222222223],[-80.31410747222222,25.697437666666666],[-80.31432124999999,25.6979625],[-80.31459325,25.698345111111113],[-80.31558386111111,25.699066194444445],[-80.31651769444444,25.69931516666667],[-80.31681547222222,25.69928575],[-80.31766813888889,25.698860305555556],[-80.31838955555556,25.697970138888888],[-80.31863861111111,25.697536055555556],[-80.31872255555555,25.696981833333332],[-80.31880788888888,25.69581325],[-80.31856438888889,25.69379],[-80.3182031111111,25.692665555555557],[-80.31798933333333,25.692140722222224],[-80.31764288888888,25.691765472222222],[-80.31672675,25.691037055555555],[-80.31579297222223,25.690788083333334],[-80.31549525,25.69081747222222],[-80.31464263888888,25.691242916666667],[-80.31384677777777,25.692140444444444],[-80.31367216666666,25.69256713888889],[-80.31358819444443,25.69312138888889],[-80.31350283333333,25.694289944444446]]},"properties":{"style":"solid","thickness":1}},{"type":"Feature","geometry":{"type":"LineString","coordinates":[[-80.32352330555555,25.678220305555556],[-80.32873302777777,25.677705305555556],[-80.32514574999999,25.68481611111111],[-80.32413902777778,25.67645336111111]]},"properties":{"style":"solid","thickness":1}},{"type":"Feature","geometry":{"type":"LineString","coordinates":[[-80.31550694444444,25.680445555555558],[-80.31575033333333,25.68246880555556],[-80.31611155555555,25.683593277777778],[-80.31632533333332,25.68411811111111],[-80.31659730555555,25.684500694444445],[-80.31758783333333,25.685221777777777],[-80.31852155555555,25.68547075],[-80.31881927777778,25.685441333333333],[-80.31967183333333,25.68501586111111],[-80.32039316666666,25.684125666666667],[-80.32064219444445,25.683691583333335],[-80.32072611111111,25.68313736111111],[-80.32081141666666,25.68196877777778],[-80.32056791666666,25.67994552777778],[-80.32020666666666,25.678821083333336],[-80.31999288888889,25.678296250000002],[-80.31964649999999,25.677921],[-80.31873044444444,25.677192611111114],[-80.31779677777777,25.67694363888889],[-80.31749908333333,25.676973055555557],[-80.31664655555555,25.677398500000002],[-80.31585083333333,25.67829602777778],[-80.31567622222222,25.678722722222222],[-80.31559227777778,25.679276972222222],[-80.31550694444444,25.680445555555558]]},"properties":{"style":"solid","thickness":1}},{"type":"Feature","geometry":{"type":"LineString","coordinates":[[-80.01814513888888,25.630994194444444],[-80.01702894444445,25.631102194444445],[-80.01604411111111,25.622737305555557]]},"properties":{"style":"solid","thickness":1}},{"type":"Feature","geometry":{"type":"LineString","coordinates":[[-80.00748805555556,25.62677161111111],[-80.00772616666667,25.628795416666666],[-80.00808436111112,25.62992061111111],[-80.00829669444444,25.630445916666666],[-80.00856755555556,25.630829083333335],[-80.00955577777778,25.631552222222222],[-80.01048844444445,25.631803166666668],[-80.01078611111112,25.631774361111113],[-80.0116393888889,25.631350694444446],[-80.01236263888889,25.630462027777778],[-80.01261266666667,25.63002847222222],[-80.01269797222223,25.629474416666667],[-80.01278622222222,25.628306000000002],[-80.01254802777778,25.62628225],[-80.01218980555555,25.625157027777778],[-80.01197747222223,25.62463175],[-80.01163219444445,25.62425577777778],[-80.01071841666666,25.623525444444446],[-80.00978583333334,25.623274527777777],[-80.00948819444444,25.623303305555556],[-80.00863497222223,25.623726944444446],[-80.00783727777778,25.624622833333333],[-80.00766169444445,25.625049166666667],[-80.0075763611111,25.62560322222222],[-80.00748805555556,25.62677161111111]]},"properties":{"style":"solid","thickness":1}},{"type":"Feature","geometry":{"type":"LineString","coordinates":[[-79.99930272222223,25.627562916666665],[-79.99954072222222,25.629586694444445],[-79.99989883333333,25.630711944444446],[-80.00011111111111,25.63123722222222],[-80.00038197222223,25.631620416666667],[-80.00137013888889,25.63234363888889],[-80.00230280555556,25.632594611111113],[-80.00260047222223,25.632565833333334],[-80.00345377777778,25.63214222222222],[-80.0041771111111,25.631253583333333],[-80.00442716666667,25.630820055555557],[-80.0045125,25.630265972222222],[-80.00460083333333,25.629097583333333],[-80.00436277777777,25.627073805555558],[-80.00400463888889,25.625948583333333],[-80.00379233333334,25.625423277777777],[-80.00344708333333,25.625047305555555],[-80.00253333333333,25.624316916666668],[-80.00160075,25.624065944444446],[-80.00130311111111,25.624094694444445],[-80.00044986111111,25.624518305555554],[-79.99965211111112,25.62541413888889],[-79.99947647222223,25.625840472222222],[-79.99939111111111,25.626394527777776],[-79.99930272222223,25.627562916666665]]},"properties":{"style":"solid","thickness":1}},{"type":"Feature","geometry":{"type":"LineString","coordinates":[[-80.00913633333333,25.611536305555557],[-80.01434444444445,25.611032444444447],[-80.01074061111112,25.61813561111111],[-80.00975630555556,25.60977066666667]]},"properties":{"style":"solid","thickness":1}},{"type":"Feature","geometry":{"type":"LineString","coordinates":[[-80.00111863888888,25.613744333333333],[-80.0013566388889,25.61576813888889],[-80.00171469444444,25.61689336111111],[-80.001927,25.617418666666666],[-80.00219780555555,25.617801833333335],[-80.0031858888889,25.618525055555555],[-80.00411844444444,25.618776027777777],[-80.00441608333334,25.618747250000002],[-80.00526927777777,25.618323611111112],[-80.00599252777778,25.617434944444444],[-80.00624252777777,25.617001416666668],[-80.00632786111112,25.616447361111113],[-80.0064161388889,25.615278944444444],[-80.00617808333334,25.61325516666667],[-80.00581997222223,25.612129944444447],[-80.00560769444445,25.61160466666667],[-80.00526247222223,25.611228694444446],[-80.00434883333334,25.610498305555556],[-80.00341633333333,25.610247333333334],[-80.00311872222223,25.610276111111112],[-80.00226558333334,25.610699722222222],[-80.00146794444444,25.611595555555557],[-80.00129233333334,25.61202188888889],[-80.001207,25.612575944444448],[-80.00111863888888,25.613744333333333]]},"properties":{"style":"solid","thickness":1}}]}
