{"type":"FeatureCollection","features":[{"type":"Feature","geometry":{"type":"LineString","coordinates":[[-79.98404944444445,25.992470722222222],[-79.95850366666667,25.994028472222222]]},"properties":{"style":"solid","thickness":1}},{"type":"Feature","geometry":{"type":"LineString","coordinates":[[-79.98402605555556,26.00148311111111],[-79.95996886111111,26.00295008333333]]},"properties":{"style":"solid","thickness":1}},{"type":"Feature","geometry":{"type":"LineString","coordinates":[[-79.94806561111112,25.98765577777778],[-79.88769825,25.987568361111112]]},"properties":{"style":"solid","thickness":1}},{"type":"Feature","geometry":{"type":"LineString","coordinates":[[-79.87909011111111,25.987529527777777],[-79.81304316666666,25.987025305555555]]},"properties":{"style":"solid","thickness":1}},{"type":"Feature","geometry":{"type":"LineString","coordinates":[[-79.80437877777777,25.987002055555557],[-79.718474,25.987178444444446]]},"properties":{"style":"solid","thickness":1}},{"type":"Feature","geometry":{"type":"LineString","coordinates":[[-79.62117808333333,25.858186500000002],[-79.5913996111111,25.85992988888889]]},"properties":{"style":"solid","thickness":1}},{"type":"Feature","geometry":{"type":"LineString","coordinates":[[-79.71272091666667,25.984943361111114],[-79.63280383333333,25.852949083333336]]},"properties":{"style":"solid","thickness":1}},{"type":"Feature","geometry":{"type":"LineString","coordinates":[[-80.00646291666666,25.984231805555556],[-80.01356211111111,25.987722416666667],[-80.00645572222223,25.99120141666667]]},"properties":{"style":"solid","thickness":1}},{"type":"Feature","geometry":{"type":"LineString","coordinates":[[-79.95673994444445,25.987666305555557],[-80.01356211111111,25.987722416666667]]},"properties":{"style":"solid","thickness":1}},{"type":"Feature","geometry":{"type":"LineString","coordinates":[[-80.29392066666666,25.797020916666668],[-80.29403380555556,25.79848516666667]]},"properties":{"style":"solid","thickness":1}},{"type":"Feature","geometry":{"type":"LineString","coordinates":[[-80.293505,25.796900083333334],[-80.29364072222222,25.798657194444445]]},"properties":{"style":"solid","thickness":1}},{"type":"Feature","geometry":{"type":"LineString","coordinates":[[-80.29310061111111,25.796925694444447],[-80.29323633333333,25.798682805555558]]},"properties":{"style":"solid","thickness":1}},{"type":"Feature","geometry":{"type":"LineString","coordinates":[[-80.29270755555555,25.797097722222222],[-80.29282063888888,25.798561972222224]]},"properties":{"style":"solid","thickness":1}},{"type":"Feature","geometry":{"type":"LineString","coordinates":[[-80.29235972222222,25.797855444444448],[-80.292374,25.797958861111113],[-80.29240261111111,25.798066083333335],[-80.29244730555556,25.798174972222224],[-80.29250933333333,25.798282750000002],[-80.29258927777778,25.79838625],[-80.29268672222221,25.798481916666667],[-80.2928001111111,25.798566305555557],[-80.29292688888889,25.798636333333334],[-80.2930635,25.79868961111111],[-80.29320583333333,25.798724722222225],[-80.29334958333334,25.798741361111112],[-80.29349061111111,25.798740277777778],[-80.29362538888888,25.798723055555556],[-80.2937511388889,25.798691972222223],[-80.293866,25.79864952777778],[-80.29396891666667,25.798598416666668],[-80.29406191666666,25.798539361111114],[-80.29415166666666,25.79846775],[-80.294236,25.798382750000002],[-80.29431172222222,25.798284472222225],[-80.29437547222221,25.798173833333333],[-80.29442399999999,25.798052611111114],[-80.29445452777777,25.79792341666667],[-80.29446505555555,25.797789694444447],[-80.29445466666667,25.79765530555556],[-80.29442369444445,25.797524194444446],[-80.29437358333332,25.797400111111113],[-80.29430688888888,25.79728616666667],[-80.29422674999999,25.79718463888889],[-80.29413666666666,25.79709686111111],[-80.29404008333333,25.797023333333335],[-80.29394019444445,25.796963722222223],[-80.29383899999999,25.796916972222224],[-80.29372925,25.796879305555557],[-80.293609,25.796851750000002],[-80.29347966666667,25.796836805555557],[-80.29334358333332,25.79683675],[-80.29320375,25.796853444444444],[-80.29306397222221,25.79688802777778],[-80.29292841666667,25.796940722222224],[-80.29280133333333,25.797010694444445],[-80.29268655555555,25.797096000000003],[-80.29258722222222,25.79719386111111],[-80.29250544444444,25.79730088888889],[-80.29244219444445,25.797413444444445],[-80.29239733333333,25.797528000000003],[-80.29236980555555,25.797641444444444],[-80.29235797222222,25.797751222222224],[-80.29235972222222,25.797855444444448]]},"properties":{"style":"solid","thickness":1}},{"type":"Feature","geometry":{"type":"LineString","coordinates":[[-79.98299977777778,26.01083088888889],[-79.98262752777778,26.005851944444444],[-79.98289219444445,26.004993916666667],[-79.9838955,26.00448697222222],[-79.98449558333333,26.004450305555554],[-79.98572891666667,26.004820694444444],[-79.98606066666667,26.00559277777778],[-79.98611966666667,26.006381527777776]]},"properties":{"style":"solid","thickness":1}},{"type":"Feature","geometry":{"type":"LineString","coordinates":[[-79.98053086111112,26.007861722222223],[-79.97769405555556,26.00803486111111]]},"properties":{"style":"solid","thickness":1}},{"type":"Feature","geometry":{"type":"LineString","coordinates":[[-79.97678044444444,26.011210444444444],[-79.980763,26.010967416666666],[-79.98029502777779,26.00470675],[-79.97603991666666,26.00496638888889]]},"properties":{"style":"solid","thickness":1}},{"type":"Feature","geometry":{"type":"LineString","coordinates":[[-79.97407602777778,26.005086194444445],[-79.97454366666666,26.01134686111111],[-79.97176130555556,26.011516555555556],[-79.97092455555556,26.011319944444445],[-79.97014172222222,26.01037725],[-79.97009755555555,26.009785694444446],[-79.97067861111111,26.008759861111113],[-79.97153308333334,26.00846013888889],[-79.97431536111111,26.00829047222222]]},"properties":{"style":"solid","thickness":1}},{"type":"Feature","geometry":{"type":"LineString","coordinates":[[-79.96398122222223,26.011545],[-79.96510544444445,26.01192222222222],[-79.96636025000001,26.01184575],[-79.96747280555556,26.01133227777778],[-79.96790494444444,26.010513583333335],[-79.96788286111111,26.010217805555556],[-79.96728211111112,26.00951161111111],[-79.96400758333334,26.0082255],[-79.96341052777778,26.007568583333335],[-79.96342097222222,26.006973694444444],[-79.96385311111112,26.006155027777776],[-79.96474741666667,26.00565486111111],[-79.96605669444445,26.005575083333333],[-79.9666715,26.005735694444443],[-79.96758483333333,26.006224777777778]]},"properties":{"style":"solid","thickness":1}},{"type":"Feature","geometry":{"type":"LineString","coordinates":[[-79.96098322222223,26.005884138888888],[-79.96145016666667,26.01214486111111]]},"properties":{"style":"solid","thickness":1}},{"type":"Feature","geometry":{"type":"LineString","coordinates":[[-79.94982466666667,25.987817972222224],[-79.94989708333334,25.9882315],[-79.95005002777778,25.988626694444445],[-79.95027861111112,25.988990861111112],[-79.95057544444445,25.989312277777778],[-79.95093102777778,25.98958063888889],[-79.95133391666667,25.98978727777778],[-79.95177116666667,25.98992561111111],[-79.95222872222223,25.98999113888889],[-79.95269186111112,25.98998177777778],[-79.95314572222223,25.989897833333334],[-79.95357566666667,25.989742],[-79.95396794444444,25.989519277777777],[-79.95430991666667,25.989236833333333],[-79.95459058333334,25.988903750000002],[-79.95480091666667,25.988530722222222],[-79.95493416666667,25.988129750000002],[-79.95498608333334,25.987713694444444],[-79.95495494444445,25.987295972222224],[-79.95484177777779,25.986889972222222],[-79.95465025,25.98650877777778],[-79.95438647222223,25.98616461111111],[-79.95405891666667,25.98586852777778],[-79.95367816666666,25.985630083333334],[-79.95325641666668,25.98545688888889],[-79.95280722222222,25.985354555555556],[-79.95234502777778,25.985326361111113],[-79.95188469444444,25.985373194444445],[-79.95144102777778,25.985493583333334],[-79.95102825000001,25.985683611111114],[-79.95065966666667,25.985937194444446],[-79.95034708333334,25.986246194444444],[-79.95010058333334,25.986600694444444],[-79.94992808333333,25.98698925],[-79.94983511111111,25.98739941666667],[-79.94982466666667,25.987817972222224]]},"properties":{"style":"solid","thickness":1}},{"type":"Feature","geometry":{"type":"LineString","coordinates":[[-79.95280497222222,25.9930595],[-79.95257191666667,25.992031750000002],[-79.95213275,25.99106063888889],[-79.95150258333334,25.990179611111113],[-79.9507031388889,25.989418944444445],[-79.94976197222222,25.988804916666666],[-79.94871144444444,25.988358611111114],[-79.94758777777778,25.988095444444447],[-79.94642966666667,25.98802447222222]]},"properties":{"style":"solid","thickness":1}},{"type":"Feature","geometry":{"type":"LineString","coordinates":[[-79.94642966666667,25.98802447222222],[-79.94756683333334,25.98781388888889],[-79.94864133333334,25.987417027777777],[-79.94961619444445,25.98684752777778],[-79.95045780555556,25.986125027777778],[-79.95113719444444,25.985274416666666],[-79.95163097222222,25.984324972222222],[-79.95192213888889,25.983309416666664],[-79.95200063888889,25.98226272222222]]},"properties":{"style":"solid","thickness":1}},{"type":"Feature","geometry":{"type":"LineString","coordinates":[[-79.95200063888889,25.98226272222222],[-79.95223366666667,25.98329047222222],[-79.95267280555557,25.984261583333335],[-79.95330291666667,25.98514261111111],[-79.95410236111111,25.98590325],[-79.95504352777778,25.986517250000002],[-79.95609405555555,25.9869635],[-79.95721772222223,25.98722661111111],[-79.95837586111111,25.98729752777778]]},"properties":{"style":"solid","thickness":1}},{"type":"Feature","geometry":{"type":"LineString","coordinates":[[-79.95837586111111,25.98729752777778],[-79.95723872222223,25.987508166666668],[-79.95616425,25.98790511111111],[-79.95518941666667,25.98847463888889],[-79.95434780555556,25.989197166666667],[-79.95366841666667,25.990047805555555],[-79.95317461111111,25.99099725],[-79.95288347222223,25.992012805555557],[-79.95280497222222,25.9930595]]},"properties":{"style":"solid","thickness":1}},{"type":"Feature","geometry":{"type":"LineString","coordinates":[[-79.88078291666666,25.98771675],[-79.88085508333333,25.988130305555558],[-79.88100780555556,25.988525583333335],[-79.88123616666665,25.988889833333335],[-79.88153283333332,25.989211416666667],[-79.88188827777778,25.989479916666667],[-79.88229102777777,25.989686777777777],[-79.88272819444444,25.989825305555556],[-79.88318569444444,25.989891055555557],[-79.88364886111111,25.98988191666667],[-79.88410275000001,25.989798166666667],[-79.88453280555557,25.989642555555555],[-79.88492519444445,25.989420000000003],[-79.88526733333335,25.989137722222225],[-79.88554816666667,25.98880477777778],[-79.88575872222223,25.988431861111113],[-79.88589222222222,25.988030944444446],[-79.88594436111111,25.98761491666667],[-79.88591347222223,25.987197194444445],[-79.88580055555556,25.98679113888889],[-79.88560922222223,25.986409833333333],[-79.8853456388889,25.986065555555555],[-79.88501827777779,25.985769333333334],[-79.88463766666668,25.985530694444446],[-79.88421602777778,25.985357305555556],[-79.8837668888889,25.98525475],[-79.88330472222222,25.985226333333333],[-79.88284436111111,25.985272972222223],[-79.88240061111111,25.98539311111111],[-79.88198775,25.985582972222222],[-79.88161899999999,25.985836388888888],[-79.88130625,25.98614525],[-79.88105955555555,25.98649961111111],[-79.88088680555555,25.986888083333334],[-79.8807936111111,25.987298194444445],[-79.88078291666666,25.98771675]]},"properties":{"style":"solid","thickness":1}},{"type":"Feature","geometry":{"type":"LineString","coordinates":[[-79.88376016666668,25.992959666666668],[-79.88352772222223,25.991931833333336],[-79.8830891111111,25.9909605],[-79.88245947222221,25.990079166666668],[-79.88166047222222,25.98931813888889],[-79.88071963888888,25.988703666666666],[-79.87966938888889,25.98825688888889],[-79.87854588888888,25.98799316666667],[-79.87738780555554,25.98792163888889]]},"properties":{"style":"solid","thickness":1}},{"type":"Feature","geometry":{"type":"LineString","coordinates":[[-79.87738780555554,25.98792163888889],[-79.87852508333333,25.987711611111113],[-79.87959983333333,25.98731525],[-79.880575,25.986746222222223],[-79.88141702777777,25.986024111111114],[-79.88209691666665,25.985173805555558],[-79.88259124999999,25.984224611111113],[-79.88288297222222,25.98320919444444],[-79.88296208333333,25.982162555555554]]},"properties":{"style":"solid","thickness":1}},{"type":"Feature","geometry":{"type":"LineString","coordinates":[[-79.88296208333333,25.982162555555554],[-79.88319452777777,25.983190388888886],[-79.88363308333334,25.984161722222222],[-79.88426272222223,25.985043055555558],[-79.88506169444445,25.98580405555556],[-79.88600252777779,25.9864185],[-79.88705277777778,25.98686525],[-79.88817630555556,25.98712888888889],[-79.88933436111111,25.987200333333334]]},"properties":{"style":"solid","thickness":1}},{"type":"Feature","geometry":{"type":"LineString","coordinates":[[-79.88933436111111,25.987200333333334],[-79.88819711111111,25.987410472222223],[-79.88712241666667,25.98780688888889],[-79.88614725000001,25.988375972222222],[-79.88530522222223,25.989098083333335],[-79.88462536111112,25.98994838888889],[-79.88413102777778,25.990897611111112],[-79.88383927777778,25.991913],[-79.88376016666668,25.992959666666668]]},"properties":{"style":"solid","thickness":1}},{"type":"Feature","geometry":{"type":"LineString","coordinates":[[-79.80619394444444,25.987146],[-79.80626586111111,25.987559583333333],[-79.80641833333333,25.987954916666666],[-79.80664647222223,25.988319305555557],[-79.80694294444444,25.988641027777778],[-79.80729819444444,25.988909722222225],[-79.80770083333333,25.989116777777777],[-79.80813788888888,25.98925552777778],[-79.8085953611111,25.989321500000003],[-79.80905849999999,25.989312611111114],[-79.80951244444444,25.98922911111111],[-79.80994261111111,25.989073694444446],[-79.81033513888889,25.988851361111113],[-79.81067741666666,25.98856925],[-79.8109585,25.988236444444446],[-79.81116927777778,25.98786363888889],[-79.81130302777777,25.98746277777778],[-79.81135541666666,25.987046805555558],[-79.81132480555556,25.986629055555557],[-79.81121213888889,25.986222944444446],[-79.81102105555556,25.985841555555556],[-79.81075769444445,25.985497111111112],[-79.8104305,25.985200722222224],[-79.81005002777778,25.98496188888889],[-79.8096285,25.984788305555558],[-79.80917944444444,25.984685527777778],[-79.80871730555555,25.98465688888889],[-79.80825691666666,25.984703250000003],[-79.80781308333333,25.984823194444445],[-79.80740011111111,25.985012833333336],[-79.80703119444445,25.985266055555556],[-79.80671827777778,25.98557475],[-79.80647133333333,25.985928972222222],[-79.8062983611111,25.986317361111112],[-79.80620488888889,25.986727444444444],[-79.80619394444444,25.987146]]},"properties":{"style":"solid","thickness":1}},{"type":"Feature","geometry":{"type":"LineString","coordinates":[[-79.80916788888888,25.99239038888889],[-79.80893608333334,25.991362444444444],[-79.80849808333333,25.99039091666667],[-79.807869,25.98950925],[-79.8070705,25.988747833333335],[-79.80613005555556,25.98813286111111],[-79.80508011111111,25.987685555555558],[-79.80395677777777,25.987421277777777],[-79.80279875,25.98734913888889]]},"properties":{"style":"solid","thickness":1}},{"type":"Feature","geometry":{"type":"LineString","coordinates":[[-79.80279875,25.98734913888889],[-79.80393613888889,25.987139694444444],[-79.80501111111111,25.986743861111112],[-79.80598663888888,25.986175333333335],[-79.80682913888889,25.98545366666667],[-79.80750952777778,25.98460372222222],[-79.80800444444444,25.983654805555556],[-79.80829680555556,25.982639527777778],[-79.80837658333333,25.981592916666663]]},"properties":{"style":"solid","thickness":1}},{"type":"Feature","geometry":{"type":"LineString","coordinates":[[-79.80837658333333,25.981592916666663],[-79.80860836111111,25.98262088888889],[-79.80904633333333,25.983592416666667],[-79.80967538888889,25.984474083333335],[-79.81047388888888,25.9852355],[-79.81141433333333,25.98585041666667],[-79.81246430555555,25.986297694444445],[-79.81358763888889,25.986561916666666],[-79.81474566666667,25.986633944444446]]},"properties":{"style":"solid","thickness":1}},{"type":"Feature","geometry":{"type":"LineString","coordinates":[[-79.81474566666667,25.986633944444446],[-79.81360827777777,25.986843500000003],[-79.81253333333333,25.98723936111111],[-79.81155783333332,25.987807944444445],[-79.81071536111111,25.98852963888889],[-79.81003494444444,25.989379583333335],[-79.80954002777777,25.99032852777778],[-79.80924766666666,25.991343805555555],[-79.80916788888888,25.99239038888889]]},"properties":{"style":"solid","thickness":1}},{"type":"Feature","geometry":{"type":"LineString","coordinates":[[-79.71150216666668,25.98733875],[-79.71157375,25.98775238888889],[-79.71172591666667,25.988147833333333],[-79.71195377777778,25.988512361111113],[-79.71224997222222,25.98883427777778],[-79.712605,25.989103194444446],[-79.71300747222223,25.989310500000002],[-79.71344444444445,25.98944952777778],[-79.71390183333334,25.989515805555556],[-79.714365,25.989507222222223],[-79.714819,25.98942402777778],[-79.71524927777779,25.98926888888889],[-79.71564197222223,25.989046805555557],[-79.7159845,25.988764916666668],[-79.71626583333334,25.988432305555556],[-79.71647691666666,25.98805961111111],[-79.71661097222223,25.98765886111111],[-79.71666369444445,25.987242916666666],[-79.71663341666667,25.98682513888889],[-79.71652105555556,25.98641897222222],[-79.71633027777779,25.986037472222222],[-79.71606719444445,25.98569286111111],[-79.71574025,25.98539625],[-79.71535997222223,25.985157194444444],[-79.71493858333334,25.984983333333336],[-79.71448961111112,25.98488025],[-79.71402747222223,25.984851305555555],[-79.71356705555556,25.98489738888889],[-79.71312316666668,25.98501702777778],[-79.71271,25.98520638888889],[-79.71234091666668,25.98545938888889],[-79.71202772222223,25.98576786111111],[-79.71178052777778,25.986121944444445],[-79.71160725,25.986510222222222],[-79.71151344444445,25.986920222222224],[-79.71150216666668,25.98733875]]},"properties":{"style":"solid","thickness":1}},{"type":"Feature","geometry":{"type":"LineString","coordinates":[[-79.71447194444444,25.992585055555555],[-79.71424094444444,25.991556972222224],[-79.71380372222222,25.99058516666667],[-79.71317536111111,25.989703083333335],[-79.71237744444444,25.988941166666667],[-79.7114375,25.988325583333335],[-79.71038791666668,25.987877583333333],[-79.70926477777778,25.987612583333334],[-79.70810683333333,25.987539694444447]]},"properties":{"style":"solid","thickness":1}},{"type":"Feature","geometry":{"type":"LineString","coordinates":[[-79.70810683333333,25.987539694444447],[-79.70924438888889,25.987331],[-79.71031966666666,25.98693588888889],[-79.71129563888888,25.986368000000002],[-79.71213869444445,25.98564686111111],[-79.71281977777778,25.98479738888889],[-79.71331544444445,25.98384875],[-79.71360861111111,25.982833694444444],[-79.71368919444444,25.981787138888887]]},"properties":{"style":"solid","thickness":1}},{"type":"Feature","geometry":{"type":"LineString","coordinates":[[-79.71368919444444,25.981787138888887],[-79.71392016666667,25.982815249999998],[-79.71435736111111,25.983787055555556],[-79.71498572222222,25.98466913888889],[-79.71578361111112,25.985431055555555],[-79.71672355555556,25.986046583333334],[-79.71777316666667,25.98649452777778],[-79.71889627777777,25.98675947222222],[-79.72005425,25.98683227777778]]},"properties":{"style":"solid","thickness":1}},{"type":"Feature","geometry":{"type":"LineString","coordinates":[[-79.72005425,25.98683227777778],[-79.71891672222222,25.987041083333335],[-79.71784144444445,25.987436250000002],[-79.7168655,25.988004194444446],[-79.71602247222222,25.988725333333335],[-79.71534138888889,25.989574833333336],[-79.71484572222222,25.990523444444445],[-79.71455252777778,25.991538527777777],[-79.71447194444444,25.992585055555555]]},"properties":{"style":"solid","thickness":1}},{"type":"Feature","geometry":{"type":"LineString","coordinates":[[-79.9798768888889,26.000314583333335],[-79.98325902777778,26.00010811111111],[-79.9833106388889,25.997133666666667],[-79.982042,25.997755861111113],[-79.9811146388889,25.997812472222222],[-79.98021975,25.997569972222223],[-79.97963372222222,25.997061000000002],[-79.97930572222222,25.996338194444444],[-79.97924677777777,25.995549444444446],[-79.97946058333333,25.994744055555557],[-79.97996922222222,25.994217805555557],[-79.98115452777778,25.99394736111111],[-79.98197275,25.993897416666666],[-79.98258752777778,25.994057972222222],[-79.983119,25.994570250000002]]},"properties":{"style":"solid","thickness":1}},{"type":"Feature","geometry":{"type":"LineString","coordinates":[[-79.97534916666667,26.00059086111111],[-79.97480366666667,26.000624138888888],[-79.97385052777778,26.00033561111111],[-79.97290041666668,25.99935361111111],[-79.97259016666666,25.998134500000003],[-79.9725055,25.997000694444445],[-79.97263166666667,25.995754944444446],[-79.97348169444444,25.99466316666667],[-79.97433605555555,25.994363444444446],[-79.97488152777778,25.994330166666668],[-79.97571816666667,25.994526750000002],[-79.97672283333334,25.99550538888889],[-79.97703308333334,25.996724500000003],[-79.97711780555555,25.997858333333333],[-79.97699536111111,25.999153361111112],[-79.97614533333333,26.000245166666666],[-79.97534916666667,26.00059086111111]]},"properties":{"style":"solid","thickness":1}},{"type":"Feature","geometry":{"type":"LineString","coordinates":[[-79.96858483333334,26.001003333333333],[-79.96803933333334,26.001036583333335],[-79.96708619444445,26.000748027777778],[-79.96613613888888,25.999766],[-79.96582597222222,25.998546861111112],[-79.96574136111111,25.997413027777778],[-79.96586761111111,25.996167305555556],[-79.96671769444444,25.995075555555555],[-79.96757205555556,25.99477588888889],[-79.96811755555555,25.99474263888889],[-79.96895416666666,25.99493925],[-79.96995877777778,25.995917944444447],[-79.97026897222223,25.997137055555555],[-79.9703536388889,25.99827088888889],[-79.97023111111112,25.99956591666667],[-79.96938102777779,26.000657666666665],[-79.96858483333334,26.001003333333333]]},"properties":{"style":"solid","thickness":1}},{"type":"Feature","geometry":{"type":"LineString","coordinates":[[-79.96182047222223,26.0014155],[-79.96127494444444,26.00144872222222],[-79.96032183333334,26.00116013888889],[-79.95937180555556,26.000178055555555],[-79.95906172222223,25.998958916666666],[-79.95897719444444,25.997825083333336],[-79.9591035,25.996579361111113],[-79.95995363888889,25.99548763888889],[-79.96080802777779,25.995188000000002],[-79.96135352777777,25.995154777777778],[-79.96219013888889,25.99535141666667],[-79.96319469444445,25.996330166666667],[-79.96350483333333,25.997549305555555],[-79.96358941666666,25.99868313888889],[-79.96346683333334,25.99997816666667],[-79.96261666666668,26.00106988888889],[-79.96182047222223,26.0014155]]},"properties":{"style":"solid","thickness":1}},{"type":"Feature","geometry":{"type":"LineString","coordinates":[[-79.91561808333334,26.010622083333335],[-79.9152486388889,26.005643],[-79.91551380555556,26.00478511111111],[-79.91651738888889,26.00427861111111],[-79.9171175,26.00424225],[-79.91835061111112,26.004613194444445],[-79.91868191666667,26.005385416666666],[-79.91874047222223,26.006174194444444]]},"properties":{"style":"solid","thickness":1}},{"type":"Feature","geometry":{"type":"LineString","coordinates":[[-79.91315086111112,26.007651833333334],[-79.91031394444445,26.00782363888889]]},"properties":{"style":"solid","thickness":1}},{"type":"Feature","geometry":{"type":"LineString","coordinates":[[-79.90939858333334,26.01099877777778],[-79.91338125,26.01075761111111],[-79.91291683333334,26.00449675],[-79.90866158333334,26.004754416666668]]},"properties":{"style":"solid","thickness":1}},{"type":"Feature","geometry":{"type":"LineString","coordinates":[[-79.90384005555556,26.008463083333332],[-79.90328377777779,26.00909097222222],[-79.90306577777778,26.009846944444444],[-79.90308402777778,26.010093444444443],[-79.90341891666667,26.010915],[-79.90437927777778,26.011302583333332],[-79.90716172222223,26.011134194444445],[-79.90669761111111,26.004873305555556],[-79.903588,26.0050615],[-79.902748,26.005558],[-79.90248275,26.006415861111112],[-79.90253755555555,26.007155333333333],[-79.90291966666668,26.00787502777778],[-79.90384005555556,26.008463083333332],[-79.90694975000001,26.008274888888888]]},"properties":{"style":"solid","thickness":1}},{"type":"Feature","geometry":{"type":"LineString","coordinates":[[-79.90061480555556,26.011530305555556],[-79.90024597222222,26.006551166666668],[-79.89996202777779,26.005677],[-79.89895083333334,26.005342],[-79.89709597222223,26.005454166666667],[-79.89614316666668,26.005907916666665],[-79.89588152777779,26.006815083333333],[-79.89625016666668,26.01179422222222]]},"properties":{"style":"solid","thickness":1}},{"type":"Feature","geometry":{"type":"LineString","coordinates":[[-79.89395872222222,26.011932722222223],[-79.89349530555556,26.005671805555554]]},"properties":{"style":"solid","thickness":1}},{"type":"Feature","geometry":{"type":"LineString","coordinates":[[-79.89063066666667,26.012133805555557],[-79.89366316666667,26.007939555555556]]},"properties":{"style":"solid","thickness":1}},{"type":"Feature","geometry":{"type":"LineString","coordinates":[[-79.8926668888889,26.00928725],[-79.88956733333335,26.005909166666665]]},"properties":{"style":"solid","thickness":1}},{"type":"Feature","geometry":{"type":"LineString","coordinates":[[-79.84467280555555,26.0035605],[-79.84513363888888,26.009821527777778],[-79.84235116666666,26.00998875],[-79.84151466666667,26.009791416666665],[-79.8407328611111,26.008848027777777],[-79.84068933333333,26.008256416666665],[-79.84127147222222,26.00723111111111],[-79.84212624999999,26.006932166666665],[-79.84490866666667,26.00676497222222]]},"properties":{"style":"solid","thickness":1}},{"type":"Feature","geometry":{"type":"LineString","coordinates":[[-79.83858661111111,26.010214861111113],[-79.83812613888888,26.003953805555554]]},"properties":{"style":"solid","thickness":1}},{"type":"Feature","geometry":{"type":"LineString","coordinates":[[-79.8341981111111,26.004189666666665],[-79.83465838888888,26.010450722222224]]},"properties":{"style":"solid","thickness":1}},{"type":"Feature","geometry":{"type":"LineString","coordinates":[[-79.83443005555556,26.007344833333335],[-79.83835819444444,26.007109]]},"properties":{"style":"solid","thickness":1}},{"type":"Feature","geometry":{"type":"LineString","coordinates":[[-79.82803277777778,26.00604513888889],[-79.8314698611111,26.005838916666665]]},"properties":{"style":"solid","thickness":1}},{"type":"Feature","geometry":{"type":"LineString","coordinates":[[-79.83190675,26.004327194444443],[-79.83007541666666,26.01072577777778],[-79.82737855555555,26.004598861111113]]},"properties":{"style":"solid","thickness":1}},{"type":"Feature","geometry":{"type":"LineString","coordinates":[[-79.82514175,26.004733027777778],[-79.82560155555555,26.01099411111111],[-79.82083177777777,26.004991416666666],[-79.82129136111111,26.011252527777778]]},"properties":{"style":"solid","thickness":1}},{"type":"Feature","geometry":{"type":"LineString","coordinates":[[-79.81905441666666,26.011386583333334],[-79.81501697222222,26.011628444444444],[-79.81859494444444,26.005125444444445],[-79.81428494444444,26.00538363888889]]},"properties":{"style":"solid","thickness":1}},{"type":"Feature","geometry":{"type":"LineString","coordinates":[[-79.75036911111111,26.010042666666667],[-79.74991327777778,26.003781361111113],[-79.74598508333334,26.004014833333333]]},"properties":{"style":"solid","thickness":1}},{"type":"Feature","geometry":{"type":"LineString","coordinates":[[-79.74218497222222,26.01052897222222],[-79.74163936111111,26.01056138888889],[-79.74068672222222,26.010271361111112],[-79.73973844444444,26.009287861111112],[-79.73943058333333,26.00806825],[-79.73934813888889,26.006934333333334],[-79.73947675,26.005688805555554],[-79.74032894444444,26.00459838888889],[-79.74118397222222,26.004300055555557],[-79.74172955555555,26.004267638888887],[-79.74256586111112,26.004465555555555],[-79.74356866666666,26.005445805555556],[-79.74387655555556,26.00666536111111],[-79.74395905555555,26.007799305555555],[-79.74383408333334,26.009094138888887],[-79.74298186111112,26.010184555555554],[-79.74218497222222,26.01052897222222]]},"properties":{"style":"solid","thickness":1}},{"type":"Feature","geometry":{"type":"LineString","coordinates":[[-79.7329836388889,26.009837305555557],[-79.73393186111112,26.01082086111111],[-79.73481919444444,26.01096625],[-79.73541936111111,26.01093063888889],[-79.73622344444445,26.010684861111113],[-79.73707572222223,26.009594472222222],[-79.73719361111111,26.008201055555556],[-79.73713986111112,26.007461527777778],[-79.737104,26.00696852777778],[-79.73701719444445,26.00652802777778],[-79.73679616666666,26.00574891666667],[-79.735797,26.004817944444444],[-79.73496427777778,26.004669305555556],[-79.73447325000001,26.004698444444443],[-79.73356008333333,26.004950694444446],[-79.73270422222222,26.00599175]]},"properties":{"style":"solid","thickness":1}},{"type":"Feature","geometry":{"type":"LineString","coordinates":[[-79.73083619444445,26.011202555555556],[-79.73038136111111,26.004941194444445]]},"properties":{"style":"solid","thickness":1}},{"type":"Feature","geometry":{"type":"LineString","coordinates":[[-79.72750791666667,26.011399944444445],[-79.73054608333334,26.007209111111113]]},"properties":{"style":"solid","thickness":1}},{"type":"Feature","geometry":{"type":"LineString","coordinates":[[-79.72954800000001,26.008555666666666],[-79.72645311111111,26.00517413888889]]},"properties":{"style":"solid","thickness":1}},{"type":"Feature","geometry":{"type":"LineString","coordinates":[[-79.72265188888889,26.011687777777777],[-79.72210625,26.01172011111111],[-79.72115366666667,26.011429944444444],[-79.72020555555555,26.010446305555554],[-79.7198978888889,26.009226694444443],[-79.71981561111112,26.00809275],[-79.71994441666666,26.00684725],[-79.72079683333334,26.005756944444446],[-79.72165188888889,26.005458722222222],[-79.72219747222222,26.00542638888889],[-79.72303375,26.005624416666667],[-79.72403641666666,26.006604777777778],[-79.7243441388889,26.00782438888889],[-79.72442644444445,26.008958361111112],[-79.72430125,26.01025313888889],[-79.72344883333334,26.011343472222222],[-79.72265188888889,26.011687777777777]]},"properties":{"style":"solid","thickness":1}},{"type":"Feature","geometry":{"type":"LineString","coordinates":[[-79.61938380555554,25.85959136111111],[-79.61983233333332,25.865853194444448]]},"properties":{"style":"solid","thickness":1}},{"type":"Feature","geometry":{"type":"LineString","coordinates":[[-79.61745161111111,25.864705444444446],[-79.61727599999999,25.86530988888889],[-79.61671183333333,25.865838083333333],[-79.61590849999999,25.866083222222223],[-79.615309,25.866118361111113],[-79.61447741666666,25.86596902777778],[-79.6138391111111,25.865461805555558],[-79.61352780555555,25.86493538888889],[-79.61348897222221,25.86439302777778],[-79.61367519444444,25.8639365],[-79.61497055555554,25.862919861111113],[-79.61695469444444,25.860823055555556],[-79.61713738888888,25.860317222222225],[-79.61709499999999,25.859725555555556],[-79.6131713611111,25.8599555]]},"properties":{"style":"solid","thickness":1}},{"type":"Feature","geometry":{"type":"LineString","coordinates":[[-79.60936869444444,25.86646636111111],[-79.60882372222221,25.86649827777778],[-79.60787255555555,25.866207388888892],[-79.60692652777777,25.865223],[-79.60662036111111,25.864003111111113],[-79.60653925,25.862869083333333],[-79.60666908333333,25.861623666666667],[-79.60752144444444,25.860534],[-79.60837575,25.86023641666667],[-79.60892069444444,25.860204500000002],[-79.60975577777778,25.86040313888889],[-79.61075630555555,25.861384305555557],[-79.61106247222222,25.862604194444447],[-79.61114363888888,25.863738222222224],[-79.61101738888888,25.865032944444447],[-79.610165,25.86612263888889],[-79.60936869444444,25.86646636111111]]},"properties":{"style":"solid","thickness":1}},{"type":"Feature","geometry":{"type":"LineString","coordinates":[[-79.60261088888889,25.866861944444445],[-79.60206588888889,25.866893833333332],[-79.60111475,25.866602916666668],[-79.60016877777777,25.8656185],[-79.59986266666667,25.864398583333333],[-79.59978163888889,25.863264555555556],[-79.59991152777778,25.86201913888889],[-79.60076397222221,25.8609295],[-79.60161827777777,25.860631972222222],[-79.60216324999999,25.860600083333335],[-79.60299830555554,25.86079877777778],[-79.60399877777778,25.861779972222223],[-79.60430488888888,25.862999861111113],[-79.60438597222222,25.864133916666667],[-79.60425963888888,25.86542863888889],[-79.60340722222222,25.86651827777778],[-79.60261088888889,25.866861944444445]]},"properties":{"style":"solid","thickness":1}},{"type":"Feature","geometry":{"type":"LineString","coordinates":[[-79.59585302777778,25.86725725],[-79.59530802777778,25.867289111111113],[-79.59435688888888,25.866998111111112],[-79.59341097222222,25.866013666666667],[-79.59310494444443,25.86479375],[-79.59302397222221,25.863659694444447],[-79.59315394444444,25.862414305555557],[-79.59400644444445,25.861324722222225],[-79.59486077777777,25.861027222222223],[-79.59540572222221,25.860995333333335],[-79.59624077777778,25.861194083333334],[-79.59724119444444,25.862175333333333],[-79.59754724999999,25.86339525],[-79.59762827777777,25.86452927777778],[-79.59750186111111,25.865824],[-79.5966493611111,25.866913611111112],[-79.59585302777778,25.86725725]]},"properties":{"style":"solid","thickness":1}},{"type":"Feature","geometry":{"type":"LineString","coordinates":[[-79.62286708333333,25.875616694444446],[-79.61834338888889,25.875881916666668]]},"properties":{"style":"solid","thickness":1}},{"type":"Feature","geometry":{"type":"LineString","coordinates":[[-79.620578,25.875750916666668],[-79.62012938888888,25.86948911111111]]},"properties":{"style":"solid","thickness":1}},{"type":"Feature","geometry":{"type":"LineString","coordinates":[[-79.61414669444444,25.87612786111111],[-79.61360166666667,25.876159805555556],[-79.61265041666667,25.875868944444445],[-79.61170427777778,25.87488461111111],[-79.61139805555555,25.873664722222223],[-79.61131688888888,25.872530694444446],[-79.61144666666667,25.87128527777778],[-79.61229908333333,25.870195583333334],[-79.61315341666666,25.869897972222223],[-79.61369841666667,25.86986602777778],[-79.61453358333333,25.870064666666668],[-79.61553422222222,25.871045805555557],[-79.61584047222222,25.872265666666667],[-79.61592166666667,25.873399694444444],[-79.61579547222222,25.874694416666667],[-79.61494305555556,25.87578413888889],[-79.61414669444444,25.87612786111111]]},"properties":{"style":"solid","thickness":1}},{"type":"Feature","geometry":{"type":"LineString","coordinates":[[-79.60640663888888,25.87351138888889],[-79.60459691666667,25.870399]]},"properties":{"style":"solid","thickness":1}},{"type":"Feature","geometry":{"type":"LineString","coordinates":[[-79.60890244444444,25.870146944444446],[-79.60935044444444,25.876408805555556],[-79.60657080555555,25.876571555555557],[-79.60573563888889,25.87637286111111],[-79.60495655555555,25.875428222222222],[-79.60491425,25.874836555555557],[-79.60549775,25.87381213888889],[-79.60635213888888,25.873514583333336],[-79.60913172222222,25.873351833333334]]},"properties":{"style":"solid","thickness":1}},{"type":"Feature","geometry":{"type":"LineString","coordinates":[[-79.602588,25.87368536111111],[-79.59975391666666,25.873851166666668]]},"properties":{"style":"solid","thickness":1}},{"type":"Feature","geometry":{"type":"LineString","coordinates":[[-79.59883133333332,25.877024388888888],[-79.60281008333332,25.87679163888889],[-79.60236241666667,25.87052977777778],[-79.59811136111111,25.870778444444444]]},"properties":{"style":"solid","thickness":1}},{"type":"Feature","geometry":{"type":"LineString","coordinates":[[-79.59659669444444,25.877155055555555],[-79.59256344444444,25.877390833333333],[-79.59614933333333,25.870893194444445],[-79.59184377777777,25.871144861111112]]},"properties":{"style":"solid","thickness":1}},{"type":"Feature","geometry":{"type":"LineString","coordinates":[[-79.62887169444444,25.85085677777778],[-79.62894291666666,25.851270472222225],[-79.62909463888889,25.851666],[-79.62932197222221,25.852030666666668],[-79.6296176111111,25.852352722222225],[-79.62997205555556,25.852621861111114],[-79.63037394444444,25.85282938888889],[-79.63081030555554,25.85296866666667],[-79.63126713888889,25.853035222222225],[-79.63172974999999,25.85302686111111],[-79.63218330555554,25.852943916666668],[-79.63261316666666,25.852789027777778],[-79.63300558333333,25.852567166666667],[-79.63334791666668,25.852285444444444],[-79.63362913888889,25.851952972222225],[-79.63384022222223,25.851580416666668],[-79.6339743888889,25.851179722222223],[-79.63402736111112,25.850763805555555],[-79.6339973888889,25.850346000000002],[-79.63388544444445,25.849939749999997],[-79.6336951388889,25.849558138888888],[-79.63343258333335,25.849213388888888],[-79.63310622222221,25.84891658333333],[-79.63272655555555,25.848677305555555],[-79.63230575,25.848503194444444],[-79.6318573611111,25.84839988888889],[-79.63139577777777,25.848370666666664],[-79.6309358611111,25.8484165],[-79.63049238888888,25.848535888888886],[-79.63007958333333,25.84872502777778],[-79.62971074999999,25.848977833333333],[-79.62939772222222,25.84928613888889],[-79.62915055555555,25.84964008333333],[-79.62897719444443,25.850028277777778],[-79.62888324999999,25.850438222222223],[-79.62887169444444,25.85085677777778]]},"properties":{"style":"solid","thickness":1}},{"type":"Feature","geometry":{"type":"LineString","coordinates":[[-79.6318345,25.856104833333333],[-79.63160447222222,25.855076583333336],[-79.63116841666665,25.85410452777778],[-79.63054133333333,25.853222083333335],[-79.6297448611111,25.852459694444445],[-79.62880644444444,25.851843583333334],[-79.62775833333333,25.851395],[-79.62663669444444,25.851129361111113],[-79.6254801111111,25.851055833333334]]},"properties":{"style":"solid","thickness":1}},{"type":"Feature","geometry":{"type":"LineString","coordinates":[[-79.6254801111111,25.851055833333334],[-79.6266165,25.85084775],[-79.62769083333333,25.850453222222225],[-79.62866605555556,25.849885861111108],[-79.62950863888888,25.849165194444442],[-79.6301895,25.848316083333334],[-79.63068525,25.84736772222222],[-79.63097877777777,25.846352777777778],[-79.63105997222222,25.845306277777777]]},"properties":{"style":"solid","thickness":1}},{"type":"Feature","geometry":{"type":"LineString","coordinates":[[-79.63105997222222,25.845306277777777],[-79.63128997222222,25.846334499999998],[-79.63172602777777,25.84730658333333],[-79.63235305555555,25.848189027777778],[-79.63314949999999,25.84895138888889],[-79.63408794444445,25.849567472222223],[-79.63513605555556,25.85001602777778],[-79.63625772222223,25.850281583333334],[-79.63741427777778,25.85035502777778]]},"properties":{"style":"solid","thickness":1}},{"type":"Feature","geometry":{"type":"LineString","coordinates":[[-79.63741427777778,25.85035502777778],[-79.63627791666667,25.850563194444447],[-79.6352036388889,25.85095777777778],[-79.63422841666667,25.851525194444445],[-79.63338586111112,25.85224588888889],[-79.63270497222221,25.85309502777778],[-79.63220922222222,25.85404338888889],[-79.63191569444444,25.855058305555556],[-79.6318345,25.856104833333333]]},"properties":{"style":"solid","thickness":1}}]}
