{"type":"FeatureCollection","features":[{"type":"Feature","geometry":{"type":"LineString","coordinates":[[-80.19783613888889,25.777002555555555],[-80.16021052777778,25.755239833333334]]},"properties":{"style":"solid","thickness":1}},{"type":"Feature","geometry":{"type":"LineString","coordinates":[[-80.15347791666667,25.746412805555558],[-80.14036247222222,25.671489611111113]]},"properties":{"style":"solid","thickness":1}},{"type":"Feature","geometry":{"type":"LineString","coordinates":[[-80.14817683333334,25.7505125],[-79.28072722222223,25.555355277777778]]},"properties":{"style":"solid","thickness":1}},{"type":"Feature","geometry":{"type":"LineString","coordinates":[[-80.13846583333334,25.656682027777777],[-80.1303715,25.50556002777778]]},"properties":{"style":"solid","thickness":1}},{"type":"Feature","geometry":{"type":"LineString","coordinates":[[-80.12569875,25.489674305555557],[-79.99177727777779,25.303596416666668]]},"properties":{"style":"solid","thickness":1}},{"type":"Feature","geometry":{"type":"LineString","coordinates":[[-80.14365127777778,25.656254583333332],[-80.46352391666667,25.251559944444445]]},"properties":{"style":"solid","thickness":1}},{"type":"Feature","geometry":{"type":"LineString","coordinates":[[-80.46863705555556,25.240470416666668],[-80.52220116666666,24.98792141666667]]},"properties":{"style":"solid","thickness":1}},{"type":"Feature","geometry":{"type":"LineString","coordinates":[[-80.16744330555557,25.81108088888889],[-80.06607597222222,25.860102694444446]]},"properties":{"style":"solid","thickness":1}},{"type":"Feature","geometry":{"type":"LineString","coordinates":[[-80.05030641666666,25.867811444444445],[-79.76493922222222,26.009314555555555]]},"properties":{"style":"solid","thickness":1}},{"type":"Feature","geometry":{"type":"LineString","coordinates":[[-79.75027677777778,26.017428944444443],[-79.14797113888889,26.40956208333333]]},"properties":{"style":"solid","thickness":1}},{"type":"Feature","geometry":{"type":"LineString","coordinates":[[-79.75021275,26.016784194444444],[-79.11799938888888,26.349094027777777]]},"properties":{"style":"solid","thickness":1}},{"type":"Feature","geometry":{"type":"LineString","coordinates":[[-80.05987619444444,25.87286347222222],[-80.09265916666666,25.956556805555554]]},"properties":{"style":"solid","thickness":1}},{"type":"Feature","geometry":{"type":"LineString","coordinates":[[-80.10146405555555,25.964448527777776],[-80.21147955555556,25.989606444444444]]},"properties":{"style":"solid","thickness":1}},{"type":"Feature","geometry":{"type":"LineString","coordinates":[[-80.2274856111111,25.992043416666668],[-80.32886744444444,25.998248888888888]]},"properties":{"style":"solid","thickness":1}},{"type":"Feature","geometry":{"type":"LineString","coordinates":[[-80.33890791666666,26.00613325],[-80.42601269444445,26.22239775]]},"properties":{"style":"solid","thickness":1}},{"type":"Feature","geometry":{"type":"LineString","coordinates":[[-80.43147977777778,26.23475113888889],[-80.59373163888888,26.575840666666668]]},"properties":{"style":"solid","thickness":1}},{"type":"Feature","geometry":{"type":"LineString","coordinates":[[-80.34193991666666,26.00045375],[-80.623407,26.08304797222222]]},"properties":{"style":"solid","thickness":1}},{"type":"Feature","geometry":{"type":"LineString","coordinates":[[-80.63857238888889,26.091084444444444],[-80.965445,26.411173833333333]]},"properties":{"style":"solid","thickness":1}},{"type":"Feature","geometry":{"type":"LineString","coordinates":[[-80.15441894444444,25.756454416666667],[-80.15637736111111,25.756093194444443],[-80.15802130555556,25.75506386111111],[-80.15908611111112,25.753532194444446],[-80.15940030555556,25.751744777777777],[-80.15891338888889,25.74998938888889],[-80.15770375000001,25.74854863888889],[-80.15596616666667,25.747654472222223],[-80.15398036111112,25.747450833333335],[-80.152066,25.7479705],[-80.15053127777779,25.749129833333335],[-80.14962327777778,25.750742166666665],[-80.14948819444444,25.752547944444444],[-80.15014780555556,25.754256444444444],[-80.15149594444445,25.755592611111112],[-80.15331558333334,25.75634127777778],[-80.15441894444444,25.756454416666667]]},"properties":{"style":"solid","thickness":1}},{"type":"Feature","geometry":{"type":"LineString","coordinates":[[-80.19845494444445,25.778436694444444],[-80.21365430555556,25.7775285],[-80.2069578611111,25.789909555555557],[-80.19845494444445,25.778436694444444]]},"properties":{"style":"solid","thickness":1}},{"type":"Feature","geometry":{"type":"LineString","coordinates":[[-80.20402594444445,25.780917249999998],[-80.20858586111112,25.780644777777777],[-80.2065566388889,25.784313166666667],[-80.20402594444445,25.780917249999998]]},"properties":{"style":"solid","thickness":1}},{"type":"Feature","geometry":{"type":"LineString","coordinates":[[-80.18162911111112,25.818728583333332],[-80.18202752777778,25.82394752777778],[-80.17975727777778,25.824089472222223],[-80.17956936111112,25.824018638888887],[-80.17914819444445,25.823879805555556],[-80.17870816666667,25.823494416666666],[-80.17849519444445,25.823094833333332],[-80.17845755555555,25.822601694444444],[-80.17860783333334,25.822179416666668],[-80.17898511111112,25.821742916666665],[-80.17938119444445,25.821553],[-80.17955652777778,25.821459444444443],[-80.18182672222223,25.8213175]]},"properties":{"style":"solid","thickness":1}},{"type":"Feature","geometry":{"type":"LineString","coordinates":[[-80.17344594444445,25.824483916666665],[-80.17426322222222,25.82443286111111],[-80.17466875000001,25.82436622222222],[-80.17545783333334,25.823945305555554],[-80.17617641666668,25.823198472222224],[-80.17640808333334,25.822647222222223],[-80.1764941388889,25.821981194444444],[-80.17645336111111,25.821446972222223],[-80.17632494444445,25.820959527777777],[-80.17605716666667,25.8204395],[-80.17550755555555,25.819813194444443],[-80.17531027777778,25.819619083333333],[-80.17492825000001,25.819395222222223],[-80.17413758333333,25.81919688888889],[-80.17318411111111,25.819256444444445],[-80.17273633333333,25.819367],[-80.17229483333334,25.81955975],[-80.17203180555556,25.819700055555554],[-80.17160286111111,25.820057166666665],[-80.17123180555556,25.820575833333333],[-80.17112066666667,25.820913083333334],[-80.17103147222223,25.821538],[-80.17110666666667,25.82252425],[-80.17159052777778,25.823484999999998],[-80.17188802777778,25.823796722222223],[-80.17222777777778,25.82406452777778],[-80.17256130555556,25.82425013888889],[-80.17265525,25.82428558333333],[-80.17344594444445,25.824483916666665]]},"properties":{"style":"solid","thickness":1}},{"type":"Feature","geometry":{"type":"LineString","coordinates":[[-80.16940486111112,25.824736333333334],[-80.16613563888889,25.824940444444444]]},"properties":{"style":"solid","thickness":1}},{"type":"Feature","geometry":{"type":"LineString","coordinates":[[-80.16781566666667,25.824835555555556],[-80.16741786111112,25.81961658333333]]},"properties":{"style":"solid","thickness":1}},{"type":"Feature","geometry":{"type":"LineString","coordinates":[[-80.16422861111111,25.82505947222222],[-80.1609593888889,25.825263472222222]]},"properties":{"style":"solid","thickness":1}},{"type":"Feature","geometry":{"type":"LineString","coordinates":[[-80.16263938888889,25.825158666666667],[-80.16224183333334,25.819939666666667]]},"properties":{"style":"solid","thickness":1}},{"type":"Feature","geometry":{"type":"LineString","coordinates":[[-80.15721747222223,25.822854361111112],[-80.15497716666667,25.820392833333333]]},"properties":{"style":"solid","thickness":1}},{"type":"Feature","geometry":{"type":"LineString","coordinates":[[-80.15865491666668,25.820163472222223],[-80.15905233333334,25.825382444444443],[-80.15678202777778,25.825524055555555],[-80.15659413888889,25.825453194444446],[-80.15617297222222,25.825314277777778],[-80.15573302777779,25.824928833333335],[-80.15552013888889,25.824529194444445],[-80.15548258333334,25.824036083333333],[-80.15563291666668,25.823613805555556],[-80.15601030555555,25.82317738888889],[-80.15640641666667,25.822987527777777],[-80.15658177777779,25.822893999999998],[-80.15885205555556,25.822752416666667]]},"properties":{"style":"solid","thickness":1}},{"type":"Feature","geometry":{"type":"LineString","coordinates":[[-80.13816266666667,25.761535416666668],[-80.13558813888889,25.756451944444443],[-80.13389675,25.761800972222222]]},"properties":{"style":"solid","thickness":1}},{"type":"Feature","geometry":{"type":"LineString","coordinates":[[-80.13199069444444,25.761919555555554],[-80.13159469444444,25.75670047222222]]},"properties":{"style":"solid","thickness":1}},{"type":"Feature","geometry":{"type":"LineString","coordinates":[[-80.12885619444444,25.762073277777777],[-80.1317911111111,25.75928947222222],[-80.12841805555554,25.756898111111113]]},"properties":{"style":"solid","thickness":1}},{"type":"Feature","geometry":{"type":"LineString","coordinates":[[-80.12663555555555,25.762252666666665],[-80.12354952777777,25.762444527777777],[-80.1235215,25.762074666666667],[-80.12656055555554,25.757054916666668],[-80.12655744444444,25.757013805555555],[-80.12297236111111,25.75723672222222]]},"properties":{"style":"solid","thickness":1}},{"type":"Feature","geometry":{"type":"LineString","coordinates":[[-79.26741241666666,25.568315722222223],[-79.26784852777777,25.568703888888887],[-79.26794197222222,25.56873988888889],[-79.26853688888889,25.568788944444446],[-79.26902986111111,25.568678638888887],[-79.26929055555556,25.56849886111111],[-79.26954847222223,25.568278],[-79.26974977777778,25.567895222222223],[-79.26968505555556,25.56694961111111],[-79.26938774999999,25.56659488888889],[-79.26919519444445,25.56644066666667],[-79.26849841666666,25.566232250000002],[-79.26771377777777,25.566070083333333],[-79.26715297222222,25.565854027777778],[-79.26695477777778,25.565617555555555],[-79.26682475,25.565047055555556],[-79.26687883333334,25.5645075],[-79.26708297222223,25.564165833333334],[-79.26729833333333,25.56398861111111],[-79.26747119444444,25.563855055555557],[-79.26768938888888,25.563718972222222],[-79.26817955555555,25.563567555555558],[-79.2684515,25.56355225],[-79.26872908333333,25.56361916666667],[-79.26910294444444,25.563763194444444],[-79.26934083333333,25.56391488888889],[-79.26968063888889,25.56422591666667]]},"properties":{"style":"solid","thickness":1}},{"type":"Feature","geometry":{"type":"LineString","coordinates":[[-79.26518258333333,25.56897775],[-79.26482541666667,25.56375636111111]]},"properties":{"style":"solid","thickness":1}},{"type":"Feature","geometry":{"type":"LineString","coordinates":[[-79.26205213888889,25.56911263888889],[-79.26500258333333,25.5663465],[-79.26165258333333,25.563934916666668]]},"properties":{"style":"solid","thickness":1}},{"type":"Feature","geometry":{"type":"LineString","coordinates":[[-79.2597488611111,25.564042],[-79.26010583333333,25.56926338888889]]},"properties":{"style":"solid","thickness":1}},{"type":"Feature","geometry":{"type":"LineString","coordinates":[[-79.25739188888889,25.56417452777778],[-79.25774875,25.569395944444445],[-79.25548233333333,25.56952336111111],[-79.25529538888888,25.569451333333333],[-79.25487619444445,25.569309805555555],[-79.25444016666667,25.56892158333333],[-79.25423075,25.568520666666668],[-79.25419705555555,25.568027305555557],[-79.25435027777777,25.56760597222222],[-79.25473013888889,25.567171916666666],[-79.25512683333334,25.566984527777777],[-79.25530252777777,25.566892111111112],[-79.25756891666667,25.566764694444444]]},"properties":{"style":"solid","thickness":1}},{"type":"Feature","geometry":{"type":"LineString","coordinates":[[-79.24982508333333,25.56930472222222],[-79.25026111111112,25.569692944444444],[-79.25035458333333,25.569728972222222],[-79.25094947222222,25.569778083333333],[-79.25144247222222,25.56966786111111],[-79.25170319444445,25.56948811111111],[-79.25196113888889,25.569267277777776],[-79.2521625,25.5688845],[-79.25209791666667,25.567938916666666],[-79.25180066666667,25.567584166666666],[-79.25160813888888,25.56742988888889],[-79.25091136111111,25.567221416666666],[-79.25012677777778,25.56705913888889],[-79.249566,25.56684302777778],[-79.24936783333334,25.56660652777778],[-79.24923788888889,25.566036027777777],[-79.24929205555556,25.565496444444445],[-79.24949622222222,25.565154833333334],[-79.2497116388889,25.56497763888889],[-79.24988450000001,25.56484411111111],[-79.25010272222222,25.56470802777778],[-79.25059288888889,25.564556694444445],[-79.25086486111111,25.564541416666668],[-79.25114244444444,25.564608361111112],[-79.25151627777778,25.564752444444444],[-79.25175413888888,25.56490413888889],[-79.2520938888889,25.56521522222222]]},"properties":{"style":"solid","thickness":1}},{"type":"Feature","geometry":{"type":"LineString","coordinates":[[-80.12726516666666,25.673670583333333],[-80.12686966666666,25.668451444444447],[-80.12464766666666,25.668589722222222]]},"properties":{"style":"solid","thickness":1}},{"type":"Feature","geometry":{"type":"LineString","coordinates":[[-80.12318377777777,25.67392452777778],[-80.12286938888889,25.66977386111111],[-80.12280847222222,25.669571222222224],[-80.12245991666666,25.66918],[-80.1222145,25.668947527777778],[-80.12183927777777,25.668805722222224],[-80.1213373611111,25.66879563888889],[-80.12061180555555,25.668840777777778],[-80.12020680555555,25.66890725],[-80.11967819444443,25.669146555555557],[-80.11938252777777,25.66945397222222],[-80.11921980555555,25.669711833333334],[-80.11915713888888,25.670087333333335],[-80.11946516666666,25.67415577777778]]},"properties":{"style":"solid","thickness":1}},{"type":"Feature","geometry":{"type":"LineString","coordinates":[[-80.1175605,25.674274194444447],[-80.11498875,25.669190361111113],[-80.11329766666667,25.67453913888889]]},"properties":{"style":"solid","thickness":1}},{"type":"Feature","geometry":{"type":"LineString","coordinates":[[-80.11139299999999,25.674657472222222],[-80.11099819444443,25.669438333333336],[-80.10877616666666,25.669576333333335]]},"properties":{"style":"solid","thickness":1}},{"type":"Feature","geometry":{"type":"LineString","coordinates":[[-80.10731155555555,25.674910972222225],[-80.10511608333333,25.671785472222222],[-80.10345683333333,25.675150305555558]]},"properties":{"style":"solid","thickness":1}},{"type":"Feature","geometry":{"type":"LineString","coordinates":[[-80.10511608333333,25.671785472222222],[-80.10497008333333,25.669853972222224]]},"properties":{"style":"solid","thickness":1}},{"type":"Feature","geometry":{"type":"LineString","coordinates":[[-80.11929052777776,25.500103111111112],[-80.11814544444444,25.50541813888889],[-80.11584902777777,25.50031736111111],[-80.11465852777778,25.505635166666668],[-80.11258866666667,25.500520277777778]]},"properties":{"style":"solid","thickness":1}},{"type":"Feature","geometry":{"type":"LineString","coordinates":[[-80.11073208333333,25.500635777777777],[-80.10863563888888,25.50600988888889],[-80.10588680555556,25.50093711111111]]},"properties":{"style":"solid","thickness":1}},{"type":"Feature","geometry":{"type":"LineString","coordinates":[[-80.11004425,25.502371416666666],[-80.10678383333332,25.502574194444446]]},"properties":{"style":"solid","thickness":1}},{"type":"Feature","geometry":{"type":"LineString","coordinates":[[-80.10398491666666,25.50105536111111],[-80.10437883333333,25.506274555555557],[-80.09886788888889,25.50137336111111],[-80.0992616111111,25.506592555555557]]},"properties":{"style":"solid","thickness":1}},{"type":"Feature","geometry":{"type":"LineString","coordinates":[[-80.09701125,25.501488694444443],[-80.09740488888889,25.506707916666667],[-80.09189419444444,25.501806444444444],[-80.0922876111111,25.507025666666667]]},"properties":{"style":"solid","thickness":1}},{"type":"Feature","geometry":{"type":"LineString","coordinates":[[-80.09003758333333,25.501921694444444],[-80.09043091666666,25.507140916666668],[-80.08492047222222,25.502239222222222],[-80.0853136111111,25.507458444444445]]},"properties":{"style":"solid","thickness":1}},{"type":"Feature","geometry":{"type":"LineString","coordinates":[[-79.97868561111112,25.31296525],[-79.98144369444445,25.312795916666666],[-79.98105580555556,25.307576444444447],[-79.97825261111112,25.30774852777778]]},"properties":{"style":"solid","thickness":1}},{"type":"Feature","geometry":{"type":"LineString","coordinates":[[-79.98124819444445,25.31016563888889],[-79.97858061111111,25.31032941666667]]},"properties":{"style":"solid","thickness":1}},{"type":"Feature","geometry":{"type":"LineString","coordinates":[[-79.973712,25.31327047222222],[-79.97452586111112,25.31322052777778],[-79.97492975,25.313154472222223],[-79.97571613888888,25.31273463888889],[-79.9764328888889,25.311988805555558],[-79.97666447222223,25.311437861111113],[-79.97675127777778,25.310771972222224],[-79.97671161111111,25.310237694444446],[-79.97658452777777,25.309750055555558],[-79.97631877777778,25.309229666666667],[-79.97577261111111,25.308602611111112],[-79.9755765,25.308408222222223],[-79.97519647222222,25.308183805555558],[-79.97440955555555,25.30798438888889],[-79.97346008333334,25.30804263888889],[-79.97301405555555,25.308152583333335],[-79.97257413888889,25.308344694444447],[-79.972312,25.30848463888889],[-79.97188427777778,25.308841166666667],[-79.97151397222223,25.309359305555557],[-79.97140275,25.309696416666668],[-79.97131286111112,25.310321222222225],[-79.97138608333333,25.311307583333335],[-79.97186625,25.312268972222224],[-79.97216194444445,25.31258113888889],[-79.97249980555556,25.31284938888889],[-79.97283155555556,25.31303547222222],[-79.97292502777778,25.313071027777777],[-79.973712,25.31327047222222]]},"properties":{"style":"solid","thickness":1}},{"type":"Feature","geometry":{"type":"LineString","coordinates":[[-79.9693005,25.308297777777778],[-79.96968788888888,25.313517277777777],[-79.96419141666667,25.308610972222223],[-79.96457858333333,25.3138305]]},"properties":{"style":"solid","thickness":1}},{"type":"Feature","geometry":{"type":"LineString","coordinates":[[-79.96233769444444,25.308724583333333],[-79.96272477777778,25.313944111111113],[-79.95722858333333,25.309037555555555],[-79.95761544444444,25.314257083333334]]},"properties":{"style":"solid","thickness":1}},{"type":"Feature","geometry":{"type":"LineString","coordinates":[[-79.95318997222222,25.313991333333334],[-79.95362736111112,25.314377416666666],[-79.95372083333334,25.31441297222222],[-79.95431472222222,25.314459194444446],[-79.954806,25.314346555555556],[-79.95506511111111,25.314165527777778],[-79.95532116666666,25.313943444444444],[-79.95551983333334,25.313559694444447],[-79.95544977777779,25.312614444444446],[-79.95515108333333,25.312261166666666],[-79.95495805555557,25.312107833333336],[-79.95426155555556,25.31190275],[-79.95347769444444,25.311744305555557],[-79.95291686111112,25.311530944444446],[-79.95271772222223,25.311295416666667],[-79.95258466666667,25.310725555555557],[-79.95263552777779,25.310185750000002],[-79.95283722222223,25.30984311111111],[-79.95305111111111,25.30966488888889],[-79.95322283333334,25.309530527777778],[-79.95343977777777,25.30939338888889],[-79.953928,25.30923963888889],[-79.95419927777778,25.30922302777778],[-79.95447663888889,25.30928861111111],[-79.95485052777778,25.30943086111111],[-79.95508877777777,25.309581416666667],[-79.95542963888889,25.309890833333334]]},"properties":{"style":"solid","thickness":1}},{"type":"Feature","geometry":{"type":"LineString","coordinates":[[-80.45405805555556,25.248456166666667],[-80.45446650000001,25.253674333333333],[-80.44895286111111,25.248786583333334],[-80.44936111111112,25.25400475]]},"properties":{"style":"solid","thickness":1}},{"type":"Feature","geometry":{"type":"LineString","coordinates":[[-80.44567652777778,25.251600194444446],[-80.44344102777778,25.24914313888889]]},"properties":{"style":"solid","thickness":1}},{"type":"Feature","geometry":{"type":"LineString","coordinates":[[-80.44710052777778,25.248906444444444],[-80.44750869444445,25.254124611111113],[-80.4452496388889,25.254270722222223],[-80.4450625,25.25420025],[-80.44464302777779,25.254062194444444],[-80.44420425,25.25367761111111],[-80.44399141666668,25.253278416666667],[-80.44395286111111,25.252785361111112],[-80.44410144444444,25.252362805555556],[-80.44447594444445,25.251925611111112],[-80.44486972222222,25.251734972222224],[-80.44504400000001,25.251641111111113],[-80.447303,25.251494972222222]]},"properties":{"style":"solid","thickness":1}},{"type":"Feature","geometry":{"type":"LineString","coordinates":[[-80.43924055555556,25.25465925],[-80.44199661111111,25.254481083333335],[-80.44158869444445,25.249262916666666],[-80.43878758333334,25.249444]]},"properties":{"style":"solid","thickness":1}},{"type":"Feature","geometry":{"type":"LineString","coordinates":[[-80.44179105555556,25.25185147222222],[-80.43912541666667,25.25202377777778]]},"properties":{"style":"solid","thickness":1}},{"type":"Feature","geometry":{"type":"LineString","coordinates":[[-80.43427061111112,25.254980416666665],[-80.4350838888889,25.25492788888889],[-80.43548730555555,25.254860527777776],[-80.43627169444444,25.254438166666667],[-80.43698519444445,25.253690055555555],[-80.43721452777778,25.25313838888889],[-80.43729869444445,25.252472222222224],[-80.43725697222223,25.251938055555556],[-80.43712808333333,25.251450833333333],[-80.43686044444445,25.250931305555557],[-80.43631211111112,25.250306],[-80.43611533333333,25.25011222222222],[-80.43573463888889,25.249889055555556],[-80.43494733333334,25.24969216666667],[-80.43399855555556,25.249753444444444],[-80.43355319444444,25.249864805555557],[-80.43311422222223,25.250058361111112],[-80.43285277777778,25.25019913888889],[-80.4324266388889,25.250557027777777],[-80.43205852777778,25.251076333333334],[-80.43194866666667,25.251413805555554],[-80.43186125000001,25.25203888888889],[-80.43193825,25.253025],[-80.4324218888889,25.25398486111111],[-80.43271866666667,25.254296055555557],[-80.4330573888889,25.25456325],[-80.43338972222223,25.25474825],[-80.43348327777778,25.2547835],[-80.43427061111112,25.254980416666665]]},"properties":{"style":"solid","thickness":1}},{"type":"Feature","geometry":{"type":"LineString","coordinates":[[-80.43353341666668,25.25077458333333],[-80.43194969444446,25.249101194444446]]},"properties":{"style":"solid","thickness":1}},{"type":"Feature","geometry":{"type":"LineString","coordinates":[[-80.42997836111111,25.25525763888889],[-80.42690602777778,25.255456],[-80.4268771388889,25.255086194444445],[-80.42989041666667,25.250060083333334],[-80.42988722222222,25.250019],[-80.42631800000001,25.250249444444446]]},"properties":{"style":"solid","thickness":1}},{"type":"Feature","geometry":{"type":"LineString","coordinates":[[-80.51464169444445,24.98538741666667],[-80.51351919444444,24.990705277777778],[-80.51121580555555,24.985611083333335],[-80.51004808333333,24.99093188888889],[-80.50797022222223,24.985822944444447]]},"properties":{"style":"solid","thickness":1}},{"type":"Feature","geometry":{"type":"LineString","coordinates":[[-80.50607697222222,24.985946472222224],[-80.50648680555555,24.991164305555557],[-80.50098316666667,24.98627875],[-80.50139280555555,24.991496583333333]]},"properties":{"style":"solid","thickness":1}},{"type":"Feature","geometry":{"type":"LineString","coordinates":[[-80.49918005555556,24.986396333333335],[-80.49711019444445,24.991775805555555],[-80.49435669444445,24.986710722222224]]},"properties":{"style":"solid","thickness":1}},{"type":"Feature","geometry":{"type":"LineString","coordinates":[[-80.49850086111111,24.988133722222223],[-80.49525516666667,24.98834527777778]]},"properties":{"style":"solid","thickness":1}},{"type":"Feature","geometry":{"type":"LineString","coordinates":[[-80.49287266666667,24.992051944444444],[-80.48962688888889,24.99226338888889]]},"properties":{"style":"solid","thickness":1}},{"type":"Feature","geometry":{"type":"LineString","coordinates":[[-80.49129486111111,24.99215475],[-80.49088566666667,24.98693688888889]]},"properties":{"style":"solid","thickness":1}},{"type":"Feature","geometry":{"type":"LineString","coordinates":[[-80.48498358333333,24.99256575],[-80.4877335,24.992386694444445],[-80.48732444444444,24.987168833333335],[-80.48452958333334,24.987350805555558]]},"properties":{"style":"solid","thickness":1}},{"type":"Feature","geometry":{"type":"LineString","coordinates":[[-80.4875273611111,24.989757222222224],[-80.48486766666667,24.98993038888889]]},"properties":{"style":"solid","thickness":1}},{"type":"Feature","geometry":{"type":"LineString","coordinates":[[-80.13088169444444,25.658905444444443],[-80.14606625,25.65800436111111],[-80.13936947222223,25.670382361111113],[-80.13088169444444,25.658905444444443]]},"properties":{"style":"solid","thickness":1}},{"type":"Feature","geometry":{"type":"LineString","coordinates":[[-80.13644566666667,25.66138861111111],[-80.1410011388889,25.661118277777778],[-80.13897186111112,25.66478575],[-80.13644566666667,25.66138861111111]]},"properties":{"style":"solid","thickness":1}},{"type":"Feature","geometry":{"type":"LineString","coordinates":[[-80.12194863888888,25.491905305555555],[-80.1371118888889,25.491005166666667],[-80.1304236111111,25.50338275],[-80.12194863888888,25.491905305555555]]},"properties":{"style":"solid","thickness":1}},{"type":"Feature","geometry":{"type":"LineString","coordinates":[[-80.12750458333333,25.494388805555555],[-80.13205366666666,25.494118750000002],[-80.13002697222221,25.49778611111111],[-80.12750458333333,25.494388805555555]]},"properties":{"style":"solid","thickness":1}},{"type":"Feature","geometry":{"type":"LineString","coordinates":[[-79.26649952777778,25.550358444444445],[-79.28167644444444,25.549548416666667],[-79.27489569444444,25.561886],[-79.26649952777778,25.550358444444445]]},"properties":{"style":"solid","thickness":1}},{"type":"Feature","geometry":{"type":"LineString","coordinates":[[-79.27204019444444,25.552874916666667],[-79.27659336111111,25.55263188888889],[-79.27453925,25.55628713888889],[-79.27204019444444,25.552874916666667]]},"properties":{"style":"solid","thickness":1}},{"type":"Feature","geometry":{"type":"LineString","coordinates":[[-79.97896630555556,25.293203472222224],[-79.99410527777778,25.29231838888889],[-79.98741327777778,25.304689222222223],[-79.97896630555556,25.293203472222224]]},"properties":{"style":"solid","thickness":1}},{"type":"Feature","geometry":{"type":"LineString","coordinates":[[-79.98450997222223,25.295692472222225],[-79.98905175,25.295426944444447],[-79.98702402777778,25.29909225],[-79.98450997222223,25.295692472222225]]},"properties":{"style":"solid","thickness":1}},{"type":"Feature","geometry":{"type":"LineString","coordinates":[[-80.45942680555555,25.243285444444446],[-80.47455572222222,25.24234977777778],[-80.46791661111111,25.254742833333335],[-80.45942680555555,25.243285444444446]]},"properties":{"style":"solid","thickness":1}},{"type":"Feature","geometry":{"type":"LineString","coordinates":[[-80.46497816666667,25.24575588888889],[-80.46951694444445,25.245475194444445],[-80.46750491666667,25.249147222222224],[-80.46497816666667,25.24575588888889]]},"properties":{"style":"solid","thickness":1}},{"type":"Feature","geometry":{"type":"LineString","coordinates":[[-80.51616494444444,24.975844777777777],[-80.53125944444444,24.974903194444444],[-80.52464113888888,24.98729841666667],[-80.51616494444444,24.975844777777777]]},"properties":{"style":"solid","thickness":1}},{"type":"Feature","geometry":{"type":"LineString","coordinates":[[-80.52170502777777,24.97831297222222],[-80.52623347222222,24.97803047222222],[-80.52422769444445,24.981703166666666],[-80.52170502777777,24.97831297222222]]},"properties":{"style":"solid","thickness":1}},{"type":"Feature","geometry":{"type":"LineString","coordinates":[[-80.23984916666667,25.79444713888889],[-80.23951141666667,25.790050222222224],[-80.23953786111112,25.789800805555558],[-80.23974588888889,25.789539972222222],[-80.24000244444444,25.789317361111113],[-80.24017769444444,25.789223722222225],[-80.24044686111111,25.789165500000003],[-80.24090077777778,25.789136916666667],[-80.24117627777778,25.789160861111114],[-80.2416068888889,25.78942277777778],[-80.24170713888888,25.78954036111111]]},"properties":{"style":"solid","thickness":1}},{"type":"Feature","geometry":{"type":"LineString","coordinates":[[-80.23476522222222,25.794767111111113],[-80.23558227777778,25.794715694444445],[-80.23598766666667,25.79464888888889],[-80.23677630555555,25.79422763888889],[-80.23749433333333,25.7934805],[-80.23772566666666,25.79292913888889],[-80.23781133333334,25.792263083333335],[-80.23777030555556,25.79172888888889],[-80.23764166666666,25.7912415],[-80.23737369444444,25.790721555555557],[-80.23682388888889,25.790095500000003],[-80.23662655555556,25.789901472222223],[-80.2362445,25.78967777777778],[-80.23545394444444,25.78947977777778],[-80.23450072222222,25.789539750000003],[-80.2340531388889,25.7896505],[-80.23361186111111,25.789843416666667],[-80.23334897222222,25.789983833333334],[-80.23292030555555,25.79034113888889],[-80.23254961111111,25.790859944444446],[-80.23243869444444,25.791197250000003],[-80.23234980555556,25.791822222222223],[-80.2324255,25.792808444444447],[-80.23290975,25.793768972222225],[-80.23320733333334,25.794080583333336],[-80.23354716666667,25.794348250000002],[-80.23388066666666,25.794533722222223],[-80.23397461111111,25.794569111111112],[-80.23476522222222,25.794767111111113]]},"properties":{"style":"solid","thickness":1}},{"type":"Feature","geometry":{"type":"LineString","coordinates":[[-80.23032480555555,25.789802444444447],[-80.23072527777778,25.795021222222225],[-80.22519563888889,25.790124916666667],[-80.22559588888889,25.795343722222224]]},"properties":{"style":"solid","thickness":1}},{"type":"Feature","geometry":{"type":"LineString","coordinates":[[-80.22346241666666,25.795477805555556],[-80.22037569444444,25.79567175],[-80.22034733333334,25.79530191666667],[-80.22338313888889,25.790280111111112],[-80.22338,25.79023902777778],[-80.21979408333334,25.790464333333336]]},"properties":{"style":"solid","thickness":1}},{"type":"Feature","geometry":{"type":"LineString","coordinates":[[-80.21806922222223,25.79057266666667],[-80.21846916666667,25.7957915]]},"properties":{"style":"solid","thickness":1}},{"type":"Feature","geometry":{"type":"LineString","coordinates":[[-80.09469497222221,25.874770444444444],[-80.0943033611111,25.869592416666666]]},"properties":{"style":"solid","thickness":1}},{"type":"Feature","geometry":{"type":"LineString","coordinates":[[-80.09083372222221,25.875009416666668],[-80.09044225,25.86983136111111]]},"properties":{"style":"solid","thickness":1}},{"type":"Feature","geometry":{"type":"LineString","coordinates":[[-80.09451158333333,25.872345805555558],[-80.09065038888889,25.872584777777778]]},"properties":{"style":"solid","thickness":1}},{"type":"Feature","geometry":{"type":"LineString","coordinates":[[-80.08857983333333,25.869946583333334],[-80.08897430555555,25.87516575]]},"properties":{"style":"solid","thickness":1}},{"type":"Feature","geometry":{"type":"LineString","coordinates":[[-80.08661211111111,25.87531186111111],[-80.08334136111111,25.875514083333332]]},"properties":{"style":"solid","thickness":1}},{"type":"Feature","geometry":{"type":"LineString","coordinates":[[-80.08502216666666,25.87541016666667],[-80.0846278611111,25.870191000000002]]},"properties":{"style":"solid","thickness":1}},{"type":"Feature","geometry":{"type":"LineString","coordinates":[[-80.08108469444444,25.870410055555556],[-80.0789803611111,25.87578363888889],[-80.07622419444444,25.870710388888888]]},"properties":{"style":"solid","thickness":1}},{"type":"Feature","geometry":{"type":"LineString","coordinates":[[-80.08039427777777,25.87214552777778],[-80.0771236111111,25.872347611111113]]},"properties":{"style":"solid","thickness":1}},{"type":"Feature","geometry":{"type":"LineString","coordinates":[[-80.070251,25.87562088888889],[-80.07045130555555,25.875856250000002],[-80.07087874999999,25.876077583333334],[-80.07115752777777,25.876142944444446],[-80.07193908333333,25.876218555555557],[-80.07221166666666,25.876201722222223],[-80.07275058333333,25.87608586111111],[-80.07319555555556,25.87593452777778],[-80.07328330555555,25.875887833333334],[-80.07358580555555,25.875662722222224],[-80.07388519444444,25.8753965],[-80.07437758333333,25.874664194444446],[-80.07455511111111,25.87399263888889],[-80.07448688888888,25.873088527777778],[-80.07435880555555,25.872600972222223],[-80.07414919444444,25.872242333333332],[-80.07385183333334,25.871930416666668],[-80.07360299999999,25.87165675],[-80.07321166666667,25.871309333333333],[-80.0728358611111,25.87116738888889],[-80.07246005555555,25.871025444444445],[-80.07213588888888,25.87096288888889],[-80.07131822222222,25.87101338888889],[-80.07087016666667,25.871123611111113],[-80.07051916666666,25.871310444444443],[-80.07012583333334,25.871541166666667],[-80.06986877777777,25.871763472222224],[-80.06945169444444,25.872284666666665],[-80.06920702777778,25.872671361111113],[-80.06913477777778,25.87292352777778],[-80.06918436111111,25.873581083333335],[-80.07109230555555,25.873463277777777]]},"properties":{"style":"solid","thickness":1}},{"type":"Feature","geometry":{"type":"LineString","coordinates":[[-79.76913183333333,26.03044561111111],[-79.76957127777777,26.030832222222223],[-79.76966525,26.030867916666665],[-79.77026269444444,26.030914888888887],[-79.77075711111111,26.03080288888889],[-79.77101808333333,26.03062222222222],[-79.77127605555556,26.030400444444442],[-79.77147652777778,26.03001697222222],[-79.77140752777778,26.029071638888887],[-79.77110755555556,26.02871797222222],[-79.77091358333334,26.028564416666665],[-79.77021319444444,26.028358444444443],[-79.76942480555556,26.028199],[-79.76886091666667,26.027984916666664],[-79.76866094444445,26.027749138888886],[-79.76852797222222,26.027179138888886],[-79.76857997222223,26.02663938888889],[-79.76878344444444,26.026297027777776],[-79.76899891666666,26.02611908333333],[-79.76917188888889,26.025984944444442],[-79.7693903611111,26.025848083333333],[-79.76988177777778,26.025694972222222],[-79.77015472222222,26.02567872222222],[-79.77043366666666,26.025744666666665],[-79.7708096111111,26.025887388888886],[-79.77104905555555,26.02603825],[-79.77139152777778,26.026348083333332]]},"properties":{"style":"solid","thickness":1}},{"type":"Feature","geometry":{"type":"LineString","coordinates":[[-79.76689311111112,26.031074277777776],[-79.76651533333333,26.02589547222222]]},"properties":{"style":"solid","thickness":1}},{"type":"Feature","geometry":{"type":"LineString","coordinates":[[-79.76302605555556,26.03130447222222],[-79.76264847222222,26.02612563888889]]},"properties":{"style":"solid","thickness":1}},{"type":"Feature","geometry":{"type":"LineString","coordinates":[[-79.76671619444444,26.028649277777777],[-79.76284925,26.028879472222222]]},"properties":{"style":"solid","thickness":1}},{"type":"Feature","geometry":{"type":"LineString","coordinates":[[-79.76082875,26.026233944444442],[-79.75870708333333,26.03160272222222],[-79.75596102777777,26.0265235]]},"properties":{"style":"solid","thickness":1}},{"type":"Feature","geometry":{"type":"LineString","coordinates":[[-79.76013272222222,26.02796783333333],[-79.75685719444445,26.028162666666667]]},"properties":{"style":"solid","thickness":1}},{"type":"Feature","geometry":{"type":"LineString","coordinates":[[-79.75443055555556,26.031857055555555],[-79.75405033333334,26.02663711111111],[-79.75182116666667,26.026769638888887]]},"properties":{"style":"solid","thickness":1}},{"type":"Feature","geometry":{"type":"LineString","coordinates":[[-79.750336,26.032100444444442],[-79.74840919444445,26.026972388888886],[-79.74687836111111,26.03230588888889],[-79.74490619444444,26.0271805],[-79.74360269444445,26.032500416666664]]},"properties":{"style":"solid","thickness":1}},{"type":"Feature","geometry":{"type":"LineString","coordinates":[[-79.09725938888889,26.35835463888889],[-79.09761155555555,26.36357591666667],[-79.09532966666666,26.363700805555556],[-79.09514155555556,26.363628555555557],[-79.09471972222222,26.363486583333334],[-79.09428127777777,26.363097944444444],[-79.094071,26.362696805555558],[-79.09403775,26.362203472222223],[-79.09419258333332,26.361782333333334],[-79.09457558333332,26.36134875],[-79.09497522222222,26.361161833333334],[-79.09515222222221,26.361069611111112],[-79.09743408333333,26.360944722222225]]},"properties":{"style":"solid","thickness":1}},{"type":"Feature","geometry":{"type":"LineString","coordinates":[[-79.09191997222221,26.35864680555556],[-79.08976183333333,26.36400538888889],[-79.08703691666666,26.358913833333336]]},"properties":{"style":"solid","thickness":1}},{"type":"Feature","geometry":{"type":"LineString","coordinates":[[-79.09121213888888,26.360377361111112],[-79.08792630555556,26.36055702777778]]},"properties":{"style":"solid","thickness":1}},{"type":"Feature","geometry":{"type":"LineString","coordinates":[[-79.08512022222222,26.35901861111111],[-79.08547183333333,26.36423991666667],[-79.08346374999999,26.36434963888889],[-79.08291055555556,26.364297333333333],[-79.08267405555556,26.364186472222222],[-79.08228958333333,26.363918611111114],[-79.08171147222222,26.363496305555557],[-79.08131041666667,26.36298177777778],[-79.08119144444444,26.36257563888889],[-79.08110013888889,26.361218944444445],[-79.0811665,26.360843944444447],[-79.0814071111111,26.36033561111111],[-79.08170719444443,26.36003038888889],[-79.08200174999999,26.35964291666667],[-79.08243875,26.359330194444446],[-79.08297808333333,26.359176944444446],[-79.08329475,26.35911836111111],[-79.08512022222222,26.35901861111111]]},"properties":{"style":"solid","thickness":1}},{"type":"Feature","geometry":{"type":"LineString","coordinates":[[-79.07944758333333,26.36456902777778],[-79.07916813888889,26.36041663888889],[-79.07910866666666,26.360213583333334],[-79.07876155555554,26.35981988888889],[-79.07851677777778,26.359585694444444],[-79.07814061111111,26.359441166666667],[-79.0776358611111,26.359427472222222],[-79.07690566666666,26.359467333333335],[-79.07649769444444,26.35953086111111],[-79.07596388888888,26.359766333333337],[-79.07566380555555,26.360071555555557],[-79.07549783333333,26.360328194444445],[-79.07543144444445,26.360703194444447],[-79.07570522222221,26.364773361111112]]},"properties":{"style":"solid","thickness":1}},{"type":"Feature","geometry":{"type":"LineString","coordinates":[[-79.07119672222221,26.364482944444447],[-79.07163508333333,26.36487166666667],[-79.07172913888888,26.364907805555557],[-79.07232797222221,26.36495766666667],[-79.07282447222222,26.36484805555556],[-79.07308725,26.36466863888889],[-79.07334725,26.36444813888889],[-79.07355055555556,26.36406566666667],[-79.07348697222221,26.363120083333335],[-79.07318825,26.36276502777778],[-79.07299463888889,26.36261052777778],[-79.0722935,26.362401194444445],[-79.07150383333332,26.362237972222225],[-79.0709396111111,26.36202116666667],[-79.07074047222221,26.361784444444446],[-79.0706105,26.361213861111114],[-79.07066586111111,26.36067441666667],[-79.07087191666666,26.360333055555557],[-79.07108905555555,26.36015616666667],[-79.07126330555555,26.360022861111112],[-79.07148319444444,26.359887083333334],[-79.07197691666666,26.359736361111114],[-79.07225075,26.35972141666667],[-79.07253008333333,26.359788694444447],[-79.07290625,26.359933222222224],[-79.07314547222222,26.360085222222224],[-79.07348705555555,26.360396694444447]]},"properties":{"style":"solid","thickness":1}},{"type":"Feature","geometry":{"type":"LineString","coordinates":[[-79.12837641666665,26.432486861111112],[-79.12583091666666,26.42738611111111],[-79.124084,26.43272252777778]]},"properties":{"style":"solid","thickness":1}},{"type":"Feature","geometry":{"type":"LineString","coordinates":[[-79.12185830555555,26.42760416666667],[-79.11970025,26.432963083333334],[-79.11697247222222,26.427872194444447]]},"properties":{"style":"solid","thickness":1}},{"type":"Feature","geometry":{"type":"LineString","coordinates":[[-79.1211505,26.429334833333336],[-79.11786277777777,26.429515194444445]]},"properties":{"style":"solid","thickness":1}},{"type":"Feature","geometry":{"type":"LineString","coordinates":[[-79.11540780555555,26.4331985],[-79.11505463888888,26.42797736111111],[-79.11281719444443,26.42810002777778]]},"properties":{"style":"solid","thickness":1}},{"type":"Feature","geometry":{"type":"LineString","coordinates":[[-79.11129802777778,26.43342375],[-79.11094502777777,26.42820263888889],[-79.10870758333333,26.428325222222224]]},"properties":{"style":"solid","thickness":1}},{"type":"Feature","geometry":{"type":"LineString","coordinates":[[-79.10718822222222,26.433648916666666],[-79.10500522222222,26.43050863888889],[-79.10330672222221,26.433861444444446]]},"properties":{"style":"solid","thickness":1}},{"type":"Feature","geometry":{"type":"LineString","coordinates":[[-79.10500522222222,26.43050863888889],[-79.10487469444443,26.42857641666667]]},"properties":{"style":"solid","thickness":1}},{"type":"Feature","geometry":{"type":"LineString","coordinates":[[-80.09045152777777,25.97782611111111],[-80.09005663888888,25.972607027777777]]},"properties":{"style":"solid","thickness":1}},{"type":"Feature","geometry":{"type":"LineString","coordinates":[[-80.08731122222221,25.977978916666665],[-80.09025252777778,25.975196027777777],[-80.0868741111111,25.97280372222222]]},"properties":{"style":"solid","thickness":1}},{"type":"Feature","geometry":{"type":"LineString","coordinates":[[-80.08501008333333,25.972918888888888],[-80.08290408333333,25.978292472222222],[-80.08014536111111,25.97321936111111]]},"properties":{"style":"solid","thickness":1}},{"type":"Feature","geometry":{"type":"LineString","coordinates":[[-80.0843191111111,25.97465436111111],[-80.08104561111111,25.974856555555554]]},"properties":{"style":"solid","thickness":1}},{"type":"Feature","geometry":{"type":"LineString","coordinates":[[-80.07823583333332,25.973337249999997],[-80.07863019444444,25.978556388888887]]},"properties":{"style":"solid","thickness":1}},{"type":"Feature","geometry":{"type":"LineString","coordinates":[[-80.07587163888888,25.973483194444444],[-80.07626591666666,25.978702305555554],[-80.07073408333333,25.973800194444443],[-80.07112813888888,25.97901933333333]]},"properties":{"style":"solid","thickness":1}},{"type":"Feature","geometry":{"type":"LineString","coordinates":[[-80.0666775,25.978757055555555],[-80.06711772222222,25.979142777777778],[-80.06721175,25.979178277777777],[-80.06780902777777,25.979224027777775],[-80.06830297222221,25.979111],[-80.0685633611111,25.978929777777775],[-80.06882066666667,25.978707472222222],[-80.06902008333333,25.978323611111108],[-80.06894872222222,25.977378388888887],[-80.068648,25.97702536111111],[-80.06845372222222,25.976872194444443],[-80.06775313888889,25.976667666666664],[-80.06696469444444,25.976509861111108],[-80.0664005,25.976296916666666],[-80.06620002777777,25.976061555555553],[-80.06606566666666,25.975491833333333],[-80.06611627777778,25.97495197222222],[-80.06631880555555,25.974609194444444],[-80.06653372222222,25.974430805555553],[-80.06670627777777,25.974296305555555],[-80.06692430555555,25.974158999999997],[-80.06741513888889,25.97400486111111],[-80.06768791666666,25.973988055555555],[-80.06796691666666,25.974053416666663],[-80.06834305555556,25.97419536111111],[-80.06858277777778,25.97434572222222],[-80.06892586111111,25.97465486111111]]},"properties":{"style":"solid","thickness":1}},{"type":"Feature","geometry":{"type":"LineString","coordinates":[[-80.21433147222223,26.00106611111111],[-80.21173955555555,26.001228527777776]]},"properties":{"style":"solid","thickness":1}},{"type":"Feature","geometry":{"type":"LineString","coordinates":[[-80.21180488888889,26.003866972222223],[-80.21453330555556,26.003696027777778],[-80.21413283333334,25.998477305555557]]},"properties":{"style":"solid","thickness":1}},{"type":"Feature","geometry":{"type":"LineString","coordinates":[[-80.20684827777778,26.004177416666668],[-80.20766680555556,26.004126166666666],[-80.20807291666667,26.004059444444444],[-80.20886308333334,26.00363836111111],[-80.20958255555556,26.00289136111111],[-80.20981441666667,26.002340083333333],[-80.2099003888889,26.001674055555554],[-80.20985941666667,26.001139833333333],[-80.20973066666667,26.000652416666668],[-80.20946233333333,26.000132472222223],[-80.20891172222223,25.999506305555556],[-80.20871408333333,25.999312250000003],[-80.2083313888889,25.999088472222223],[-80.20753947222222,25.998890333333335],[-80.20658455555557,25.99895011111111],[-80.2061361388889,25.99906077777778],[-80.20569402777778,25.99925361111111],[-80.20543063888888,25.999393972222222],[-80.20500113888889,25.999751166666666],[-80.20462969444445,26.000269916666667],[-80.20451847222222,26.000607194444445],[-80.20442930555556,26.00123211111111],[-80.20450488888889,26.00221833333333],[-80.20498975,26.003178944444443],[-80.20528777777778,26.00349061111111],[-80.20562816666667,26.003758333333334],[-80.20596222222223,26.00394386111111],[-80.20605633333334,26.00397925],[-80.20684827777778,26.004177416666668]]},"properties":{"style":"solid","thickness":1}},{"type":"Feature","geometry":{"type":"LineString","coordinates":[[-80.20096252777778,26.001903277777778],[-80.19871794444445,25.999442444444444]]},"properties":{"style":"solid","thickness":1}},{"type":"Feature","geometry":{"type":"LineString","coordinates":[[-80.20240116666668,25.999212],[-80.20280111111111,26.00443075],[-80.20052741666667,26.004573027777777],[-80.20033922222223,26.00450222222222],[-80.19991736111112,26.004363472222224],[-80.19947661111111,26.00397813888889],[-80.19926325,26.003578583333333],[-80.19922547222222,26.00308547222222],[-80.1993758888889,26.002663166666668],[-80.1997536388889,26.00222663888889],[-80.20015030555555,26.002036666666665],[-80.20032591666667,26.00194311111111],[-80.20259955555557,26.001800833333334]]},"properties":{"style":"solid","thickness":1}},{"type":"Feature","geometry":{"type":"LineString","coordinates":[[-80.19725327777778,26.004777861111112],[-80.19685358333334,25.999559083333335]]},"properties":{"style":"solid","thickness":1}},{"type":"Feature","geometry":{"type":"LineString","coordinates":[[-80.19411241666667,26.00493297222222],[-80.19705186111112,26.002147916666665],[-80.19367052777778,25.999758111111113]]},"properties":{"style":"solid","thickness":1}},{"type":"Feature","geometry":{"type":"LineString","coordinates":[[-80.19216016666667,26.005096305555554],[-80.19176069444445,25.99987752777778]]},"properties":{"style":"solid","thickness":1}},{"type":"Feature","geometry":{"type":"LineString","coordinates":[[-80.18901927777779,26.005251333333334],[-80.19195886111112,26.00246636111111],[-80.18857761111111,26.000076472222222]]},"properties":{"style":"solid","thickness":1}},{"type":"Feature","geometry":{"type":"LineString","coordinates":[[-80.32862108333333,26.010271888888887],[-80.32821874999999,26.005094555555555]]},"properties":{"style":"solid","thickness":1}},{"type":"Feature","geometry":{"type":"LineString","coordinates":[[-80.3247558611111,26.010517083333333],[-80.32435369444444,26.00533975]]},"properties":{"style":"solid","thickness":1}},{"type":"Feature","geometry":{"type":"LineString","coordinates":[[-80.32843269444444,26.007847583333334],[-80.32456752777777,26.00809277777778]]},"properties":{"style":"solid","thickness":1}},{"type":"Feature","geometry":{"type":"LineString","coordinates":[[-80.31966602777777,26.010881138888887],[-80.32048455555555,26.010829222222224],[-80.32089063888888,26.010762194444446],[-80.32168044444444,26.0103405],[-80.32239922222222,26.009592944444446],[-80.32263058333334,26.009041472222222],[-80.32271594444444,26.00837538888889],[-80.32267444444444,26.007841222222222],[-80.32254522222222,26.00735388888889],[-80.32227636111111,26.006834138888888],[-80.32172513888888,26.006208416666666],[-80.32152727777778,26.0060145],[-80.32114436111111,26.00579102777778],[-80.32035222222221,26.0055935],[-80.31939730555555,26.005654055555556],[-80.31894897222222,26.005765055555557],[-80.31850702777777,26.005958222222223],[-80.31824375,26.006098805555556],[-80.31781455555556,26.006456333333333],[-80.31744358333333,26.00697536111111],[-80.31733266666666,26.00731272222222],[-80.31724411111111,26.007937722222223],[-80.31732063888889,26.008923888888887],[-80.31780644444444,26.009884111111113],[-80.31810480555555,26.01019552777778],[-80.31844544444444,26.010463],[-80.31877969444444,26.01064827777778],[-80.31887383333333,26.010683583333332],[-80.31966602777777,26.010881138888887]]},"properties":{"style":"solid","thickness":1}},{"type":"Feature","geometry":{"type":"LineString","coordinates":[[-80.31303091666666,26.010764805555556],[-80.31347205555555,26.011149777777778],[-80.31356619444445,26.011185083333334],[-80.31416372222222,26.011229833333335],[-80.31465755555556,26.011115944444445],[-80.31491763888889,26.010934305555555],[-80.31517455555556,26.010711555555556],[-80.31537322222222,26.010327361111113],[-80.31529986111111,26.009382277777778],[-80.31499833333334,26.00902975],[-80.31480369444444,26.008876916666665],[-80.31410247222222,26.008673583333334],[-80.31331349999999,26.00851711111111],[-80.31274869444444,26.00830513888889],[-80.31254766666666,26.00807011111111],[-80.31241211111112,26.007500611111112],[-80.3124616111111,26.006960694444444],[-80.31266347222223,26.006617555555554],[-80.31287808333333,26.006438805555554],[-80.31305041666667,26.006304],[-80.31326819444445,26.006166333333333],[-80.31375883333332,26.00601138888889],[-80.31403166666666,26.005994083333334],[-80.31431086111111,26.006058972222224],[-80.31468738888888,26.006200305555556],[-80.3149275,26.00635025],[-80.31527130555556,26.006658805555556]]},"properties":{"style":"solid","thickness":1}},{"type":"Feature","geometry":{"type":"LineString","coordinates":[[-80.31059469444445,26.008813194444443],[-80.30800272222221,26.008977333333334]]},"properties":{"style":"solid","thickness":1}},{"type":"Feature","geometry":{"type":"LineString","coordinates":[[-80.30807022222221,26.01161575],[-80.31079866666667,26.011442972222223],[-80.31039391666667,26.00622452777778]]},"properties":{"style":"solid","thickness":1}},{"type":"Feature","geometry":{"type":"LineString","coordinates":[[-80.30634219444444,26.011725138888888],[-80.30602047222222,26.00757502777778],[-80.30595905555555,26.007372444444446],[-80.30560891666667,26.006981694444445],[-80.30536244444444,26.006749527777778],[-80.30498591666667,26.006608194444443],[-80.30448252777778,26.00659877777778],[-80.30375497222222,26.006644805555556],[-80.30334891666666,26.006711805555554],[-80.30281916666667,26.00695177777778],[-80.30252313888889,26.007259555555557],[-80.30236036111111,26.007517611111112],[-80.30229808333333,26.007893166666666],[-80.30261330555555,26.01196113888889]]},"properties":{"style":"solid","thickness":1}},{"type":"Feature","geometry":{"type":"LineString","coordinates":[[-80.42107422222223,26.24024552777778],[-80.41847705555556,26.235167472222223],[-80.4167916388889,26.240519416666668]]},"properties":{"style":"solid","thickness":1}},{"type":"Feature","geometry":{"type":"LineString","coordinates":[[-80.41487811111112,26.24064175],[-80.41228119444445,26.235563583333334],[-80.41059547222223,26.240915472222223]]},"properties":{"style":"solid","thickness":1}},{"type":"Feature","geometry":{"type":"LineString","coordinates":[[-80.40827208333334,26.23581975],[-80.40713291666667,26.241136666666666],[-80.40480966666668,26.236040916666667],[-80.40362477777778,26.241360722222222],[-80.40152947222222,26.236250333333334]]},"properties":{"style":"solid","thickness":1}},{"type":"Feature","geometry":{"type":"LineString","coordinates":[[-80.39966155555557,26.236369583333335],[-80.39756522222223,26.241747472222222],[-80.39478677777778,26.23668061111111]]},"properties":{"style":"solid","thickness":1}},{"type":"Feature","geometry":{"type":"LineString","coordinates":[[-80.39897369444445,26.238106472222224],[-80.39569341666667,26.23831575]]},"properties":{"style":"solid","thickness":1}},{"type":"Feature","geometry":{"type":"LineString","coordinates":[[-80.39301,26.236793944444447],[-80.38945538888889,26.242264722222224]]},"properties":{"style":"solid","thickness":1}},{"type":"Feature","geometry":{"type":"LineString","coordinates":[[-80.39328250000001,26.24202066666667],[-80.38886411111112,26.237058305555557]]},"properties":{"style":"solid","thickness":1}},{"type":"Feature","geometry":{"type":"LineString","coordinates":[[-80.58581833333332,26.59283675],[-80.58540266666667,26.58766083333333]]},"properties":{"style":"solid","thickness":1}},{"type":"Feature","geometry":{"type":"LineString","coordinates":[[-80.5819345,26.593088805555553],[-80.581519,26.587912888888887]]},"properties":{"style":"solid","thickness":1}},{"type":"Feature","geometry":{"type":"LineString","coordinates":[[-80.58562369444444,26.59041311111111],[-80.58173994444444,26.590665166666664]]},"properties":{"style":"solid","thickness":1}},{"type":"Feature","geometry":{"type":"LineString","coordinates":[[-80.57727716666666,26.593432194444443],[-80.58006441666666,26.593251416666664],[-80.57964569444444,26.588034416666666],[-80.57681288888888,26.588218166666664]]},"properties":{"style":"solid","thickness":1}},{"type":"Feature","geometry":{"type":"LineString","coordinates":[[-80.57985338888888,26.59062238888889],[-80.5771576111111,26.590797249999998]]},"properties":{"style":"solid","thickness":1}},{"type":"Feature","geometry":{"type":"LineString","coordinates":[[-80.57507663888889,26.588330749999997],[-80.57549516666667,26.59354775],[-80.57348466666666,26.59367811111111],[-80.57292977777777,26.593631499999997],[-80.57269141666666,26.593523055555554],[-80.57230283333332,26.593259222222223],[-80.57171827777778,26.59284288888889],[-80.57130991666666,26.592332555555554],[-80.57118558333333,26.591927694444443],[-80.57107688888888,26.59057208333333],[-80.57113863888888,26.590196444444445],[-80.57137325,26.58968572222222],[-80.57167002777777,26.589377444444445],[-80.57196022222222,26.588987],[-80.57239408333334,26.58866983333333],[-80.57293247222222,26.588511055555553],[-80.57324902777778,26.58844925],[-80.57507663888889,26.588330749999997]]},"properties":{"style":"solid","thickness":1}},{"type":"Feature","geometry":{"type":"LineString","coordinates":[[-80.56946369444444,26.59393872222222],[-80.56904547222221,26.588721694444445],[-80.5668066111111,26.588866749999998]]},"properties":{"style":"solid","thickness":1}},{"type":"Feature","geometry":{"type":"LineString","coordinates":[[-80.56535133333333,26.59420513888889],[-80.5631265,26.591087138888888],[-80.56146738888889,26.59445663888889]]},"properties":{"style":"solid","thickness":1}},{"type":"Feature","geometry":{"type":"LineString","coordinates":[[-80.5631265,26.591087138888888],[-80.56297183333334,26.589156416666665]]},"properties":{"style":"solid","thickness":1}},{"type":"Feature","geometry":{"type":"LineString","coordinates":[[-80.62259716666667,26.09462163888889],[-80.62301602777777,26.09983913888889],[-80.621105,26.099964194444443],[-80.6206955,26.099991],[-80.62035722222221,26.09976533333333],[-80.62010663888888,26.099492638888886],[-80.62009344444444,26.099328305555556],[-80.62002749999999,26.098506666666665],[-80.62006311111111,26.098380416666664],[-80.62017325,26.09804283333333],[-80.62059525,26.097602249999998],[-80.62012047222221,26.097385499999998],[-80.61988308333332,26.097277138888888],[-80.6196391111111,26.09708661111111],[-80.61947294444444,26.096725805555554],[-80.61938722222222,26.095657666666664],[-80.61950063888888,26.095361138888887],[-80.6197993611111,26.095093805555553],[-80.62001366666667,26.09491458333333],[-80.62023124999999,26.09477647222222],[-80.62259716666667,26.09462163888889]]},"properties":{"style":"solid","thickness":1}},{"type":"Feature","geometry":{"type":"LineString","coordinates":[[-80.62282472222222,26.097456333333334],[-80.62059525,26.097602249999998]]},"properties":{"style":"solid","thickness":1}},{"type":"Feature","geometry":{"type":"LineString","coordinates":[[-80.61459844444444,26.100389805555558],[-80.61541744444443,26.10033625],[-80.61582366666666,26.10026838888889],[-80.616613,26.09984508333333],[-80.61733047222222,26.099096083333333],[-80.61756063888888,26.098544138888887],[-80.61764438888888,26.09787788888889],[-80.61760152777777,26.097343805555553],[-80.61747097222222,26.096856777777777],[-80.61720063888889,26.096337583333334],[-80.61664741666667,26.095713],[-80.61644894444444,26.09551947222222],[-80.61606516666666,26.095296777777776],[-80.61527191666666,26.095100888888886],[-80.61431644444444,26.09516336111111],[-80.61386805555556,26.095275277777777],[-80.61342624999999,26.09546936111111],[-80.61316313888888,26.09561047222222],[-80.61273449999999,26.09596886111111],[-80.61236455555554,26.09648863888889],[-80.61225438888889,26.09682622222222],[-80.61216730555554,26.09745138888889],[-80.61224638888888,26.098437388888886],[-80.61273494444444,26.09939661111111],[-80.61303430555554,26.099707416666664],[-80.61337588888888,26.099974166666666],[-80.6137108611111,26.100158750000002],[-80.61380516666667,26.10019388888889],[-80.61459844444444,26.100389805555558]]},"properties":{"style":"solid","thickness":1}},{"type":"Feature","geometry":{"type":"LineString","coordinates":[[-80.60870005555554,26.098132305555556],[-80.60644513888889,26.09567786111111]]},"properties":{"style":"solid","thickness":1}},{"type":"Feature","geometry":{"type":"LineString","coordinates":[[-80.61013055555556,26.095437027777777],[-80.6105488611111,26.100654555555558],[-80.60827383333333,26.100803250000002],[-80.60808522222221,26.100732972222225],[-80.60766255555555,26.100595416666668],[-80.6072201111111,26.100211333333334],[-80.60700519444444,26.09981238888889],[-80.60696566666667,26.099319388888887],[-80.60711475,26.098896666666665],[-80.60749133333333,26.09845908333333],[-80.60788763888888,26.098267999999997],[-80.60806305555555,26.098173944444444],[-80.61033805555554,26.09802525]]},"properties":{"style":"solid","thickness":1}},{"type":"Feature","geometry":{"type":"LineString","coordinates":[[-80.60499775,26.10101730555556],[-80.60457966666667,26.095799749999998],[-80.60235022222221,26.09594536111111]]},"properties":{"style":"solid","thickness":1}},{"type":"Feature","geometry":{"type":"LineString","coordinates":[[-80.59812702777778,26.101465972222222],[-80.60090263888888,26.10128475],[-80.60048474999999,26.096067194444444],[-80.59766377777777,26.09625136111111]]},"properties":{"style":"solid","thickness":1}},{"type":"Feature","geometry":{"type":"LineString","coordinates":[[-80.60069202777777,26.098655444444443],[-80.5980075,26.098830694444445]]},"properties":{"style":"solid","thickness":1}},{"type":"Feature","geometry":{"type":"LineString","coordinates":[[-80.96364136111112,26.431867166666667],[-80.96165522222222,26.426755944444444],[-80.96017425000001,26.432101583333335],[-80.95814263888889,26.42699338888889],[-80.95688961111111,26.432323583333336]]},"properties":{"style":"solid","thickness":1}},{"type":"Feature","geometry":{"type":"LineString","coordinates":[[-80.95453880555556,26.42723688888889],[-80.95497355555555,26.432453055555555]]},"properties":{"style":"solid","thickness":1}},{"type":"Feature","geometry":{"type":"LineString","coordinates":[[-80.9521666388889,26.42739713888889],[-80.95260130555556,26.432613305555556],[-80.94701175,26.427745222222224],[-80.94744616666667,26.432961416666668]]},"properties":{"style":"solid","thickness":1}},{"type":"Feature","geometry":{"type":"LineString","coordinates":[[-80.94176866666668,26.43309675],[-80.94205605555555,26.433242583333335],[-80.94238225000001,26.43330316666667],[-80.94347716666667,26.433229305555557],[-80.9438808888889,26.433119444444447],[-80.94401433333334,26.43306913888889],[-80.94466788888889,26.432653305555558],[-80.94504427777778,26.432214861111113],[-80.94514691666667,26.431794916666668],[-80.94540469444445,26.431034055555557],[-80.94532605555555,26.43008938888889],[-80.94519719444445,26.42964375],[-80.94502955555556,26.429283333333334],[-80.94481286111112,26.428884944444444],[-80.94431905555555,26.42846391666667],[-80.94341811111111,26.428111694444446],[-80.94281480555556,26.4280285],[-80.942313,26.428062361111113],[-80.94168458333334,26.42822866666667],[-80.94146675,26.428367277777777],[-80.94129111111111,26.428461722222224]]},"properties":{"style":"solid","thickness":1}},{"type":"Feature","geometry":{"type":"LineString","coordinates":[[-80.93658836111112,26.433694],[-80.93740955555556,26.43363861111111],[-80.93781672222222,26.43356986111111],[-80.9386071388889,26.433144805555557],[-80.93932458333333,26.432394277777778],[-80.9395538888889,26.431841861111113],[-80.93963605555555,26.431175472222222],[-80.93959161111111,26.43064152777778],[-80.93945936111112,26.430154833333333],[-80.93918683333334,26.429636277777778],[-80.93863033333334,26.429012944444445],[-80.93843075000001,26.42881988888889],[-80.93804530555556,26.428598083333334],[-80.93724927777778,26.428403944444447],[-80.93629125000001,26.428468555555558],[-80.93584191666667,26.428581472222223],[-80.9353993888889,26.4287765],[-80.93513591666667,26.428918194444446],[-80.93470705555556,26.429277527777778],[-80.93433747222223,26.429798083333335],[-80.93422791666667,26.43013588888889],[-80.93414230555555,26.430761194444447],[-80.93422430555556,26.431746944444445],[-80.93471688888889,26.432705000000002],[-80.93501794444445,26.43301513888889],[-80.93536119444445,26.43328111111111],[-80.9356976388889,26.433464944444445],[-80.93579230555557,26.433499861111112],[-80.93658836111112,26.433694]]},"properties":{"style":"solid","thickness":1}},{"type":"Feature","geometry":{"type":"LineString","coordinates":[[-80.96383269444445,26.413922166666666],[-80.97910797222222,26.412933499999998],[-80.97245600000001,26.425348500000002],[-80.96383269444445,26.413922166666666]]},"properties":{"style":"solid","thickness":1}},{"type":"Feature","geometry":{"type":"LineString","coordinates":[[-80.96944980555556,26.41637286111111],[-80.9740325,26.41607625],[-80.97201619444445,26.419754944444445],[-80.96944980555556,26.41637286111111]]},"properties":{"style":"solid","thickness":1}},{"type":"Feature","geometry":{"type":"LineString","coordinates":[[-80.58902766666667,26.579207],[-80.60432752777777,26.578257805555555],[-80.59762663888888,26.590654999999998],[-80.58902766666667,26.579207]]},"properties":{"style":"solid","thickness":1}},{"type":"Feature","geometry":{"type":"LineString","coordinates":[[-80.5946448611111,26.581672055555554],[-80.59923491666666,26.581387305555555],[-80.59720405555555,26.58506061111111],[-80.5946448611111,26.581672055555554]]},"properties":{"style":"solid","thickness":1}},{"type":"Feature","geometry":{"type":"LineString","coordinates":[[-80.42030694444445,26.22444813888889],[-80.43556211111111,26.22351663888889],[-80.4288636388889,26.235907194444444],[-80.42030694444445,26.22444813888889]]},"properties":{"style":"solid","thickness":1}},{"type":"Feature","geometry":{"type":"LineString","coordinates":[[-80.42590369444444,26.22691997222222],[-80.43048033333334,26.2266405],[-80.42845033333334,26.230311805555555],[-80.42590369444444,26.22691997222222]]},"properties":{"style":"solid","thickness":1}},{"type":"Feature","geometry":{"type":"LineString","coordinates":[[-80.62542116666665,26.08248736111111],[-80.64065633333334,26.08153425],[-80.63398747222223,26.093934583333333],[-80.62542116666665,26.08248736111111]]},"properties":{"style":"solid","thickness":1}},{"type":"Feature","geometry":{"type":"LineString","coordinates":[[-80.63101547222222,26.084951333333333],[-80.6355861388889,26.084665388888887],[-80.63356497222223,26.088339638888886],[-80.63101547222222,26.084951333333333]]},"properties":{"style":"solid","thickness":1}},{"type":"Feature","geometry":{"type":"LineString","coordinates":[[-80.32799191666666,25.995193416666666],[-80.34321819444445,25.994271611111113],[-80.33652302777777,26.006658388888887],[-80.32799191666666,25.995193416666666]]},"properties":{"style":"solid","thickness":1}},{"type":"Feature","geometry":{"type":"LineString","coordinates":[[-80.3335758611111,25.99766891666667],[-80.3381438611111,25.99739236111111],[-80.33611491666666,26.0010625],[-80.3335758611111,25.99766891666667]]},"properties":{"style":"solid","thickness":1}},{"type":"Feature","geometry":{"type":"LineString","coordinates":[[-80.21227380555555,25.988103777777777],[-80.22750005555555,25.98719413888889],[-80.22079316666667,25.999575555555555],[-80.21227380555555,25.988103777777777]]},"properties":{"style":"solid","thickness":1}},{"type":"Feature","geometry":{"type":"LineString","coordinates":[[-80.217855,25.990583722222222],[-80.22242297222222,25.990310833333336],[-80.22039055555555,25.993979333333336],[-80.217855,25.990583722222222]]},"properties":{"style":"solid","thickness":1}},{"type":"Feature","geometry":{"type":"LineString","coordinates":[[-80.08727966666666,25.95951363888889],[-80.10250316666666,25.958617166666667],[-80.09578480555555,25.97099283333333],[-80.08727966666666,25.95951363888889]]},"properties":{"style":"solid","thickness":1}},{"type":"Feature","geometry":{"type":"LineString","coordinates":[[-80.0928568611111,25.961998416666667],[-80.09742402777778,25.96172947222222],[-80.09538822222221,25.965396249999998],[-80.0928568611111,25.961998416666667]]},"properties":{"style":"solid","thickness":1}},{"type":"Feature","geometry":{"type":"LineString","coordinates":[[-80.04875966666667,25.861150583333334],[-80.06397083333333,25.860258166666668],[-80.057254,25.872632166666666],[-80.04875966666667,25.861150583333334]]},"properties":{"style":"solid","thickness":1}},{"type":"Feature","geometry":{"type":"LineString","coordinates":[[-80.05433141666667,25.86363688888889],[-80.05889488888889,25.863369138888892],[-80.05685958333333,25.867035416666667],[-80.05433141666667,25.86363688888889]]},"properties":{"style":"solid","thickness":1}},{"type":"Feature","geometry":{"type":"LineString","coordinates":[[-80.16553755555556,25.804684861111113],[-80.18074055555556,25.80378013888889],[-80.17403916666667,25.81615961111111],[-80.16553755555556,25.804684861111113]]},"properties":{"style":"solid","thickness":1}},{"type":"Feature","geometry":{"type":"LineString","coordinates":[[-80.17110911111112,25.807166666666667],[-80.17567011111112,25.806895222222224],[-80.17363938888889,25.810563166666668],[-80.17110911111112,25.807166666666667]]},"properties":{"style":"solid","thickness":1}},{"type":"Feature","geometry":{"type":"LineString","coordinates":[[-79.74775919444444,26.01038388888889],[-79.76299180555556,26.009523166666668],[-79.75623497222222,26.021882944444442],[-79.74775919444444,26.01038388888889]]},"properties":{"style":"solid","thickness":1}},{"type":"Feature","geometry":{"type":"LineString","coordinates":[[-79.7533316388889,26.01288175],[-79.75790152777778,26.012623527777777],[-79.75585433333333,26.016285472222222],[-79.7533316388889,26.01288175]]},"properties":{"style":"solid","thickness":1}},{"type":"Feature","geometry":{"type":"LineString","coordinates":[[-79.13086302777778,26.411960805555555],[-79.14615197222223,26.41116511111111],[-79.13930736111112,26.42349491666667],[-79.13086302777778,26.411960805555555]]},"properties":{"style":"solid","thickness":1}},{"type":"Feature","geometry":{"type":"LineString","coordinates":[[-79.13644133333334,26.414482194444442],[-79.1410281388889,26.41424347222222],[-79.13895477777778,26.41789636111111],[-79.13644133333334,26.414482194444442]]},"properties":{"style":"solid","thickness":1}},{"type":"Feature","geometry":{"type":"LineString","coordinates":[[-79.10067369444444,26.350459222222224],[-79.11595483333333,26.34966672222222],[-79.10911063888888,26.36199527777778],[-79.10067369444444,26.350459222222224]]},"properties":{"style":"solid","thickness":1}},{"type":"Feature","geometry":{"type":"LineString","coordinates":[[-79.10624844444443,26.352981833333335],[-79.11083288888888,26.352744055555558],[-79.10875966666666,26.356396555555555],[-79.10624844444443,26.352981833333335]]},"properties":{"style":"solid","thickness":1}},{"type":"Feature","geometry":{"type":"LineString","coordinates":[[-80.29397861111111,25.797054972222224],[-80.29397861111111,25.798522805555557]]},"properties":{"style":"solid","thickness":1}},{"type":"Feature","geometry":{"type":"LineString","coordinates":[[-80.29357325,25.796908194444445],[-80.29357325,25.798669583333336]]},"properties":{"style":"solid","thickness":1}},{"type":"Feature","geometry":{"type":"LineString","coordinates":[[-80.29316788888889,25.796908194444445],[-80.29316788888889,25.798669583333336]]},"properties":{"style":"solid","thickness":1}},{"type":"Feature","geometry":{"type":"LineString","coordinates":[[-80.29276252777778,25.797054972222224],[-80.29276252777778,25.798522805555557]]},"properties":{"style":"solid","thickness":1}},{"type":"Feature","geometry":{"type":"LineString","coordinates":[[-80.29235716666666,25.797788888888892],[-80.29236344444445,25.797892944444445],[-80.29238372222223,25.798001722222224],[-80.29241988888889,25.798113166666667],[-80.29247347222223,25.798224611111113],[-80.29254525,25.79833288888889],[-80.29263508333334,25.798434472222223],[-80.29274169444444,25.798525833333336],[-80.29286277777777,25.798603694444445],[-80.29299494444444,25.798665444444445],[-80.29313422222222,25.798709472222225],[-80.29327633333334,25.79873513888889],[-80.29341711111111,25.798742972222225],[-80.29355288888888,25.798734305555556],[-80.29368072222222,25.798711222222224],[-80.29379858333333,25.798676166666667],[-80.29390516666666,25.79863166666667],[-80.2940025,25.79857861111111],[-80.29409755555555,25.798512861111114],[-80.29418822222222,25.798433388888892],[-80.29427133333333,25.79834013888889],[-80.29434344444444,25.798233805555558],[-80.29440122222222,25.798115916666667],[-80.29444161111111,25.797988972222225],[-80.29446241666666,25.797856250000002],[-80.29446241666666,25.797721527777778],[-80.29444161111111,25.79758877777778],[-80.29440119444445,25.797461833333337],[-80.29434344444444,25.797343972222222],[-80.29427133333333,25.79723761111111],[-80.29418822222222,25.797144361111112],[-80.29409755555555,25.797064916666667],[-80.2940025,25.79699913888889],[-80.29390516666666,25.79694611111111],[-80.29379855555555,25.796901611111114],[-80.29368072222222,25.79686652777778],[-80.29355286111111,25.796843472222225],[-80.29341711111111,25.79683480555556],[-80.29327633333334,25.796842611111114],[-80.29313425,25.796868305555556],[-80.29299494444444,25.79691230555556],[-80.29286277777777,25.796974083333335],[-80.29274172222222,25.797051944444448],[-80.29263508333334,25.797143277777778],[-80.29254527777778,25.79724488888889],[-80.29247347222223,25.797353166666667],[-80.29241988888889,25.797464611111113],[-80.29238372222223,25.797576055555556],[-80.29236344444445,25.797684833333335],[-80.29235716666666,25.797788888888892]]},"properties":{"style":"solid","thickness":1}}]}
