{"type":"FeatureCollection","features":[{"type":"Feature","geometry":{"type":"LineString","coordinates":[[-80.50798913888889,25.913911916666667],[-80.50094405555555,25.910339805555555],[-80.50809405555556,25.906942833333332]]},"properties":{"style":"solid","thickness":1}},{"type":"Feature","geometry":{"type":"LineString","coordinates":[[-80.55772461111111,25.91103069444444],[-80.50094405555555,25.910339805555555]]},"properties":{"style":"solid","thickness":1}},{"type":"Feature","geometry":{"type":"LineString","coordinates":[[-80.99805111111111,26.010321472222223],[-80.77889552777778,25.933952027777778]]},"properties":{"style":"solid","thickness":1}},{"type":"Feature","geometry":{"type":"LineString","coordinates":[[-80.77276736111111,25.932677583333334],[-80.5653925,25.91144136111111]]},"properties":{"style":"solid","thickness":1}},{"type":"Feature","geometry":{"type":"LineString","coordinates":[[-80.29392066666666,25.797020916666668],[-80.29403380555556,25.79848516666667]]},"properties":{"style":"solid","thickness":1}},{"type":"Feature","geometry":{"type":"LineString","coordinates":[[-80.293505,25.796900083333334],[-80.29364072222222,25.798657194444445]]},"properties":{"style":"solid","thickness":1}},{"type":"Feature","geometry":{"type":"LineString","coordinates":[[-80.29310061111111,25.796925694444447],[-80.29323633333333,25.798682805555558]]},"properties":{"style":"solid","thickness":1}},{"type":"Feature","geometry":{"type":"LineString","coordinates":[[-80.29270755555555,25.797097722222222],[-80.29282063888888,25.798561972222224]]},"properties":{"style":"solid","thickness":1}},{"type":"Feature","geometry":{"type":"LineString","coordinates":[[-80.29235972222222,25.797855444444448],[-80.292374,25.797958861111113],[-80.29240261111111,25.798066083333335],[-80.29244730555556,25.798174972222224],[-80.29250933333333,25.798282750000002],[-80.29258927777778,25.79838625],[-80.29268672222221,25.798481916666667],[-80.2928001111111,25.798566305555557],[-80.29292688888889,25.798636333333334],[-80.2930635,25.79868961111111],[-80.29320583333333,25.798724722222225],[-80.29334958333334,25.798741361111112],[-80.29349061111111,25.798740277777778],[-80.29362538888888,25.798723055555556],[-80.2937511388889,25.798691972222223],[-80.293866,25.79864952777778],[-80.29396891666667,25.798598416666668],[-80.29406191666666,25.798539361111114],[-80.29415166666666,25.79846775],[-80.294236,25.798382750000002],[-80.29431172222222,25.798284472222225],[-80.29437547222221,25.798173833333333],[-80.29442399999999,25.798052611111114],[-80.29445452777777,25.79792341666667],[-80.29446505555555,25.797789694444447],[-80.29445466666667,25.79765530555556],[-80.29442369444445,25.797524194444446],[-80.29437358333332,25.797400111111113],[-80.29430688888888,25.79728616666667],[-80.29422674999999,25.79718463888889],[-80.29413666666666,25.79709686111111],[-80.29404008333333,25.797023333333335],[-80.29394019444445,25.796963722222223],[-80.29383899999999,25.796916972222224],[-80.29372925,25.796879305555557],[-80.293609,25.796851750000002],[-80.29347966666667,25.796836805555557],[-80.29334358333332,25.79683675],[-80.29320375,25.796853444444444],[-80.29306397222221,25.79688802777778],[-80.29292841666667,25.796940722222224],[-80.29280133333333,25.797010694444445],[-80.29268655555555,25.797096000000003],[-80.29258722222222,25.79719386111111],[-80.29250544444444,25.79730088888889],[-80.29244219444445,25.797413444444445],[-80.29239733333333,25.797528000000003],[-80.29236980555555,25.797641444444444],[-80.29235797222222,25.797751222222224],[-80.29235972222222,25.797855444444448]]},"properties":{"style":"solid","thickness":1}},{"type":"Feature","geometry":{"type":"LineString","coordinates":[[-80.55931880555555,25.911248166666667],[-80.55939327777777,25.911661416666664],[-80.55954813888889,25.91205597222222],[-80.55977844444445,25.912419166666666],[-80.56007672222222,25.91273936111111],[-80.56043347222221,25.913006222222222],[-80.56083713888889,25.913211194444443],[-80.56127480555556,25.913347694444443],[-80.56173238888888,25.913411333333332],[-80.56219519444444,25.913400027777776],[-80.56264830555556,25.913314194444443],[-80.56307719444445,25.913156555555553],[-80.56346808333333,25.912932194444444],[-80.56380838888889,25.912648333333333],[-80.56408716666667,25.912314055555555],[-80.56429544444444,25.911940166666664],[-80.56442658333333,25.91153861111111],[-80.56447633333333,25.91112236111111],[-80.56444308333333,25.910704749999997],[-80.56432791666667,25.910299249999998],[-80.56413455555555,25.909918833333332],[-80.56386919444444,25.90957575],[-80.56354036111111,25.909281055555553],[-80.56315863888888,25.909044166666664],[-80.56273625,25.908872749999997],[-80.56228683333333,25.908772305555555],[-80.56182480555556,25.908746027777777],[-80.56136502777777,25.908794777777775],[-80.56092224999999,25.908917],[-80.56051072222222,25.909108777777778],[-80.56014366666666,25.909363916666667],[-80.5598328611111,25.909674222222222],[-80.55958833333334,25.91002972222222],[-80.55941791666666,25.910418999999997],[-80.5593271111111,25.910829555555555],[-80.55931880555555,25.911248166666667]]},"properties":{"style":"solid","thickness":1}},{"type":"Feature","geometry":{"type":"LineString","coordinates":[[-80.56232394444444,25.916477305555553],[-80.56208577777778,25.915450527777775],[-80.56164194444445,25.914481249999998],[-80.56100769444444,25.913602805555556],[-80.56020488888889,25.9128455],[-80.55926119444445,25.912235388888888],[-80.55820908333332,25.91179347222222],[-80.55708480555555,25.911534999999997],[-80.55592705555556,25.91146883333333]]},"properties":{"style":"solid","thickness":1}},{"type":"Feature","geometry":{"type":"LineString","coordinates":[[-80.55592705555556,25.91146883333333],[-80.55706241666667,25.911253499999997],[-80.55813419444443,25.910852166666665],[-80.5591055,25.910278583333334],[-80.55994288888888,25.909552583333333],[-80.56061749999999,25.90869911111111],[-80.5611061111111,25.90774761111111],[-80.56139188888889,25.90673083333333],[-80.561465,25.905683805555554]]},"properties":{"style":"solid","thickness":1}},{"type":"Feature","geometry":{"type":"LineString","coordinates":[[-80.561465,25.905683805555554],[-80.56170311111111,25.906710583333332],[-80.56214691666666,25.90767986111111],[-80.56278113888888,25.908558277777775],[-80.56358394444445,25.90931558333333],[-80.56452763888889,25.909925666666666],[-80.56557975,25.910367527777776],[-80.56670405555555,25.910625944444444],[-80.56786177777778,25.910692027777777]]},"properties":{"style":"solid","thickness":1}},{"type":"Feature","geometry":{"type":"LineString","coordinates":[[-80.56786177777778,25.910692027777777],[-80.56672647222221,25.910907444444444],[-80.56565469444445,25.91130886111111],[-80.56468341666667,25.91188247222222],[-80.56384602777777,25.912608499999997],[-80.56317141666666,25.91346197222222],[-80.56268280555555,25.9144135],[-80.56239702777778,25.915430277777777],[-80.56232394444444,25.916477305555553]]},"properties":{"style":"solid","thickness":1}},{"type":"Feature","geometry":{"type":"LineString","coordinates":[[-80.7736908888889,25.933204722222225],[-80.77376611111112,25.933617833333333],[-80.77392172222223,25.934012166666665],[-80.77415269444444,25.93437502777778],[-80.7744516111111,25.93469477777778],[-80.77480888888888,25.93496111111111],[-80.775213,25.9351655],[-80.775651,25.93530136111111],[-80.77610877777778,25.935364305555556],[-80.77657161111111,25.935352333333334],[-80.77702466666666,25.935265833333332],[-80.77745336111111,25.935107583333334],[-80.77784388888888,25.93488263888889],[-80.77818375,25.934598277777777],[-80.77846197222222,25.93426361111111],[-80.77866963888889,25.93388938888889],[-80.77880005555555,25.933487666666668],[-80.77884908333333,25.93307136111111],[-80.77881508333333,25.932653805555557],[-80.77869916666667,25.932248444444447],[-80.77850508333333,25.931868333333334],[-80.77823905555556,25.93152566666667],[-80.77790963888889,25.931231444444446],[-80.77752741666667,25.93099513888889],[-80.77710466666666,25.930824333333334],[-80.776655,25.93072452777778],[-80.77619283333333,25.930698944444444],[-80.77573305555555,25.93074838888889],[-80.77529041666666,25.930871250000003],[-80.77487916666666,25.931063611111114],[-80.7745125,25.931319277777778],[-80.77420219444444,25.931630055555555],[-80.77395827777778,25.93198591666667],[-80.77378852777778,25.932375444444446],[-80.77369841666666,25.932786111111113],[-80.7736908888889,25.933204722222225]]},"properties":{"style":"solid","thickness":1}},{"type":"Feature","geometry":{"type":"LineString","coordinates":[[-80.77670591666667,25.938429361111112],[-80.7764658888889,25.937402972222223],[-80.77602022222221,25.936434333333334],[-80.77538430555555,25.93555686111111],[-80.77458,25.93480075],[-80.77363502777777,25.93419202777778],[-80.77258194444444,25.933751666666666],[-80.771457,25.933494833333334],[-80.77029894444445,25.93343036111111]]},"properties":{"style":"solid","thickness":1}},{"type":"Feature","geometry":{"type":"LineString","coordinates":[[-80.77029894444445,25.93343036111111],[-80.7714341111111,25.93321338888889],[-80.77250536111112,25.932810472222222],[-80.77347580555555,25.932235472222224],[-80.77431202777778,25.93150825],[-80.77498522222223,25.930653805555558],[-80.77547219444445,25.929701583333333],[-80.77575619444444,25.928684416666666],[-80.77582744444445,25.927637305555557]]},"properties":{"style":"solid","thickness":1}},{"type":"Feature","geometry":{"type":"LineString","coordinates":[[-80.77582744444445,25.927637305555557],[-80.77606744444445,25.928663694444445],[-80.77651308333333,25.929632333333334],[-80.777149,25.930509805555555],[-80.77795327777778,25.931265916666668],[-80.77889825,25.931874611111112],[-80.77995133333333,25.93231491666667],[-80.78107627777777,25.932571666666668],[-80.78223433333334,25.932636055555555]]},"properties":{"style":"solid","thickness":1}},{"type":"Feature","geometry":{"type":"LineString","coordinates":[[-80.78223433333334,25.932636055555555],[-80.78109919444444,25.93285311111111],[-80.78002797222221,25.933256111111113],[-80.77905755555555,25.933831138888888],[-80.77822133333333,25.934558388888888],[-80.77754813888889,25.93541286111111],[-80.77706116666667,25.936365055555555],[-80.77677716666666,25.93738225],[-80.77670591666667,25.938429361111112]]},"properties":{"style":"solid","thickness":1}},{"type":"Feature","geometry":{"type":"LineString","coordinates":[[-80.99810622222222,26.01141147222222],[-80.99818227777777,26.011824472222223],[-80.99833875,26.01221852777778],[-80.99857055555556,26.012581027777777],[-80.99887027777778,26.012900305555554],[-80.99922827777777,26.013166083333335],[-80.99963302777778,26.013369833333332],[-81.00007155555555,26.013505],[-81.00052975,26.01356725],[-81.00099286111111,26.013554555555555],[-81.00144602777777,26.01346736111111],[-81.00187469444444,26.013308444444444],[-81.00226505555555,26.013082916666665],[-81.00260458333334,26.012798027777777],[-81.0028823611111,26.012462944444444],[-81.00308944444444,26.012088444444444],[-81.00321919444444,26.011686527777776],[-81.00326744444445,26.01127013888889],[-81.00323263888889,26.01085266666667],[-81.00311591666667,26.0104475],[-81.00292097222223,26.010067694444444],[-81.00265413888889,26.009725444444445],[-81.00232394444444,26.00943175],[-81.00194102777778,26.00919602777778],[-81.00151769444444,26.00902588888889],[-81.00106755555555,26.008926805555557],[-81.00060505555555,26.008901916666666],[-81.00014505555555,26.008952055555554],[-80.99970236111112,26.00907561111111],[-80.99929122222223,26.00926861111111],[-80.99892480555556,26.009524833333334],[-80.9986148888889,26.009836055555557],[-80.99837147222222,26.01019227777778],[-80.99820236111111,26.010582055555556],[-80.998113,26.01099286111111],[-80.99810622222222,26.01141147222222]]},"properties":{"style":"solid","thickness":1}},{"type":"Feature","geometry":{"type":"LineString","coordinates":[[-81.00113305555556,26.016631277777776],[-81.00089094444445,26.015605277777777],[-81.00044316666667,26.01463738888889],[-80.99980516666666,26.013760916666666],[-80.99899891666666,26.013006055555554],[-80.99805219444444,26.012398805555556],[-80.99699761111111,26.01196011111111],[-80.99587147222222,26.01170502777778],[-80.99471255555555,26.01164236111111]]},"properties":{"style":"solid","thickness":1}},{"type":"Feature","geometry":{"type":"LineString","coordinates":[[-80.99471255555555,26.01164236111111],[-80.99584802777778,26.011423611111113],[-80.99691919444444,26.011019055555554],[-80.99788919444444,26.010442583333333],[-80.99872458333333,26.009714083333332],[-80.99939658333334,26.00885863888889],[-80.99988208333333,26.007905722222223],[-81.00016433333333,26.00688813888889],[-81.00023363888889,26.005840944444444]]},"properties":{"style":"solid","thickness":1}},{"type":"Feature","geometry":{"type":"LineString","coordinates":[[-81.00023363888889,26.005840944444444],[-81.00047575,26.006866944444443],[-81.00092347222223,26.007834833333334],[-81.00156144444445,26.008711305555554],[-81.00236769444444,26.00946613888889],[-81.00331441666667,26.01007336111111],[-81.004369,26.01051202777778],[-81.00549513888889,26.010767055555554],[-81.00665405555556,26.01082963888889]]},"properties":{"style":"solid","thickness":1}},{"type":"Feature","geometry":{"type":"LineString","coordinates":[[-81.00665405555556,26.01082963888889],[-81.00551861111111,26.011048444444445],[-81.00444747222222,26.011453083333333],[-81.0034775,26.012029583333334],[-81.00264213888889,26.01275811111111],[-81.0019701388889,26.013613555555555],[-81.00148463888888,26.0145665],[-81.00120236111111,26.015584083333334],[-81.00113305555556,26.016631277777776]]},"properties":{"style":"solid","thickness":1}},{"type":"Feature","geometry":{"type":"LineString","coordinates":[[-80.98940858333333,26.02272083333333],[-80.99036722222222,26.023696166666667],[-80.99125613888889,26.023833916666664],[-80.99185597222223,26.023793138888887],[-80.9926575,26.023540444444443],[-80.99349833333333,26.022442777777776],[-80.99360152777778,26.021048444444443],[-80.99353994444445,26.020309416666667],[-80.99349891666667,26.01981675],[-80.99340744444444,26.019377027777775],[-80.99317819444444,26.01859986111111],[-80.99216916666667,26.017677527777778],[-80.99133483333334,26.017536083333333],[-80.99084408333333,26.017569444444444],[-80.98993352777778,26.017829527777778],[-80.98908861111111,26.018877916666664]]},"properties":{"style":"solid","thickness":1}},{"type":"Feature","geometry":{"type":"LineString","coordinates":[[-80.98727541666666,26.0241045],[-80.98686116666667,26.019128388888888],[-80.98656922222223,26.018256388888886],[-80.98555491666667,26.017928944444442],[-80.98370097222222,26.018054916666667],[-80.98275227777778,26.018515722222222],[-80.98249888888888,26.019424805555555],[-80.98291297222222,26.024400916666664]]},"properties":{"style":"solid","thickness":1}},{"type":"Feature","geometry":{"type":"LineString","coordinates":[[-80.98062266666666,26.024556472222223],[-80.98020869444444,26.019580333333334],[-80.97991680555556,26.018708333333333],[-80.9789025,26.01838083333333],[-80.97704855555556,26.01850672222222],[-80.97609980555556,26.0189675],[-80.9758463888889,26.019876527777775],[-80.97626016666666,26.024852666666664]]},"properties":{"style":"solid","thickness":1}},{"type":"Feature","geometry":{"type":"LineString","coordinates":[[-80.9709893888889,26.0221385],[-80.96914188888888,26.019043305555556]]},"properties":{"style":"solid","thickness":1}},{"type":"Feature","geometry":{"type":"LineString","coordinates":[[-80.97344966666667,26.018750999999998],[-80.97396986111112,26.02500813888889],[-80.97118875,26.02519686111111],[-80.97035030555556,26.025005999999998],[-80.9695595,26.02406872222222],[-80.96951036111112,26.0234775],[-80.97008286111111,26.02244772222222],[-80.97093486111112,26.022142194444445],[-80.97371588888889,26.021953472222222]]},"properties":{"style":"solid","thickness":1}},{"type":"Feature","geometry":{"type":"LineString","coordinates":[[-80.96742605555556,26.02545211111111],[-80.96289991666667,26.025759]]},"properties":{"style":"solid","thickness":1}},{"type":"Feature","geometry":{"type":"LineString","coordinates":[[-80.96513572222223,26.025607416666666],[-80.964616,26.01935025]]},"properties":{"style":"solid","thickness":1}},{"type":"Feature","geometry":{"type":"LineString","coordinates":[[-80.55559083333333,25.92318402777778],[-80.5530838611111,25.923347055555556],[-80.5521221111111,25.92296375],[-80.55143644444445,25.9219185],[-80.55105033333334,25.920507],[-80.55123627777778,25.918711583333334],[-80.55174955555555,25.91758838888889],[-80.55258622222222,25.91708813888889],[-80.55509305555556,25.91692513888889],[-80.55559083333333,25.92318402777778]]},"properties":{"style":"solid","thickness":1}},{"type":"Feature","geometry":{"type":"LineString","coordinates":[[-80.54464758333333,25.922656916666668],[-80.54565630555555,25.92363163888889],[-80.54654394444444,25.92377213888889],[-80.54719794444445,25.92372963888889],[-80.54789077777778,25.923486472222223],[-80.548735,25.922391305555557],[-80.54884725,25.921046500000003],[-80.548765,25.920011583333334],[-80.548375,25.918550805555558],[-80.54747922222222,25.91761827777778],[-80.54664611111112,25.91747425],[-80.54604663888888,25.917513222222222],[-80.54519036111111,25.917767],[-80.54434613888888,25.918862111111114],[-80.544444,25.920094194444445],[-80.54564294444444,25.920016305555556]]},"properties":{"style":"solid","thickness":1}},{"type":"Feature","geometry":{"type":"LineString","coordinates":[[-80.54201388888889,25.917775194444445],[-80.54251097222222,25.924034111111112],[-80.53770863888889,25.91805475],[-80.5382055,25.924313694444447]]},"properties":{"style":"solid","thickness":1}},{"type":"Feature","geometry":{"type":"LineString","coordinates":[[-80.53300352777778,25.921580000000002],[-80.53116894444445,25.91847913888889]]},"properties":{"style":"solid","thickness":1}},{"type":"Feature","geometry":{"type":"LineString","coordinates":[[-80.53547425,25.91819977777778],[-80.535971,25.924458722222223],[-80.53319147222223,25.924639083333336],[-80.53235441666666,25.924445722222224],[-80.53156772222222,25.92350602777778],[-80.53152080555556,25.92291461111111],[-80.53209661111111,25.92188652777778],[-80.53294902777778,25.921583555555557],[-80.53572847222222,25.921403166666668]]},"properties":{"style":"solid","thickness":1}},{"type":"Feature","geometry":{"type":"LineString","coordinates":[[-80.52746894444445,25.92501027777778],[-80.52692391666666,25.925045611111113],[-80.52597005555556,25.924760722222224],[-80.525016,25.923782305555555],[-80.52470033333333,25.922564333333334],[-80.52461047222222,25.921430833333336],[-80.52473080555555,25.92018461111111],[-80.52557522222222,25.919089583333335],[-80.52642763888889,25.91878663888889],[-80.5269726111111,25.918751305555556],[-80.52780963888888,25.918944694444445],[-80.52881816666667,25.919919583333336],[-80.5291338888889,25.92113752777778],[-80.52922377777777,25.92227102777778],[-80.52910741666666,25.92356652777778],[-80.528263,25.924661583333336],[-80.52746894444445,25.92501027777778]]},"properties":{"style":"solid","thickness":1}},{"type":"Feature","geometry":{"type":"LineString","coordinates":[[-80.77987380555555,25.94423502777778],[-80.77803247222222,25.941137305555557]]},"properties":{"style":"solid","thickness":1}},{"type":"Feature","geometry":{"type":"LineString","coordinates":[[-80.78233794444445,25.940850666666666],[-80.78284775,25.94710866666667],[-80.7800681111111,25.947293722222224],[-80.7792305,25.947101777777778],[-80.77844172222223,25.946163416666668],[-80.77839358333333,25.94557211111111],[-80.77896736111111,25.944543083333333],[-80.77981930555555,25.94423863888889],[-80.78259886111111,25.944053583333332]]},"properties":{"style":"solid","thickness":1}},{"type":"Feature","geometry":{"type":"LineString","coordinates":[[-80.77193975,25.943029],[-80.77537330555556,25.942800555555557]]},"properties":{"style":"solid","thickness":1}},{"type":"Feature","geometry":{"type":"LineString","coordinates":[[-80.77579797222222,25.941286027777778],[-80.77401830555556,25.947696361111113],[-80.77127447222222,25.941586972222222]]},"properties":{"style":"solid","thickness":1}},{"type":"Feature","geometry":{"type":"LineString","coordinates":[[-80.76954905555556,25.947993611111112],[-80.76551580555555,25.948261777777777],[-80.76903994444444,25.941735555555557],[-80.76473441666667,25.942021805555555]]},"properties":{"style":"solid","thickness":1}},{"type":"Feature","geometry":{"type":"LineString","coordinates":[[-80.76300863888889,25.94842838888889],[-80.76249986111111,25.942170333333333],[-80.75857580555555,25.94243102777778]]},"properties":{"style":"solid","thickness":1}},{"type":"Feature","geometry":{"type":"LineString","coordinates":[[-80.75654297222222,25.945736750000002],[-80.75370880555556,25.945924944444446]]},"properties":{"style":"solid","thickness":1}},{"type":"Feature","geometry":{"type":"LineString","coordinates":[[-80.75281636111112,25.949105333333332],[-80.75679519444445,25.948841166666668],[-80.75628675,25.942583055555556],[-80.75203563888888,25.942865333333334]]},"properties":{"style":"solid","thickness":1}}]}
