{"type":"FeatureCollection","features":[{"type":"Feature","geometry":{"type":"LineString","coordinates":[[-79.83401666666666,26.069972222222223],[-79.83381666666666,26.09824722222222],[-79.7873361111111,26.12005],[-79.73648333333334,26.14173611111111],[-79.61014722222221,26.19591388888889],[-79.58297777777777,26.13756111111111],[-79.50303333333333,26.076497222222223],[-79.49805555555555,26.060833333333335]]},"properties":{"style":"solid","thickness":1}},{"type":"Feature","geometry":{"type":"LineString","coordinates":[[-79.49805555555555,26.060833333333335],[-79.55,26.066666666666666],[-79.63615277777778,26.06767222222222],[-79.78285277777778,26.06940277777778],[-79.83401666666666,26.069972222222223],[-79.8956388888889,26.07041388888889],[-79.96457777777778,26.070891666666668],[-79.96457777777778,26.070891666666668],[-80.13364444444446,26.071983333333332],[-80.1504638888889,26.07207777777778],[-80.14943333333333,26.04351666666667],[-80.14580000000001,25.96321111111111]]},"properties":{"style":"solid","thickness":1}},{"type":"Feature","geometry":{"type":"LineString","coordinates":[[-79.96457777777778,26.070891666666668],[-79.96640555555555,26.041275000000002],[-79.97236666666667,25.96334722222222]]},"properties":{"style":"solid","thickness":1}},{"type":"Feature","geometry":{"type":"LineString","coordinates":[[-80.2908,25.86773611111111],[-80.29028333333333,25.912605555555555],[-80.28958333333333,25.96318611111111],[-80.24617222222223,25.963224999999998],[-80.14580000000001,25.96321111111111],[-79.99961944444445,25.96335277777778],[-79.97236666666667,25.96334722222222],[-79.83601388888889,25.962605555555555],[-79.70054444444445,25.96289722222222],[-79.69958611111112,25.821925]]},"properties":{"style":"solid","thickness":1}},{"type":"Feature","geometry":{"type":"LineString","coordinates":[[-80.2908,25.86773611111111],[-80.22366666666667,25.867594444444446],[-80.12355277777777,25.867572222222222],[-80.11815277777777,25.85653611111111],[-80.11301666666667,25.843130555555554],[-80.1099,25.83271111111111],[-80.10706666666665,25.81949722222222],[-80.10580277777777,25.809527777777777],[-80.10533055555555,25.802658333333333],[-80.06152222222222,25.805344444444444],[-79.99938333333334,25.80848611111111],[-79.91828333333333,25.81258888888889],[-79.69958611111112,25.821925],[-79.65293333333334,25.82275]]},"properties":{"style":"solid","thickness":1}},{"type":"Feature","geometry":{"type":"LineString","coordinates":[[-79.97236666666667,25.96334722222222],[-79.95691111111111,25.93982777777778],[-79.94041666666666,25.904975],[-79.93115277777778,25.876466666666666],[-79.92214166666668,25.841491666666666],[-79.91828333333333,25.81258888888889]]},"properties":{"style":"solid","thickness":1}},{"type":"Feature","geometry":{"type":"LineString","coordinates":[[-79.49805555555555,26.060833333333335],[-79.53999722222223,25.99655277777778],[-79.57034999999999,25.94994722222222],[-79.65293333333334,25.82275]]},"properties":{"style":"solid","thickness":1}},{"type":"Feature","geometry":{"type":"LineString","coordinates":[[-79.69925950000001,26.11457763888889],[-79.70270769444444,26.11436241666667],[-79.70332727777777,26.110651861111112],[-79.7026733888889,26.110964666666668],[-79.7020996388889,26.111340472222224],[-79.70075038888889,26.111424694444445],[-79.70006538888889,26.111331444444446],[-79.69935969444445,26.1109675],[-79.69853755555556,26.11006686111111],[-79.69832547222222,26.109264111111113],[-79.69824777777778,26.108249],[-79.69864052777778,26.10747652777778],[-79.69910822222222,26.10669936111111],[-79.69931755555555,26.106482305555556],[-79.6997413888889,26.106115861111114],[-79.70048055555556,26.105933722222225],[-79.70130508333334,26.10588227777778],[-79.70191508333333,26.105980194444445],[-79.70268536111111,26.106204083333335],[-79.70340141666667,26.106703361111112],[-79.70349194444445,26.106901694444446]]},"properties":{"style":"solid","thickness":1}},{"type":"Feature","geometry":{"type":"LineString","coordinates":[[-79.69008530555556,26.109846055555558],[-79.69024061111112,26.111876277777778],[-79.69055347222222,26.113012722222223],[-79.69074480555555,26.11354477777778],[-79.69100075,26.113936805555557],[-79.6919623888889,26.114692805555556],[-79.69288783333333,26.11497511111111],[-79.69318766666667,26.114956388888892],[-79.69406130555556,26.11456191666667],[-79.69482372222222,26.11369841666667],[-79.6950925,26.113273666666668],[-79.69520097222222,26.11272291666667],[-79.69533780555555,26.111558416666668],[-79.69518244444444,26.109528194444447],[-79.69486952777778,26.10839177777778],[-79.69467819444445,26.107859722222223],[-79.69434730555555,26.10747238888889],[-79.6934606388889,26.106711694444446],[-79.69253527777778,26.106429444444444],[-79.69223547222222,26.10644813888889],[-79.69136188888889,26.106842583333336],[-79.69052452777778,26.107710750000003],[-79.69033069444446,26.108130833333334],[-79.69022219444444,26.108681583333336],[-79.69008530555556,26.109846055555558]]},"properties":{"style":"solid","thickness":1}},{"type":"Feature","geometry":{"type":"LineString","coordinates":[[-79.68701986111111,26.111125083333334],[-79.6823723888889,26.111414638888892]]},"properties":{"style":"solid","thickness":1}},{"type":"Feature","geometry":{"type":"LineString","coordinates":[[-79.67954980555557,26.115874222222224],[-79.67377772222223,26.1162335],[-79.67716925,26.107386861111113]]},"properties":{"style":"solid","thickness":1}},{"type":"Feature","geometry":{"type":"LineString","coordinates":[[-79.66519897222223,26.11139538888889],[-79.66535380555555,26.11342563888889],[-79.66566644444445,26.11456213888889],[-79.66585766666667,26.115094222222222],[-79.66611352777778,26.11548627777778],[-79.66707505555556,26.116242444444445],[-79.66800041666667,26.11652488888889],[-79.66830027777779,26.11650625],[-79.669174,26.116111916666668],[-79.66993661111111,26.11524852777778],[-79.67020547222222,26.114823833333336],[-79.67031408333334,26.114273111111114],[-79.67045116666667,26.11310863888889],[-79.67029622222223,26.11107838888889],[-79.66998352777779,26.109941916666667],[-79.66979230555556,26.109409833333334],[-79.66946147222222,26.109022444444445],[-79.66857497222223,26.10826161111111],[-79.66764966666668,26.107979166666667],[-79.66734983333333,26.107997833333336],[-79.66647616666667,26.10839213888889],[-79.66563861111112,26.10926016666667],[-79.66544469444445,26.109680194444447],[-79.66533608333334,26.11023091666667],[-79.66519897222223,26.11139538888889]]},"properties":{"style":"solid","thickness":1}},{"type":"Feature","geometry":{"type":"LineString","coordinates":[[-80.07910891666667,26.028095805555555],[-80.07983688888889,26.028728583333333],[-80.07999208333332,26.0287865],[-80.08097647222222,26.02885844444444],[-80.0817895,26.0286695],[-80.08221727777777,26.02836961111111],[-80.08263963888888,26.028002027777777],[-80.08296555555555,26.027368694444444],[-80.08284144444444,26.025812444444444],[-80.08234352777778,26.02523275],[-80.08202238888889,26.024981583333332],[-80.08086666666667,26.02464872222222],[-80.07956655555556,26.024393277777776],[-80.07863549999999,26.024045777777776],[-80.07830358333332,26.023659277777778],[-80.07807830555555,26.02272175],[-80.07815797222221,26.02183238888889],[-80.07848927777778,26.021266722222222],[-80.07884213888889,26.020971694444444],[-80.07912549999999,26.02074922222222],[-80.07948375,26.02052186111111],[-80.08029133333334,26.020265249999998],[-80.08074066666666,26.020236027777777],[-80.08120077777778,26.02034211111111],[-80.08182144444444,26.02057375],[-80.08221747222221,26.020820027777777],[-80.08278486111111,26.021327194444442]]},"properties":{"style":"solid","thickness":1}},{"type":"Feature","geometry":{"type":"LineString","coordinates":[[-80.06184633333334,26.029694166666665],[-80.06231722222222,26.029935638888887],[-80.06285224999999,26.030036916666667],[-80.06464972222221,26.029920138888887],[-80.065313,26.029741027777778],[-80.06553227777778,26.02965875],[-80.06660719444444,26.02897677777778],[-80.06722736111111,26.02825636111111],[-80.06739816666666,26.02756511111111],[-80.06782544444444,26.02631311111111],[-80.06770152777777,26.02475683333333],[-80.0674925,26.024022277777778],[-80.06721933333333,26.023427916666666],[-80.06686591666666,26.02277075],[-80.06605775,26.02207511111111],[-80.06458102777778,26.021490944444444],[-80.06359130555555,26.021351222222222],[-80.06276752777778,26.021404722222222],[-80.06173525,26.021675833333333],[-80.06137694444445,26.021903138888888],[-80.06108816666666,26.022057916666665]]},"properties":{"style":"solid","thickness":1}},{"type":"Feature","geometry":{"type":"LineString","coordinates":[[-80.05831908333333,26.02604647222222],[-80.05367577777777,26.02634788888889]]},"properties":{"style":"solid","thickness":1}},{"type":"Feature","geometry":{"type":"LineString","coordinates":[[-80.04584575,26.03107261111111],[-80.04929091666666,26.030849194444443],[-80.04989927777778,26.027137027777776],[-80.04924675,26.027451416666665],[-80.0486745,26.02782861111111],[-80.04732641666666,26.027916027777778],[-80.04664161111111,26.027824416666665],[-80.04593533333333,26.02746213888889],[-80.04511113888888,26.026563416666665],[-80.04489686111111,26.02576113888889],[-80.04481625,26.024746194444443],[-80.04520647222222,26.02397275],[-80.04567158333333,26.023194444444442],[-80.04588013888889,26.022976888888888],[-80.04630261111112,26.022609416666665],[-80.04704075,26.022425527777777],[-80.04786455555555,26.02237211111111],[-80.04847441666666,26.022468555555555],[-80.04924483333333,26.02269063888889],[-80.04996186111111,26.02318822222222],[-80.05005286111111,26.02338636111111]]},"properties":{"style":"solid","thickness":1}},{"type":"Feature","geometry":{"type":"LineString","coordinates":[[-80.03666405555555,26.02636272222222],[-80.03682516666666,26.02839263888889],[-80.03714113888888,26.029528388888888],[-80.03733388888888,26.03006],[-80.03759080555555,26.030451444444445],[-80.038554,26.031205166666666],[-80.0394796111111,26.03148525],[-80.03977919444445,26.03146586111111],[-80.04065108333333,26.031069277777778],[-80.04141044444444,26.030203916666665],[-80.04167780555555,26.029778527777776],[-80.04178461111111,26.029227499999998],[-80.04191794444445,26.028062638888887],[-80.04175675,26.026032722222222],[-80.04144074999999,26.024897],[-80.04124797222222,26.02436538888889],[-80.04091619444445,26.023978805555554],[-80.04002791666666,26.02322022222222],[-80.03910238888889,26.022940138888888],[-80.03880280555555,26.022959555555556],[-80.03793097222223,26.02335611111111],[-80.03709672222222,26.024226305555555],[-80.03690427777778,26.024646861111112],[-80.03679744444445,26.02519786111111],[-80.03666405555555,26.02636272222222]]},"properties":{"style":"solid","thickness":1}},{"type":"Feature","geometry":{"type":"LineString","coordinates":[[-79.8454691111111,25.889011583333332],[-79.846195,25.889645527777777],[-79.84634988888888,25.889703694444442],[-79.84733297222222,25.88977722222222],[-79.84814541666667,25.889589555555556],[-79.84857327777777,25.88929033333333],[-79.8489958611111,25.888923444444444],[-79.8493226111111,25.88829061111111],[-79.84920166666666,25.886734138888887],[-79.8487055,25.886153611111112],[-79.84838522222222,25.885901944444445],[-79.84723149999999,25.88556725],[-79.84593341666667,25.88530972222222],[-79.84500413888888,25.88496072222222],[-79.8446733611111,25.884573694444445],[-79.84445016666666,25.883635805555556],[-79.84453147222222,25.88274652777778],[-79.84486349999999,25.88218138888889],[-79.84521652777778,25.881886916666666],[-79.8455,25.88166488888889],[-79.84585827777778,25.881438111111112],[-79.84666538888888,25.881182777777777],[-79.84711424999999,25.88115425],[-79.8475736111111,25.881261055555555],[-79.8481931111111,25.881493722222224],[-79.84858819444445,25.88174063888889],[-79.84915391666667,25.882248722222222]]},"properties":{"style":"solid","thickness":1}},{"type":"Feature","geometry":{"type":"LineString","coordinates":[[-79.82822369444445,25.89058247222222],[-79.82869358333333,25.890824694444444],[-79.82922777777777,25.89092683333333],[-79.83102333333333,25.890812916666665],[-79.83168619444444,25.890634833333333],[-79.83190538888888,25.890552916666667],[-79.83298038888888,25.889872666666665],[-79.83360122222221,25.889153194444443],[-79.83377316666666,25.888462222222223],[-79.83420238888888,25.88721086111111],[-79.83408163888889,25.885654388888888],[-79.83387427777777,25.884919472222222],[-79.8336026111111,25.884324666666664],[-79.83325086111111,25.883666916666666],[-79.83244502777778,25.88297],[-79.83097116666666,25.882383444444446],[-79.82998288888888,25.882242138888888],[-79.82915997222221,25.88229436111111],[-79.82812836111111,25.882563805555556],[-79.82777005555555,25.882790555555555],[-79.82748130555555,25.88294488888889]]},"properties":{"style":"solid","thickness":1}},{"type":"Feature","geometry":{"type":"LineString","coordinates":[[-79.82470772222221,25.88692911111111],[-79.82006927777778,25.887223111111112]]},"properties":{"style":"solid","thickness":1}},{"type":"Feature","geometry":{"type":"LineString","coordinates":[[-79.81223924999999,25.891935444444442],[-79.81568083333333,25.8917175],[-79.81629569444443,25.88800625],[-79.81564333333333,25.88831961111111],[-79.815071,25.88869588888889],[-79.81372433333333,25.888781166666668],[-79.81304052777777,25.88868847222222],[-79.81233577777778,25.888325055555555],[-79.81151433333334,25.887425],[-79.8113018611111,25.88662238888889],[-79.81122330555556,25.885607277777776],[-79.81161458333332,25.884834444444444],[-79.81208066666666,25.884056861111112],[-79.81228938888889,25.883839638888887],[-79.81271208333332,25.883472833333332],[-79.81344972222222,25.883290111111112],[-79.81427263888888,25.883238000000002],[-79.8148816111111,25.883335444444445],[-79.81565066666667,25.88355875],[-79.81636588888888,25.8840575],[-79.81645641666667,25.884255777777778]]},"properties":{"style":"solid","thickness":1}},{"type":"Feature","geometry":{"type":"LineString","coordinates":[[-79.80307755555555,25.88721086111111],[-79.80323452777778,25.88924108333333],[-79.80354791666666,25.890377333333333],[-79.80373941666666,25.89090925],[-79.80399525,25.89130111111111],[-79.80495583333332,25.89205638888889],[-79.80587980555555,25.892337972222222],[-79.80617908333333,25.892319027777777],[-79.80705072222221,25.891923833333333],[-79.80781088888888,25.891059666666667],[-79.80807874999999,25.890634694444444],[-79.80818649999999,25.890083833333332],[-79.80832194444444,25.888919166666668],[-79.80816491666667,25.886888944444443],[-79.8078515,25.885752694444445],[-79.80766,25.88522077777778],[-79.80732933333333,25.884833666666665],[-79.80644358333333,25.884073666666666],[-79.80551969444444,25.88379211111111],[-79.80522044444444,25.883811027777778],[-79.80434886111111,25.884206194444445],[-79.80351388888889,25.885075083333334],[-79.80332083333333,25.88549533333333],[-79.80321308333333,25.886046194444443],[-79.80307755555555,25.88721086111111]]},"properties":{"style":"solid","thickness":1}},{"type":"Feature","geometry":{"type":"LineString","coordinates":[[-80.0724753611111,25.895610305555554],[-80.0732025,25.89624311111111],[-80.0733575,25.896301055555554],[-80.07434080555555,25.896373055555554],[-80.07515294444444,25.896184138888888],[-80.07558025,25.895884249999998],[-80.07600219444444,25.895516694444446],[-80.07632774999999,25.894883333333333],[-80.07620386111111,25.893327055555556],[-80.07570652777777,25.892747305555556],[-80.07538575,25.892496138888887],[-80.07423133333333,25.892163222222223],[-80.07293269444445,25.891907694444445],[-80.07200269444444,25.891560138888888],[-80.07167116666666,25.891173638888887],[-80.07144616666666,25.890236055555555],[-80.07152580555555,25.889346666666665],[-80.07185675,25.888780999999998],[-80.07220925,25.888486],[-80.07249230555556,25.888263527777777],[-80.07285016666667,25.888036166666666],[-80.07365688888889,25.887779583333334],[-80.07410569444444,25.88775036111111],[-80.07456530555555,25.88785647222222],[-80.07518527777778,25.888088166666666],[-80.0755808611111,25.888334472222223],[-80.07614758333332,25.888841666666668]]},"properties":{"style":"solid","thickness":1}},{"type":"Feature","geometry":{"type":"LineString","coordinates":[[-80.05523186111111,25.897208],[-80.05570222222222,25.8974495],[-80.05623663888889,25.897550777777777],[-80.0580321111111,25.897434083333334],[-80.05869466666667,25.897255],[-80.05891372222221,25.897172722222223],[-80.05998747222222,25.896490777777778],[-80.06060699999999,25.89577036111111],[-80.06077763888888,25.895079111111112],[-80.0612045,25.89382708333333],[-80.06108080555555,25.892270777777778],[-80.06087202777778,25.891536194444445],[-80.06059922222222,25.890941777777776],[-80.06024622222222,25.890284583333333],[-80.059439,25.889588916666668],[-80.05796391666667,25.889004666666665],[-80.05697530555555,25.88886488888889],[-80.05615244444444,25.88891836111111],[-80.05512130555556,25.889189416666667],[-80.05476338888889,25.889416722222222],[-80.05447491666666,25.8895715]]},"properties":{"style":"solid","thickness":1}},{"type":"Feature","geometry":{"type":"LineString","coordinates":[[-80.05170869444444,25.893560055555554],[-80.04707052777778,25.893861305555554]]},"properties":{"style":"solid","thickness":1}},{"type":"Feature","geometry":{"type":"LineString","coordinates":[[-80.04415366666666,25.895955055555554],[-80.04418588888889,25.896361055555555],[-80.04407383333333,25.896844444444444],[-80.04382291666667,25.897472861111112],[-80.04355586111112,25.897898277777777],[-80.04312847222222,25.898198055555554],[-80.04254072222221,25.89837222222222],[-80.04141852777778,25.898445055555555],[-80.04058486111111,25.89836311111111],[-80.04019469444444,25.89818438888889],[-80.03963344444445,25.897744694444444],[-80.039457,25.897416083333333],[-80.03926444444444,25.896884472222222],[-80.03917858333332,25.895801805555553],[-80.039296,25.89538611111111],[-80.0398566111111,25.893921416666664],[-80.04067919444444,25.89291586111111],[-80.04199858333334,25.89153797222222],[-80.04358497222222,25.88973463888889],[-80.03887213888889,25.89004047222222]]},"properties":{"style":"solid","thickness":1}},{"type":"Feature","geometry":{"type":"LineString","coordinates":[[-80.03082580555555,25.893826916666665],[-80.03098663888889,25.895856916666666],[-80.03130222222222,25.896992694444442],[-80.03149472222222,25.897524333333333],[-80.03175133333333,25.897915777777776],[-80.03271341666667,25.898669583333334],[-80.033638,25.898949722222223],[-80.03393725,25.898930305555556],[-80.03480819444444,25.89853377777778],[-80.03556675,25.897668416666665],[-80.03583383333333,25.897243],[-80.03594052777778,25.89669197222222],[-80.03607377777777,25.895527083333334],[-80.03591286111111,25.89349711111111],[-80.03559725,25.892361333333334],[-80.03540472222222,25.891829694444443],[-80.03507330555556,25.891443111111112],[-80.03418608333334,25.890684472222222],[-80.03326155555555,25.89040436111111],[-80.03296233333333,25.89042375],[-80.03209144444445,25.890820277777777],[-80.03125808333333,25.891690472222223],[-80.03106583333333,25.892111027777776],[-80.03095908333333,25.892662055555554],[-80.03082580555555,25.893826916666665]]},"properties":{"style":"solid","thickness":1}},{"type":"Feature","geometry":{"type":"LineString","coordinates":[[-79.74467497222223,26.008535388888887],[-79.74540102777777,26.009169805555555],[-79.74555602777778,26.009228083333333],[-79.74654002777778,26.009302277777778],[-79.74735344444444,26.009115194444444],[-79.74778197222223,26.00881627777778],[-79.74820530555556,26.008449694444444],[-79.74853291666666,26.007817111111112],[-79.74841319444444,26.00626061111111],[-79.747917,26.00567975],[-79.7475966388889,26.00542788888889],[-79.74644205555556,26.00509238888889],[-79.74514291666667,26.004833944444446],[-79.744213,26.004484333333334],[-79.74388222222223,26.004097083333335],[-79.74365961111111,26.003159027777777],[-79.74374175,26.00226986111111],[-79.74407458333333,26.00170497222222],[-79.74442822222223,26.001410777777778],[-79.74471216666667,26.001188944444444],[-79.74507097222222,26.00096238888889],[-79.7458791388889,26.000707666666667],[-79.74632847222222,26.000679444444444],[-79.74678819444445,26.000786583333333],[-79.74740811111111,26.001019638888888],[-79.74780336111111,26.001266833333332],[-79.74836922222222,26.001775305555554]]},"properties":{"style":"solid","thickness":1}},{"type":"Feature","geometry":{"type":"LineString","coordinates":[[-79.72741105555556,26.010094166666665],[-79.72788119444445,26.010336722222224],[-79.72841583333333,26.01043922222222],[-79.73021330555555,26.010326555555555],[-79.73087694444445,26.010148972222222],[-79.73109644444445,26.010067194444446],[-79.73217308333334,26.009387694444445],[-79.73279513888889,26.008668694444445],[-79.7329678611111,26.00797786111111],[-79.73339855555555,26.00672686111111],[-79.73327902777778,26.005170333333332],[-79.73307208333334,26.004435305555557],[-79.73280066666666,26.003840305555556],[-79.7324491388889,26.00318236111111],[-79.73164308333334,26.00248488888889],[-79.73016825,26.001897333333332],[-79.72917911111111,26.001755333333332],[-79.72835533333334,26.001806972222223],[-79.72732247222223,26.002075694444443],[-79.72696361111112,26.002302194444443],[-79.72667444444444,26.002456305555555]]},"properties":{"style":"solid","thickness":1}},{"type":"Feature","geometry":{"type":"LineString","coordinates":[[-79.72389469444444,26.00643847222222],[-79.71925138888889,26.00672925]]},"properties":{"style":"solid","thickness":1}},{"type":"Feature","geometry":{"type":"LineString","coordinates":[[-79.71643272222222,26.011189666666667],[-79.71066577777778,26.011550472222222],[-79.7140515,26.002702694444444]]},"properties":{"style":"solid","thickness":1}},{"type":"Feature","geometry":{"type":"LineString","coordinates":[[-79.702093,26.006714444444444],[-79.70224838888889,26.00874472222222],[-79.70256111111111,26.009881166666666],[-79.70275233333334,26.010413194444446],[-79.70300808333333,26.01080522222222],[-79.703969,26.011561166666667],[-79.70489363888889,26.01184336111111],[-79.70519322222222,26.01182463888889],[-79.70606608333334,26.011430083333334],[-79.70682775,26.010566472222223],[-79.70709622222222,26.010141694444446],[-79.70720455555556,26.009590916666667],[-79.70734113888889,26.00842638888889],[-79.70718569444445,26.00639613888889],[-79.70687291666667,26.005259694444444],[-79.70668169444444,26.004727666666668],[-79.70635102777779,26.00434033333333],[-79.70546505555556,26.003579722222224],[-79.70454047222222,26.00329752777778],[-79.70424091666666,26.00331625],[-79.70336813888889,26.003710805555556],[-79.70253158333334,26.004579055555556],[-79.702338,26.004999166666668],[-79.7022296388889,26.005549916666666],[-79.702093,26.006714444444444]]},"properties":{"style":"solid","thickness":1}},{"type":"Feature","geometry":{"type":"LineString","coordinates":[[-80.07508930555555,26.02488861111111],[-80.07082055555556,26.02516622222222]]},"properties":{"style":"solid","thickness":1}},{"type":"Feature","geometry":{"type":"LineString","coordinates":[[-80.07094080555555,26.029511277777775],[-80.07543438888888,26.029219055555554],[-80.07474966666666,26.020625833333334]]},"properties":{"style":"solid","thickness":1}},{"type":"Feature","geometry":{"type":"LineString","coordinates":[[-79.84146047222222,25.885797916666665],[-79.83719619444445,25.886068722222223]]},"properties":{"style":"solid","thickness":1}},{"type":"Feature","geometry":{"type":"LineString","coordinates":[[-79.83730783333333,25.890414055555556],[-79.84179672222221,25.890128999999998],[-79.84112952777777,25.881534527777777]]},"properties":{"style":"solid","thickness":1}},{"type":"Feature","geometry":{"type":"LineString","coordinates":[[-80.06846038888888,25.892402861111112],[-80.06419636111112,25.892680277777778]]},"properties":{"style":"solid","thickness":1}},{"type":"Feature","geometry":{"type":"LineString","coordinates":[[-80.06431622222222,25.89702547222222],[-80.0688048611111,25.896733416666667],[-80.06812133333332,25.888139944444443]]},"properties":{"style":"solid","thickness":1}},{"type":"Feature","geometry":{"type":"LineString","coordinates":[[-79.74066511111111,26.005319027777777],[-79.73639633333333,26.005586833333332]]},"properties":{"style":"solid","thickness":1}},{"type":"Feature","geometry":{"type":"LineString","coordinates":[[-79.73650436111112,26.009932111111112],[-79.74099797222222,26.009650194444443],[-79.74033744444445,26.001055527777776]]},"properties":{"style":"solid","thickness":1}}]}
