{"type":"FeatureCollection","features":[{"type":"Feature","geometry":{"type":"LineString","coordinates":[[-80.45353525,26.145183805555554],[-80.45746841666667,26.130758111111113],[-80.46060711111112,26.116174611111113],[-80.46294397222222,26.101468972222225],[-80.46447358333333,26.086677027777778],[-80.46519252777777,26.071834916666667],[-80.46509933333334,26.05697877777778],[-80.46419455555557,26.042144833333335],[-80.46248066666666,26.027369277777776],[-80.45996219444444,26.012688055555557],[-80.45664550000001,25.998136944444447],[-80.4542606388889,25.98943152777778]]},"properties":{"style":"solid","thickness":1}},{"type":"Feature","geometry":{"type":"LineString","coordinates":[[-80.27321766666667,26.17396013888889],[-80.28084272222222,26.16528522222222],[-80.28781352777777,26.15617347222222],[-80.29409958333333,26.146664944444446],[-80.29967341666666,26.136801416666668],[-80.30451072222222,26.126626305555558],[-80.30859038888889,26.116184305555556],[-80.31189472222222,26.105521250000002],[-80.31440941666666,26.094684055555554],[-80.31612363888888,26.08372025],[-80.31703008333334,26.072677972222223],[-80.31712502777778,26.06160572222222],[-80.31640825,26.05055202777778],[-80.31488313888889,26.03956541666667],[-80.31255658333333,26.028694055555555],[-80.309439,26.017985638888888],[-80.30554427777777,26.007487027777778],[-80.30088969444444,25.997244305555558],[-80.29549580555556,25.98730227777778],[-80.28938644444445,25.977704527777775],[-80.28258852777778,25.968493055555555],[-80.27513194444444,25.959708222222222],[-80.27454366666666,25.95906397222222]]},"properties":{"style":"solid","thickness":1}},{"type":"Feature","geometry":{"type":"LineString","coordinates":[[-80.29068408333333,26.167271666666668],[-80.27556916666667,26.157608527777775]]},"properties":{"style":"solid","thickness":1}},{"type":"Feature","geometry":{"type":"LineString","coordinates":[[-80.29189702777778,25.965925972222223],[-80.27668980555555,25.97543894444444]]},"properties":{"style":"solid","thickness":1}},{"type":"Feature","geometry":{"type":"LineString","coordinates":[[-80.47450425,26.067385166666668],[-80.45599572222223,26.067316305555554]]},"properties":{"style":"solid","thickness":1}},{"type":"Feature","geometry":{"type":"LineString","coordinates":[[-80.32643630555555,26.066768416666665],[-80.30792791666667,26.06668075]]},"properties":{"style":"solid","thickness":1}},{"type":"Feature","geometry":{"type":"LineString","coordinates":[[-80.26742755555556,25.96440075],[-80.28165913888888,25.95372686111111]]},"properties":{"style":"solid","thickness":1}},{"type":"Feature","geometry":{"type":"LineString","coordinates":[[-80.26615569444445,26.16855191666667],[-80.28028027777778,26.17936802777778]]},"properties":{"style":"solid","thickness":1}},{"type":"Feature","geometry":{"type":"LineString","coordinates":[[-80.45131269444445,26.01649961111111],[-80.46954541666666,26.013665305555556]]},"properties":{"style":"solid","thickness":1}},{"type":"Feature","geometry":{"type":"LineString","coordinates":[[-80.44531733333334,25.991560583333335],[-80.46320363888888,25.987301916666667]]},"properties":{"style":"solid","thickness":1}},{"type":"Feature","geometry":{"type":"LineString","coordinates":[[-80.44460069444445,26.14298636111111],[-80.46247011111112,26.147380694444443]]},"properties":{"style":"solid","thickness":1}},{"type":"Feature","geometry":{"type":"LineString","coordinates":[[-80.45083711111111,26.118095],[-80.46905911111111,26.12106616666667]]},"properties":{"style":"solid","thickness":1}},{"type":"Feature","geometry":{"type":"LineString","coordinates":[[-80.13200622222222,26.078730055555557],[-80.13010416666665,26.074484388888887],[-80.12897597222222,26.070019138888888],[-80.12865041666666,26.065448583333335],[-80.12913572222222,26.060889583333335],[-80.13041938888888,26.05645875],[-80.13219763888888,26.052731583333333]]},"properties":{"style":"solid","thickness":1}},{"type":"Feature","geometry":{"type":"LineString","coordinates":[[-80.13200622222222,26.078730055555557],[-80.13397,26.074506],[-80.1351631388889,26.070053277777777],[-80.13555522222222,26.065485722222224],[-80.13513633333334,26.06092013888889],[-80.13391727777778,26.056473166666667],[-80.13219763888888,26.052731583333333]]},"properties":{"style":"solid","thickness":1}},{"type":"Feature","geometry":{"type":"LineString","coordinates":[[-80.506355,26.06743011111111],[-80.5024928888889,26.06767963888889],[-80.5003428888889,26.065884194444447],[-80.50001938888889,26.065179722222222],[-80.49970544444444,26.06459552777778],[-80.49959116666666,26.06315216666667],[-80.50003816666667,26.06203525],[-80.50075147222222,26.06090111111111],[-80.50151238888888,26.06036838888889],[-80.5020165,26.05997313888889],[-80.50305327777778,26.059543472222224],[-80.50545027777778,26.05938861111111],[-80.50654419444444,26.059680583333336],[-80.50739083333333,26.060230361111113],[-80.50812338888889,26.061029277777777],[-80.50859913888888,26.061965666666666],[-80.50879902777778,26.06279902777778],[-80.50889433333333,26.064001805555556],[-80.50880883333333,26.064611833333334],[-80.5084665,26.065359333333333],[-80.50796238888888,26.065754583333334],[-80.506355,26.06743011111111],[-80.50762983333334,26.06831488888889],[-80.50837194444445,26.069234083333335],[-80.50868597222222,26.06981825],[-80.50883847222222,26.071742722222222],[-80.50828694444445,26.07322911111111],[-80.507916,26.07361577777778],[-80.50675547222222,26.074174361111112],[-80.50598497222222,26.074586833333335],[-80.50425358333334,26.074698694444443],[-80.50302633333334,26.074415305555554],[-80.50119016666666,26.073204055555557],[-80.50087619444444,26.07261986111111],[-80.50070475,26.070454833333333],[-80.50100905555556,26.069226222222223],[-80.50113272222222,26.069097333333332],[-80.5017605,26.068573222222224],[-80.5024928888889,26.06767963888889]]},"properties":{"style":"solid","thickness":1}},{"type":"Feature","geometry":{"type":"LineString","coordinates":[[-80.48396183333334,26.07540375],[-80.48479897222222,26.075833361111112],[-80.48575030555556,26.076013805555554],[-80.48894677777778,26.075807666666666],[-80.49012644444444,26.075489805555556],[-80.49051647222223,26.07534375],[-80.4924286388889,26.074132333333335],[-80.49353211111111,26.072852166666667],[-80.4938365,26.071623583333334],[-80.49459744444445,26.06939838888889],[-80.49437855555556,26.066631944444445],[-80.49400752777778,26.065326055555555],[-80.49352236111112,26.064269305555555],[-80.49289452777778,26.06310088888889],[-80.49145813888889,26.06186375],[-80.48883280555556,26.060824166666666],[-80.48707305555556,26.060575],[-80.48560819444444,26.060669444444446],[-80.48377233333333,26.0611505],[-80.483135,26.061554277777777],[-80.48262133333334,26.061829166666666]]},"properties":{"style":"solid","thickness":1}},{"type":"Feature","geometry":{"type":"LineString","coordinates":[[-80.3199316111111,26.167191722222224],[-80.32021205555556,26.17080038888889],[-80.32077091666666,26.17282],[-80.32111233333333,26.17376541666667],[-80.3215683611111,26.174461833333336],[-80.32328030555556,26.175804055555556],[-80.32492680555555,26.176304222222225],[-80.32546005555555,26.176270444444445],[-80.327013,26.175567722222222],[-80.3283671111111,26.17403138888889],[-80.32884422222222,26.17327588888889],[-80.32903597222221,26.172296694444444],[-80.32927677777778,26.170226444444445],[-80.32899605555555,26.166617805555553],[-80.32843708333333,26.16459822222222],[-80.32809563888888,26.163652805555554],[-80.32750630555554,26.16296486111111],[-80.32592780555555,26.16161425],[-80.3242815,26.16111408333333],[-80.32374833333333,26.16114786111111],[-80.32219555555555,26.161850555555553],[-80.32070819444444,26.163395277777777],[-80.32036438888889,26.164142305555554],[-80.32017258333333,26.165121499999998],[-80.3199316111111,26.167191722222224]]},"properties":{"style":"solid","thickness":1}},{"type":"Feature","geometry":{"type":"LineString","coordinates":[[-80.3138845,26.161772027777776],[-80.31507108333334,26.17704875],[-80.30947191666667,26.17740277777778],[-80.30827208333334,26.177478611111113],[-80.30728288888889,26.176815833333336],[-80.30655097222223,26.176015944444444],[-80.30651363888889,26.17553477777778],[-80.30632691666666,26.173128972222223],[-80.30643222222221,26.172759694444444],[-80.30675747222222,26.171772111111114],[-80.30799716666667,26.170484972222223],[-80.3066081111111,26.169847472222223],[-80.30591355555555,26.169528722222225],[-80.30520038888889,26.16896938888889],[-80.30471647222222,26.167912027777778],[-80.30447380555556,26.1647845],[-80.30480838888889,26.163917194444444],[-80.30568547222222,26.1631365],[-80.3063146111111,26.16261322222222],[-80.30695311111111,26.162210249999998],[-80.3138845,26.161772027777776]]},"properties":{"style":"solid","thickness":1}},{"type":"Feature","geometry":{"type":"LineString","coordinates":[[-80.31452913888889,26.170072],[-80.30799716666667,26.170484972222223]]},"properties":{"style":"solid","thickness":1}},{"type":"Feature","geometry":{"type":"LineString","coordinates":[[-80.301299,26.19156877777778],[-80.30157894444444,26.195177472222223],[-80.3021376111111,26.19719713888889],[-80.30247894444445,26.198142611111113],[-80.30293494444444,26.198839083333333],[-80.30464702777778,26.2001815],[-80.30629380555555,26.20068186111111],[-80.30682716666666,26.200648166666667],[-80.30838052777777,26.199945638888888],[-80.30973516666667,26.198409472222224],[-80.31021247222222,26.197654055555557],[-80.31040441666666,26.19667488888889],[-80.31064561111111,26.194604694444443],[-80.31036538888888,26.19099602777778],[-80.30980663888889,26.18897638888889],[-80.30946525,26.188030944444446],[-80.30887591666666,26.187342916666665],[-80.30729730555555,26.185992111111112],[-80.30565075,26.18549175],[-80.30511744444445,26.185525444444444],[-80.30356425,26.186227944444443],[-80.30207633333333,26.18777247222222],[-80.3017323611111,26.188519444444445],[-80.30154033333334,26.189498611111112],[-80.301299,26.19156877777778]]},"properties":{"style":"solid","thickness":1}},{"type":"Feature","geometry":{"type":"LineString","coordinates":[[-80.29538483333333,26.186139944444445],[-80.28923544444444,26.201879333333334],[-80.281119,26.18703947222222]]},"properties":{"style":"solid","thickness":1}},{"type":"Feature","geometry":{"type":"LineString","coordinates":[[-80.29336722222222,26.19122325],[-80.28376738888889,26.191828555555556]]},"properties":{"style":"solid","thickness":1}},{"type":"Feature","geometry":{"type":"LineString","coordinates":[[-80.35354522222222,26.064383166666666],[-80.35382644444444,26.067991833333334],[-80.35438538888889,26.07001136111111],[-80.35472677777777,26.07095675],[-80.3551826111111,26.071653083333334],[-80.35689344444444,26.072994916666666],[-80.35853866666666,26.07349472222222],[-80.35907144444444,26.073460833333332],[-80.36062283333332,26.07275772222222],[-80.3619753611111,26.071221027777778],[-80.36245183333332,26.070465416666668],[-80.36264313888888,26.069486138888887],[-80.36288316666666,26.067415805555555],[-80.36260166666666,26.06380713888889],[-80.36204261111111,26.06178763888889],[-80.36170116666666,26.060842277777777],[-80.36111216666666,26.060154444444446],[-80.35953463888889,26.05880416666667],[-80.35788963888888,26.05830438888889],[-80.35735691666666,26.05833827777778],[-80.35580569444444,26.059041361111113],[-80.35432005555555,26.060586444444446],[-80.35397675,26.061333583333333],[-80.35378538888888,26.062312833333333],[-80.35354522222222,26.064383166666666]]},"properties":{"style":"solid","thickness":1}},{"type":"Feature","geometry":{"type":"LineString","coordinates":[[-80.33758025,26.07422175],[-80.3384168611111,26.074652194444443],[-80.33936797222222,26.07483361111111],[-80.34256466666666,26.074630694444444],[-80.34374469444444,26.074314],[-80.34413491666666,26.074168333333333],[-80.34604855555556,26.072958833333335],[-80.34715361111111,26.071679777777778],[-80.3474595,26.0704515],[-80.34822316666666,26.068227055555557],[-80.34800769444443,26.06546038888889],[-80.34763827777778,26.064154138888888],[-80.34715441666667,26.06309688888889],[-80.34652799999999,26.061927833333336],[-80.34509316666666,26.06068925],[-80.3424691111111,26.05964702777778],[-80.34070969444444,26.059396083333333],[-80.33924472222222,26.059489083333332],[-80.33740830555556,26.059968305555557],[-80.33677047222221,26.060371444444446],[-80.33625647222222,26.060645805555556]]},"properties":{"style":"solid","thickness":1}},{"type":"Feature","geometry":{"type":"LineString","coordinates":[[-80.49808122222223,26.155396666666665],[-80.49421625000001,26.155645999999997],[-80.49206475,26.15385047222222],[-80.49174108333334,26.15314597222222],[-80.49142694444444,26.152561777777777],[-80.49131269444445,26.151118444444442],[-80.49176008333333,26.150001555555555],[-80.492474,26.148867499999998],[-80.4932355,26.148334833333333],[-80.49374,26.14793961111111],[-80.49477758333333,26.147510027777777],[-80.49717636111112,26.147355277777777],[-80.49827108333334,26.14764733333333],[-80.49911830555556,26.14819711111111],[-80.49985136111111,26.148996055555553],[-80.50032738888889,26.149932472222222],[-80.50052736111111,26.150765805555555],[-80.50062266666667,26.151968583333332],[-80.50053705555555,26.15257858333333],[-80.50019441666667,26.153326055555553],[-80.49968991666667,26.153721277777777],[-80.49808122222223,26.155396666666665],[-80.49935694444444,26.1562815],[-80.50009955555555,26.15720072222222],[-80.50041375,26.157784888888887],[-80.50056625,26.159709333333332],[-80.50001422222222,26.161195666666664],[-80.49964297222222,26.161582305555555],[-80.49848155555556,26.162140805555556],[-80.49771044444445,26.162553222222222],[-80.49597775,26.162664999999997],[-80.49474963888889,26.162381527777775],[-80.49291219444444,26.16117022222222],[-80.492598,26.160586027777775],[-80.49242661111111,26.158421027777777],[-80.49273122222222,26.157192444444444],[-80.49285497222222,26.157063583333333],[-80.49348325,26.156539499999997],[-80.49421625000001,26.155645999999997]]},"properties":{"style":"solid","thickness":1}},{"type":"Feature","geometry":{"type":"LineString","coordinates":[[-80.48571541666666,26.14809425],[-80.47959327777778,26.163841777777776],[-80.47145566666667,26.149012416666665]]},"properties":{"style":"solid","thickness":1}},{"type":"Feature","geometry":{"type":"LineString","coordinates":[[-80.48370661111112,26.153180222222222],[-80.47411086111111,26.15379808333333]]},"properties":{"style":"solid","thickness":1}},{"type":"Feature","geometry":{"type":"LineString","coordinates":[[-80.49937288888889,26.123835055555556],[-80.49550894444445,26.124084416666665],[-80.493358,26.12228888888889],[-80.49303441666667,26.121584388888888],[-80.49272033333334,26.121000194444445],[-80.49260611111112,26.119556833333334],[-80.49305336111111,26.118439972222223],[-80.49376708333334,26.11730588888889],[-80.4945283888889,26.116773194444445],[-80.49503275000001,26.116377972222224],[-80.49607002777778,26.115948361111112],[-80.49846819444444,26.115793611111112],[-80.49956261111112,26.11608563888889],[-80.50040963888888,26.116635444444444],[-80.50114247222223,26.11743438888889],[-80.50161838888889,26.118370805555557],[-80.50181833333333,26.11920413888889],[-80.5019136111111,26.120406916666667],[-80.50182802777778,26.12101691666667],[-80.5014855,26.121764388888888],[-80.50098113888889,26.12215963888889],[-80.49937288888889,26.123835055555556],[-80.50064827777778,26.12471988888889],[-80.50139069444444,26.125639111111113],[-80.50170483333333,26.12622327777778],[-80.50185730555556,26.128147722222224],[-80.50130541666667,26.129634083333332],[-80.50093427777777,26.130020722222223],[-80.49977316666667,26.130579222222224],[-80.49900225,26.130991666666667],[-80.49727005555556,26.131103444444445],[-80.49604225,26.13082],[-80.49420527777778,26.129608694444446],[-80.49389116666667,26.129024472222223],[-80.49371980555556,26.126859472222222],[-80.49402430555556,26.12563088888889],[-80.49414802777778,26.125502027777777],[-80.4947761388889,26.124977944444446],[-80.49550894444445,26.124084416666665]]},"properties":{"style":"solid","thickness":1}},{"type":"Feature","geometry":{"type":"LineString","coordinates":[[-80.48687705555555,26.116541277777777],[-80.48808541666666,26.131816694444446],[-80.48248894444444,26.13217736111111],[-80.48128966666667,26.13225461111111],[-80.4802998888889,26.13159302777778],[-80.47956708333334,26.13079397222222],[-80.47952905555556,26.13031286111111],[-80.47933891666666,26.12790727777778],[-80.4794436388889,26.12753786111111],[-80.47976730555555,26.126549861111112],[-80.48100466666666,26.12526125],[-80.47961519444445,26.12462538888889],[-80.47892047222223,26.124307472222224],[-80.47820675,26.123748972222224],[-80.47772147222223,26.122692194444443],[-80.4774743611111,26.11956491666667],[-80.47780755555556,26.118697222222224],[-80.47868316666667,26.117915472222222],[-80.47931130555556,26.117391444444443],[-80.47994894444444,26.116987694444443],[-80.48687705555555,26.116541277777777]]},"properties":{"style":"solid","thickness":1}},{"type":"Feature","geometry":{"type":"LineString","coordinates":[[-80.48753352777779,26.124840527777778],[-80.48100466666666,26.12526125]]},"properties":{"style":"solid","thickness":1}},{"type":"Feature","geometry":{"type":"LineString","coordinates":[[-80.50366991666667,26.01266752777778],[-80.49980958333333,26.01291697222222],[-80.49766058333333,26.01112147222222],[-80.49733727777777,26.010416972222224],[-80.49702347222222,26.009832777777778],[-80.49690930555556,26.00838938888889],[-80.49735611111112,26.007272472222223],[-80.4980691111111,26.006138333333332],[-80.49882969444444,26.00560561111111],[-80.49933358333334,26.005210388888887],[-80.50036988888888,26.004780722222222],[-80.50276577777778,26.00462588888889],[-80.50385919444444,26.004917916666667],[-80.50470544444444,26.005467694444445],[-80.50543763888889,26.00626663888889],[-80.50591313888889,26.007203083333334],[-80.50611291666667,26.008036444444443],[-80.50620816666667,26.00923925],[-80.50612266666667,26.00984925],[-80.50578047222223,26.01059675],[-80.50527658333333,26.010992027777778],[-80.50366991666667,26.01266752777778],[-80.50494411111112,26.013552333333333],[-80.50568588888889,26.014471555555556],[-80.50599975,26.01505575],[-80.5061521388889,26.01698025],[-80.50560083333333,26.01846663888889],[-80.50523002777778,26.018853305555556],[-80.50407002777777,26.01941186111111],[-80.50329986111112,26.019824333333332],[-80.50156925,26.019936166666664],[-80.50034261111111,26.019652722222222],[-80.49850730555556,26.018441444444445],[-80.49819347222223,26.017857222222222],[-80.49802219444445,26.015692166666668],[-80.49832638888888,26.014463555555555],[-80.49844997222222,26.014334666666667],[-80.4990775,26.013810555555555],[-80.49980958333333,26.01291697222222]]},"properties":{"style":"solid","thickness":1}},{"type":"Feature","geometry":{"type":"LineString","coordinates":[[-80.4911855,26.00537388888889],[-80.49239325,26.020649666666667],[-80.48653575,26.021027666666665],[-80.48491922222222,26.020890138888888],[-80.48422508333333,26.02057225],[-80.48309358333333,26.019798944444442],[-80.48139158333333,26.01857886111111],[-80.4802031388889,26.01708383333333],[-80.47984191666667,26.015898194444443],[-80.47952847222223,26.011928861111112],[-80.47970925,26.010829138888887],[-80.48039394444444,26.00933427777778],[-80.48125925000001,26.008432194444445],[-80.48210552777778,26.007289583333332],[-80.48337013888889,26.00636175],[-80.48493894444445,26.00589788888889],[-80.48586119444444,26.005717472222223],[-80.4911855,26.00537388888889]]},"properties":{"style":"solid","thickness":1}},{"type":"Feature","geometry":{"type":"LineString","coordinates":[[-80.4923545,25.98048369444444],[-80.48849516666667,25.98073286111111],[-80.48634694444445,25.978937166666665],[-80.48602377777777,25.978232638888887],[-80.48571011111112,25.977648388888888],[-80.48559611111111,25.976204999999997],[-80.48604291666666,25.97508811111111],[-80.48675583333333,25.973954027777776],[-80.48751627777777,25.97342136111111],[-80.48802005555555,25.973026166666664],[-80.48905611111111,25.97259658333333],[-80.49145138888889,25.972441944444444],[-80.49254447222222,25.972734055555552],[-80.49339044444444,25.973283888888886],[-80.49412236111111,25.974082916666664],[-80.49459763888889,25.97501938888889],[-80.49479727777778,25.975852749999998],[-80.49489238888889,25.977055583333332],[-80.49480686111112,25.97766558333333],[-80.49446469444445,25.978413083333333],[-80.49396091666667,25.978808305555553],[-80.4923545,25.98048369444444],[-80.49362827777777,25.981368611111108],[-80.49436975,25.982287888888887],[-80.49468347222222,25.98287211111111],[-80.49483563888889,25.98479663888889],[-80.49428433333334,25.986283],[-80.49391361111111,25.98666963888889],[-80.49275386111111,25.98722811111111],[-80.49198386111111,25.987640527777778],[-80.49025372222222,25.987752222222223],[-80.48902741666667,25.987468694444445],[-80.48719275,25.98625725],[-80.48687905555556,25.985673000000002],[-80.48670800000001,25.983507916666667],[-80.48701222222222,25.98227933333333],[-80.48713580555555,25.982150444444443],[-80.48776322222223,25.98162636111111],[-80.48849516666667,25.98073286111111]]},"properties":{"style":"solid","thickness":1}},{"type":"Feature","geometry":{"type":"LineString","coordinates":[[-80.47296161111112,25.98898836111111],[-80.48108011111111,25.988465027777778],[-80.47987416666666,25.973189027777774],[-80.47162363888889,25.973720888888888]]},"properties":{"style":"solid","thickness":1}},{"type":"Feature","geometry":{"type":"LineString","coordinates":[[-80.48047233333334,25.980766888888887],[-80.47262052777778,25.981273055555555]]},"properties":{"style":"solid","thickness":1}},{"type":"Feature","geometry":{"type":"LineString","coordinates":[[-80.3196043611111,25.954697194444442],[-80.31988433333333,25.958306027777777],[-80.32044216666667,25.960325722222223],[-80.32078297222222,25.961271222222223],[-80.32123819444445,25.961967666666666],[-80.32294708333333,25.963309944444443],[-80.32459063888888,25.96381013888889],[-80.32512291666666,25.96377638888889],[-80.3266731111111,25.96307361111111],[-80.32802480555556,25.961537194444443],[-80.32850105555555,25.960781666666666],[-80.32869247222222,25.959802416666665],[-80.32893286111111,25.957732083333333],[-80.32865263888888,25.95412327777778],[-80.32809469444445,25.95210361111111],[-80.3277538611111,25.95115813888889],[-80.32716558333333,25.95047013888889],[-80.32558988888889,25.949119472222222],[-80.32394652777778,25.948619277777777],[-80.32341430555554,25.948653055555557],[-80.32186430555555,25.94935577777778],[-80.32037958333333,25.950900583333333],[-80.32003638888888,25.95164763888889],[-80.31984491666667,25.952626888888886],[-80.3196043611111,25.954697194444442]]},"properties":{"style":"solid","thickness":1}},{"type":"Feature","geometry":{"type":"LineString","coordinates":[[-80.31356808333334,25.94927722222222],[-80.31475247222222,25.964554694444445],[-80.30889716666667,25.964925555555556],[-80.30728161111111,25.964786083333333],[-80.30658827777778,25.964467305555555],[-80.30545844444444,25.963692638888887],[-80.30375908333333,25.962470444444445],[-80.30257338888889,25.96097397222222],[-80.30221411111111,25.95978786111111],[-80.30190675,25.955818083333334],[-80.30208905555556,25.95471858333333],[-80.30277569444443,25.953224527777778],[-80.30364191666666,25.9523235],[-80.3044895,25.95118188888889],[-80.30575488888888,25.950255583333334],[-80.30732366666666,25.94979361111111],[-80.30824575,25.949614361111113],[-80.31356808333334,25.94927722222222]]},"properties":{"style":"solid","thickness":1}},{"type":"Feature","geometry":{"type":"LineString","coordinates":[[-80.29496213888889,25.93653538888889],[-80.29524130555555,25.940144305555556],[-80.29579866666667,25.94216411111111],[-80.29613922222222,25.943109638888888],[-80.29659422222223,25.94380616666667],[-80.29830255555555,25.94514875],[-80.29994577777778,25.945649222222222],[-80.30047797222223,25.945615555555555],[-80.30202808333333,25.94491302777778],[-80.30337988888888,25.943376861111112],[-80.30385622222222,25.942621388888888],[-80.30404780555556,25.941642194444444],[-80.3042886111111,25.93957188888889],[-80.30400916666666,25.935963],[-80.30345169444445,25.933943222222222],[-80.30311111111111,25.932997694444445],[-80.30252308333333,25.932309611111112],[-80.30094791666666,25.93095866666667],[-80.29930491666667,25.930458194444444],[-80.29877275,25.93049186111111],[-80.29722283333334,25.931194361111114],[-80.29573802777777,25.93273888888889],[-80.29539472222223,25.933485916666665],[-80.29520308333333,25.934465111111113],[-80.29496213888889,25.93653538888889]]},"properties":{"style":"solid","thickness":1}},{"type":"Feature","geometry":{"type":"LineString","coordinates":[[-80.28199247222223,25.946904833333335],[-80.29010894444444,25.946392111111113],[-80.28892788888889,25.93111438888889],[-80.28067941666667,25.931635444444446]]},"properties":{"style":"solid","thickness":1}},{"type":"Feature","geometry":{"type":"LineString","coordinates":[[-80.28951372222222,25.93869311111111],[-80.28166388888889,25.939189]]},"properties":{"style":"solid","thickness":1}},{"type":"Feature","geometry":{"type":"LineString","coordinates":[[-80.1161408611111,26.09410247222222],[-80.10854652777778,26.09457252777778]]},"properties":{"style":"solid","thickness":1}},{"type":"Feature","geometry":{"type":"LineString","coordinates":[[-80.10873108333332,26.102296694444444],[-80.11672563888888,26.10180191666667],[-80.11556530555555,26.086523333333332]]},"properties":{"style":"solid","thickness":1}},{"type":"Feature","geometry":{"type":"LineString","coordinates":[[-80.10366783333333,26.102609861111112],[-80.10250916666666,26.08733119444444],[-80.09598105555555,26.087734666666666]]},"properties":{"style":"solid","thickness":1}},{"type":"Feature","geometry":{"type":"LineString","coordinates":[[-80.09167583333333,26.103350805555557],[-80.09051869444444,26.088072055555553],[-80.0839905,26.088475]]},"properties":{"style":"solid","thickness":1}}]}
