{"type":"FeatureCollection","features":[{"type":"Feature","geometry":{"type":"LineString","coordinates":[[-80.60833333333333,25.525],[-80.31666666666666,25.525]]},"properties":{"style":"solid","thickness":1}},{"type":"Feature","geometry":{"type":"LineString","coordinates":[[-80.31666666666666,25.525],[-80.31666666666666,25.375]]},"properties":{"style":"solid","thickness":1}},{"type":"Feature","geometry":{"type":"LineString","coordinates":[[-80.31666666666666,25.375],[-80.55499999999999,25.108333333333334]]},"properties":{"style":"solid","thickness":1}},{"type":"Feature","geometry":{"type":"LineString","coordinates":[[-80.55499999999999,25.108333333333334],[-80.96666666666667,25.108333333333334]]},"properties":{"style":"solid","thickness":1}},{"type":"Feature","geometry":{"type":"LineString","coordinates":[[-80.60833333333333,25.525],[-80.97500000000001,25.433333333333334]]},"properties":{"style":"solid","thickness":1}},{"type":"Feature","geometry":{"type":"LineString","coordinates":[[-80.97500000000001,25.433333333333334],[-80.96666666666667,25.108333333333334]]},"properties":{"style":"solid","thickness":1}},{"type":"Feature","geometry":{"type":"LineString","coordinates":[[-80.29409313888888,25.79866691666667],[-80.29409313888888,25.79688861111111]]},"properties":{"style":"solid","thickness":1}},{"type":"Feature","geometry":{"type":"LineString","coordinates":[[-80.29358661111111,25.798878277777778],[-80.29358658333334,25.79667727777778]]},"properties":{"style":"solid","thickness":1}},{"type":"Feature","geometry":{"type":"LineString","coordinates":[[-80.29308005555555,25.798878277777778],[-80.29308005555555,25.79667727777778]]},"properties":{"style":"solid","thickness":1}},{"type":"Feature","geometry":{"type":"LineString","coordinates":[[-80.29257352777778,25.79866691666667],[-80.29257352777778,25.79688861111111]]},"properties":{"style":"solid","thickness":1}},{"type":"Feature","geometry":{"type":"LineString","coordinates":[[-80.29201633333334,25.797777777777778],[-80.29240597222223,25.798624333333336],[-80.29334436111111,25.798969944444448],[-80.29427622222222,25.79861013888889],[-80.29465013888888,25.79775780555556],[-80.29424488888888,25.796917305555557],[-80.29330027777777,25.796585944444445],[-80.29237519444445,25.796959805555556],[-80.29201633333334,25.797777777777778]]},"properties":{"style":"solid","thickness":1}}]}
