{
	"type": "FeatureCollection",
	"features": [
		{
			"type": "Feature",
			"geometry": {
				"type": "LineString",
				"coordinates": [
					[-81.75416502777777, 24.51109188888889],
					[-81.75181663888888, 24.50907311111111],
					[-81.74939219444444, 24.50712375],
					[-81.74689816666667, 24.50524933333333],
					[-81.74433733333333, 24.503451944444443],
					[-81.74171255555555, 24.50173361111111],
					[-81.73902672222222, 24.500096166666665],
					[-81.73628283333333, 24.49854152777778],
					[-81.73348391666667, 24.497071333333334],
					[-81.73063308333333, 24.495687222222223],
					[-81.7277335, 24.494390777777777],
					[-81.72478836111111, 24.49318338888889],
					[-81.72180094444445, 24.492066416666667],
					[-81.71877458333334, 24.491041111111112],
					[-81.71571261111112, 24.490108555555558],
					[-81.71261841666667, 24.489269833333335],
					[-81.70949544444444, 24.48852588888889],
					[-81.70634713888889, 24.4878775],
					[-81.70317702777778, 24.48732538888889],
					[-81.69998858333334, 24.486870194444446],
					[-81.69678536111111, 24.486512416666667],
					[-81.6935708888889, 24.486252416666666],
					[-81.69034877777779, 24.486090555555556],
					[-81.68712252777779, 24.486026944444447],
					[-81.68389577777778, 24.486061666666668],
					[-81.68067208333333, 24.486194694444446],
					[-81.67745500000001, 24.48642588888889],
					[-81.67424808333334, 24.486755000000002],
					[-81.67105494444445, 24.48718161111111],
					[-81.66787908333333, 24.487705333333334],
					[-81.664724, 24.488325500000002],
					[-81.66159325000001, 24.489041472222222],
					[-81.65849025, 24.489852472222225],
					[-81.65541844444445, 24.490757527777777],
					[-81.65238127777778, 24.491755722222223],
					[-81.64938208333334, 24.492845916666667],
					[-81.64642419444445, 24.494026861111113],
					[-81.6435108888889, 24.495297305555557],
					[-81.6406453888889, 24.496655805555555],
					[-81.63783091666667, 24.49810088888889],
					[-81.63507052777778, 24.499630916666668],
					[-81.63236733333332, 24.501244222222223],
					[-81.62972430555556, 24.502939],
					[-81.62714441666667, 24.50471336111111],
					[-81.62463047222222, 24.50656536111111],
					[-81.62218530555555, 24.508492944444445],
					[-81.6198116111111, 24.510493944444445],
					[-81.61751202777778, 24.512566194444446],
					[-81.61528913888888, 24.514707333333334],
					[-81.61314536111111, 24.516915027777777],
					[-81.6110831111111, 24.519186833333332],
					[-81.60910466666667, 24.52152022222222],
					[-81.60721219444444, 24.52391258333333],
					[-81.60540788888888, 24.526361305555554],
					[-81.60369369444444, 24.52886363888889],
					[-81.6020715, 24.531416805555555],
					[-81.60054316666667, 24.534018000000003],
					[-81.59911033333333, 24.536664333333334],
					[-81.59777463888888, 24.539352833333336],
					[-81.59653758333333, 24.542080555555557],
					[-81.59540052777777, 24.544844444444447],
					[-81.59436469444444, 24.547641444444444],
					[-81.59343133333333, 24.550468472222224],
					[-81.59260141666667, 24.55332236111111],
					[-81.5918758611111, 24.556199972222224],
					[-81.59125555555555, 24.559098055555555],
					[-81.59074113888889, 24.562013472222223],
					[-81.59033316666667, 24.564942916666666],
					[-81.59003216666666, 24.567883166666668],
					[-81.58983844444444, 24.570830972222222],
					[-81.58975222222222, 24.57378302777778],
					[-81.58977361111111, 24.576736083333333],
					[-81.5899026111111, 24.579686833333334],
					[-81.59013902777777, 24.582632],
					[-81.59048266666666, 24.58556833333333],
					[-81.59093313888889, 24.58849258333333],
					[-81.59148991666666, 24.59140147222222],
					[-81.59215244444444, 24.594291777777777],
					[-81.59291994444445, 24.59716027777778],
					[-81.5937916111111, 24.600003805555556],
					[-81.59476644444445, 24.602819194444447],
					[-81.59584338888888, 24.605603305555558],
					[-81.59702125, 24.608353083333334],
					[-81.59829875, 24.61106541666667],
					[-81.59967444444445, 24.613737305555556],
					[-81.60114680555554, 24.616365805555557],
					[-81.60271422222222, 24.618947972222223],
					[-81.60437497222222, 24.621480944444446],
					[-81.60612716666667, 24.62396188888889],
					[-81.60796888888888, 24.626388083333335],
					[-81.60989811111111, 24.628756805555557],
					[-81.61191269444444, 24.63106541666667],
					[-81.6140103611111, 24.63331136111111],
					[-81.61618883333333, 24.63549213888889],
					[-81.61844563888889, 24.637605305555557],
					[-81.62077833333332, 24.639648555555556],
					[-81.62318427777777, 24.641619583333334],
					[-81.62566080555555, 24.643516194444445],
					[-81.62820519444443, 24.645336305555556],
					[-81.63081458333333, 24.647077833333334],
					[-81.63348611111111, 24.648738916666666],
					[-81.63621675, 24.650317666666666],
					[-81.63900352777779, 24.651812333333332],
					[-81.64184330555557, 24.653221249999998],
					[-81.64473294444446, 24.65454286111111],
					[-81.64766919444445, 24.655775666666667],
					[-81.65064883333334, 24.656918333333333],
					[-81.65366852777778, 24.657969555555553],
					[-81.65672494444445, 24.658928194444442],
					[-81.65981463888889, 24.659793166666667],
					[-81.66293419444445, 24.6605635],
					[-81.6660801388889, 24.66123836111111],
					[-81.66924900000001, 24.66181697222222],
					[-81.67243719444446, 24.66229872222222],
					[-81.67564122222223, 24.662683055555554],
					[-81.67885747222223, 24.662969527777776],
					[-81.68208241666667, 24.66315786111111],
					[-81.68531244444445, 24.663247805555553],
					[-81.68846497222222, 24.663240666666667],
					[-81.69169444444445, 24.66313608333333],
					[-81.69491833333333, 24.662933166666665],
					[-81.698133, 24.662632111111108],
					[-81.70133491666667, 24.662233305555553],
					[-81.70452044444444, 24.66173711111111],
					[-81.70768611111112, 24.661144138888886],
					[-81.71082836111111, 24.660455055555556],
					[-81.71394369444445, 24.65967061111111],
					[-81.71702866666666, 24.658791638888886],
					[-81.72007983333333, 24.657819194444443],
					[-81.72309377777778, 24.656754305555555],
					[-81.72606719444444, 24.655598138888887],
					[-81.72899675000001, 24.654352055555552],
					[-81.73187916666667, 24.653017388888887],
					[-81.73471125, 24.65159561111111],
					[-81.73748988888889, 24.65008836111111],
					[-81.74021194444444, 24.64849727777778],
					[-81.74287441666667, 24.646824111111112],
					[-81.74547433333333, 24.64507075],
					[-81.74800880555556, 24.643239166666667],
					[-81.75047502777778, 24.64133136111111],
					[-81.75287025, 24.63934947222222],
					[-81.75519183333333, 24.637295694444443],
					[-81.75743716666666, 24.635172305555557],
					[-81.75960377777778, 24.632981694444446],
					[-81.76168925, 24.63072627777778],
					[-81.76369127777778, 24.628408555555556],
					[-81.76560761111111, 24.62603113888889],
					[-81.76743619444444, 24.623596638888888],
					[-81.76942077777778, 24.620754833333333],
					[-81.76740030555555, 24.62097536111111],
					[-81.76503236111111, 24.621166111111112],
					[-81.76489575, 24.621174916666668],
					[-81.7647591111111, 24.621183444444444],
					[-81.76462247222223, 24.62119175],
					[-81.76448580555555, 24.621199833333336],
					[-81.76434911111112, 24.621207666666667],
					[-81.76421241666667, 24.62121525],
					[-81.76407569444444, 24.62122261111111],
					[-81.76393894444445, 24.621229694444445],
					[-81.76380219444444, 24.621236583333335],
					[-81.76366544444444, 24.621243222222223],
					[-81.76352866666667, 24.62124961111111],
					[-81.76339186111112, 24.62125575],
					[-81.76325505555556, 24.621261666666665],
					[-81.76311825, 24.621267333333332],
					[-81.76298141666666, 24.62127275],
					[-81.76284458333333, 24.621277944444444],
					[-81.76270775, 24.62128288888889],
					[-81.76257088888889, 24.621287583333334],
					[-81.762434, 24.621292055555557],
					[-81.76229713888888, 24.621296277777777],
					[-81.76216025, 24.621300277777777],
					[-81.7620233611111, 24.62130402777778],
					[-81.76188644444444, 24.621307527777777],
					[-81.76174952777778, 24.62131077777778],
					[-81.7616126111111, 24.621313805555555],
					[-81.76147569444444, 24.621316583333332],
					[-81.76133877777778, 24.62131913888889],
					[-81.76120183333333, 24.621321444444444],
					[-81.76106491666667, 24.6213235],
					[-81.76092797222222, 24.621325333333335],
					[-81.76079102777778, 24.621326888888888],
					[-81.76065408333334, 24.62132825],
					[-81.76051711111111, 24.621329333333335],
					[-81.76038016666666, 24.621330194444443],
					[-81.76024322222223, 24.621330833333335],
					[-81.76010625, 24.621331194444444],
					[-81.75997163888889, 24.62133136111111],
					[-81.75989047222222, 24.621331305555557],
					[-81.7597535, 24.621331083333335],
					[-81.75961655555555, 24.621330583333332],
					[-81.75947958333333, 24.62132986111111],
					[-81.7593426388889, 24.621328916666666],
					[-81.75920569444445, 24.621327694444446],
					[-81.75906875, 24.62132625],
					[-81.75893180555556, 24.621324583333333],
					[-81.75879486111111, 24.621322666666668],
					[-81.75865791666666, 24.6213205],
					[-81.758521, 24.621318083333335],
					[-81.75838408333334, 24.621315444444445],
					[-81.75824716666666, 24.621312555555555],
					[-81.75811025, 24.621309444444446],
					[-81.75797333333334, 24.621306055555557],
					[-81.75783644444445, 24.621302444444446],
					[-81.75769955555556, 24.62129861111111],
					[-81.75756266666667, 24.621294527777778],
					[-81.75742577777778, 24.621290194444445],
					[-81.75728891666667, 24.621285611111112],
					[-81.75715205555555, 24.621280805555557],
					[-81.75701522222222, 24.62127577777778],
					[-81.7568783888889, 24.62127047222222],
					[-81.75674155555555, 24.621264944444444],
					[-81.75660475, 24.621259194444445],
					[-81.75646797222223, 24.621253166666666],
					[-81.75633116666667, 24.621246916666667],
					[-81.75619441666667, 24.621240416666666],
					[-81.75605763888889, 24.621233694444445],
					[-81.75592091666667, 24.62122672222222],
					[-81.75578416666667, 24.6212195],
					[-81.75564747222222, 24.621212055555556],
					[-81.75551077777777, 24.62120436111111],
					[-81.75537408333334, 24.621196444444443],
					[-81.75523741666667, 24.62118827777778],
					[-81.75510077777778, 24.621179861111113],
					[-81.7549641388889, 24.621171194444447],
					[-81.75482752777778, 24.621162305555558],
					[-81.75469094444445, 24.621153194444446],
					[-81.7545543611111, 24.621143805555555],
					[-81.75441783333333, 24.621134194444444],
					[-81.75428127777778, 24.62112436111111],
					[-81.75414477777778, 24.62111425],
					[-81.75400830555556, 24.621103916666666],
					[-81.75387183333333, 24.62109336111111],
					[-81.75373538888888, 24.621082555555557],
					[-81.75359897222222, 24.6210715],
					[-81.75346255555556, 24.621060222222223],
					[-81.75332619444444, 24.621048694444443],
					[-81.75318983333334, 24.621036916666668],
					[-81.75305352777778, 24.621024916666666],
					[-81.75291722222222, 24.62101266666667],
					[-81.75278094444444, 24.621000194444445],
					[-81.75264469444444, 24.620987444444445],
					[-81.75250847222222, 24.6209745],
					[-81.75237227777778, 24.620961277777777],
					[-81.75223611111112, 24.620947833333332],
					[-81.7521, 24.620934166666668],
					[-81.7519638888889, 24.62092025],
					[-81.75182780555555, 24.620906083333335],
					[-81.75169175, 24.620891694444445],
					[-81.75155575, 24.620877055555557],
					[-81.75141975, 24.620862194444445],
					[-81.75128380555556, 24.620847055555554],
					[-81.7511478888889, 24.620831694444444],
					[-81.751012, 24.62081611111111],
					[-81.75087613888888, 24.62080027777778],
					[-81.75074030555555, 24.620784222222223],
					[-81.75060452777778, 24.62076791666667],
					[-81.75046877777778, 24.62075136111111],
					[-81.75033305555556, 24.620734583333334],
					[-81.7501973611111, 24.620717555555554],
					[-81.75006172222223, 24.620700305555555],
					[-81.74992611111111, 24.620682805555557],
					[-81.74979052777778, 24.620665055555556],
					[-81.749655, 24.620647083333335],
					[-81.7495195, 24.62062886111111],
					[-81.74938405555555, 24.62061041666667],
					[-81.74924863888889, 24.620591722222223],
					[-81.74911325000001, 24.620572805555557],
					[-81.74897791666666, 24.62055363888889],
					[-81.74884261111112, 24.620534222222222],
					[-81.74870733333333, 24.620514583333335],
					[-81.74857213888889, 24.620494722222222],
					[-81.74843694444445, 24.62047461111111],
					[-81.74830180555556, 24.62045425],
					[-81.74816672222222, 24.620433666666667],
					[-81.74803166666666, 24.620412833333333],
					[-81.74789666666666, 24.62039177777778],
					[-81.74776172222222, 24.620370472222223],
					[-81.74762680555556, 24.620348944444444],
					[-81.74749194444445, 24.620327166666666],
					[-81.74735711111111, 24.620305138888888],
					[-81.74722233333334, 24.62028288888889],
					[-81.74708761111111, 24.620260416666667],
					[-81.74695294444444, 24.620237694444445],
					[-81.74681830555555, 24.620214722222222],
					[-81.74668372222223, 24.620191527777777],
					[-81.74654919444444, 24.620168111111113],
					[-81.74641469444444, 24.620144444444445],
					[-81.74628025, 24.620120555555555],
					[-81.74614588888889, 24.620096416666666],
					[-81.74601155555555, 24.620072027777777],
					[-81.74587725, 24.62004741666667],
					[-81.74574302777778, 24.620022555555558],
					[-81.74560886111111, 24.6199975],
					[-81.74547472222223, 24.619972166666667],
					[-81.74534066666666, 24.61994661111111],
					[-81.74520663888889, 24.619920833333335],
					[-81.74507266666667, 24.619894805555557],
					[-81.74468552777778, 24.61981822222222]
				]
			},
			"properties":{
				"style": "solid",
				"thickness":1
			}
		},
		{
			"type": "Feature",
			"geometry": {
				"type": "LineString",
				"coordinates": [
					[-81.74468552777778, 24.61981822222222],
					[-81.74460169444444, 24.619426222222224],
					[-81.7445178888889, 24.619034222222222],
					[-81.74443405555556, 24.61864225],
					[-81.74435025, 24.61825025],
					[-81.74426641666666, 24.61785825],
					[-81.74418261111111, 24.61746627777778],
					[-81.74409880555555, 24.61707427777778],
					[-81.74401497222222, 24.616682277777777],
					[-81.74393116666667, 24.616290305555555],
					[-81.74384736111111, 24.615898305555557],
					[-81.74376352777777, 24.615506305555556],
					[-81.74367972222223, 24.615114333333334],
					[-81.74359591666666, 24.614722333333336],
					[-81.74353688888888, 24.614446222222224],
					[-81.74347897222222, 24.61417538888889],
					[-81.74342105555556, 24.61390452777778],
					[-81.7433631388889, 24.613633694444445],
					[-81.74330525, 24.613362861111113],
					[-81.74324733333333, 24.613092],
					[-81.74318941666667, 24.612821166666667],
					[-81.74313152777778, 24.612550333333335],
					[-81.74307361111111, 24.612279472222223],
					[-81.74301569444445, 24.61200863888889],
					[-81.74295780555556, 24.611737805555556],
					[-81.74289988888889, 24.611466944444444],
					[-81.742842, 24.611196111111113],
					[-81.74278408333333, 24.610925277777778],
					[-81.74272616666667, 24.610654444444446],
					[-81.74266827777778, 24.610383583333334],
					[-81.74261036111112, 24.610112750000003],
					[-81.74255247222223, 24.609841916666667],
					[-81.74249455555555, 24.609571055555556],
					[-81.74243663888889, 24.609300222222224],
					[-81.74237875, 24.60902938888889],
					[-81.74232083333334, 24.60875852777778],
					[-81.74226294444445, 24.608487694444445],
					[-81.74220502777779, 24.608216861111114],
					[-81.7421471388889, 24.607946000000002],
					[-81.74208922222222, 24.607675166666667],
					[-81.74203133333333, 24.607404333333335],
					[-81.74197341666667, 24.607133472222223],
					[-81.74191552777778, 24.60686263888889],
					[-81.74185761111112, 24.606591805555556],
					[-81.74179972222223, 24.606320944444445],
					[-81.74174183333334, 24.606050111111113],
					[-81.74168391666667, 24.605779277777778],
					[-81.74162602777778, 24.60550841666667],
					[-81.7415681111111, 24.605237583333334],
					[-81.74151022222222, 24.604966722222223],
					[-81.74145230555555, 24.60469588888889],
					[-81.74139441666667, 24.604425055555556],
					[-81.74133652777778, 24.604154194444448],
					[-81.74125469444445, 24.6037715],
					[-81.74116786111111, 24.603365222222223],
					[-81.741081, 24.602958972222222],
					[-81.74099416666667, 24.602552694444444],
					[-81.74090730555555, 24.602146444444447],
					[-81.74082047222223, 24.60174016666667],
					[-81.74073361111111, 24.60133391666667],
					[-81.74064677777778, 24.60092763888889],
					[-81.74055994444444, 24.600521361111113],
					[-81.74047308333333, 24.600115111111112],
					[-81.74038625, 24.59970883333333],
					[-81.74029941666667, 24.599302583333333],
					[-81.74021255555556, 24.598896305555556],
					[-81.74014838888888, 24.598596027777777],
					[-81.74009047222222, 24.598325194444442],
					[-81.74003258333333, 24.598054333333334],
					[-81.73997469444444, 24.5977835],
					[-81.73991680555555, 24.597512666666667],
					[-81.73985891666666, 24.597241805555555],
					[-81.73980102777777, 24.59697097222222],
					[-81.73974311111111, 24.59670011111111],
					[-81.73968522222222, 24.596429277777776],
					[-81.73962733333333, 24.596158444444445],
					[-81.73956944444444, 24.595887583333333],
					[-81.73951155555555, 24.595616749999998],
					[-81.73945366666666, 24.595345888888886],
					[-81.73937438888889, 24.59497497222222],
					[-81.73928755555556, 24.594568694444444],
					[-81.73920069444445, 24.594162416666666],
					[-81.73911386111111, 24.593756166666665],
					[-81.73902702777778, 24.593349888888888],
					[-81.73894019444444, 24.592943638888887],
					[-81.73885336111111, 24.59253736111111],
					[-81.73876652777778, 24.59213111111111],
					[-81.73867969444444, 24.59172483333333],
					[-81.73859286111112, 24.591318555555553],
					[-81.73850605555556, 24.590912305555555],
					[-81.73841922222222, 24.590506027777778],
					[-81.73833238888889, 24.59009975],
					[-81.73824555555555, 24.5896935],
					[-81.73815872222222, 24.58928722222222],
					[-81.7380718888889, 24.58888097222222],
					[-81.73798505555555, 24.588474694444443],
					[-81.73789825, 24.588068416666665],
					[-81.73781141666667, 24.587662166666664],
					[-81.73772458333333, 24.587255888888887],
					[-81.73763775, 24.58684961111111],
					[-81.73755094444445, 24.586443361111108],
					[-81.73746411111111, 24.58603708333333],
					[-81.73737727777778, 24.585630833333333],
					[-81.73729047222223, 24.585224555555556],
					[-81.73720363888889, 24.584818277777778],
					[-81.73711683333333, 24.584412027777777],
					[-81.73703, 24.58400575],
					[-81.73694319444445, 24.58359947222222],
					[-81.73685636111111, 24.58319322222222],
					[-81.73676952777778, 24.582786944444443],
					[-81.73668272222223, 24.582380666666666],
					[-81.73659588888889, 24.581974416666668],
					[-81.73650908333333, 24.581568138888887],
					[-81.73642227777778, 24.58116186111111],
					[-81.73633544444445, 24.580755611111112],
					[-81.7362486388889, 24.580349333333334],
					[-81.73616180555555, 24.579943055555557],
					[-81.736075, 24.579536805555556],
					[-81.73598819444445, 24.579130527777778],
					[-81.73590136111112, 24.57872425],
					[-81.73581455555555, 24.578318],
					[-81.73572775, 24.577911722222222],
					[-81.73564094444444, 24.577505444444444],
					[-81.73555411111111, 24.577099166666667],
					[-81.73546730555556, 24.576692916666666],
					[-81.7353805, 24.576286638888888],
					[-81.73529369444445, 24.57588036111111],
					[-81.7352068888889, 24.57547411111111],
					[-81.73512005555556, 24.575067833333332],
					[-81.73503325, 24.574661555555554],
					[-81.73494644444445, 24.574255277777777],
					[-81.73485963888889, 24.57384902777778],
					[-81.73477283333334, 24.573442749999998],
					[-81.73468602777778, 24.57303647222222],
					[-81.73459922222223, 24.572630222222223],
					[-81.73451241666666, 24.572223944444445],
					[-81.7344256111111, 24.571817666666668],
					[-81.73433880555555, 24.57141138888889],
					[-81.734252, 24.57100513888889],
					[-81.73416519444444, 24.57059886111111],
					[-81.73407838888889, 24.570192583333334],
					[-81.73399161111111, 24.569786305555557],
					[-81.73390480555555, 24.569380055555555],
					[-81.733818, 24.568973777777778],
					[-81.73373119444445, 24.5685675],
					[-81.73364438888889, 24.568161222222223],
					[-81.73355761111111, 24.56775497222222],
					[-81.73347080555556, 24.567348694444444],
					[-81.733384, 24.566942416666667],
					[-81.73329719444445, 24.56653613888889],
					[-81.73321041666667, 24.566129888888888],
					[-81.73312361111111, 24.56572361111111],
					[-81.73303680555556, 24.565317333333333],
					[-81.73295002777778, 24.564911055555555],
					[-81.73286322222222, 24.564504805555558],
					[-81.73277644444444, 24.56409852777778],
					[-81.73268963888889, 24.56369225],
					[-81.73260283333333, 24.56328597222222],
					[-81.73251605555556, 24.562879694444444],
					[-81.73242925, 24.562473444444446],
					[-81.73234247222223, 24.56206716666667],
					[-81.73225566666667, 24.56166088888889],
					[-81.73216888888889, 24.56125461111111],
					[-81.73208211111111, 24.560848333333333],
					[-81.73199530555556, 24.560442083333335],
					[-81.73190852777778, 24.560035805555557],
					[-81.73182172222222, 24.55962952777778],
					[-81.73173494444444, 24.559223250000002],
					[-81.73164816666667, 24.558816972222225],
					[-81.73156136111112, 24.558410722222224],
					[-81.73147458333334, 24.558004444444446],
					[-81.73138780555556, 24.55759816666667],
					[-81.73130102777777, 24.55719188888889],
					[-81.73121422222222, 24.556785611111113],
					[-81.73112744444444, 24.556379333333336],
					[-81.73104066666667, 24.555973083333335],
					[-81.73095388888889, 24.555566805555557],
					[-81.73086711111111, 24.55516052777778],
					[-81.73078033333333, 24.554754250000002],
					[-81.73069352777777, 24.554347972222224],
					[-81.73060675, 24.553941694444447],
					[-81.73051997222223, 24.553535444444446],
					[-81.73043319444444, 24.55312916666667],
					[-81.73036905555556, 24.552828861111113],
					[-81.73034013888889, 24.552693444444444],
					[-81.73031122222223, 24.552558027777778],
					[-81.73028227777777, 24.552422583333335],
					[-81.73025336111111, 24.552287166666666],
					[-81.73022444444445, 24.55215175],
					[-81.73019550000001, 24.552016333333334],
					[-81.73016658333333, 24.55188088888889],
					[-81.73013766666666, 24.551745472222223],
					[-81.73010872222223, 24.551610055555557],
					[-81.73007980555556, 24.55147461111111],
					[-81.7300508888889, 24.551339194444445],
					[-81.73000308333333, 24.551115444444445],
					[-81.73016138888889, 24.550931972222223],
					[-81.73061644444445, 24.550404444444446],
					[-81.73107152777779, 24.54987691666667],
					[-81.73152658333333, 24.549349361111112],
					[-81.7319816388889, 24.548821833333335],
					[-81.73243669444444, 24.548294305555558],
					[-81.73289175000001, 24.54776677777778],
					[-81.73334680555556, 24.547239222222224],
					[-81.73380186111112, 24.546711694444447],
					[-81.7342568888889, 24.54618416666667],
					[-81.73471194444444, 24.545656611111113],
					[-81.73516697222222, 24.545129083333336],
					[-81.735622, 24.54460152777778],
					[-81.73610472222222, 24.54404188888889],
					[-81.73665075, 24.543408805555558],
					[-81.73719677777778, 24.54277575],
					[-81.73774277777778, 24.542142694444447],
					[-81.73828880555556, 24.54150963888889],
					[-81.73883480555556, 24.540876583333336],
					[-81.73938080555556, 24.540243500000003],
					[-81.73992680555556, 24.539610444444445],
					[-81.74047277777778, 24.53897736111111],
					[-81.74101877777778, 24.538344305555558],
					[-81.74156475, 24.537711222222224],
					[-81.74211072222222, 24.53707813888889],
					[-81.74265666666666, 24.536445055555557],
					[-81.74315516666667, 24.53586702777778],
					[-81.74351913888889, 24.535444972222223],
					[-81.74388311111112, 24.53502291666667],
					[-81.74424708333333, 24.534600861111112],
					[-81.74461102777778, 24.53417880555556],
					[-81.744975, 24.533756750000002],
					[-81.74533894444444, 24.533334694444445],
					[-81.74570291666667, 24.532912638888888],
					[-81.74606686111112, 24.53249058333333],
					[-81.74643083333333, 24.532068499999998],
					[-81.74679477777778, 24.531646444444444],
					[-81.74715872222222, 24.531224388888887],
					[-81.74752266666667, 24.530802333333334],
					[-81.74788661111111, 24.53038025],
					[-81.74825055555556, 24.529958194444443],
					[-81.74861447222223, 24.52953611111111],
					[-81.74897841666667, 24.529114055555553],
					[-81.74934236111112, 24.528691972222223],
					[-81.74970627777778, 24.528269916666666],
					[-81.75007019444445, 24.527847833333333],
					[-81.75043413888889, 24.527425777777776],
					[-81.75079805555555, 24.527003694444442],
					[-81.75116197222222, 24.52658163888889],
					[-81.75152588888889, 24.526159555555555],
					[-81.75188980555555, 24.52573747222222],
					[-81.75225372222222, 24.525315388888888],
					[-81.75260180555556, 24.524911666666664],
					[-81.75287475, 24.52459511111111],
					[-81.75314766666666, 24.524278555555554],
					[-81.75342058333334, 24.523961999999997],
					[-81.75369352777778, 24.523645444444444],
					[-81.75396644444444, 24.523328888888887],
					[-81.75423936111112, 24.523012305555554],
					[-81.75451230555555, 24.52269575],
					[-81.75478522222222, 24.522379194444444],
					[-81.75505813888888, 24.522062638888887],
					[-81.75533105555556, 24.521746055555553],
					[-81.75560397222222, 24.5214295],
					[-81.75587688888889, 24.521112944444443],
					[-81.7561078611111, 24.520805916666667],
					[-81.75605916666666, 24.520562527777777],
					[-81.7560105, 24.520319138888887],
					[-81.75596180555556, 24.520075777777777],
					[-81.75591313888889, 24.519832388888886],
					[-81.75586444444444, 24.519589],
					[-81.75581577777778, 24.51934561111111],
					[-81.75576708333334, 24.519102222222223],
					[-81.75571841666667, 24.518858833333333],
					[-81.75566972222222, 24.518615444444443],
					[-81.75562105555555, 24.518372055555556],
					[-81.7555723611111, 24.518128666666666],
					[-81.75552369444445, 24.517885277777776],
					[-81.75547288888889, 24.517631333333334],
					[-81.75539988888889, 24.51726625],
					[-81.75532686111112, 24.516901166666667],
					[-81.75525383333333, 24.51653608333333],
					[-81.75518083333333, 24.516171],
					[-81.75510780555555, 24.515805916666668],
					[-81.75503480555555, 24.515440833333333],
					[-81.75496177777778, 24.515075777777778],
					[-81.75488875, 24.514710694444446],
					[-81.75481575, 24.51434561111111],
					[-81.75474272222222, 24.51398052777778],
					[-81.75466972222222, 24.513615444444444],
					[-81.75459669444444, 24.513250361111112],
					[-81.75452566666667, 24.51289513888889],
					[-81.75449791666666, 24.512756416666665],
					[-81.75447016666666, 24.512617694444444],
					[-81.75444244444445, 24.512479],
					[-81.75441469444445, 24.512340277777778],
					[-81.75438694444445, 24.512201583333333],
					[-81.75435922222222, 24.51206286111111],
					[-81.75433147222222, 24.51192413888889],
					[-81.75430372222222, 24.511785444444445],
					[-81.754276, 24.51164672222222],
					[-81.75424825, 24.511508],
					[-81.75416502777777, 24.51109188888889]
				]
			},
			"properties":{
				"style": "solid",
				"thickness":1
			}
		},
		{
			"type": "Feature",
			"geometry": {
				"type": "LineString",
				"coordinates": [
					[-81.76942077777778, 24.620754833333333],
					[-81.77015266666666, 24.620661722222223],
					[-81.77054830555555, 24.620608416666666],
					[-81.7709436388889, 24.62055311111111],
					[-81.7713386111111, 24.62049577777778],
					[-81.77173322222222, 24.62043638888889],
					[-81.77212747222222, 24.620375],
					[-81.77252133333333, 24.620311611111113],
					[-81.77291480555556, 24.620246166666668],
					[-81.7733078611111, 24.620178722222224],
					[-81.77370052777778, 24.62010927777778],
					[-81.77409272222222, 24.620037805555555],
					[-81.7744845, 24.619964305555555],
					[-81.77487580555555, 24.619888833333334],
					[-81.7752666388889, 24.619811333333335],
					[-81.77565697222222, 24.619731833333333],
					[-81.77604683333334, 24.619650333333333],
					[-81.77643619444444, 24.619566833333334],
					[-81.77682502777778, 24.619481333333333],
					[-81.77721333333334, 24.61939386111111],
					[-81.77760111111111, 24.61930438888889],
					[-81.77798830555555, 24.61921291666667],
					[-81.77837494444444, 24.619119472222224],
					[-81.778761, 24.619024055555556],
					[-81.77914647222222, 24.61892663888889],
					[-81.77953133333334, 24.61882727777778],
					[-81.77991558333333, 24.618725916666666],
					[-81.78029919444444, 24.61862261111111],
					[-81.78068216666667, 24.618517305555557],
					[-81.7810645, 24.618410055555557],
					[-81.78144616666667, 24.618300861111113],
					[-81.78182713888889, 24.618189694444446],
					[-81.78220744444444, 24.618076583333334],
					[-81.78258702777778, 24.6179615],
					[-81.78296591666667, 24.6178445],
					[-81.78334408333333, 24.617725555555555],
					[-81.7837215, 24.61760466666667],
					[-81.78409816666667, 24.617481861111113],
					[-81.78447408333334, 24.61735711111111],
					[-81.78484925, 24.61723041666667],
					[-81.78522358333333, 24.617101833333333],
					[-81.78559716666666, 24.616971305555555],
					[-81.78596991666666, 24.61683888888889],
					[-81.78634186111111, 24.616704555555557],
					[-81.78671297222222, 24.616568305555557],
					[-81.78708322222222, 24.616430166666667],
					[-81.7874526388889, 24.616290111111113],
					[-81.78782119444445, 24.616148194444445],
					[-81.78818886111111, 24.616004361111113],
					[-81.78855563888888, 24.615858666666668],
					[-81.78892152777777, 24.615711083333334],
					[-81.78928647222222, 24.61556163888889],
					[-81.78965052777778, 24.615410305555557],
					[-81.7900136388889, 24.615257111111113],
					[-81.79037580555556, 24.615102055555557],
					[-81.79073702777778, 24.61494516666667],
					[-81.79109724999999, 24.614786416666668],
					[-81.7914565, 24.61462580555556],
					[-81.79181477777777, 24.61446338888889],
					[-81.79217202777778, 24.614299111111112],
					[-81.79252827777778, 24.614133000000002],
					[-81.7928835, 24.613965083333333],
					[-81.79323769444444, 24.613795333333336],
					[-81.79359083333333, 24.61362377777778],
					[-81.79394291666667, 24.61345041666667],
					[-81.79429394444445, 24.61327525],
					[-81.79464386111111, 24.61309827777778],
					[-81.79499269444445, 24.61291952777778],
					[-81.79534044444445, 24.612738972222225],
					[-81.79568705555555, 24.61255663888889],
					[-81.79603255555556, 24.612372555555556],
					[-81.79637691666666, 24.612186694444446],
					[-81.79672013888889, 24.611999055555557],
					[-81.79706219444444, 24.61180966666667],
					[-81.79740308333334, 24.61161852777778],
					[-81.79774280555556, 24.61142563888889],
					[-81.79808133333333, 24.61123102777778],
					[-81.79841866666666, 24.61103466666667],
					[-81.79875477777777, 24.610836583333334],
					[-81.79908966666666, 24.610636777777778],
					[-81.79942333333334, 24.610435250000002],
					[-81.79975575, 24.61023202777778],
					[-81.80008691666666, 24.610027111111112],
					[-81.80041680555556, 24.6098205],
					[-81.80074544444444, 24.60961216666667],
					[-81.80107277777778, 24.609402194444446],
					[-81.80139883333334, 24.60919052777778],
					[-81.80172358333333, 24.608977194444446],
					[-81.80204702777777, 24.608762194444445],
					[-81.8023691111111, 24.60854552777778],
					[-81.80268988888889, 24.608327222222222],
					[-81.80300933333334, 24.60810727777778],
					[-81.80332738888889, 24.607885722222225],
					[-81.80364411111111, 24.6076625],
					[-81.80395944444444, 24.607437694444446],
					[-81.80427338888889, 24.607211250000002],
					[-81.80458594444444, 24.606983194444446],
					[-81.80489708333333, 24.606753555555557],
					[-81.80520683333333, 24.606522333333334],
					[-81.8055151388889, 24.606289500000003],
					[-81.80582202777778, 24.60605511111111],
					[-81.80612744444444, 24.60581913888889],
					[-81.80643144444444, 24.605581611111113],
					[-81.80673394444445, 24.60534252777778],
					[-81.807035, 24.60510188888889],
					[-81.80733455555556, 24.604859722222223],
					[-81.80763263888889, 24.604616],
					[-81.80792919444444, 24.604370777777778],
					[-81.80822427777777, 24.60412402777778],
					[-81.80851780555555, 24.60387577777778],
					[-81.80880983333333, 24.603626000000002],
					[-81.80910030555555, 24.60337475],
					[-81.80938925, 24.60312202777778],
					[-81.80967663888889, 24.602867805555558],
					[-81.80996244444444, 24.602612111111114],
					[-81.81024666666666, 24.602354972222223],
					[-81.81052933333333, 24.60209638888889],
					[-81.81081038888888, 24.601836333333335],
					[-81.81108986111111, 24.601574861111114],
					[-81.81136772222222, 24.601311944444447],
					[-81.81164394444444, 24.601047611111113],
					[-81.81191858333334, 24.600781861111113],
					[-81.81219155555556, 24.600514722222222],
					[-81.81246288888889, 24.60024616666667],
					[-81.81273255555556, 24.599976249999997],
					[-81.81300058333333, 24.599704944444444],
					[-81.81326694444444, 24.59943225],
					[-81.8135316111111, 24.599158222222222],
					[-81.81379458333333, 24.598882805555554],
					[-81.81405588888889, 24.598606083333333],
					[-81.81431547222222, 24.598328],
					[-81.8145733611111, 24.59804861111111],
					[-81.81482952777777, 24.59776788888889],
					[-81.81508394444444, 24.59748586111111],
					[-81.81533666666667, 24.597202527777778],
					[-81.81558761111111, 24.596917916666666],
					[-81.81583683333334, 24.596632],
					[-81.81608427777778, 24.596344833333333],
					[-81.81632997222222, 24.596056388888886],
					[-81.81657388888888, 24.595766694444443],
					[-81.816816, 24.59547575],
					[-81.81705633333333, 24.59518358333333],
					[-81.81729488888888, 24.594890166666666],
					[-81.81753163888888, 24.594595555555554],
					[-81.81776655555555, 24.59429972222222],
					[-81.81799966666667, 24.594002666666665],
					[-81.81823094444444, 24.593704444444445],
					[-81.81846038888888, 24.593405055555554],
					[-81.818688, 24.593104472222223],
					[-81.81891377777778, 24.59280272222222],
					[-81.81913766666666, 24.59249983333333],
					[-81.81935972222222, 24.592195805555555],
					[-81.81957991666667, 24.59189061111111],
					[-81.81979819444445, 24.591584333333333],
					[-81.82001463888888, 24.591276916666665],
					[-81.82022913888889, 24.59096838888889],
					[-81.82044177777777, 24.590658777777776],
					[-81.82065252777777, 24.590348083333332],
					[-81.82086133333333, 24.590036333333334],
					[-81.82106825, 24.589723499999998],
					[-81.82127322222222, 24.58940958333333],
					[-81.82147627777778, 24.589094666666664],
					[-81.82167738888889, 24.588778666666666],
					[-81.82187655555555, 24.588461666666664],
					[-81.82207380555555, 24.588143666666664],
					[-81.82226905555555, 24.587824638888886],
					[-81.82246238888888, 24.58750461111111],
					[-81.82265372222221, 24.58718361111111],
					[-81.82284311111111, 24.58686161111111],
					[-81.8230305, 24.586538666666666],
					[-81.82321591666667, 24.58621475],
					[-81.82339933333333, 24.585889916666666],
					[-81.82358077777778, 24.58556411111111],
					[-81.82376019444445, 24.585237416666665],
					[-81.8239376111111, 24.584909777777778],
					[-81.82411302777777, 24.58458125],
					[-81.82428641666667, 24.584251833333333],
					[-81.82445777777778, 24.583921527777775],
					[-81.82462711111111, 24.583590333333333],
					[-81.82479441666666, 24.583258277777777],
					[-81.82495966666666, 24.58292538888889],
					[-81.82512288888888, 24.58259163888889],
					[-81.82528405555556, 24.582257055555555],
					[-81.82544316666666, 24.581921666666666],
					[-81.82560022222222, 24.581585472222223],
					[-81.82575522222221, 24.58124847222222],
					[-81.82590813888889, 24.580910666666668],
					[-81.826059, 24.580572083333333],
					[-81.82620775, 24.58023275],
					[-81.82635444444445, 24.57989263888889],
					[-81.82649902777777, 24.579551805555557],
					[-81.82664152777778, 24.579210222222223],
					[-81.82678194444443, 24.578867916666667],
					[-81.82692025, 24.57852488888889],
					[-81.82705644444444, 24.578181166666667],
					[-81.82719052777777, 24.57783675],
					[-81.8273225, 24.577491638888887],
					[-81.82745236111111, 24.57714586111111],
					[-81.82758008333333, 24.576799444444443],
					[-81.82770569444445, 24.576452361111112],
					[-81.82782916666666, 24.57610463888889],
					[-81.8279505, 24.575756277777778],
					[-81.82806969444444, 24.575407305555554],
					[-81.82818675, 24.57505775],
					[-81.82830166666666, 24.574707583333332],
					[-81.82841444444443, 24.574356833333333],
					[-81.82852502777777, 24.5740055],
					[-81.8286335, 24.573653611111112],
					[-81.82873980555556, 24.573301166666667],
					[-81.82884391666666, 24.572948194444443],
					[-81.82894588888888, 24.572594694444444],
					[-81.82904569444445, 24.572240666666666],
					[-81.82914330555555, 24.57188613888889],
					[-81.82923875, 24.57153111111111],
					[-81.82933202777778, 24.571175611111112],
					[-81.82942311111111, 24.57081963888889],
					[-81.82951202777777, 24.570463194444443],
					[-81.82959875, 24.570106305555555],
					[-81.82968327777778, 24.56974897222222],
					[-81.82976558333333, 24.569391222222222],
					[-81.82984574999999, 24.569033055555554],
					[-81.82992366666666, 24.568674472222224],
					[-81.82999941666667, 24.5683155],
					[-81.83007297222221, 24.56795613888889],
					[-81.83014430555555, 24.567596416666667],
					[-81.83021341666667, 24.567236333333334],
					[-81.83028033333333, 24.566875888888887],
					[-81.83034505555555, 24.566515111111112],
					[-81.83040755555555, 24.566154],
					[-81.83046783333333, 24.565792583333334],
					[-81.83052588888889, 24.56543086111111],
					[-81.83058172222222, 24.56506886111111],
					[-81.8306353611111, 24.564706555555556],
					[-81.83068675, 24.564344000000002],
					[-81.83073594444444, 24.563981194444445],
					[-81.83078288888889, 24.56361811111111],
					[-81.8308276111111, 24.563254833333335],
					[-81.83087011111111, 24.562891305555556],
					[-81.83091038888888, 24.562527555555555],
					[-81.83094841666666, 24.56216363888889],
					[-81.83098422222221, 24.5617995],
					[-81.83101780555555, 24.561435194444446],
					[-81.83104913888889, 24.561070722222222],
					[-81.83107824999999, 24.560706083333333],
					[-81.83110511111111, 24.560341333333334],
					[-81.83112975, 24.559976416666668],
					[-81.83115213888888, 24.559611416666666],
					[-81.83117227777777, 24.559246277777778],
					[-81.83119022222222, 24.558881055555556],
					[-81.83120588888889, 24.55851572222222],
					[-81.83121933333332, 24.558150333333334],
					[-81.83123052777778, 24.55778488888889],
					[-81.83123947222222, 24.55741938888889],
					[-81.83124619444445, 24.557053833333335],
					[-81.83125066666666, 24.55668825],
					[-81.83125288888888, 24.556322666666667],
					[-81.83125288888888, 24.555957083333332],
					[-81.83125063888889, 24.555591472222222],
					[-81.83124616666666, 24.555225916666668],
					[-81.83123944444444, 24.55486036111111],
					[-81.83123047222222, 24.554494861111113],
					[-81.83121924999999, 24.55412941666667],
					[-81.83120580555556, 24.553764027777778],
					[-81.83119011111111, 24.553398694444446],
					[-81.83117219444443, 24.55303347222222],
					[-81.83115202777778, 24.552668333333333],
					[-81.83112961111111, 24.552303333333334],
					[-81.83110497222222, 24.55193841666667],
					[-81.83107808333332, 24.55157363888889],
					[-81.83104897222222, 24.55120902777778],
					[-81.83101763888888, 24.550844555555557],
					[-81.83098405555555, 24.55048025],
					[-81.83094822222222, 24.55011613888889],
					[-81.83091019444444, 24.549752194444444],
					[-81.83086991666666, 24.549388444444446],
					[-81.83082741666666, 24.549024916666667],
					[-81.83078269444444, 24.54866163888889],
					[-81.83073572222222, 24.548298555555558],
					[-81.83068655555554, 24.54793575],
					[-81.83063513888888, 24.547573194444446],
					[-81.8305815, 24.54721088888889],
					[-81.83052566666666, 24.546848888888892],
					[-81.8304676111111, 24.54648716666667],
					[-81.83040733333333, 24.54612575],
					[-81.83034483333333, 24.54576463888889],
					[-81.83028013888888, 24.54540386111111],
					[-81.83021322222221, 24.545043444444445],
					[-81.83014408333332, 24.54468336111111],
					[-81.83007277777777, 24.544323611111114],
					[-81.82999925, 24.543964250000002],
					[-81.82992349999999, 24.54360527777778],
					[-81.82984558333332, 24.543246694444445],
					[-81.82976544444445, 24.54288852777778],
					[-81.82968311111111, 24.54253077777778],
					[-81.82959861111111, 24.542173444444447],
					[-81.82951191666666, 24.541816555555556],
					[-81.82942302777778, 24.541460111111114],
					[-81.82933194444443, 24.54110413888889],
					[-81.82915138888889, 24.540423444444446]
				]
			},
			"properties":{
				"style": "solid",
				"thickness":1
			}
		},
		{
			"type": "Feature",
			"geometry": {
				"type": "LineString",
				"coordinates": [
					[-81.73177372222223, 24.496241027777778],
					[-81.73247036111111, 24.495960583333336],
					[-81.73285130555556, 24.49581611111111],
					[-81.73323313888889, 24.49567363888889],
					[-81.73361586111112, 24.495533194444445],
					[-81.7339995, 24.49539477777778],
					[-81.73438397222222, 24.49525841666667],
					[-81.73476930555556, 24.495124055555557],
					[-81.7351555, 24.494991777777777],
					[-81.7355425, 24.494861500000003],
					[-81.73593033333333, 24.494733305555556],
					[-81.73631894444445, 24.49460716666667],
					[-81.73670836111111, 24.494483083333336],
					[-81.73709855555556, 24.494361055555558],
					[-81.73748952777778, 24.494241083333335],
					[-81.73788125, 24.494123194444445],
					[-81.73827369444444, 24.49400738888889],
					[-81.73866686111111, 24.49389366666667],
					[-81.73906075000001, 24.493782],
					[-81.73945533333334, 24.493672444444446],
					[-81.73985061111111, 24.493564972222224],
					[-81.74024655555556, 24.493459583333333],
					[-81.74064316666667, 24.493356305555558],
					[-81.74104041666666, 24.49325513888889],
					[-81.74143830555556, 24.493156055555556],
					[-81.74183680555555, 24.493059083333335],
					[-81.74223591666667, 24.492964222222223],
					[-81.74263561111111, 24.492871472222223],
					[-81.74303588888888, 24.49278086111111],
					[-81.74343672222223, 24.49269236111111],
					[-81.74383811111112, 24.492605972222222],
					[-81.74424005555555, 24.492521694444445],
					[-81.74464252777778, 24.492439555555556],
					[-81.7450455, 24.492359583333336],
					[-81.74544897222222, 24.492281722222224],
					[-81.74585291666666, 24.492205972222223],
					[-81.7462573611111, 24.49213238888889],
					[-81.74666225, 24.492060944444447],
					[-81.74706758333333, 24.49199163888889],
					[-81.74747333333333, 24.4919245],
					[-81.74787952777778, 24.491859472222224],
					[-81.74828611111111, 24.491796611111113],
					[-81.74869308333334, 24.491735916666666],
					[-81.74910041666666, 24.491677361111112],
					[-81.74950813888888, 24.491620972222222],
					[-81.74991619444445, 24.49156675],
					[-81.75032461111111, 24.491514666666667],
					[-81.75073333333333, 24.491464750000002],
					[-81.7511423611111, 24.49141702777778],
					[-81.75155166666667, 24.491371444444447],
					[-81.75196127777778, 24.49132802777778],
					[-81.75237116666666, 24.491286777777777],
					[-81.75278127777777, 24.491247694444446],
					[-81.7531916388889, 24.491210805555557],
					[-81.75360225, 24.491176083333333],
					[-81.75401305555556, 24.4911435],
					[-81.75442405555556, 24.49111313888889],
					[-81.75483525, 24.49108491666667],
					[-81.7552466111111, 24.49105888888889],
					[-81.75565811111112, 24.491035055555557],
					[-81.75606977777778, 24.49101336111111],
					[-81.75648158333334, 24.49099388888889],
					[-81.75689347222222, 24.490976555555555],
					[-81.7573055, 24.490961416666668],
					[-81.75771758333333, 24.49094847222222],
					[-81.75812977777778, 24.490937694444444],
					[-81.758542, 24.49092911111111],
					[-81.75895427777778, 24.490922694444446],
					[-81.7593666111111, 24.490918472222223],
					[-81.75977894444445, 24.490916416666668],
					[-81.76019127777778, 24.490916583333334],
					[-81.76060361111111, 24.49091888888889],
					[-81.76101591666666, 24.49092338888889],
					[-81.76142819444445, 24.490930083333335],
					[-81.76184044444445, 24.490938944444444],
					[-81.76225261111111, 24.49095],
					[-81.76266469444444, 24.490963222222224],
					[-81.76307669444445, 24.49097863888889],
					[-81.76348858333333, 24.490996222222222],
					[-81.76390036111111, 24.491016000000002],
					[-81.764312, 24.491037944444447],
					[-81.7647235, 24.491062083333333],
					[-81.76513483333333, 24.49108838888889],
					[-81.765546, 24.491116861111113],
					[-81.765957, 24.49114752777778],
					[-81.76636777777777, 24.491180361111113],
					[-81.76677833333333, 24.491215361111113],
					[-81.76718866666667, 24.49125255555556],
					[-81.76759877777778, 24.491291888888888],
					[-81.76800861111111, 24.491333416666667],
					[-81.76841816666666, 24.491377111111113],
					[-81.76882747222223, 24.491422972222225],
					[-81.76923644444445, 24.491470972222224],
					[-81.76964513888889, 24.49152116666667],
					[-81.7700535, 24.4915735],
					[-81.7704615, 24.49162802777778],
					[-81.77086919444444, 24.491684694444444],
					[-81.7712765, 24.491743500000002],
					[-81.77168341666666, 24.491804472222224],
					[-81.77208994444445, 24.49186761111111],
					[-81.77249608333334, 24.49193288888889],
					[-81.77290177777778, 24.492000333333333],
					[-81.77330705555555, 24.49206988888889],
					[-81.77371188888888, 24.492141611111112],
					[-81.77411625, 24.492215472222224],
					[-81.77452016666666, 24.492291472222224],
					[-81.77492355555556, 24.492369611111112],
					[-81.77532647222222, 24.49244988888889],
					[-81.7757288611111, 24.49253227777778],
					[-81.77613072222222, 24.492616805555556],
					[-81.77653205555555, 24.492703472222225],
					[-81.77693283333333, 24.49279225],
					[-81.77733305555556, 24.49288313888889],
					[-81.77773266666667, 24.49297616666667],
					[-81.77813169444444, 24.49307127777778],
					[-81.77853011111111, 24.49316852777778],
					[-81.77892791666666, 24.49326786111111],
					[-81.77932508333333, 24.493369305555557],
					[-81.77972161111111, 24.493472861111112],
					[-81.78011747222222, 24.4935785],
					[-81.78051266666667, 24.49368625],
					[-81.78090716666667, 24.493796055555556],
					[-81.78130094444444, 24.493907972222225],
					[-81.78169402777777, 24.494021972222225],
					[-81.78208638888889, 24.494138055555556],
					[-81.78247802777777, 24.494256194444446],
					[-81.78286888888888, 24.494376416666668],
					[-81.78325897222223, 24.49449872222222],
					[-81.78364830555556, 24.494623055555557],
					[-81.78403683333333, 24.494749472222225],
					[-81.78442455555556, 24.494877944444447],
					[-81.78481144444444, 24.495008444444444],
					[-81.78519752777778, 24.495141],
					[-81.78558275, 24.49527561111111],
					[-81.78596713888889, 24.49541225],
					[-81.78635063888889, 24.495550916666666],
					[-81.78673325, 24.495691611111113],
					[-81.78711497222223, 24.495834333333335],
					[-81.78749580555555, 24.495979055555555],
					[-81.78787569444444, 24.496125805555558],
					[-81.78825466666666, 24.496274555555555],
					[-81.78863266666667, 24.496425333333335],
					[-81.78900972222222, 24.496578083333333],
					[-81.78938580555555, 24.496732833333333],
					[-81.78976091666667, 24.496889583333335],
					[-81.79013502777778, 24.497048305555555],
					[-81.79050813888888, 24.497209],
					[-81.79088019444444, 24.497371666666666],
					[-81.79125125, 24.497536305555556],
					[-81.79162124999999, 24.497702916666668],
					[-81.79199016666666, 24.497871472222222],
					[-81.79235802777778, 24.49804197222222],
					[-81.79272483333334, 24.498214416666666],
					[-81.79309049999999, 24.498388805555557],
					[-81.79345508333333, 24.49856513888889],
					[-81.79381855555556, 24.49874338888889],
					[-81.79418086111112, 24.498923555555557],
					[-81.79454205555555, 24.49910563888889],
					[-81.79490208333333, 24.499289611111113],
					[-81.79526094444444, 24.499475500000003],
					[-81.79561861111111, 24.499663305555558],
					[-81.7959751111111, 24.49985297222222],
					[-81.79633038888889, 24.500044555555554],
					[-81.79668444444444, 24.500237972222223],
					[-81.79703727777778, 24.500433277777777],
					[-81.7973888611111, 24.500630472222223],
					[-81.79773922222222, 24.5008295],
					[-81.79808830555555, 24.50103038888889],
					[-81.79843611111112, 24.501233111111112],
					[-81.79878261111111, 24.501437666666668],
					[-81.79912783333333, 24.501644083333332],
					[-81.79947175, 24.50185227777778],
					[-81.79981433333333, 24.502062333333335],
					[-81.80015558333334, 24.502274166666666],
					[-81.8004955, 24.502487805555557],
					[-81.80083405555555, 24.50270325],
					[-81.80117125, 24.5029205],
					[-81.80150705555555, 24.5031395],
					[-81.80184147222222, 24.503360277777777],
					[-81.80217449999999, 24.503582833333333],
					[-81.80250611111111, 24.503807166666668],
					[-81.80283630555556, 24.504033222222223],
					[-81.80316505555555, 24.504261027777776],
					[-81.80349236111111, 24.504490555555556],
					[-81.80381819444445, 24.504721833333335],
					[-81.80414258333333, 24.504954833333333],
					[-81.80446549999999, 24.505189527777777],
					[-81.80478691666666, 24.505425944444443],
					[-81.80510683333333, 24.505664055555556],
					[-81.80542525, 24.50590386111111],
					[-81.80574213888889, 24.506145333333333],
					[-81.80605747222222, 24.506388472222223],
					[-81.80637130555556, 24.506633277777777],
					[-81.80668355555555, 24.50687975],
					[-81.80699425, 24.50712788888889],
					[-81.80730338888888, 24.50737763888889],
					[-81.80761094444445, 24.507629027777778],
					[-81.80791688888888, 24.507882055555555],
					[-81.80822122222222, 24.508136694444445],
					[-81.80852394444445, 24.508392916666665],
					[-81.80882505555556, 24.50865075],
					[-81.80912452777777, 24.508910194444443],
					[-81.8094223611111, 24.509171194444445],
					[-81.80971852777778, 24.50943377777778],
					[-81.81001302777777, 24.509697916666667],
					[-81.81030588888889, 24.50996361111111],
					[-81.81059702777777, 24.510230833333335],
					[-81.81088647222222, 24.51049961111111],
					[-81.81117422222222, 24.510769916666668],
					[-81.81146027777777, 24.51104175],
					[-81.81174458333334, 24.511315083333333],
					[-81.81202716666667, 24.511589916666665],
					[-81.81230802777777, 24.51186625],
					[-81.81258711111111, 24.512144055555556],
					[-81.81286444444444, 24.512423333333334],
					[-81.81314, 24.512704055555556],
					[-81.81341377777777, 24.51298625],
					[-81.81368577777778, 24.51326988888889],
					[-81.81395597222222, 24.513554972222224],
					[-81.81422438888889, 24.51384147222222],
					[-81.81449094444444, 24.51412938888889],
					[-81.81475569444444, 24.51441872222222],
					[-81.81501861111111, 24.514709416666665],
					[-81.81527969444444, 24.515001527777777],
					[-81.81553891666667, 24.515295],
					[-81.81579630555555, 24.51558986111111],
					[-81.81605177777777, 24.515886055555555],
					[-81.81630541666667, 24.51618361111111],
					[-81.81655716666667, 24.5164825],
					[-81.816807, 24.51678272222222],
					[-81.81705494444444, 24.51708425],
					[-81.81730097222221, 24.51738711111111],
					[-81.81754508333333, 24.51769125],
					[-81.81778727777777, 24.517996666666665],
					[-81.81802752777777, 24.51830336111111],
					[-81.81826583333333, 24.518611333333332],
					[-81.81850219444443, 24.518920555555553],
					[-81.81873658333333, 24.519231027777778],
					[-81.81896902777777, 24.519542722222223],
					[-81.8191995, 24.519855666666665],
					[-81.81942797222221, 24.520169805555554],
					[-81.81965444444444, 24.520485166666667],
					[-81.81987894444444, 24.520801694444444],
					[-81.82010144444445, 24.521119416666664],
					[-81.82032191666666, 24.521438333333332],
					[-81.82054036111111, 24.521758388888887],
					[-81.82075677777777, 24.52207961111111],
					[-81.82097119444444, 24.522401944444443],
					[-81.82118352777778, 24.522725416666667],
					[-81.82139383333333, 24.523050027777778],
					[-81.82160208333333, 24.52337572222222],
					[-81.82180827777778, 24.523702527777775],
					[-81.82201238888888, 24.524030416666665],
					[-81.82221441666667, 24.52435938888889],
					[-81.82241438888889, 24.524689416666664],
					[-81.82261224999999, 24.5250205],
					[-81.82280802777777, 24.52535261111111],
					[-81.82300169444444, 24.525685777777777],
					[-81.82319325, 24.526019944444442],
					[-81.82338269444445, 24.52635511111111],
					[-81.82356999999999, 24.526691305555556],
					[-81.82375519444444, 24.527028444444444],
					[-81.82393825, 24.527366583333333],
					[-81.82411916666666, 24.527705694444442],
					[-81.82429794444444, 24.52804575],
					[-81.82447455555555, 24.52838675],
					[-81.82464902777778, 24.528728666666666],
					[-81.82482130555555, 24.5290715],
					[-81.82499141666666, 24.52941525],
					[-81.8251593611111, 24.529759888888886],
					[-81.82532513888889, 24.530105416666665],
					[-81.82548872222222, 24.530451805555554],
					[-81.82565008333333, 24.530799055555555],
					[-81.82580927777778, 24.531147166666667],
					[-81.82596625, 24.53149611111111],
					[-81.82612102777777, 24.531845861111112],
					[-81.82627358333333, 24.532196444444445],
					[-81.82642391666667, 24.532547833333332],
					[-81.82657202777777, 24.532899999999998],
					[-81.82671791666667, 24.533252944444442],
					[-81.82686158333333, 24.53360663888889],
					[-81.82700299999999, 24.53396111111111],
					[-81.82714216666666, 24.534316333333337],
					[-81.82727908333332, 24.53467227777778],
					[-81.82741374999999, 24.53502891666667],
					[-81.82754616666666, 24.53538627777778],
					[-81.82767630555556, 24.535744361111114],
					[-81.82780416666667, 24.536103111111114],
					[-81.82792977777777, 24.536462500000003],
					[-81.8280531111111, 24.536822583333336],
					[-81.82817416666666, 24.53718330555556],
					[-81.82829294444444, 24.53754466666667],
					[-81.82840941666666, 24.53790663888889],
					[-81.82852361111111, 24.538269222222223],
					[-81.82863552777778, 24.53863241666667],
					[-81.82874513888889, 24.538996194444447],
					[-81.82885241666666, 24.53936052777778],
					[-81.82895741666667, 24.539725444444446],
					[-81.82915138888889, 24.540423444444446]
				]
			},
			"properties":{
				"style": "solid",
				"thickness":1
			}
		},
		{
			"type": "Feature",
			"geometry": {
				"type": "LineString",
				"coordinates": [
					[-81.82915147222222, 24.54042377777778],
					[-81.83672166666666, 24.54602855555556],
					[-81.83747005555556, 24.546582583333336],
					[-81.83845444444444, 24.547311333333337],
					[-81.83943888888888, 24.548040083333333],
					[-81.84042330555555, 24.548768805555557],
					[-81.84140777777777, 24.549497555555558],
					[-81.84239222222222, 24.550226277777778],
					[-81.84337669444444, 24.550955000000002],
					[-81.84436116666666, 24.551683694444446],
					[-81.84534566666666, 24.552412416666666],
					[-81.84633016666666, 24.553141111111113],
					[-81.84731469444444, 24.553869805555557],
					[-81.84829922222222, 24.554598472222224],
					[-81.84928375, 24.555327166666668],
					[-81.85026830555555, 24.556055833333335],
					[-81.85036944444444, 24.556130666666668]
				]
			},
			"properties":{
				"style": "solid",
				"thickness":1
			}
		},
		{
			"type": "Feature",
			"geometry": {
				"type": "LineString",
				"coordinates": [
					[-81.86457822222222, 24.566645027777778],
					[-81.86503791666667, 24.56698513888889],
					[-81.86602263888888, 24.567713722222223],
					[-81.86700738888888, 24.568442277777777],
					[-81.86799213888888, 24.569170833333335],
					[-81.86897691666665, 24.56989938888889],
					[-81.86996169444444, 24.570627916666666],
					[-81.87094647222222, 24.571356444444444],
					[-81.87193127777778, 24.572085],
					[-81.87291608333332, 24.5728135],
					[-81.87390091666666, 24.573542027777776],
					[-81.87488574999999, 24.574270527777777],
					[-81.87587061111111, 24.57499902777778],
					[-81.87685544444444, 24.575727527777776],
					[-81.87784033333332, 24.576456027777777],
					[-81.87878933333333, 24.577158]
				]
			},
			"properties":{
				"style": "solid",
				"thickness":1
			}
		},
		{
			"type": "Feature",
			"geometry": {
				"type": "LineString",
				"coordinates": [
					[-81.89300283333334, 24.587669583333334],
					[-81.89359977777778, 24.588110999999998],
					[-81.89458483333334, 24.58883936111111],
					[-81.89556991666667, 24.58956775],
					[-81.896555, 24.59029611111111],
					[-81.89754008333334, 24.59102447222222],
					[-81.89852519444445, 24.59175283333333],
					[-81.89951030555557, 24.592481166666666],
					[-81.90049544444445, 24.5932095],
					[-81.90148058333334, 24.59393786111111],
					[-81.90246575, 24.594666166666666],
					[-81.90345091666667, 24.595394499999998],
					[-81.90443608333334, 24.596122805555556],
					[-81.90542127777778, 24.59685111111111],
					[-81.90640647222223, 24.597579416666665],
					[-81.90721866666667, 24.598179805555553]
				]
			},
			"properties":{
				"style": "solid",
				"thickness":1
			}
		},
		{
			"type": "Feature",
			"geometry": {
				"type": "LineString",
				"coordinates": [
					[-81.92143686111112, 24.60868866666667],
					[-81.92217119444445, 24.609231361111114],
					[-81.92315661111111, 24.609959555555555],
					[-81.924142, 24.610687722222224],
					[-81.92512741666667, 24.61141591666667],
					[-81.92611283333333, 24.612144083333334],
					[-81.92709827777779, 24.612872250000002],
					[-81.92808372222223, 24.613600416666667],
					[-81.92906919444445, 24.614328555555556],
					[-81.93005466666668, 24.615056694444444],
					[-81.93104016666668, 24.615784833333336],
					[-81.93202563888889, 24.616512972222225],
					[-81.93301116666667, 24.617241111111113],
					[-81.93399666666667, 24.61796922222222],
					[-81.93498219444444, 24.618697333333333],
					[-81.9356573888889, 24.61919616666667]
				]
			},
			"properties":{
				"style": "solid",
				"thickness":1
			}
		},
		{
			"type": "Feature",
			"geometry": {
				"type": "LineString",
				"coordinates": [
					[-81.91602747222223, 24.641395416666665],
					[-81.9153708888889, 24.64213775],
					[-81.91458, 24.643031944444445],
					[-81.91378911111111, 24.64392611111111],
					[-81.91299819444446, 24.64482027777778],
					[-81.91220727777778, 24.645714444444444],
					[-81.91141636111112, 24.64660861111111],
					[-81.91062541666668, 24.647502777777778],
					[-81.90983444444446, 24.648396944444443],
					[-81.90904350000001, 24.64929108333333],
					[-81.90825252777779, 24.65018525],
					[-81.90746152777778, 24.65107938888889],
					[-81.90667052777778, 24.651973527777777],
					[-81.90587952777778, 24.652867666666666],
					[-81.9050885, 24.653761777777778],
					[-81.90452875000001, 24.6543945]
				]
			},
			"properties":{
				"style": "solid",
				"thickness":1
			}
		},
		{
			"type": "Feature",
			"geometry": {
				"type": "LineString",
				"coordinates": [
					[-81.89302758333334, 24.667392722222225],
					[-81.89243061111112, 24.668067305555557],
					[-81.89163941666668, 24.668961361111112],
					[-81.89084819444444, 24.669855416666667],
					[-81.89005694444445, 24.670749472222223],
					[-81.88926569444445, 24.671643500000002],
					[-81.88847444444446, 24.672537555555557],
					[-81.88768316666668, 24.673431583333336],
					[-81.8868918888889, 24.67432561111111],
					[-81.88610061111112, 24.67521963888889],
					[-81.88530930555557, 24.67611366666667],
					[-81.884518, 24.677007694444445],
					[-81.88372666666667, 24.677901722222224],
					[-81.88293533333332, 24.678795722222223],
					[-81.88214397222221, 24.679689722222225],
					[-81.88152402777777, 24.680390111111112]
				]
			},
			"properties":{
				"style": "solid",
				"thickness":1
			}
		},
		{
			"type": "Feature",
			"geometry": {
				"type": "LineString",
				"coordinates": [
					[-81.87001799999999, 24.693386611111112],
					[-81.8694808611111, 24.693993250000002],
					[-81.86868933333332, 24.694887194444444],
					[-81.86789777777777, 24.69578113888889],
					[-81.86710622222222, 24.696675055555556],
					[-81.86631463888888, 24.69756897222222],
					[-81.86552305555556, 24.69846288888889],
					[-81.86473144444444, 24.699356805555556],
					[-81.86433566666666, 24.69980375]
				]
			},
			"properties":{
				"style": "solid",
				"thickness":1
			}
		},
		{
			"type": "Feature",
			"geometry": {
				"type": "LineString",
				"coordinates": [
					[-81.86433566666666, 24.69980375],
					[-81.86370944444444, 24.699340944444444],
					[-81.86272369444444, 24.69861236111111],
					[-81.86173794444444, 24.69788377777778],
					[-81.86075222222222, 24.697155194444445],
					[-81.85976649999999, 24.69642661111111],
					[-81.85878080555555, 24.695698027777777],
					[-81.8577951111111, 24.694969416666666],
					[-81.85680941666666, 24.694240805555555],
					[-81.85582375, 24.693512194444445],
					[-81.85483808333333, 24.692783583333334],
					[-81.85385244444444, 24.692054944444443],
					[-81.85286680555555, 24.691326305555556],
					[-81.85188119444445, 24.690597666666665],
					[-81.85089555555555, 24.689869027777778],
					[-81.85011155555554, 24.689289416666668]
				]
			},
			"properties":{
				"style": "solid",
				"thickness":1
			}
		},
		{
			"type": "Feature",
			"geometry": {
				"type": "LineString",
				"coordinates": [
					[-81.83588986111111, 24.678773694444445],
					[-81.83512730555555, 24.67820975],
					[-81.8341418611111, 24.677481],
					[-81.83315647222221, 24.676752222222223],
					[-81.83217105555555, 24.676023444444446],
					[-81.83118569444444, 24.67529466666667],
					[-81.83020030555555, 24.67456588888889],
					[-81.82921494444444, 24.673837111111112],
					[-81.82822958333333, 24.673108305555555],
					[-81.82724424999999, 24.6723795],
					[-81.82625891666666, 24.671650694444445],
					[-81.8252736111111, 24.67092186111111],
					[-81.82428830555556, 24.670193027777778],
					[-81.823303, 24.669464222222224],
					[-81.82231772222222, 24.66873536111111],
					[-81.8216705, 24.668256583333335]
				]
			},
			"properties":{
				"style": "solid",
				"thickness":1
			}
		},
		{
			"type": "Feature",
			"geometry": {
				"type": "LineString",
				"coordinates": [
					[-81.8074535, 24.657738111111108],
					[-81.80655477777778, 24.657073083333334],
					[-81.80556969444444, 24.656344138888887],
					[-81.80458461111111, 24.655615166666664],
					[-81.80359952777778, 24.65488622222222],
					[-81.8026145, 24.654157249999997],
					[-81.80162944444444, 24.653428277777778],
					[-81.80064441666666, 24.652699277777778],
					[-81.79965938888888, 24.651970305555555],
					[-81.79867438888888, 24.651241305555555],
					[-81.79768938888888, 24.650512305555555],
					[-81.79670441666667, 24.649783305555555],
					[-81.79571944444444, 24.64905427777778],
					[-81.79473447222222, 24.64832525],
					[-81.79374952777778, 24.647596222222223],
					[-81.7932388611111, 24.647218249999998]
				]
			},
			"properties":{
				"style": "solid",
				"thickness":1
			}
		},
		{
			"type": "Feature",
			"geometry": {
				"type": "LineString",
				"coordinates": [
					[-81.7790266111111, 24.636697027777778],
					[-81.77897663888889, 24.636660027777776],
					[-81.7779918611111, 24.635930916666666],
					[-81.7770071111111, 24.635201777777777],
					[-81.77602236111112, 24.63447261111111],
					[-81.77503763888889, 24.63374347222222],
					[-81.77405291666666, 24.633014305555555],
					[-81.77306819444445, 24.63228513888889],
					[-81.7720835, 24.631555972222223],
					[-81.77109880555555, 24.630826805555557],
					[-81.77027469444444, 24.6302165],
					[-81.76523963888889, 24.626487666666666]
				]
			},
			"properties":{
				"style": "solid",
				"thickness":1
			}
		},
		{
			"type": "Feature",
			"geometry": {
				"type": "LineString",
				"coordinates": [
					[-81.93565730555557, 24.619196083333335],
					[-81.93519913888889, 24.61971436111111],
					[-81.93440852777778, 24.62060863888889],
					[-81.93361791666668, 24.621502916666667],
					[-81.93282730555556, 24.622397194444446],
					[-81.93203666666668, 24.623291472222224],
					[-81.931246, 24.624185722222222],
					[-81.93045536111111, 24.62508],
					[-81.92966469444445, 24.62597425],
					[-81.92887400000001, 24.6268685],
					[-81.92808330555556, 24.62776275],
					[-81.92752380555557, 24.62839552777778]
				]
			},
			"properties":{
				"style": "solid",
				"thickness":1
			}
		},
		{
			"type": "Feature",
			"geometry": {
				"type": "LineString",
				"coordinates": [
					[-80.29439686111111, 25.79790280555556],
					[-80.29328525, 25.79689652777778]
				]
			},
			"properties":{
				"style": "solid",
				"thickness":1
			}
		},
		{
			"type": "Feature",
			"geometry": {
				"type": "LineString",
				"coordinates": [
					[-80.2942423611111, 25.79828188888889],
					[-80.2928665, 25.79703638888889]
				]
			},
			"properties":{
				"style": "solid",
				"thickness":1
			}
		},
		{
			"type": "Feature",
			"geometry": {
				"type": "LineString",
				"coordinates": [
					[-80.29395572222222, 25.79854138888889],
					[-80.29257986111111, 25.797295861111113]
				]
			},
			"properties":{
				"style": "solid",
				"thickness":1
			}
		},
		{
			"type": "Feature",
			"geometry": {
				"type": "LineString",
				"coordinates": [
					[-80.29353697222221, 25.79868125],
					[-80.29242533333333, 25.797674944444445]
				]
			},
			"properties":{
				"style": "solid",
				"thickness":1
			}
		},
		{
			"type": "Feature",
			"geometry": {
				"type": "LineString",
				"coordinates": [
					[-80.29266583333333, 25.79846352777778],
					[-80.29281088888888, 25.798573166666667],
					[-80.29297522222222, 25.798657555555558],
					[-80.29315358333334, 25.798714055555557],
					[-80.29334019444444, 25.798740833333333],
					[-80.29352911111111, 25.798736972222223],
					[-80.29371422222222, 25.798702666666667],
					[-80.29388958333332, 25.798639],
					[-80.29404958333333, 25.798548],
					[-80.29418905555555, 25.798432583333334],
					[-80.29430352777777, 25.798296500000003],
					[-80.29438930555555, 25.798144083333334],
					[-80.2944436388889, 25.79798027777778],
					[-80.29446480555555, 25.797810305555558],
					[-80.29445208333333, 25.797639638888892],
					[-80.29440591666666, 25.79747377777778],
					[-80.29432777777778, 25.79731802777778],
					[-80.29422016666666, 25.797177416666667],
					[-80.29408655555555, 25.797056472222224],
					[-80.29393125, 25.796959083333334],
					[-80.29375919444445, 25.796888333333335],
					[-80.29357597222221, 25.79684652777778],
					[-80.29338747222222, 25.796835027777778],
					[-80.29319969444444, 25.796854194444446],
					[-80.29301872222221, 25.79690338888889],
					[-80.2928503611111, 25.79698102777778],
					[-80.29270002777777, 25.79708463888889],
					[-80.29257255555555, 25.797210916666668],
					[-80.29247202777778, 25.797355722222225],
					[-80.29240169444444, 25.797514500000002],
					[-80.29236377777778, 25.79768205555556],
					[-80.29235952777778, 25.797853055555557],
					[-80.2923891111111, 25.798022000000003],
					[-80.2924515, 25.798183472222224],
					[-80.29254475, 25.798332222222225],
					[-80.29266583333333, 25.79846352777778]
				]
			},
			"properties":{
				"style": "solid",
				"thickness":1
			}
		}
	]
}