{"type":"FeatureCollection","features":[{"type":"Feature","geometry":{"type":"LineString","coordinates":[[-80.2932391388889,25.79690666666667],[-80.29438566666667,25.797944583333337]]},"properties":{"style":"solid","thickness":1}},{"type":"Feature","geometry":{"type":"LineString","coordinates":[[-80.29283783333334,25.797062333333336],[-80.29421369444444,25.798307833333336]]},"properties":{"style":"solid","thickness":1}},{"type":"Feature","geometry":{"type":"LineString","coordinates":[[-80.29255119444444,25.797321833333335],[-80.29392705555556,25.798567333333335]]},"properties":{"style":"solid","thickness":1}},{"type":"Feature","geometry":{"type":"LineString","coordinates":[[-80.29237922222222,25.797685083333334],[-80.29352575,25.79872302777778]]},"properties":{"style":"solid","thickness":1}},{"type":"Feature","geometry":{"type":"LineString","coordinates":[[-80.29266583333333,25.79846352777778],[-80.29275158333333,25.798533083333336],[-80.2928508611111,25.79859702777778],[-80.2929635,25.79865266666667],[-80.29308844444444,25.798697166666667],[-80.29322377777778,25.798727805555558],[-80.29336666666667,25.79874213888889],[-80.29351341666667,25.798738472222222],[-80.29365983333334,25.79871602777778],[-80.29380155555555,25.798675111111113],[-80.29393441666666,25.798617055555557],[-80.29405494444444,25.798544250000003],[-80.29416058333334,25.798459694444446],[-80.29424983333332,25.79836666666667],[-80.29432222222222,25.798268500000002],[-80.29437816666666,25.79816827777778],[-80.29441874999999,25.798068555555556],[-80.29444616666666,25.797968750000003],[-80.294462,25.797861416666667],[-80.29446405555555,25.797747194444447],[-80.29444997222222,25.797628055555556],[-80.29441788888889,25.797506694444447],[-80.29436666666666,25.797386361111112],[-80.29429608333334,25.797270722222223],[-80.2942071111111,25.797163555555557],[-80.29410188888889,25.79706827777778],[-80.29398347222222,25.796987750000003],[-80.29385574999999,25.796923861111114],[-80.29372283333333,25.796877472222224],[-80.29358877777777,25.796848444444446],[-80.29345716666667,25.796835694444447],[-80.293331,25.79683755555556],[-80.29321241666666,25.79685188888889],[-80.29310216666667,25.796876694444446],[-80.29299202777777,25.796913472222222],[-80.29288130555555,25.796964111111112],[-80.2927728611111,25.797029611111114],[-80.29267011111111,25.79711041666667],[-80.29257666666666,25.797206055555556],[-80.29249625,25.797315166666667],[-80.29243213888888,25.797435444444446],[-80.29238691666666,25.797563722222225],[-80.29236213888889,25.797696277777778],[-80.29235808333333,25.797829111111113],[-80.29237394444445,25.797958444444447],[-80.29240775,25.798080972222223],[-80.29245691666667,25.798194083333335],[-80.2925183888889,25.79829602777778],[-80.29258899999999,25.798385916666668],[-80.29266583333333,25.79846352777778]]},"properties":{"style":"solid","thickness":1}},{"type":"Feature","geometry":{"type":"LineString","coordinates":[[-80.29137222222222,25.794558333333335],[-80.10533055555555,25.802658333333333],[-80.06152222222222,25.805344444444444],[-79.99938333333334,25.80848611111111],[-79.91828333333333,25.81258888888889],[-79.69958611111112,25.821925],[-79.65293333333334,25.82275]]},"properties":{"style":"solid","thickness":1}},{"type":"Feature","geometry":{"type":"LineString","coordinates":[[-79.65293333333334,25.82275],[-79.66196944444445,25.808794444444445],[-79.7,25.75],[-79.70001666666667,25.707327777777778],[-79.70000555555556,25.488419444444446],[-79.7,25.466666666666665],[-79.71588333333334,25.45623611111111],[-79.83776388888889,25.376],[-80.04366666666667,25.54494166666667],[-80.06172222222222,25.55196666666667],[-80.25888888888889,25.619444444444444],[-80.2664861111111,25.671630555555556],[-80.27820277777778,25.731091666666664],[-80.29137222222222,25.794558333333335]]},"properties":{"style":"solid","thickness":1}},{"type":"Feature","geometry":{"type":"LineString","coordinates":[[-80.2664861111111,25.671630555555556],[-80.21491388888889,25.671958333333336],[-80.16489722222222,25.672005555555558],[-80.1550388888889,25.680694444444445],[-80.146225,25.689016666666667],[-80.13956111111112,25.69766388888889],[-80.13140555555555,25.70875],[-80.12106666666666,25.727024999999998],[-80.11551666666666,25.739080555555557],[-80.11032777777777,25.754916666666666],[-80.10705277777777,25.767658333333333],[-80.10574166666666,25.77778611111111],[-80.10482499999999,25.790372222222224],[-80.10533055555555,25.802658333333333]]},"properties":{"style":"solid","thickness":1}},{"type":"Feature","geometry":{"type":"LineString","coordinates":[[-79.89435683333333,25.65840847222222],[-79.89451491666668,25.66043858333333],[-79.89482847222223,25.661574638888887],[-79.89501997222223,25.66210647222222],[-79.89527558333334,25.662498166666666],[-79.89623483333334,25.663252888888888],[-79.89715722222223,25.663533916666665],[-79.8974558888889,25.663514805555554],[-79.89832552777779,25.663119138888888],[-79.89908361111112,25.662254527777776],[-79.89935063888889,25.661829388888886],[-79.89945780555556,25.66127847222222],[-79.89959216666668,25.660113749999997],[-79.89943400000001,25.658083638888886],[-79.89912038888889,25.65694758333333],[-79.89892888888889,25.656415749999997],[-79.89859861111111,25.65602886111111],[-79.89771408333334,25.65526936111111],[-79.89679177777778,25.654988333333332],[-79.89649311111111,25.655007444444443],[-79.89562352777779,25.65540311111111],[-79.89479080555556,25.65627247222222],[-79.89459841666667,25.656692805555554],[-79.89449125,25.65724372222222],[-79.89435683333333,25.65840847222222]]},"properties":{"style":"solid","thickness":1}},{"type":"Feature","geometry":{"type":"LineString","coordinates":[[-80.22984933333333,25.735092916666666],[-80.23057627777779,25.735724972222222],[-80.23073113888888,25.735782722222222],[-80.23171316666667,25.735853694444444],[-80.23252391666666,25.735663916666667],[-80.23295025,25.735363583333335],[-80.23337113888888,25.734995611111113],[-80.23369541666666,25.734361916666668],[-80.23356969444444,25.732805805555554],[-80.23307233333334,25.732226583333333],[-80.23275166666667,25.731975749999997],[-80.23159841666667,25.731644055555552],[-80.23030125,25.731389916666664],[-80.22937211111112,25.73104336111111],[-80.22904052777778,25.730657194444444],[-80.22881466666666,25.729719888888887],[-80.22889302777779,25.728830416666664],[-80.22922280555555,25.728264416666665],[-80.22957441666667,25.727969055555555],[-80.22985680555556,25.727746277777776],[-80.2302138888889,25.727518555555555],[-80.2310191388889,25.72726113888889],[-80.23146730555555,25.727231444444442],[-80.2319263888889,25.727337055555555],[-80.23254580555556,25.72756808333333],[-80.23294113888889,25.727813972222222],[-80.23350772222223,25.728320583333332]]},"properties":{"style":"solid","thickness":1}},{"type":"Feature","geometry":{"type":"LineString","coordinates":[[-80.21263183333333,25.736708750000002],[-80.21310186111111,25.73694975],[-80.21363566666668,25.737050472222222],[-80.2154285,25.73693188888889],[-80.21608988888889,25.736752083333336],[-80.21630852777778,25.73666961111111],[-80.21737994444445,25.735986555555556],[-80.21799766666666,25.735265472222224],[-80.21816719444445,25.734574055555555],[-80.21859183333333,25.73332161111111],[-80.21846630555555,25.73176547222222],[-80.21825688888889,25.73103111111111],[-80.21798369444444,25.730437027777775],[-80.21763033333333,25.729780194444444],[-80.21682333333334,25.729085388888887],[-80.21534955555556,25.728502694444444],[-80.21436213888889,25.72836397222222],[-80.21354050000001,25.728418305555554],[-80.21251111111111,25.728690444444442],[-80.212154,25.728918138888886],[-80.21186611111112,25.729073194444442]]},"properties":{"style":"solid","thickness":1}},{"type":"Feature","geometry":{"type":"LineString","coordinates":[[-80.20910888888889,25.73306461111111],[-80.20447755555556,25.733370722222222]]},"properties":{"style":"solid","thickness":1}},{"type":"Feature","geometry":{"type":"LineString","coordinates":[[-80.18780711111111,25.73338302777778],[-80.18797033333334,25.735412805555555],[-80.18828694444444,25.736548250000002],[-80.18847986111112,25.737079666666666],[-80.18873661111111,25.737470833333333],[-80.18969833333334,25.738223611111113],[-80.19062197222223,25.738502750000002],[-80.19092080555556,25.738483055555555],[-80.19179002777778,25.738085583333334],[-80.19254641666667,25.737219444444445],[-80.19281258333334,25.73679377777778],[-80.19291844444444,25.73624263888889],[-80.19305,25.73507763888889],[-80.19288669444445,25.73304786111111],[-80.19257008333334,25.731912444444443],[-80.19237713888889,25.731381027777775],[-80.19204569444445,25.730994805555554],[-80.19115869444445,25.73023711111111],[-80.19023511111112,25.72995797222222],[-80.18993633333334,25.729977666666667],[-80.18906716666667,25.73037511111111],[-80.18823605555556,25.731246166666665],[-80.18804461111111,25.731666916666665],[-80.18793875,25.732218027777776],[-80.18780711111111,25.73338302777778]]},"properties":{"style":"solid","thickness":1}},{"type":"Feature","geometry":{"type":"LineString","coordinates":[[-79.90767633333334,25.660820333333334],[-79.9076438888889,25.66136647222222],[-79.90752094444446,25.66171438888889],[-79.90704575000001,25.662356888888887],[-79.90661886111111,25.662656249999998],[-79.90619197222223,25.66295563888889],[-79.90553050000001,25.663134],[-79.90515716666667,25.663157916666666],[-79.90432527777779,25.663075166666665],[-79.90361636111112,25.6626445],[-79.90313144444445,25.66219947222222],[-79.90302513888889,25.661798249999997],[-79.90291963888889,25.660444833333333],[-79.90318666666667,25.660019694444443],[-79.9036723888889,25.659512527777775],[-79.90430219444445,25.65892813888889],[-79.90482483333334,25.65889469444444]]},"properties":{"style":"solid","thickness":1}},{"type":"Feature","geometry":{"type":"LineString","coordinates":[[-79.90430219444445,25.65892813888889],[-79.90336927777778,25.658511833333332],[-79.90304952777778,25.658260249999998],[-79.90263930555557,25.65781047222222],[-79.90254880555555,25.65761225],[-79.90242669444444,25.65700797222222],[-79.90241086111112,25.656804972222222],[-79.90244333333334,25.656258833333332],[-79.90256102777778,25.65584325],[-79.90289741666668,25.655345666666665],[-79.90331902777778,25.654978611111108],[-79.90403400000001,25.654524805555553],[-79.90575122222222,25.65441483333333],[-79.90628969444445,25.65458438888889],[-79.90715316666667,25.655073138888888],[-79.90731305555556,25.655198916666667],[-79.90758980555556,25.655861277777777],[-79.90761091666667,25.656131944444443]]},"properties":{"style":"solid","thickness":1}},{"type":"Feature","geometry":{"type":"LineString","coordinates":[[-80.22583580555556,25.731889777777777],[-80.22157805555555,25.732171694444443]]},"properties":{"style":"solid","thickness":1}},{"type":"Feature","geometry":{"type":"LineString","coordinates":[[-80.22170336111111,25.73651663888889],[-80.2261853611111,25.73621988888889],[-80.22549175,25.727627305555554]]},"properties":{"style":"solid","thickness":1}},{"type":"Feature","geometry":{"type":"LineString","coordinates":[[-80.201141,25.73576775],[-80.2011098888889,25.736313972222224],[-80.20098772222222,25.736662111111112],[-80.20051383333333,25.737305583333335],[-80.20008741666668,25.737605833333333],[-80.199661,25.737906083333336],[-80.19899958333333,25.73808577777778],[-80.19862605555556,25.738110444444445],[-80.19779344444444,25.73802938888889],[-80.197083,25.737600166666667],[-80.19659666666666,25.73715616666667],[-80.19648930555556,25.73675513888889],[-80.1963803888889,25.735401944444444],[-80.19664652777779,25.73497627777778],[-80.19713130555556,25.73446813888889],[-80.19776002777778,25.733882472222223],[-80.19828294444444,25.733847944444445]]},"properties":{"style":"solid","thickness":1}},{"type":"Feature","geometry":{"type":"LineString","coordinates":[[-80.19776002777778,25.733882472222223],[-80.19682552777778,25.73346802777778],[-80.19650494444444,25.733217138888886],[-80.19609333333334,25.732768166666666],[-80.19600230555555,25.73257013888889],[-80.19587858333334,25.731966138888886],[-80.19586225,25.731763138888887],[-80.19589338888889,25.731216944444444],[-80.1960101388889,25.730801138888886],[-80.1963455,25.73030286111111],[-80.19676647222222,25.72993497222222],[-80.19748075,25.729479694444443],[-80.19919877777778,25.72936622222222],[-80.19973800000001,25.729534666666666],[-80.20060325,25.730021666666666],[-80.20076355555555,25.73014711111111],[-80.20104211111111,25.730808916666664],[-80.20106391666667,25.731079555555553]]},"properties":{"style":"solid","thickness":1}}]}
