{"type":"FeatureCollection","features":[{"type":"Feature","geometry":{"type":"LineString","coordinates":[[-80.4222731388889,25.79309330555556],[-80.46099638888889,25.90788686111111]]},"properties":{"style":"solid","thickness":1}},{"type":"Feature","geometry":{"type":"LineString","coordinates":[[-80.45780786111112,25.918385611111113],[-80.36763152777777,25.975442944444442]]},"properties":{"style":"solid","thickness":1}},{"type":"Feature","geometry":{"type":"LineString","coordinates":[[-80.34878969444443,25.982282638888886],[-80.22780319444445,25.991045972222224]]},"properties":{"style":"solid","thickness":1}},{"type":"Feature","geometry":{"type":"LineString","coordinates":[[-80.21171941666667,25.992014166666667],[-79.76261691666667,26.013576666666665]]},"properties":{"style":"solid","thickness":1}},{"type":"Feature","geometry":{"type":"LineString","coordinates":[[-79.74963822222222,26.017088277777777],[-79.118833,26.348658916666665]]},"properties":{"style":"solid","thickness":1}},{"type":"Feature","geometry":{"type":"LineString","coordinates":[[-79.7500105,26.017603444444443],[-79.14772508333334,26.409721249999997]]},"properties":{"style":"solid","thickness":1}},{"type":"Feature","geometry":{"type":"LineString","coordinates":[[-80.46064947222223,25.92281036111111],[-80.42181516666668,26.036622444444447]]},"properties":{"style":"solid","thickness":1}},{"type":"Feature","geometry":{"type":"LineString","coordinates":[[-80.42012372222223,26.053562444444445],[-80.42794622222223,26.221538027777775]]},"properties":{"style":"solid","thickness":1}},{"type":"Feature","geometry":{"type":"LineString","coordinates":[[-80.43174458333334,26.235309583333333],[-80.59403916666666,26.576485083333335]]},"properties":{"style":"solid","thickness":1}},{"type":"Feature","geometry":{"type":"LineString","coordinates":[[-80.468954,25.920517583333336],[-80.62776247222222,26.080338]]},"properties":{"style":"solid","thickness":1}},{"type":"Feature","geometry":{"type":"LineString","coordinates":[[-80.63884091666667,26.091297694444442],[-80.78406252777778,26.232473749999997]]},"properties":{"style":"solid","thickness":1}},{"type":"Feature","geometry":{"type":"LineString","coordinates":[[-80.79533844444444,26.24350877777778],[-80.96591502777778,26.41158572222222]]},"properties":{"style":"solid","thickness":1}},{"type":"Feature","geometry":{"type":"LineString","coordinates":[[-80.42189905555556,25.779137805555553],[-80.45901127777778,25.686273]]},"properties":{"style":"solid","thickness":1}},{"type":"Feature","geometry":{"type":"LineString","coordinates":[[-80.45799033333334,25.673097472222224],[-80.40315833333334,25.587148166666665]]},"properties":{"style":"solid","thickness":1}},{"type":"Feature","geometry":{"type":"LineString","coordinates":[[-80.40040733333333,25.574198222222222],[-80.46472180555556,25.247682361111114]]},"properties":{"style":"solid","thickness":1}},{"type":"Feature","geometry":{"type":"LineString","coordinates":[[-80.46812227777778,25.2312865],[-80.52206241666667,24.9881685]]},"properties":{"style":"solid","thickness":1}},{"type":"Feature","geometry":{"type":"LineString","coordinates":[[-80.39020988888889,25.575728722222223],[-80.04364591666666,25.377804277777777]]},"properties":{"style":"solid","thickness":1}},{"type":"Feature","geometry":{"type":"LineString","coordinates":[[-80.03346358333333,25.368134694444446],[-79.99119644444444,25.303401166666667]]},"properties":{"style":"solid","thickness":1}},{"type":"Feature","geometry":{"type":"LineString","coordinates":[[-80.39116327777778,25.581595222222223],[-79.70864350000001,25.649175194444442]]},"properties":{"style":"solid","thickness":1}},{"type":"Feature","geometry":{"type":"LineString","coordinates":[[-79.69175675000001,25.64780611111111],[-79.28197458333334,25.555626361111113]]},"properties":{"style":"solid","thickness":1}},{"type":"Feature","geometry":{"type":"LineString","coordinates":[[-80.40662255555556,25.78839002777778],[-80.40703080555556,25.793608333333335],[-80.40512452777779,25.79373052777778],[-80.40471602777778,25.793756722222223],[-80.40437902777778,25.793530555555556],[-80.40412958333334,25.793257472222223],[-80.40411672222223,25.793093111111112],[-80.40405247222223,25.792271333333336],[-80.40408822222223,25.792145166666668],[-80.40419866666667,25.791807722222224],[-80.4046203888889,25.791367750000003],[-80.40414725000001,25.791150305555558],[-80.40391066666668,25.791041583333335],[-80.40366766666668,25.790850666666667],[-80.40350258333333,25.790489611111113],[-80.40341902777779,25.78942127777778],[-80.40353269444445,25.789124944444445],[-80.40383113888889,25.788858027777778],[-80.40404519444445,25.78867913888889],[-80.4042625,25.788541305555558],[-80.40662255555556,25.78839002777778]]},"properties":{"style":"solid","thickness":1}},{"type":"Feature","geometry":{"type":"LineString","coordinates":[[-80.40684436111111,25.791225166666667],[-80.4046203888889,25.791367750000003]]},"properties":{"style":"solid","thickness":1}},{"type":"Feature","geometry":{"type":"LineString","coordinates":[[-80.39927308333334,25.793568694444446],[-80.39971369444446,25.793953416666668],[-80.39980769444445,25.793988694444447],[-80.40040416666668,25.794033055555555],[-80.400897,25.79391888888889],[-80.40115647222223,25.793737083333333],[-80.40141275,25.793514194444445],[-80.40161077777779,25.793129833333335],[-80.4015368888889,25.792184805555557],[-80.40123563888889,25.791832444444445],[-80.40104125,25.791679722222224],[-80.40034116666668,25.791476805555558],[-80.39955350000001,25.791320805555557],[-80.39898958333335,25.791109138888892],[-80.39878877777778,25.79087425],[-80.39865302777778,25.790304805555557],[-80.39870205555556,25.789764833333336],[-80.39890330555556,25.789421583333336],[-80.3991173888889,25.789242694444447],[-80.39928930555556,25.789107805555556],[-80.39950658333333,25.788969972222223],[-80.39999619444445,25.788814722222224],[-80.40026852777778,25.78879727777778],[-80.40054725,25.788862],[-80.40092319444445,25.789003111111114],[-80.40116297222222,25.78915291666667],[-80.40150638888889,25.78946127777778]]},"properties":{"style":"solid","thickness":1}},{"type":"Feature","geometry":{"type":"LineString","coordinates":[[-80.39704541666667,25.794248222222222],[-80.39377747222223,25.7944575]]},"properties":{"style":"solid","thickness":1}},{"type":"Feature","geometry":{"type":"LineString","coordinates":[[-80.39545683333334,25.794349972222225],[-80.39504908333333,25.789131611111113]]},"properties":{"style":"solid","thickness":1}},{"type":"Feature","geometry":{"type":"LineString","coordinates":[[-80.38910244444445,25.79475675],[-80.3918711388889,25.79457952777778],[-80.39146355555556,25.789361194444446],[-80.38864958333335,25.78954127777778]]},"properties":{"style":"solid","thickness":1}},{"type":"Feature","geometry":{"type":"LineString","coordinates":[[-80.39166575,25.791949805555557],[-80.38898786111112,25.792121222222224]]},"properties":{"style":"solid","thickness":1}},{"type":"Feature","geometry":{"type":"LineString","coordinates":[[-80.38549300000001,25.792344805555558],[-80.38324852777777,25.789886805555557]]},"properties":{"style":"solid","thickness":1}},{"type":"Feature","geometry":{"type":"LineString","coordinates":[[-80.3869248888889,25.78965163888889],[-80.38733227777779,25.794870000000003],[-80.38506283333334,25.795015194444446],[-80.38487486111111,25.79494463888889],[-80.38445352777778,25.79480638888889],[-80.38401297222222,25.794421638888892],[-80.38379933333334,25.794022361111114],[-80.38376086111111,25.79352927777778],[-80.38391033333335,25.79310677777778],[-80.38428677777779,25.79266975],[-80.38468244444445,25.792479250000003],[-80.38485758333334,25.792385472222225],[-80.38712697222223,25.79224027777778]]},"properties":{"style":"solid","thickness":1}},{"type":"Feature","geometry":{"type":"LineString","coordinates":[[-80.50319605555555,25.913229666666666],[-80.50363744444445,25.913614055555556],[-80.50373155555556,25.913649277777775],[-80.50432866666667,25.91369322222222],[-80.50482191666667,25.913578694444443],[-80.5050815,25.913396694444444],[-80.50533783333333,25.91317363888889],[-80.50553572222222,25.912789138888886],[-80.50546091666666,25.911844166666665],[-80.50515905555555,25.911492027777776],[-80.50496433333333,25.911339444444444],[-80.50426336111111,25.911137027777777],[-80.50347477777778,25.91098158333333],[-80.5029101111111,25.91077036111111],[-80.50270888888889,25.91053561111111],[-80.5025725,25.909966277777777],[-80.50262111111111,25.909426277777776],[-80.50282225,25.909082888888886],[-80.50303638888889,25.908903833333333],[-80.5032083611111,25.908768805555553],[-80.50342575,25.908630833333333],[-80.50391572222222,25.90847525],[-80.50418830555556,25.90845758333333],[-80.50446738888888,25.90852211111111],[-80.50484383333334,25.908662944444444],[-80.50508397222222,25.908812583333333],[-80.505428,25.909120694444443]]},"properties":{"style":"solid","thickness":1}},{"type":"Feature","geometry":{"type":"LineString","coordinates":[[-80.49717638888889,25.913908222222222],[-80.49746197222223,25.914054944444445],[-80.4977865,25.914116527777775],[-80.49887686111111,25.914046],[-80.49927925,25.913937388888886],[-80.49941230555555,25.91388747222222],[-80.50006452777778,25.913473611111108],[-80.50044091666666,25.913036277777778],[-80.50054469444444,25.91261661111111],[-80.50080419444444,25.911856472222222],[-80.50072944444445,25.91091147222222],[-80.50060283333333,25.910465416666664],[-80.50043727777778,25.910104444444443],[-80.50022305555555,25.90970533333333],[-80.499733,25.909282777777776],[-80.49883733333334,25.90892775],[-80.498237,25.90884269444444],[-80.49773727777777,25.908875027777775],[-80.497111,25.909039444444442],[-80.49689361111112,25.90917738888889],[-80.4967183888889,25.909271305555553]]},"properties":{"style":"solid","thickness":1}},{"type":"Feature","geometry":{"type":"LineString","coordinates":[[-80.49487519444445,25.909060138888886],[-80.49278897222223,25.914439694444443],[-80.49001416666667,25.909374416666665]]},"properties":{"style":"solid","thickness":1}},{"type":"Feature","geometry":{"type":"LineString","coordinates":[[-80.49419061111111,25.91079758333333],[-80.49091961111111,25.911009055555553]]},"properties":{"style":"solid","thickness":1}},{"type":"Feature","geometry":{"type":"LineString","coordinates":[[-80.48851836111112,25.91471575],[-80.48524722222223,25.914927083333332]]},"properties":{"style":"solid","thickness":1}},{"type":"Feature","geometry":{"type":"LineString","coordinates":[[-80.48692822222222,25.914818472222223],[-80.48651602777778,25.909600444444443]]},"properties":{"style":"solid","thickness":1}},{"type":"Feature","geometry":{"type":"LineString","coordinates":[[-80.48056766666667,25.915229277777776],[-80.48333905555556,25.915050333333333],[-80.482927,25.909832305555554],[-80.48011030555556,25.910014166666667]]},"properties":{"style":"solid","thickness":1}},{"type":"Feature","geometry":{"type":"LineString","coordinates":[[-80.48313138888889,25.912420777777776],[-80.48045094444444,25.91259386111111]]},"properties":{"style":"solid","thickness":1}},{"type":"Feature","geometry":{"type":"LineString","coordinates":[[-80.35204613888888,25.997289333333335],[-80.3524873611111,25.997674166666666],[-80.3525815,25.997709472222223],[-80.35317897222221,25.997754055555557],[-80.35367272222221,25.997640055555557],[-80.35393272222221,25.997458333333334],[-80.35418949999999,25.99723552777778],[-80.35438802777777,25.996851250000002],[-80.35431438888888,25.995906194444444],[-80.35401277777777,25.995553750000003],[-80.35381811111111,25.995400972222225],[-80.35311688888888,25.995197833333336],[-80.35232794444444,25.995041555555556],[-80.35176313888888,25.99482975],[-80.35156208333333,25.994594777777777],[-80.35142633333332,25.994025305555557],[-80.35147563888889,25.993485361111112],[-80.35167738888889,25.993142194444445],[-80.35189188888889,25.992963361111112],[-80.35206416666666,25.992828527777778],[-80.35228188888888,25.992690805555558],[-80.35277241666667,25.992535694444445],[-80.35304519444443,25.992518333333333],[-80.35332438888888,25.992583166666666],[-80.35370091666667,25.99272436111111],[-80.35394105555555,25.99287427777778],[-80.35428494444444,25.993182722222222]]},"properties":{"style":"solid","thickness":1}},{"type":"Feature","geometry":{"type":"LineString","coordinates":[[-80.3498143611111,25.997968111111113],[-80.34940794444444,25.99274975]]},"properties":{"style":"solid","thickness":1}},{"type":"Feature","geometry":{"type":"LineString","coordinates":[[-80.34667388888889,25.998126555555558],[-80.34960955555555,25.99533838888889],[-80.34622533333332,25.99295216666667]]},"properties":{"style":"solid","thickness":1}},{"type":"Feature","geometry":{"type":"LineString","coordinates":[[-80.34149372222221,25.99849713888889],[-80.34231213888889,25.998445111111113],[-80.34271816666666,25.99837802777778],[-80.34350780555555,25.997956194444445],[-80.34422638888888,25.99720852777778],[-80.34445761111111,25.99665702777778],[-80.34454283333334,25.995990916666667],[-80.34450125,25.995456750000002],[-80.34437194444443,25.994969472222223],[-80.34410302777778,25.99444975],[-80.34355172222222,25.993824111111113],[-80.34335388888888,25.993630222222222],[-80.34297097222222,25.993406805555555],[-80.34217886111111,25.99320938888889],[-80.34122405555556,25.993270083333336],[-80.34077577777778,25.99338116666667],[-80.34033391666667,25.993574416666668],[-80.34007072222222,25.993715],[-80.3396416111111,25.99407261111111],[-80.33927077777777,25.994591694444445],[-80.33915994444445,25.994929083333336],[-80.33907149999999,25.995554083333335],[-80.33914822222222,25.996540250000002],[-80.33963413888888,25.99750038888889],[-80.33993252777778,25.99781177777778],[-80.34027319444444,25.998079194444447],[-80.34060744444444,25.998264416666668],[-80.34070158333333,25.998299722222225],[-80.34149372222221,25.99849713888889]]},"properties":{"style":"solid","thickness":1}},{"type":"Feature","geometry":{"type":"LineString","coordinates":[[-80.33560566666667,25.996228472222224],[-80.33335836111111,25.993769750000002]]},"properties":{"style":"solid","thickness":1}},{"type":"Feature","geometry":{"type":"LineString","coordinates":[[-80.33704116666667,25.993535861111113],[-80.33744705555556,25.99875425],[-80.3351736111111,25.99889863888889],[-80.33498536111111,25.99882802777778],[-80.33456336111111,25.99868963888889],[-80.33412219444443,25.998304722222223],[-80.3339083611111,25.99790538888889],[-80.33387002777778,25.997412305555557],[-80.33401994444444,25.99698986111111],[-80.33439722222222,25.996552972222222],[-80.33479363888888,25.99636263888889],[-80.3349691111111,25.99626888888889],[-80.3372425,25.9961245]]},"properties":{"style":"solid","thickness":1}},{"type":"Feature","geometry":{"type":"LineString","coordinates":[[-80.32912627777777,25.999282555555556],[-80.33189988888888,25.9991065],[-80.33149424999999,25.99388811111111],[-80.32867530555555,25.994067027777778]]},"properties":{"style":"solid","thickness":1}},{"type":"Feature","geometry":{"type":"LineString","coordinates":[[-80.33169544444443,25.99647677777778],[-80.32901286111111,25.996647055555556]]},"properties":{"style":"solid","thickness":1}},{"type":"Feature","geometry":{"type":"LineString","coordinates":[[-80.21591416666666,26.004770861111112],[-80.21332216666667,26.004933305555557]]},"properties":{"style":"solid","thickness":1}},{"type":"Feature","geometry":{"type":"LineString","coordinates":[[-80.21338755555556,26.00757175],[-80.21611602777779,26.00740077777778],[-80.2157155,26.002182055555554]]},"properties":{"style":"solid","thickness":1}},{"type":"Feature","geometry":{"type":"LineString","coordinates":[[-80.20843077777778,26.00788222222222],[-80.20924933333333,26.007830972222223],[-80.20965544444445,26.00776425],[-80.21044563888888,26.00734313888889],[-80.21116511111111,26.006596166666668],[-80.21139697222222,26.00604486111111],[-80.21148297222223,26.005378833333335],[-80.21144197222222,26.00484463888889],[-80.21131322222223,26.00435722222222],[-80.21104486111112,26.003837277777777],[-80.21049422222222,26.00321111111111],[-80.21029655555556,26.003017055555556],[-80.20991386111112,26.002793277777776],[-80.20912191666667,26.00259513888889],[-80.208167,26.002654944444444],[-80.20771855555556,26.002765611111112],[-80.20727644444445,26.002958444444445],[-80.20701305555556,26.003098805555556],[-80.20658352777778,26.003456027777776],[-80.20621205555555,26.00397475],[-80.20610083333334,26.00431202777778],[-80.20601166666667,26.00493697222222],[-80.20608730555556,26.005923194444446],[-80.20657216666667,26.006883777777777],[-80.20687022222222,26.007195444444445],[-80.20721061111111,26.007463166666668],[-80.20754469444445,26.007648694444445],[-80.20763880555556,26.007684083333334],[-80.20843077777778,26.00788222222222]]},"properties":{"style":"solid","thickness":1}},{"type":"Feature","geometry":{"type":"LineString","coordinates":[[-80.20254480555556,26.005608166666665],[-80.20030011111112,26.00314736111111]]},"properties":{"style":"solid","thickness":1}},{"type":"Feature","geometry":{"type":"LineString","coordinates":[[-80.20398344444445,26.00291686111111],[-80.2043835,26.00813561111111],[-80.20210972222222,26.008277916666668],[-80.20192152777778,26.008207111111112],[-80.20149963888889,26.00806836111111],[-80.2010588888889,26.007683055555557],[-80.2008455,26.0072835],[-80.20080772222222,26.006790388888888],[-80.20095811111112,26.006368083333335],[-80.20133591666666,26.005931555555556],[-80.20173258333334,26.005741555555556],[-80.20190816666667,26.005648],[-80.2041818888889,26.005505694444444]]},"properties":{"style":"solid","thickness":1}},{"type":"Feature","geometry":{"type":"LineString","coordinates":[[-80.1988355,26.00848277777778],[-80.19843569444444,26.003264]]},"properties":{"style":"solid","thickness":1}},{"type":"Feature","geometry":{"type":"LineString","coordinates":[[-80.19569452777777,26.008637944444445],[-80.19863402777779,26.005852861111112],[-80.19525255555556,26.003463083333333]]},"properties":{"style":"solid","thickness":1}},{"type":"Feature","geometry":{"type":"LineString","coordinates":[[-80.19374222222223,26.008801305555554],[-80.1933426388889,26.003582527777777]]},"properties":{"style":"solid","thickness":1}},{"type":"Feature","geometry":{"type":"LineString","coordinates":[[-80.19060125,26.008956333333334],[-80.19354086111112,26.00617136111111],[-80.19015947222222,26.0037815]]},"properties":{"style":"solid","thickness":1}},{"type":"Feature","geometry":{"type":"LineString","coordinates":[[-79.78297519444445,26.028076888888886],[-79.78341466666666,26.028463499999997],[-79.78350866666666,26.028499166666666],[-79.78410608333333,26.02854608333333],[-79.7846005,26.028434027777777],[-79.78486144444445,26.028253333333332],[-79.78511936111111,26.028031527777777],[-79.78531977777777,26.027648055555556],[-79.78525069444444,26.026702722222222],[-79.78495069444445,26.026349083333333],[-79.78475669444444,26.026195555555553],[-79.78405630555555,26.025989666666664],[-79.78326791666666,26.02583027777778],[-79.78270397222222,26.02561625],[-79.782504,26.0253805],[-79.78237097222222,26.024810499999997],[-79.78242288888889,26.02427075],[-79.78262633333333,26.02392836111111],[-79.78284177777778,26.02375038888889],[-79.78301472222222,26.02361625],[-79.78323316666666,26.02347936111111],[-79.78372455555555,26.023326194444444],[-79.7839975,26.023309916666665],[-79.78427647222222,26.023375833333333],[-79.78465241666666,26.023518527777778],[-79.7848918888889,26.02366936111111],[-79.78523436111111,26.023979166666667]]},"properties":{"style":"solid","thickness":1}},{"type":"Feature","geometry":{"type":"LineString","coordinates":[[-79.78073658333334,26.028705805555553],[-79.78035822222222,26.023526999999998]]},"properties":{"style":"solid","thickness":1}},{"type":"Feature","geometry":{"type":"LineString","coordinates":[[-79.77686966666667,26.02893636111111],[-79.77649144444445,26.023757555555555]]},"properties":{"style":"solid","thickness":1}},{"type":"Feature","geometry":{"type":"LineString","coordinates":[[-79.78055941666666,26.026280805555555],[-79.77669255555556,26.026511361111112]]},"properties":{"style":"solid","thickness":1}},{"type":"Feature","geometry":{"type":"LineString","coordinates":[[-79.77467180555556,26.02386602777778],[-79.77255077777778,26.029235027777776],[-79.76980419444445,26.024156055555554]]},"properties":{"style":"solid","thickness":1}},{"type":"Feature","geometry":{"type":"LineString","coordinates":[[-79.77397597222222,26.0256],[-79.77070052777778,26.025795166666665]]},"properties":{"style":"solid","thickness":1}},{"type":"Feature","geometry":{"type":"LineString","coordinates":[[-79.76827438888888,26.029489777777776],[-79.76789355555556,26.02426986111111],[-79.76566444444444,26.024402583333334]]},"properties":{"style":"solid","thickness":1}},{"type":"Feature","geometry":{"type":"LineString","coordinates":[[-79.76417994444445,26.029733555555556],[-79.76225255555556,26.024605694444443],[-79.7607223888889,26.029939305555555],[-79.75874966666667,26.02481411111111],[-79.75744680555556,26.030134166666667]]},"properties":{"style":"solid","thickness":1}},{"type":"Feature","geometry":{"type":"LineString","coordinates":[[-79.09889019444444,26.361564805555556],[-79.09924244444444,26.366786055555558],[-79.0969605,26.36691097222222],[-79.09677238888888,26.36683875],[-79.09635055555555,26.36669677777778],[-79.09591208333333,26.36630813888889],[-79.09570177777778,26.365907],[-79.09566852777778,26.36541363888889],[-79.0958233611111,26.36499252777778],[-79.0962063611111,26.364558944444447],[-79.09660602777777,26.364372000000003],[-79.09678302777778,26.364279777777778],[-79.09906491666666,26.36415488888889]]},"properties":{"style":"solid","thickness":1}},{"type":"Feature","geometry":{"type":"LineString","coordinates":[[-79.09355066666666,26.36185702777778],[-79.0913925,26.36721561111111],[-79.08866747222221,26.36212411111111]]},"properties":{"style":"solid","thickness":1}},{"type":"Feature","geometry":{"type":"LineString","coordinates":[[-79.09284280555555,26.363587583333334],[-79.08955688888888,26.363767305555555]]},"properties":{"style":"solid","thickness":1}},{"type":"Feature","geometry":{"type":"LineString","coordinates":[[-79.08675069444443,26.36222891666667],[-79.08710241666667,26.367450194444444],[-79.08509427777777,26.367559944444444],[-79.08454105555555,26.36750763888889],[-79.08430455555555,26.367396777777778],[-79.08392008333333,26.367128944444445],[-79.08334194444444,26.36670663888889],[-79.08294086111111,26.36619211111111],[-79.08282188888889,26.365785972222223],[-79.08273055555556,26.36442927777778],[-79.08279691666667,26.36405427777778],[-79.08303752777778,26.363545972222223],[-79.0833376111111,26.363240722222223],[-79.08363216666666,26.36285325],[-79.08406916666667,26.362540527777778],[-79.0846085,26.36238725],[-79.08492519444444,26.362328694444447],[-79.08675069444443,26.36222891666667]]},"properties":{"style":"solid","thickness":1}},{"type":"Feature","geometry":{"type":"LineString","coordinates":[[-79.08107799999999,26.367779388888888],[-79.0807985,26.363627],[-79.08073902777777,26.363423944444445],[-79.08039188888888,26.363030277777778],[-79.08014708333333,26.362796055555556],[-79.07977091666666,26.36265155555556],[-79.07926613888888,26.362637861111114],[-79.07853594444444,26.362677722222223],[-79.07812797222222,26.36274127777778],[-79.07759413888888,26.362976722222225],[-79.07729405555556,26.363281972222225],[-79.07712808333333,26.363538611111114],[-79.07706169444444,26.363913611111112],[-79.07733555555555,26.36798375]]},"properties":{"style":"solid","thickness":1}},{"type":"Feature","geometry":{"type":"LineString","coordinates":[[-79.07282688888888,26.36769341666667],[-79.07326530555555,26.36808211111111],[-79.0733593611111,26.368118250000002],[-79.07395819444444,26.368168083333334],[-79.07445469444444,26.368058472222224],[-79.07471747222222,26.367879083333335],[-79.0749775,26.367658555555558],[-79.07518080555555,26.36727611111111],[-79.07511719444445,26.3663305],[-79.07481847222222,26.365975444444445],[-79.0746248611111,26.365820944444447],[-79.07392369444445,26.36561163888889],[-79.073134,26.36544841666667],[-79.07256975,26.36523163888889],[-79.07237061111111,26.364994916666667],[-79.07224063888889,26.364424305555556],[-79.07229597222222,26.363884861111114],[-79.07250205555555,26.36354352777778],[-79.07271919444445,26.36336661111111],[-79.07289344444445,26.363233305555557],[-79.07311333333332,26.36309752777778],[-79.07360705555556,26.362946805555556],[-79.07388088888888,26.36293186111111],[-79.07416024999999,26.362999138888892],[-79.07453641666666,26.36314366666667],[-79.07477566666667,26.36329563888889],[-79.07511724999999,26.36360711111111]]},"properties":{"style":"solid","thickness":1}},{"type":"Feature","geometry":{"type":"LineString","coordinates":[[-79.13214152777778,26.430444722222223],[-79.12959591666666,26.42534402777778],[-79.12784922222221,26.4306805]]},"properties":{"style":"solid","thickness":1}},{"type":"Feature","geometry":{"type":"LineString","coordinates":[[-79.12562338888888,26.425562194444446],[-79.12346555555555,26.430921166666668],[-79.12073763888888,26.425830361111114]]},"properties":{"style":"solid","thickness":1}},{"type":"Feature","geometry":{"type":"LineString","coordinates":[[-79.12491563888888,26.427292861111113],[-79.12162797222221,26.427473305555555]]},"properties":{"style":"solid","thickness":1}},{"type":"Feature","geometry":{"type":"LineString","coordinates":[[-79.11917319444444,26.431156666666666],[-79.1188198611111,26.425935555555558],[-79.11658244444443,26.42605827777778]]},"properties":{"style":"solid","thickness":1}},{"type":"Feature","geometry":{"type":"LineString","coordinates":[[-79.11506347222222,26.431382055555556],[-79.11471033333332,26.426160944444444],[-79.11247291666666,26.426283583333333]]},"properties":{"style":"solid","thickness":1}},{"type":"Feature","geometry":{"type":"LineString","coordinates":[[-79.11095375,26.431607333333336],[-79.10877069444444,26.42846711111111],[-79.10707230555555,26.431819972222222]]},"properties":{"style":"solid","thickness":1}},{"type":"Feature","geometry":{"type":"LineString","coordinates":[[-79.10877069444444,26.42846711111111],[-79.1086401111111,26.42653488888889]]},"properties":{"style":"solid","thickness":1}},{"type":"Feature","geometry":{"type":"LineString","coordinates":[[-80.40662472222223,26.050743944444445],[-80.40706630555556,26.05112861111111],[-80.4071605,26.05116388888889],[-80.40775827777779,26.051208222222222],[-80.40825219444444,26.051094055555556],[-80.40851222222223,26.050912222222223],[-80.40876902777778,26.050689333333334],[-80.40896747222223,26.05030497222222],[-80.40889336111111,26.049359972222224],[-80.40859144444445,26.04900763888889],[-80.40839661111112,26.04885491666667],[-80.40769497222223,26.048652055555557],[-80.40690561111111,26.048496083333333],[-80.40634044444445,26.048284472222225],[-80.40613916666668,26.048049583333334],[-80.40600311111112,26.047480194444447],[-80.40605219444446,26.046940222222222],[-80.40625386111111,26.046596972222225],[-80.40646841666667,26.046418055555556],[-80.40664066666668,26.04628316666667],[-80.40685844444445,26.046145361111112],[-80.40734911111112,26.045990083333336],[-80.40762202777778,26.045972611111115],[-80.40790136111112,26.046037333333334],[-80.40827813888889,26.04617838888889],[-80.40851844444445,26.046328194444445],[-80.40886261111112,26.04663652777778]]},"properties":{"style":"solid","thickness":1}},{"type":"Feature","geometry":{"type":"LineString","coordinates":[[-80.40438902777778,26.051382472222222],[-80.40398322222222,26.04620538888889]]},"properties":{"style":"solid","thickness":1}},{"type":"Feature","geometry":{"type":"LineString","coordinates":[[-80.40052261111111,26.051629694444443],[-80.40011697222222,26.046452611111114]]},"properties":{"style":"solid","thickness":1}},{"type":"Feature","geometry":{"type":"LineString","coordinates":[[-80.404199,26.04895827777778],[-80.40033266666667,26.04920552777778]]},"properties":{"style":"solid","thickness":1}},{"type":"Feature","geometry":{"type":"LineString","coordinates":[[-80.39866086111111,26.051790027777777],[-80.39833577777779,26.047640111111114],[-80.39827419444445,26.047437583333334],[-80.39792361111112,26.047047055555556],[-80.39767686111112,26.04681505555556],[-80.39730011111112,26.046673972222223],[-80.39679655555557,26.04666486111111],[-80.39606877777778,26.046711361111115],[-80.3956626388889,26.04677861111111],[-80.3951328888889,26.047018944444446],[-80.39483702777778,26.04732688888889],[-80.3946743888889,26.047585055555558],[-80.39461236111111,26.04796066666667],[-80.3949308888889,26.05202838888889]]},"properties":{"style":"solid","thickness":1}},{"type":"Feature","geometry":{"type":"LineString","coordinates":[[-80.39302041666667,26.052150444444447],[-80.38974530555556,26.05235961111111]]},"properties":{"style":"solid","thickness":1}},{"type":"Feature","geometry":{"type":"LineString","coordinates":[[-80.39142833333334,26.05225213888889],[-80.39101988888889,26.047033916666667]]},"properties":{"style":"solid","thickness":1}},{"type":"Feature","geometry":{"type":"LineString","coordinates":[[-80.38506005555556,26.052658722222223],[-80.38783480555556,26.052481583333336],[-80.3874265,26.04726338888889],[-80.3846063888889,26.047443416666667]]},"properties":{"style":"solid","thickness":1}},{"type":"Feature","geometry":{"type":"LineString","coordinates":[[-80.38762905555556,26.049851944444445],[-80.38494530555556,26.050023250000002]]},"properties":{"style":"solid","thickness":1}},{"type":"Feature","geometry":{"type":"LineString","coordinates":[[-80.62593727777777,26.093379388888888],[-80.62635627777777,26.09859686111111],[-80.62444530555555,26.098721972222222],[-80.62403580555555,26.098748777777775],[-80.62369749999999,26.098523138888886],[-80.62344691666667,26.098250444444442],[-80.62343372222222,26.098086111111108],[-80.62336775,26.09726447222222],[-80.6234033611111,26.09713825],[-80.62351347222221,26.096800638888887],[-80.62393547222221,26.096360027777777],[-80.62346069444443,26.096143305555554],[-80.62322330555556,26.09603497222222],[-80.62297933333333,26.09584444444444],[-80.62281313888889,26.095483638888886],[-80.62272741666666,26.09441547222222],[-80.62284080555555,26.094118972222223],[-80.6231395,26.09385161111111],[-80.62335380555555,26.093672388888887],[-80.62357138888888,26.093534249999998],[-80.62593727777777,26.093379388888888]]},"properties":{"style":"solid","thickness":1}},{"type":"Feature","geometry":{"type":"LineString","coordinates":[[-80.62616491666665,26.096214083333333],[-80.62393547222221,26.096360027777777]]},"properties":{"style":"solid","thickness":1}},{"type":"Feature","geometry":{"type":"LineString","coordinates":[[-80.61793880555555,26.09914775],[-80.61875780555555,26.099094166666667],[-80.619164,26.099026305555554],[-80.61995333333333,26.09860297222222],[-80.62067077777778,26.09785394444444],[-80.62090091666666,26.097302],[-80.62098463888888,26.096635749999997],[-80.62094177777777,26.096101666666666],[-80.62081122222222,26.095614638888886],[-80.62054086111111,26.095095444444443],[-80.6199876111111,26.09447088888889],[-80.61978913888888,26.09427736111111],[-80.6194053611111,26.094054694444445],[-80.61861213888888,26.093858805555556],[-80.61765666666666,26.093921305555554],[-80.61720827777778,26.094033222222222],[-80.61676647222221,26.094227333333333],[-80.61650338888889,26.094368416666665],[-80.61607475,26.09472686111111],[-80.61570480555555,26.095246638888888],[-80.61559469444444,26.09558422222222],[-80.6155076111111,26.096209388888887],[-80.61558672222222,26.09719538888889],[-80.61607530555555,26.098154583333333],[-80.61637466666666,26.098465388888886],[-80.61671625,26.098732138888888],[-80.61705122222222,26.09891672222222],[-80.61714552777777,26.09895186111111],[-80.61793880555555,26.09914775]]},"properties":{"style":"solid","thickness":1}},{"type":"Feature","geometry":{"type":"LineString","coordinates":[[-80.61204041666666,26.096890388888887],[-80.60978544444444,26.094435999999998]]},"properties":{"style":"solid","thickness":1}},{"type":"Feature","geometry":{"type":"LineString","coordinates":[[-80.61347083333332,26.094195055555556],[-80.61388927777777,26.099412583333333],[-80.61161424999999,26.099561333333334],[-80.61142566666666,26.099491055555553],[-80.611003,26.0993535],[-80.61056055555555,26.098969444444442],[-80.6103456111111,26.098570499999997],[-80.61030608333333,26.0980775],[-80.61045513888888,26.097654777777777],[-80.61083169444444,26.097217194444443],[-80.61122802777777,26.097026083333333],[-80.61140344444443,26.096932027777775],[-80.61367838888889,26.096783277777778]]},"properties":{"style":"solid","thickness":1}},{"type":"Feature","geometry":{"type":"LineString","coordinates":[[-80.60833822222222,26.099775444444443],[-80.60792,26.094557916666666],[-80.60569058333333,26.09470358333333]]},"properties":{"style":"solid","thickness":1}},{"type":"Feature","geometry":{"type":"LineString","coordinates":[[-80.6014676111111,26.10022427777778],[-80.60424316666666,26.100043000000003],[-80.60382513888888,26.094825444444442],[-80.60100419444444,26.095009694444443]]},"properties":{"style":"solid","thickness":1}},{"type":"Feature","geometry":{"type":"LineString","coordinates":[[-80.60403249999999,26.097413694444445],[-80.60134799999999,26.097589027777776]]},"properties":{"style":"solid","thickness":1}},{"type":"Feature","geometry":{"type":"LineString","coordinates":[[-80.42784652777779,26.243325861111114],[-80.42524900000001,26.23824791666667],[-80.42356383333333,26.243599944444444]]},"properties":{"style":"solid","thickness":1}},{"type":"Feature","geometry":{"type":"LineString","coordinates":[[-80.42165027777779,26.24372236111111],[-80.419053,26.238644305555557],[-80.41736755555556,26.24399627777778]]},"properties":{"style":"solid","thickness":1}},{"type":"Feature","geometry":{"type":"LineString","coordinates":[[-80.41504380555556,26.238900666666666],[-80.4139048888889,26.24421763888889],[-80.41158130555556,26.239122000000002],[-80.41039666666667,26.244441861111113],[-80.40830102777778,26.239331583333335]]},"properties":{"style":"solid","thickness":1}},{"type":"Feature","geometry":{"type":"LineString","coordinates":[[-80.40643308333334,26.23945088888889],[-80.40433700000001,26.24482888888889],[-80.40155819444445,26.23976216666667]]},"properties":{"style":"solid","thickness":1}},{"type":"Feature","geometry":{"type":"LineString","coordinates":[[-80.40574527777778,26.241187805555555],[-80.40246494444445,26.24139727777778]]},"properties":{"style":"solid","thickness":1}},{"type":"Feature","geometry":{"type":"LineString","coordinates":[[-80.39978136111112,26.239875583333333],[-80.39622697222222,26.2453465]]},"properties":{"style":"solid","thickness":1}},{"type":"Feature","geometry":{"type":"LineString","coordinates":[[-80.40005416666668,26.245102305555555],[-80.39563538888889,26.24014013888889]]},"properties":{"style":"solid","thickness":1}},{"type":"Feature","geometry":{"type":"LineString","coordinates":[[-80.58526086111111,26.59336661111111],[-80.58484522222221,26.588190694444442]]},"properties":{"style":"solid","thickness":1}},{"type":"Feature","geometry":{"type":"LineString","coordinates":[[-80.58137702777778,26.593618638888888],[-80.58096155555555,26.588442722222222]]},"properties":{"style":"solid","thickness":1}},{"type":"Feature","geometry":{"type":"LineString","coordinates":[[-80.58506625,26.590942972222223],[-80.58118247222222,26.591195]]},"properties":{"style":"solid","thickness":1}},{"type":"Feature","geometry":{"type":"LineString","coordinates":[[-80.57671966666666,26.593962027777778],[-80.57950691666666,26.59378125],[-80.57908822222223,26.588564277777778],[-80.57625541666667,26.588748]]},"properties":{"style":"solid","thickness":1}},{"type":"Feature","geometry":{"type":"LineString","coordinates":[[-80.57929591666667,26.59115222222222],[-80.5766001111111,26.591327083333333]]},"properties":{"style":"solid","thickness":1}},{"type":"Feature","geometry":{"type":"LineString","coordinates":[[-80.57451916666666,26.588860583333332],[-80.57493763888888,26.59407758333333],[-80.57292713888889,26.594207916666665],[-80.57237225,26.594161305555556],[-80.57213388888889,26.59405288888889],[-80.57174530555555,26.593789027777778],[-80.57116074999999,26.593372694444444],[-80.57075238888889,26.59286236111111],[-80.57062805555555,26.5924575],[-80.57051936111111,26.591101888888886],[-80.57058111111111,26.59072625],[-80.57081572222222,26.590215527777776],[-80.57111252777777,26.58990725],[-80.57140272222222,26.589516805555554],[-80.57183655555555,26.58919963888889],[-80.57237497222222,26.58904086111111],[-80.57269152777778,26.588979055555555],[-80.57451916666666,26.588860583333332]]},"properties":{"style":"solid","thickness":1}},{"type":"Feature","geometry":{"type":"LineString","coordinates":[[-80.56890616666666,26.594468527777778],[-80.56848794444444,26.5892515],[-80.56624908333333,26.589396527777776]]},"properties":{"style":"solid","thickness":1}},{"type":"Feature","geometry":{"type":"LineString","coordinates":[[-80.56479374999999,26.594734916666667],[-80.56256894444444,26.591616916666666],[-80.56090980555555,26.594986416666664]]},"properties":{"style":"solid","thickness":1}},{"type":"Feature","geometry":{"type":"LineString","coordinates":[[-80.56256894444444,26.591616916666666],[-80.56241427777778,26.589686194444443]]},"properties":{"style":"solid","thickness":1}},{"type":"Feature","geometry":{"type":"LineString","coordinates":[[-80.78448747222222,26.247816],[-80.78336516666667,26.25313586111111],[-80.78102541666667,26.24804613888889],[-80.77985738888889,26.253369],[-80.77774555555555,26.248264111111112]]},"properties":{"style":"solid","thickness":1}},{"type":"Feature","geometry":{"type":"LineString","coordinates":[[-80.77347961111111,26.253792666666666],[-80.7762585,26.25360811111111],[-80.77583230555555,26.248391194444444],[-80.77300797222222,26.24857877777778]]},"properties":{"style":"solid","thickness":1}},{"type":"Feature","geometry":{"type":"LineString","coordinates":[[-80.77604372222223,26.25097911111111],[-80.77335599999999,26.25115761111111]]},"properties":{"style":"solid","thickness":1}},{"type":"Feature","geometry":{"type":"LineString","coordinates":[[-80.77132247222222,26.248690694444445],[-80.76924288888888,26.254073944444446],[-80.76644819444445,26.249014250000002]]},"properties":{"style":"solid","thickness":1}},{"type":"Feature","geometry":{"type":"LineString","coordinates":[[-80.77064002777777,26.250429333333333],[-80.76736008333333,26.250647055555557]]},"properties":{"style":"solid","thickness":1}},{"type":"Feature","geometry":{"type":"LineString","coordinates":[[-80.76048466666667,26.253952916666666],[-80.760687,26.254187305555554],[-80.7611171111111,26.254406583333335],[-80.76139716666667,26.25447061111111],[-80.76218166666666,26.254542472222223],[-80.762455,26.254524361111113],[-80.76299497222222,26.254405944444443],[-80.7634405,26.254252472222223],[-80.76352825,26.25420536111111],[-80.76383038888889,26.253978805555555],[-80.76412916666666,26.253711194444445],[-80.76461886111112,26.252976583333332],[-80.764793,26.25230422222222],[-80.76471927777777,26.2514005],[-80.76458794444444,26.250913611111113],[-80.76437555555556,26.250556],[-80.76407541666667,26.2502455],[-80.76382416666667,26.249973055555557],[-80.76342958333333,26.24962752777778],[-80.76305172222222,26.24948738888889],[-80.76267388888888,26.24934725],[-80.76234830555556,26.24928625],[-80.76152833333333,26.24934063888889],[-80.76107947222222,26.24945302777778],[-80.76072844444444,26.2496415],[-80.76033519444445,26.249874083333335],[-80.76007863888888,26.250097611111112],[-80.75966327777778,26.25062075],[-80.75942011111111,26.251008583333334],[-80.75934908333333,26.251261083333333],[-80.75940269444445,26.251918361111112],[-80.76131602777778,26.251791472222223]]},"properties":{"style":"solid","thickness":1}},{"type":"Feature","geometry":{"type":"LineString","coordinates":[[-80.75733730555555,26.249618555555557],[-80.75776269444444,26.25483552777778],[-80.7521896111111,26.249959750000002],[-80.75261475,26.255176722222224]]},"properties":{"style":"solid","thickness":1}},{"type":"Feature","geometry":{"type":"LineString","coordinates":[[-80.96801144444444,26.438460527777778],[-80.966025,26.433349361111112],[-80.96454416666667,26.43869502777778],[-80.96251222222223,26.43358688888889],[-80.96125933333333,26.43891713888889]]},"properties":{"style":"solid","thickness":1}},{"type":"Feature","geometry":{"type":"LineString","coordinates":[[-80.95890819444445,26.43383052777778],[-80.95934316666667,26.43904663888889]]},"properties":{"style":"solid","thickness":1}},{"type":"Feature","geometry":{"type":"LineString","coordinates":[[-80.95653591666667,26.433990833333333],[-80.95697077777778,26.439206972222223],[-80.95138072222223,26.434339083333334],[-80.95181538888889,26.43955525]]},"properties":{"style":"solid","thickness":1}},{"type":"Feature","geometry":{"type":"LineString","coordinates":[[-80.94613755555557,26.43969075],[-80.946425,26.439836583333335],[-80.94675119444445,26.43989716666667],[-80.94784616666666,26.43982325],[-80.94824991666667,26.43971338888889],[-80.94838336111111,26.439663055555556],[-80.94903691666667,26.43924722222222],[-80.94941330555555,26.438808777777776],[-80.94951597222223,26.438388805555554],[-80.94977375,26.437627944444444],[-80.94969502777778,26.436683277777778],[-80.9495661388889,26.436237666666667],[-80.9493985,26.43587725],[-80.94918177777778,26.43547886111111],[-80.94868794444444,26.435057861111112],[-80.94778691666667,26.434705666666666],[-80.94718358333334,26.434622472222223],[-80.94668175000001,26.434656361111113],[-80.94605330555557,26.434822694444446],[-80.94583544444446,26.434961305555557],[-80.94565980555556,26.43505575]]},"properties":{"style":"solid","thickness":1}},{"type":"Feature","geometry":{"type":"LineString","coordinates":[[-80.940957,26.44028813888889],[-80.94177822222223,26.44023275],[-80.94218541666667,26.440163972222223],[-80.94297586111111,26.439738916666666],[-80.94369333333334,26.43898836111111],[-80.94392261111112,26.438435944444446],[-80.94400475,26.437769555555555],[-80.94396030555556,26.437235611111113],[-80.94382802777778,26.43674888888889],[-80.94355544444444,26.43623036111111],[-80.9429988888889,26.435607055555558],[-80.94279930555555,26.435414],[-80.94241383333333,26.435192194444443],[-80.94161775,26.434998083333333],[-80.94065969444445,26.435062722222224],[-80.94021030555555,26.43517563888889],[-80.93976775,26.435370722222224],[-80.93950427777779,26.43551238888889],[-80.93907541666667,26.43587175],[-80.93870583333333,26.436392305555557],[-80.93859630555556,26.43673011111111],[-80.93851069444445,26.437355444444446],[-80.93859272222223,26.438341166666667],[-80.93908536111111,26.43929922222222],[-80.93938644444445,26.439609333333333],[-80.93972975,26.439875305555557],[-80.94006622222223,26.44005911111111],[-80.9401608888889,26.44009402777778],[-80.940957,26.44028813888889]]},"properties":{"style":"solid","thickness":1}},{"type":"Feature","geometry":{"type":"LineString","coordinates":[[-80.58902766666667,26.579207],[-80.60432752777777,26.578257805555555],[-80.59762663888888,26.590654999999998],[-80.58902766666667,26.579207]]},"properties":{"style":"solid","thickness":1}},{"type":"Feature","geometry":{"type":"LineString","coordinates":[[-80.5946448611111,26.581672055555554],[-80.59923491666666,26.581387305555555],[-80.59720405555555,26.58506061111111],[-80.5946448611111,26.581672055555554]]},"properties":{"style":"solid","thickness":1}},{"type":"Feature","geometry":{"type":"LineString","coordinates":[[-80.96383269444445,26.413922166666666],[-80.97910797222222,26.412933499999998],[-80.97245600000001,26.425348500000002],[-80.96383269444445,26.413922166666666]]},"properties":{"style":"solid","thickness":1}},{"type":"Feature","geometry":{"type":"LineString","coordinates":[[-80.96944980555556,26.41637286111111],[-80.9740325,26.41607625],[-80.97201619444445,26.419754944444445],[-80.96944980555556,26.41637286111111]]},"properties":{"style":"solid","thickness":1}},{"type":"Feature","geometry":{"type":"LineString","coordinates":[[-80.42030694444445,26.22444813888889],[-80.43556211111111,26.22351663888889],[-80.4288636388889,26.235907194444444],[-80.42030694444445,26.22444813888889]]},"properties":{"style":"solid","thickness":1}},{"type":"Feature","geometry":{"type":"LineString","coordinates":[[-80.42590369444444,26.22691997222222],[-80.43048033333334,26.2266405],[-80.42845033333334,26.230311805555555],[-80.42590369444444,26.22691997222222]]},"properties":{"style":"solid","thickness":1}},{"type":"Feature","geometry":{"type":"LineString","coordinates":[[-80.78193380555555,26.23466241666667],[-80.79718736111111,26.233692833333333],[-80.7905263611111,26.24610002777778],[-80.78193380555555,26.23466241666667]]},"properties":{"style":"solid","thickness":1}},{"type":"Feature","geometry":{"type":"LineString","coordinates":[[-80.7875386111111,26.23712025],[-80.79211477777777,26.236829361111113],[-80.79009588888889,26.240505694444444],[-80.7875386111111,26.23712025]]},"properties":{"style":"solid","thickness":1}},{"type":"Feature","geometry":{"type":"LineString","coordinates":[[-80.62542116666665,26.08248736111111],[-80.64065633333334,26.08153425],[-80.63398747222223,26.093934583333333],[-80.62542116666665,26.08248736111111]]},"properties":{"style":"solid","thickness":1}},{"type":"Feature","geometry":{"type":"LineString","coordinates":[[-80.63101547222222,26.084951333333333],[-80.6355861388889,26.084665388888887],[-80.63356497222223,26.088339638888886],[-80.63101547222222,26.084951333333333]]},"properties":{"style":"solid","thickness":1}},{"type":"Feature","geometry":{"type":"LineString","coordinates":[[-80.41170852777779,26.03953127777778],[-80.42693986111112,26.03860063888889],[-80.42025097222222,26.050991222222223],[-80.41170852777779,26.03953127777778]]},"properties":{"style":"solid","thickness":1}},{"type":"Feature","geometry":{"type":"LineString","coordinates":[[-80.41729633333334,26.04200352777778],[-80.42186583333334,26.041724305555558],[-80.41983875000001,26.04539561111111],[-80.41729633333334,26.04200352777778]]},"properties":{"style":"solid","thickness":1}},{"type":"Feature","geometry":{"type":"LineString","coordinates":[[-80.45543797222223,25.911395],[-80.47065244444444,25.910459749999998],[-80.4639753888889,25.922852527777778],[-80.45543797222223,25.911395]]},"properties":{"style":"solid","thickness":1}},{"type":"Feature","geometry":{"type":"LineString","coordinates":[[-80.4610206388889,25.913865583333333],[-80.46558508333334,25.913584999999998],[-80.46356155555556,25.917256944444446],[-80.4610206388889,25.913865583333333]]},"properties":{"style":"solid","thickness":1}},{"type":"Feature","geometry":{"type":"LineString","coordinates":[[-80.41164247222223,25.781531694444443],[-80.42684061111112,25.780601055555554],[-80.42016627777778,25.792991972222225],[-80.41164247222223,25.781531694444443]]},"properties":{"style":"solid","thickness":1}},{"type":"Feature","geometry":{"type":"LineString","coordinates":[[-80.41721811111111,25.78400402777778],[-80.4217776388889,25.783724805555558],[-80.41975497222222,25.787396194444447],[-80.41721811111111,25.78400402777778]]},"properties":{"style":"solid","thickness":1}},{"type":"Feature","geometry":{"type":"LineString","coordinates":[[-80.34993680555556,25.97813911111111],[-80.36516072222221,25.97721497222222],[-80.35846883333333,25.98960277777778],[-80.34993680555556,25.97813911111111]]},"properties":{"style":"solid","thickness":1}},{"type":"Feature","geometry":{"type":"LineString","coordinates":[[-80.35552041666666,25.98061375],[-80.36008769444445,25.9803365],[-80.35805975,25.984006944444445],[-80.35552041666666,25.98061375]]},"properties":{"style":"solid","thickness":1}},{"type":"Feature","geometry":{"type":"LineString","coordinates":[[-80.21227380555555,25.988103777777777],[-80.22750005555555,25.98719413888889],[-80.22079316666667,25.999575555555555],[-80.21227380555555,25.988103777777777]]},"properties":{"style":"solid","thickness":1}},{"type":"Feature","geometry":{"type":"LineString","coordinates":[[-80.217855,25.990583722222222],[-80.22242297222222,25.990310833333336],[-80.22039055555555,25.993979333333336],[-80.217855,25.990583722222222]]},"properties":{"style":"solid","thickness":1}},{"type":"Feature","geometry":{"type":"LineString","coordinates":[[-79.74775919444444,26.01038388888889],[-79.76299180555556,26.009523166666668],[-79.75623497222222,26.021882944444442],[-79.74775919444444,26.01038388888889]]},"properties":{"style":"solid","thickness":1}},{"type":"Feature","geometry":{"type":"LineString","coordinates":[[-79.7533316388889,26.01288175],[-79.75790152777778,26.012623527777777],[-79.75585433333333,26.016285472222222],[-79.7533316388889,26.01288175]]},"properties":{"style":"solid","thickness":1}},{"type":"Feature","geometry":{"type":"LineString","coordinates":[[-79.10067369444444,26.350459222222224],[-79.11595483333333,26.34966672222222],[-79.10911063888888,26.36199527777778],[-79.10067369444444,26.350459222222224]]},"properties":{"style":"solid","thickness":1}},{"type":"Feature","geometry":{"type":"LineString","coordinates":[[-79.10624844444443,26.352981833333335],[-79.11083288888888,26.352744055555558],[-79.10875966666666,26.356396555555555],[-79.10624844444443,26.352981833333335]]},"properties":{"style":"solid","thickness":1}},{"type":"Feature","geometry":{"type":"LineString","coordinates":[[-79.13086302777778,26.411960805555555],[-79.14615197222223,26.41116511111111],[-79.13930736111112,26.42349491666667],[-79.13086302777778,26.411960805555555]]},"properties":{"style":"solid","thickness":1}},{"type":"Feature","geometry":{"type":"LineString","coordinates":[[-79.13644133333334,26.414482194444442],[-79.1410281388889,26.41424347222222],[-79.13895477777778,26.41789636111111],[-79.13644133333334,26.414482194444442]]},"properties":{"style":"solid","thickness":1}},{"type":"Feature","geometry":{"type":"LineString","coordinates":[[-80.38754930555557,25.59020611111111],[-80.38795602777779,25.595424527777777],[-80.38596227777778,25.595552305555554],[-80.38541211111112,25.595504972222223],[-80.38517594444446,25.59539622222222],[-80.38479102777778,25.595131805555553],[-80.38421208333334,25.594714666666665],[-80.38380797222223,25.594203722222222],[-80.38368533333335,25.59379861111111],[-80.38357969444445,25.592442638888887],[-80.38364150000001,25.592067027777777],[-80.38387494444446,25.591556527777776],[-80.38416972222223,25.591248583333332],[-80.38445808333334,25.59085847222222],[-80.38488877777779,25.590541805555553],[-80.38542291666667,25.590383694444444],[-80.3857368888889,25.590322277777776],[-80.38754930555557,25.59020611111111]]},"properties":{"style":"solid","thickness":1}},{"type":"Feature","geometry":{"type":"LineString","coordinates":[[-80.37921069444444,25.595984777777776],[-80.38197475,25.59580775],[-80.38156830555555,25.590589333333334],[-80.37875902777778,25.590769249999997]]},"properties":{"style":"solid","thickness":1}},{"type":"Feature","geometry":{"type":"LineString","coordinates":[[-80.38176991666666,25.593177999999998],[-80.37909652777778,25.593349222222223]]},"properties":{"style":"solid","thickness":1}},{"type":"Feature","geometry":{"type":"LineString","coordinates":[[-80.37467938888888,25.59627486111111],[-80.37744347222221,25.596097916666665],[-80.37703722222221,25.5908795],[-80.37422794444444,25.591059305555554]]},"properties":{"style":"solid","thickness":1}},{"type":"Feature","geometry":{"type":"LineString","coordinates":[[-80.37723874999999,25.593468166666664],[-80.37456533333332,25.593639277777775]]},"properties":{"style":"solid","thickness":1}},{"type":"Feature","geometry":{"type":"LineString","coordinates":[[-80.37014808333333,25.596564805555555],[-80.37291216666667,25.596387944444444],[-80.37250611111111,25.5911695],[-80.36969680555555,25.59134922222222]]},"properties":{"style":"solid","thickness":1}},{"type":"Feature","geometry":{"type":"LineString","coordinates":[[-80.37270752777778,25.593758166666664],[-80.37003411111111,25.593929222222222]]},"properties":{"style":"solid","thickness":1}},{"type":"Feature","geometry":{"type":"LineString","coordinates":[[-80.36797497222221,25.59145936111111],[-80.3683808611111,25.59667783333333],[-80.36611519444443,25.59682272222222],[-80.36592752777777,25.59675213888889],[-80.36550694444443,25.596613833333333],[-80.36506716666666,25.596229027777778],[-80.36485397222222,25.595829694444443],[-80.36481563888889,25.59533661111111],[-80.36496494444444,25.59491411111111],[-80.36534080555555,25.594477138888887],[-80.36573583333333,25.594286722222222],[-80.36591069444444,25.594192944444444],[-80.36817630555555,25.594048055555554]]},"properties":{"style":"solid","thickness":1}},{"type":"Feature","geometry":{"type":"LineString","coordinates":[[-80.44980038888889,25.684398],[-80.45021016666666,25.689616222222224],[-80.44821491666667,25.689744861111112],[-80.44766427777778,25.68969775],[-80.4474278888889,25.68958911111111],[-80.44704252777778,25.68932486111111],[-80.44646288888889,25.68890797222222],[-80.44605816666667,25.688397194444445],[-80.44593522222223,25.687992166666668],[-80.44582880555556,25.68663625],[-80.44589047222223,25.686260611111113],[-80.44612383333333,25.68575],[-80.44641866666667,25.685441916666665],[-80.44670705555556,25.685051666666666],[-80.44713794444445,25.684734833333334],[-80.44767238888889,25.6845765],[-80.44798658333333,25.684514944444444],[-80.44980038888889,25.684398]]},"properties":{"style":"solid","thickness":1}},{"type":"Feature","geometry":{"type":"LineString","coordinates":[[-80.4423855,25.687477555555557],[-80.44014186111112,25.685020416666667]]},"properties":{"style":"solid","thickness":1}},{"type":"Feature","geometry":{"type":"LineString","coordinates":[[-80.44381483333333,25.684783805555554],[-80.44422436111111,25.690002027777776],[-80.441957,25.69014811111111],[-80.44176916666667,25.69007761111111],[-80.4413481388889,25.689939555555554],[-80.44090777777778,25.689554972222222],[-80.44069413888889,25.68915575],[-80.44065547222223,25.688662694444446],[-80.44080461111112,25.68824013888889],[-80.4411805,25.687802944444446],[-80.44157572222223,25.687612305555557],[-80.44175066666666,25.687518444444446],[-80.44401797222223,25.687372361111112]]},"properties":{"style":"solid","thickness":1}},{"type":"Feature","geometry":{"type":"LineString","coordinates":[[-80.43828269444445,25.68514013888889],[-80.43869197222223,25.69035838888889]]},"properties":{"style":"solid","thickness":1}},{"type":"Feature","geometry":{"type":"LineString","coordinates":[[-80.43633391666667,25.690510222222223],[-80.43374813888889,25.685432083333332],[-80.43207122222223,25.690784611111113]]},"properties":{"style":"solid","thickness":1}},{"type":"Feature","geometry":{"type":"LineString","coordinates":[[-80.42975769444445,25.68568886111111],[-80.42862477777778,25.691006333333334],[-80.42631138888889,25.685910555555555],[-80.42513297222223,25.691230916666665],[-80.42304647222223,25.6861205]]},"properties":{"style":"solid","thickness":1}},{"type":"Feature","geometry":{"type":"LineString","coordinates":[[-79.68606986111112,25.665599999999998],[-79.68635383333334,25.665748305555553],[-79.68667725,25.66581175],[-79.68776580555556,25.665747333333332],[-79.68816808333334,25.66564097222222],[-79.68830116666668,25.665591805555554],[-79.68895486111111,25.665181583333332],[-79.68933344444444,25.664746388888886],[-79.6894398888889,25.664327277777776],[-79.68970405555557,25.66356861111111],[-79.68963591666667,25.662623194444443],[-79.6895126388889,25.662176416666664],[-79.68934991666667,25.661814527777775],[-79.68913886111112,25.66141422222222],[-79.68865275,25.660988916666664],[-79.68776141666667,25.66062886111111],[-79.68716291666667,25.660540444444443],[-79.68666402777778,25.66056997222222],[-79.68603794444445,25.66073086111111],[-79.68582005555555,25.66086758333333],[-79.68564458333334,25.660960527777775]]},"properties":{"style":"solid","thickness":1}},{"type":"Feature","geometry":{"type":"LineString","coordinates":[[-79.68231508333334,25.66342786111111],[-79.68008769444445,25.66095894444444]]},"properties":{"style":"solid","thickness":1}},{"type":"Feature","geometry":{"type":"LineString","coordinates":[[-79.68376136111111,25.660741694444443],[-79.68413730555557,25.665961999999997],[-79.6818695,25.66609611111111],[-79.68168216666668,25.66602463888889],[-79.6812621388889,25.66588436111111],[-79.68082433333333,25.665497444444444],[-79.68061330555555,25.66509713888889],[-79.68057780555556,25.66460386111111],[-79.68072963888889,25.664182083333333],[-79.68110825000001,25.663746916666664],[-79.68150461111112,25.66355836111111],[-79.68168011111112,25.663465416666664],[-79.68394786111112,25.663331305555555]]},"properties":{"style":"solid","thickness":1}},{"type":"Feature","geometry":{"type":"LineString","coordinates":[[-79.67827352777778,25.661066194444444],[-79.67615463888889,25.666433972222222],[-79.67342058333334,25.661353]]},"properties":{"style":"solid","thickness":1}},{"type":"Feature","geometry":{"type":"LineString","coordinates":[[-79.67757841666668,25.662799749999998],[-79.67431286111112,25.662992749999997]]},"properties":{"style":"solid","thickness":1}},{"type":"Feature","geometry":{"type":"LineString","coordinates":[[-79.67151569444445,25.661465527777775],[-79.67189111111112,25.666685861111112],[-79.66998613888889,25.666798361111113],[-79.66957794444446,25.666822472222222],[-79.66924272222222,25.66659458333333],[-79.66899525000001,25.66632025],[-79.66898341666668,25.66615583333333],[-79.66892430555556,25.665333722222222],[-79.66896080555556,25.66520772222222],[-79.66907322222222,25.66487086111111],[-79.66949725,25.664433027777775],[-79.66902594444444,25.664213166666666],[-79.66879030555556,25.66410325],[-79.66854875,25.66391111111111],[-79.66838608333333,25.663549194444442],[-79.66830927777778,25.66248047222222],[-79.6684246388889,25.66218469444444],[-79.66872441666668,25.661919333333334],[-79.66893936111111,25.661741527777778],[-79.66915727777778,25.661604805555555],[-79.67151569444445,25.661465527777775]]},"properties":{"style":"solid","thickness":1}},{"type":"Feature","geometry":{"type":"LineString","coordinates":[[-79.67171966666668,25.664301777777776],[-79.66949725,25.664433027777775]]},"properties":{"style":"solid","thickness":1}},{"type":"Feature","geometry":{"type":"LineString","coordinates":[[-79.66634527777778,25.661770833333332],[-79.66672047222222,25.66699116666667]]},"properties":{"style":"solid","thickness":1}},{"type":"Feature","geometry":{"type":"LineString","coordinates":[[-79.26299147222223,25.56257363888889],[-79.26342752777778,25.562961833333333],[-79.26352097222222,25.562997833333334],[-79.26411583333334,25.563046916666668],[-79.26460880555555,25.562936611111112],[-79.2648695,25.56275686111111],[-79.26512738888889,25.562536],[-79.26532872222222,25.56215322222222],[-79.26526402777777,25.56120761111111],[-79.26496677777777,25.56085288888889],[-79.26477422222223,25.56069863888889],[-79.26407747222223,25.560490222222224],[-79.26329288888888,25.56032802777778],[-79.2627321111111,25.560111944444444],[-79.26253394444444,25.559875472222224],[-79.26240394444444,25.559304972222222],[-79.26245805555556,25.558765416666667],[-79.26266216666667,25.55842375],[-79.26287755555556,25.558246555555556],[-79.26305041666667,25.558113000000002],[-79.26326858333333,25.557976916666668],[-79.26375872222222,25.55782552777778],[-79.26403066666667,25.557810222222223],[-79.26430822222223,25.55787713888889],[-79.26468208333333,25.558021194444446],[-79.26491994444444,25.55817288888889],[-79.26525972222223,25.558483916666667]]},"properties":{"style":"solid","thickness":1}},{"type":"Feature","geometry":{"type":"LineString","coordinates":[[-79.26076172222223,25.56323561111111],[-79.26040475,25.558014222222223]]},"properties":{"style":"solid","thickness":1}},{"type":"Feature","geometry":{"type":"LineString","coordinates":[[-79.25763141666667,25.563370388888888],[-79.26058183333333,25.56060436111111],[-79.25723205555556,25.558192666666667]]},"properties":{"style":"solid","thickness":1}},{"type":"Feature","geometry":{"type":"LineString","coordinates":[[-79.25532844444444,25.558299694444447],[-79.25568519444444,25.563521083333335]]},"properties":{"style":"solid","thickness":1}},{"type":"Feature","geometry":{"type":"LineString","coordinates":[[-79.25297155555556,25.558432166666666],[-79.25332822222222,25.563653583333334],[-79.25106188888888,25.563780916666666],[-79.25087497222222,25.56370888888889],[-79.25045580555556,25.56356736111111],[-79.25001980555555,25.56317913888889],[-79.24981041666666,25.562778194444444],[-79.24977675,25.562284833333333],[-79.24992997222222,25.5618635],[-79.25030983333333,25.561429444444446],[-79.25070652777778,25.561242083333333],[-79.25088222222222,25.56114966666667],[-79.25314847222222,25.561022305555557]]},"properties":{"style":"solid","thickness":1}},{"type":"Feature","geometry":{"type":"LineString","coordinates":[[-79.24540494444445,25.56356213888889],[-79.24584094444444,25.56395036111111],[-79.24593438888888,25.56398638888889],[-79.24652925,25.56403552777778],[-79.24702222222223,25.563925305555557],[-79.24728297222222,25.563745555555556],[-79.24754088888889,25.563524722222223],[-79.24774225,25.563141972222223],[-79.24767772222222,25.562196361111113],[-79.2473805,25.561841611111113],[-79.24718797222222,25.56168736111111],[-79.24649125,25.561478861111112],[-79.24570669444445,25.561316555555557],[-79.24514594444445,25.56110041666667],[-79.24494780555555,25.56086391666667],[-79.24481788888889,25.56029338888889],[-79.24487205555556,25.559753833333335],[-79.24507625,25.559412194444445],[-79.24529163888889,25.559235027777778],[-79.24546452777778,25.5591015],[-79.24568275,25.558965444444446],[-79.24617288888889,25.55881411111111],[-79.24644483333333,25.558798833333334],[-79.24672238888888,25.55886577777778],[-79.24709622222223,25.55900988888889],[-79.24733405555556,25.55916161111111],[-79.24767380555555,25.559472694444445]]},"properties":{"style":"solid","thickness":1}},{"type":"Feature","geometry":{"type":"LineString","coordinates":[[-80.02599119444444,25.387522944444445],[-80.02642908333333,25.387908833333334],[-80.02652263888889,25.387944333333333],[-80.02711694444444,25.387990249999998],[-80.02760844444444,25.387877361111112],[-80.0278676111111,25.38769622222222],[-80.02812369444445,25.387474],[-80.02832225,25.387090166666667],[-80.02825158333333,25.386144916666666],[-80.0279525,25.385791777777776],[-80.02775925,25.385638555555555],[-80.02706219444444,25.385433833333334],[-80.02627775,25.385275777777778],[-80.02571641666667,25.385062694444443],[-80.02551702777778,25.38482725],[-80.02538355555555,25.38425747222222],[-80.02543411111111,25.38371763888889],[-80.02563572222222,25.383374888888888],[-80.02584963888889,25.383196555555557],[-80.02602138888889,25.383062111111112],[-80.02623836111111,25.38292486111111],[-80.02672680555555,25.382770861111112],[-80.02699825,25.38275411111111],[-80.02727583333333,25.382819583333333],[-80.02765002777778,25.38296163888889],[-80.02788852777778,25.383112083333334],[-80.02822977777778,25.383421305555554]]},"properties":{"style":"solid","thickness":1}},{"type":"Feature","geometry":{"type":"LineString","coordinates":[[-80.02376597222222,25.38815563888889],[-80.02337902777778,25.382977333333333]]},"properties":{"style":"solid","thickness":1}},{"type":"Feature","geometry":{"type":"LineString","coordinates":[[-80.01992038888889,25.388392694444445],[-80.01953361111111,25.383214388888888]]},"properties":{"style":"solid","thickness":1}},{"type":"Feature","geometry":{"type":"LineString","coordinates":[[-80.02358477777777,25.38573086111111],[-80.01973927777777,25.385967944444445]]},"properties":{"style":"solid","thickness":1}},{"type":"Feature","geometry":{"type":"LineString","coordinates":[[-80.01806852777777,25.38854811111111],[-80.01775855555556,25.38439725],[-80.01769797222222,25.384194555555556],[-80.01735061111111,25.383803083333333],[-80.01710597222223,25.383570444444445],[-80.01673177777778,25.383428333333335],[-80.01623108333334,25.383417916666666],[-80.01550722222223,25.3834625],[-80.01510313888889,25.383528694444443],[-80.01457558333334,25.38376761111111],[-80.0142803611111,25.384074805555557],[-80.01411780555556,25.384332527777776],[-80.01405494444444,25.384708],[-80.0143586388889,25.388776666666665]]},"properties":{"style":"solid","thickness":1}},{"type":"Feature","geometry":{"type":"LineString","coordinates":[[-80.01245844444445,25.388893694444445],[-80.01206894444445,25.38367427777778],[-80.00985213888889,25.38381077777778]]},"properties":{"style":"solid","thickness":1}},{"type":"Feature","geometry":{"type":"LineString","coordinates":[[-80.00804252777777,25.383922194444445],[-80.0059435,25.389294777777778],[-80.00320175,25.384220083333332]]},"properties":{"style":"solid","thickness":1}},{"type":"Feature","geometry":{"type":"LineString","coordinates":[[-80.00735386111111,25.385657333333334],[-80.00409647222222,25.385857777777776]]},"properties":{"style":"solid","thickness":1}},{"type":"Feature","geometry":{"type":"LineString","coordinates":[[-79.98026402777778,25.31202066666667],[-79.98302208333334,25.311851305555557],[-79.9826341388889,25.306631805555558],[-79.979831,25.306803944444447]]},"properties":{"style":"solid","thickness":1}},{"type":"Feature","geometry":{"type":"LineString","coordinates":[[-79.98282658333333,25.309221],[-79.98015902777777,25.309384805555556]]},"properties":{"style":"solid","thickness":1}},{"type":"Feature","geometry":{"type":"LineString","coordinates":[[-79.97529047222223,25.312325916666666],[-79.97610433333334,25.312275972222224],[-79.97650822222222,25.312209916666667],[-79.97729458333333,25.311790083333335],[-79.97801133333334,25.311044222222222],[-79.97824291666667,25.310493305555557],[-79.97832969444444,25.30982738888889],[-79.97829002777777,25.309293111111113],[-79.97816294444445,25.308805500000002],[-79.97789719444445,25.308285083333335],[-79.977351,25.30765802777778],[-79.97715488888889,25.30746363888889],[-79.9767748888889,25.307239250000002],[-79.97598794444444,25.307039833333334],[-79.9750385,25.307098111111113],[-79.97459247222223,25.307208055555556],[-79.97415255555556,25.307400166666667],[-79.97389044444445,25.307540111111113],[-79.97346272222222,25.307896638888888],[-79.97309241666667,25.308414777777777],[-79.97298119444444,25.30875188888889],[-79.97289133333334,25.309376694444445],[-79.97296455555556,25.310363055555555],[-79.97344472222223,25.31132447222222],[-79.97374041666667,25.311636611111112],[-79.97407827777778,25.311904861111113],[-79.97441005555555,25.312090944444446],[-79.97450352777778,25.3121265],[-79.97529047222223,25.312325916666666]]},"properties":{"style":"solid","thickness":1}},{"type":"Feature","geometry":{"type":"LineString","coordinates":[[-79.97087894444445,25.30735327777778],[-79.97126638888889,25.312572805555558],[-79.96576991666667,25.307666555555556],[-79.96615716666668,25.312886083333336]]},"properties":{"style":"solid","thickness":1}},{"type":"Feature","geometry":{"type":"LineString","coordinates":[[-79.96391619444445,25.307780166666667],[-79.96430336111112,25.312999694444446],[-79.95880713888889,25.308093194444446],[-79.95919405555556,25.31331272222222]]},"properties":{"style":"solid","thickness":1}},{"type":"Feature","geometry":{"type":"LineString","coordinates":[[-79.95476861111112,25.313047027777777],[-79.955206,25.313433083333333],[-79.95529947222222,25.31346863888889],[-79.95589336111111,25.313514861111113],[-79.95638463888889,25.313402222222223],[-79.95664375,25.313221194444445],[-79.95689980555557,25.312999083333334],[-79.95709847222223,25.312615361111114],[-79.95702841666667,25.311670083333333],[-79.95672969444445,25.311316805555556],[-79.95653666666666,25.3111635],[-79.95584016666668,25.310958444444445],[-79.95505630555556,25.3108],[-79.95449547222222,25.310586611111113],[-79.95429633333333,25.31035111111111],[-79.95416327777778,25.30978125],[-79.95421413888889,25.309241444444446],[-79.95441583333334,25.308898805555557],[-79.95462972222222,25.308720555555556],[-79.95480144444444,25.308586194444445],[-79.95501836111112,25.308449055555556],[-79.95550658333333,25.308295305555557],[-79.95577786111112,25.308278694444446],[-79.95605522222222,25.308344277777778],[-79.95642911111112,25.308486527777777],[-79.95666736111112,25.308637083333334],[-79.95700822222223,25.3089465]]},"properties":{"style":"solid","thickness":1}},{"type":"Feature","geometry":{"type":"LineString","coordinates":[[-80.45558316666667,25.24820813888889],[-80.453008,25.248374861111113]]},"properties":{"style":"solid","thickness":1}},{"type":"Feature","geometry":{"type":"LineString","coordinates":[[-80.45307827777778,25.25101325],[-80.45578905555556,25.25083775],[-80.45538052777778,25.245619611111113]]},"properties":{"style":"solid","thickness":1}},{"type":"Feature","geometry":{"type":"LineString","coordinates":[[-80.4486055,25.25130272222222],[-80.45136147222223,25.25112438888889],[-80.45095313888889,25.245906222222224],[-80.44815211111111,25.24608747222222]]},"properties":{"style":"solid","thickness":1}},{"type":"Feature","geometry":{"type":"LineString","coordinates":[[-80.45115569444445,25.248494750000003],[-80.44849013888889,25.24866725]]},"properties":{"style":"solid","thickness":1}},{"type":"Feature","geometry":{"type":"LineString","coordinates":[[-80.44643536111111,25.246198555555555],[-80.4468435,25.25141672222222],[-80.44133025000001,25.246528694444446],[-80.44173816666667,25.25174688888889]]},"properties":{"style":"solid","thickness":1}},{"type":"Feature","geometry":{"type":"LineString","coordinates":[[-80.43947794444445,25.246648444444446],[-80.43988577777777,25.251866638888888]]},"properties":{"style":"solid","thickness":1}},{"type":"Feature","geometry":{"type":"LineString","coordinates":[[-80.43570447222223,25.249493972222222],[-80.43346922222223,25.24703675]]},"properties":{"style":"solid","thickness":1}},{"type":"Feature","geometry":{"type":"LineString","coordinates":[[-80.43712866666667,25.246800305555556],[-80.43753641666667,25.2520185],[-80.43527738888889,25.252164472222223],[-80.43509025,25.252093972222223],[-80.43467077777778,25.25195588888889],[-80.43423208333334,25.251571277777778],[-80.43401925,25.251172083333334],[-80.43398075,25.250679027777778],[-80.43412936111112,25.250256444444446],[-80.4345038888889,25.249819305555558],[-80.43489766666667,25.249628694444446],[-80.43507197222223,25.249534833333335],[-80.43733094444445,25.24938886111111]]},"properties":{"style":"solid","thickness":1}},{"type":"Feature","geometry":{"type":"LineString","coordinates":[[-80.51621147222222,24.98441491666667],[-80.51508908333334,24.989732833333335],[-80.51278563888889,24.98463863888889],[-80.511618,24.989959472222225],[-80.50954008333333,24.98485052777778]]},"properties":{"style":"solid","thickness":1}},{"type":"Feature","geometry":{"type":"LineString","coordinates":[[-80.50764683333334,24.984974083333334],[-80.50805675,24.990191916666667],[-80.50255308333334,24.985306416666667],[-80.50296277777778,24.99052425]]},"properties":{"style":"solid","thickness":1}},{"type":"Feature","geometry":{"type":"LineString","coordinates":[[-80.50074997222222,24.985424000000002],[-80.49868022222222,24.990803500000002],[-80.49592666666666,24.985738472222224]]},"properties":{"style":"solid","thickness":1}},{"type":"Feature","geometry":{"type":"LineString","coordinates":[[-80.50007080555555,24.987161416666666],[-80.49682516666667,24.987373027777778]]},"properties":{"style":"solid","thickness":1}},{"type":"Feature","geometry":{"type":"LineString","coordinates":[[-80.49444272222222,24.991079694444444],[-80.49119697222223,24.991291194444447]]},"properties":{"style":"solid","thickness":1}},{"type":"Feature","geometry":{"type":"LineString","coordinates":[[-80.49286494444445,24.991182527777777],[-80.49245566666667,24.985964666666668]]},"properties":{"style":"solid","thickness":1}},{"type":"Feature","geometry":{"type":"LineString","coordinates":[[-80.48655372222223,24.991593583333334],[-80.48930361111111,24.9914145],[-80.4888945,24.986196638888888],[-80.48609963888889,24.98637863888889]]},"properties":{"style":"solid","thickness":1}},{"type":"Feature","geometry":{"type":"LineString","coordinates":[[-80.48909744444444,24.98878502777778],[-80.48643775000001,24.988958222222223]]},"properties":{"style":"solid","thickness":1}},{"type":"Feature","geometry":{"type":"LineString","coordinates":[[-80.45395377777778,25.675673111111113],[-80.469138,25.674738],[-80.46247405555556,25.687130944444444],[-80.45395377777778,25.675673111111113]]},"properties":{"style":"solid","thickness":1}},{"type":"Feature","geometry":{"type":"LineString","coordinates":[[-80.45952530555556,25.678143805555557],[-80.46408066666667,25.67786325],[-80.46206111111111,25.68153525],[-80.45952530555556,25.678143805555557]]},"properties":{"style":"solid","thickness":1}},{"type":"Feature","geometry":{"type":"LineString","coordinates":[[-80.39121230555556,25.57730875],[-80.4063843888889,25.57638025],[-80.39971944444446,25.588770333333333],[-80.39121230555556,25.57730875]]},"properties":{"style":"solid","thickness":1}},{"type":"Feature","geometry":{"type":"LineString","coordinates":[[-80.39677788888889,25.579781861111112],[-80.40132961111112,25.579503305555555],[-80.39930980555556,25.583174444444445],[-80.39677788888889,25.579781861111112]]},"properties":{"style":"solid","thickness":1}},{"type":"Feature","geometry":{"type":"LineString","coordinates":[[-80.02959847222222,25.37076163888889],[-80.04474694444444,25.369871222222223],[-80.0380558611111,25.382244444444446],[-80.02959847222222,25.37076163888889]]},"properties":{"style":"solid","thickness":1}},{"type":"Feature","geometry":{"type":"LineString","coordinates":[[-80.03514680555556,25.373248694444445],[-80.03969144444444,25.372981555555555],[-80.03766397222222,25.376647583333334],[-80.03514680555556,25.373248694444445]]},"properties":{"style":"solid","thickness":1}},{"type":"Feature","geometry":{"type":"LineString","coordinates":[[-79.97896630555556,25.293203472222224],[-79.99410527777778,25.29231838888889],[-79.98741327777778,25.304689222222223],[-79.97896630555556,25.293203472222224]]},"properties":{"style":"solid","thickness":1}},{"type":"Feature","geometry":{"type":"LineString","coordinates":[[-79.98450997222223,25.295692472222225],[-79.98905175,25.295426944444447],[-79.98702402777778,25.29909225],[-79.98450997222223,25.295692472222225]]},"properties":{"style":"solid","thickness":1}},{"type":"Feature","geometry":{"type":"LineString","coordinates":[[-79.69325741666667,25.646381555555553],[-79.7084436388889,25.645526555555556],[-79.70170186111112,25.657884166666665],[-79.69325741666667,25.646381555555553]]},"properties":{"style":"solid","thickness":1}},{"type":"Feature","geometry":{"type":"LineString","coordinates":[[-79.69881161111111,25.64888158333333],[-79.70336755555556,25.648625083333332],[-79.70132497222222,25.65228636111111],[-79.69881161111111,25.64888158333333]]},"properties":{"style":"solid","thickness":1}},{"type":"Feature","geometry":{"type":"LineString","coordinates":[[-79.26649952777778,25.550358444444445],[-79.28167644444444,25.549548416666667],[-79.27489569444444,25.561886],[-79.26649952777778,25.550358444444445]]},"properties":{"style":"solid","thickness":1}},{"type":"Feature","geometry":{"type":"LineString","coordinates":[[-79.27204019444444,25.552874916666667],[-79.27659336111111,25.55263188888889],[-79.27453925,25.55628713888889],[-79.27204019444444,25.552874916666667]]},"properties":{"style":"solid","thickness":1}},{"type":"Feature","geometry":{"type":"LineString","coordinates":[[-80.45870516666668,25.234757666666667],[-80.47383302777779,25.233822055555557],[-80.46719430555555,25.246215083333333],[-80.45870516666668,25.234757666666667]]},"properties":{"style":"solid","thickness":1}},{"type":"Feature","geometry":{"type":"LineString","coordinates":[[-80.46425611111111,25.23722813888889],[-80.46879458333333,25.236947444444446],[-80.46678266666667,25.240619472222225],[-80.46425611111111,25.23722813888889]]},"properties":{"style":"solid","thickness":1}},{"type":"Feature","geometry":{"type":"LineString","coordinates":[[-80.51616494444444,24.975844777777777],[-80.53125944444444,24.974903194444444],[-80.52464113888888,24.98729841666667],[-80.51616494444444,24.975844777777777]]},"properties":{"style":"solid","thickness":1}},{"type":"Feature","geometry":{"type":"LineString","coordinates":[[-80.52170502777777,24.97831297222222],[-80.52623347222222,24.97803047222222],[-80.52422769444445,24.981703166666666],[-80.52170502777777,24.97831297222222]]},"properties":{"style":"solid","thickness":1}},{"type":"Feature","geometry":{"type":"LineString","coordinates":[[-80.29397861111111,25.797054972222224],[-80.29397861111111,25.798522805555557]]},"properties":{"style":"solid","thickness":1}},{"type":"Feature","geometry":{"type":"LineString","coordinates":[[-80.29357325,25.796908194444445],[-80.29357325,25.798669583333336]]},"properties":{"style":"solid","thickness":1}},{"type":"Feature","geometry":{"type":"LineString","coordinates":[[-80.29316788888889,25.796908194444445],[-80.29316788888889,25.798669583333336]]},"properties":{"style":"solid","thickness":1}},{"type":"Feature","geometry":{"type":"LineString","coordinates":[[-80.29276252777778,25.797054972222224],[-80.29276252777778,25.798522805555557]]},"properties":{"style":"solid","thickness":1}},{"type":"Feature","geometry":{"type":"LineString","coordinates":[[-80.29235716666666,25.797788888888892],[-80.29236344444445,25.797892944444445],[-80.29238372222223,25.798001722222224],[-80.29241988888889,25.798113166666667],[-80.29247347222223,25.798224611111113],[-80.29254525,25.79833288888889],[-80.29263508333334,25.798434472222223],[-80.29274169444444,25.798525833333336],[-80.29286277777777,25.798603694444445],[-80.29299494444444,25.798665444444445],[-80.29313422222222,25.798709472222225],[-80.29327633333334,25.79873513888889],[-80.29341711111111,25.798742972222225],[-80.29355288888888,25.798734305555556],[-80.29368072222222,25.798711222222224],[-80.29379858333333,25.798676166666667],[-80.29390516666666,25.79863166666667],[-80.2940025,25.79857861111111],[-80.29409755555555,25.798512861111114],[-80.29418822222222,25.798433388888892],[-80.29427133333333,25.79834013888889],[-80.29434344444444,25.798233805555558],[-80.29440122222222,25.798115916666667],[-80.29444161111111,25.797988972222225],[-80.29446241666666,25.797856250000002],[-80.29446241666666,25.797721527777778],[-80.29444161111111,25.79758877777778],[-80.29440119444445,25.797461833333337],[-80.29434344444444,25.797343972222222],[-80.29427133333333,25.79723761111111],[-80.29418822222222,25.797144361111112],[-80.29409755555555,25.797064916666667],[-80.2940025,25.79699913888889],[-80.29390516666666,25.79694611111111],[-80.29379855555555,25.796901611111114],[-80.29368072222222,25.79686652777778],[-80.29355286111111,25.796843472222225],[-80.29341711111111,25.79683480555556],[-80.29327633333334,25.796842611111114],[-80.29313425,25.796868305555556],[-80.29299494444444,25.79691230555556],[-80.29286277777777,25.796974083333335],[-80.29274172222222,25.797051944444448],[-80.29263508333334,25.797143277777778],[-80.29254527777778,25.79724488888889],[-80.29247347222223,25.797353166666667],[-80.29241988888889,25.797464611111113],[-80.29238372222223,25.797576055555556],[-80.29236344444445,25.797684833333335],[-80.29235716666666,25.797788888888892]]},"properties":{"style":"solid","thickness":1}}]}
