{"type":"FeatureCollection","features":[{"type":"Feature","geometry":{"type":"LineString","coordinates":[[-80.42107777777778,25.718338888888887],[-80.42648055555556,25.718988888888887]]},"properties":{"style":"solid","thickness":1}},{"type":"Feature","geometry":{"type":"LineString","coordinates":[[-81.00521388888889,25.760483333333333],[-81.00648333333334,25.74886111111111]]},"properties":{"style":"solid","thickness":1}},{"type":"Feature","geometry":{"type":"LineString","coordinates":[[-80.47712777777778,25.785675],[-80.60920555555555,25.78029722222222],[-80.66029444444445,25.778005555555556],[-80.84547777777777,25.768533333333334],[-80.8906388888889,25.766527777777778],[-81.00521388888889,25.760483333333333],[-81.00648333333334,25.74886111111111],[-81.00648333333334,25.74886111111111],[-80.875,25.6375],[-80.8606611111111,25.616022222222224],[-80.75416666666666,25.46222222222222],[-80.52222222222223,25.49388888888889]]},"properties":{"style":"solid","thickness":1}},{"type":"Feature","geometry":{"type":"LineString","coordinates":[[-80.47712777777778,25.785675],[-80.4766638888889,25.780013888888888],[-80.4755888888889,25.77219722222222],[-80.47394166666668,25.763966666666665],[-80.47209722222222,25.756616666666666],[-80.47003333333333,25.74888888888889],[-80.46819166666667,25.742472222222222],[-80.46541388888889,25.735097222222223],[-80.46181111111112,25.72768888888889],[-80.456,25.716974999999998],[-80.44884444444445,25.71812222222222],[-80.44214166666667,25.71881111111111],[-80.43346111111111,25.719519444444444],[-80.42648055555556,25.718988888888887],[-80.42107777777778,25.718338888888887],[-80.41552222222222,25.71711111111111],[-80.40756388888889,25.71521388888889],[-80.40190555555556,25.713377777777776],[-80.39378888888889,25.710058333333333],[-80.38010833333333,25.701108333333334],[-80.37097499999999,25.69308611111111],[-80.3648361111111,25.685525000000002],[-80.36064722222221,25.678297222222223],[-80.3578,25.671461111111114],[-80.2664861111111,25.671630555555556],[-80.21491388888889,25.671958333333336],[-80.16489722222222,25.672005555555558],[-80.1550388888889,25.680694444444445],[-80.146225,25.689016666666667],[-80.13956111111112,25.69766388888889],[-80.13140555555555,25.70875],[-80.12106666666666,25.727024999999998],[-80.11551666666666,25.739080555555557],[-80.11032777777777,25.754916666666666],[-80.10705277777777,25.767658333333333],[-80.10574166666666,25.77778611111111],[-80.10482499999999,25.790372222222224],[-80.10533055555555,25.802658333333333],[-80.06152222222222,25.805344444444444],[-79.99938333333334,25.80848611111111],[-79.91828333333333,25.81258888888889],[-79.69958611111112,25.821925],[-79.65293333333334,25.82275]]},"properties":{"style":"solid","thickness":1}},{"type":"Feature","geometry":{"type":"LineString","coordinates":[[-80.52222222222223,25.49388888888889],[-80.44861111111112,25.55888888888889],[-80.44163611111111,25.564583333333335],[-80.43234722222223,25.57053611111111],[-80.42226388888889,25.575375],[-80.41154166666668,25.57902222222222],[-80.4003388888889,25.581427777777776],[-80.38882222222223,25.582555555555555],[-80.37716388888889,25.58238611111111],[-80.36553611111111,25.580925],[-80.35411666666666,25.57818888888889],[-80.343075,25.574225],[-80.33257499999999,25.56908888888889],[-80.32277222222221,25.562858333333335],[-80.31381388888889,25.555625],[-80.30583333333333,25.547500000000003],[-80.26888888888888,25.503333333333334],[-80.1875,25.254166666666666]]},"properties":{"style":"solid","thickness":1}},{"type":"Feature","geometry":{"type":"LineString","coordinates":[[-80.4003388888889,25.581427777777776],[-80.25888888888889,25.619444444444444],[-80.18611111111112,25.543055555555558],[-80.1875,25.254166666666666]]},"properties":{"style":"solid","thickness":1}},{"type":"Feature","geometry":{"type":"LineString","coordinates":[[-80.1875,25.254166666666666],[-79.87083333333332,25.354166666666668],[-79.83776388888889,25.376],[-79.71588333333334,25.45623611111111],[-79.7,25.466666666666665],[-79.70000555555556,25.488419444444446],[-79.70001666666667,25.707327777777778],[-79.7,25.75],[-79.66196944444445,25.808794444444445],[-79.65293333333334,25.82275]]},"properties":{"style":"solid","thickness":1}},{"type":"Feature","geometry":{"type":"LineString","coordinates":[[-80.16522219444445,25.48467402777778],[-80.20741691666667,25.480424333333332]]},"properties":{"style":"solid","thickness":1}},{"type":"Feature","geometry":{"type":"LineString","coordinates":[[-80.19623269444445,25.47629019444444],[-80.20741691666667,25.480424333333332],[-80.19750438888889,25.486685583333333]]},"properties":{"style":"solid","thickness":1}},{"type":"Feature","geometry":{"type":"LineString","coordinates":[[-80.75416666666666,25.46222222222222],[-80.68333333333334,25.368333333333332],[-80.46666666666667,25.166666666666668],[-80.1875,25.254166666666666]]},"properties":{"style":"solid","thickness":1}},{"type":"Feature","geometry":{"type":"LineString","coordinates":[[-80.69563622222222,25.672492916666666],[-80.69636527777779,25.67312263888889],[-80.69652027777778,25.67317991666667],[-80.69750211111112,25.673247722222225],[-80.69831175,25.67305536111111],[-80.69873669444445,25.67275363888889],[-80.69915591666667,25.67238427777778],[-80.69947758333333,25.671749527777777],[-80.69934586111111,25.670193722222223],[-80.69884644444444,25.669616083333334],[-80.69852497222223,25.66936627777778],[-80.697371,25.66903825],[-80.69607344444445,25.668788250000002],[-80.6951433888889,25.66844466666667],[-80.6948105,25.66805955555556],[-80.69458105555556,25.667122916666667],[-80.69465591666668,25.666233166666665],[-80.69498330555555,25.66566608333333],[-80.69533361111111,25.665369555555554],[-80.695615,25.665145888888887],[-80.695971,25.664917],[-80.69677486111111,25.664657],[-80.69722269444445,25.66462586111111],[-80.69768197222223,25.66473],[-80.698302,25.664959055555553],[-80.69869811111111,25.665203694444443],[-80.69926638888889,25.665708499999997]]},"properties":{"style":"solid","thickness":1}},{"type":"Feature","geometry":{"type":"LineString","coordinates":[[-80.67843333333334,25.674164],[-80.67890408333334,25.6744035],[-80.67943802777778,25.67450252777778],[-80.68122952777779,25.674378194444447],[-80.68188991666668,25.67419625],[-80.68210813888889,25.674113083333335],[-80.68317633333334,25.673426527777778],[-80.68379094444445,25.672703444444444],[-80.68395769444444,25.672011472222223],[-80.68437725,25.670757583333334],[-80.68424572222223,25.66920177777778],[-80.68403352777779,25.668468055555557],[-80.68375811111112,25.667874805555556],[-80.68340236111112,25.667219111111113],[-80.68259305555556,25.666526833333332],[-80.68111772222223,25.66594883333333],[-80.68013025,25.665813277777776],[-80.67930919444444,25.665870249999998],[-80.67828136111112,25.666145722222222],[-80.67792530555556,25.666374555555553],[-80.67763819444446,25.666530555555553]]},"properties":{"style":"solid","thickness":1}},{"type":"Feature","geometry":{"type":"LineString","coordinates":[[-80.67489786111112,25.670530972222224],[-80.67026997222223,25.670851944444447]]},"properties":{"style":"solid","thickness":1}},{"type":"Feature","geometry":{"type":"LineString","coordinates":[[-80.66736944444445,25.672958194444444],[-80.66740369444445,25.673364055555556],[-80.66729436111112,25.673847916666666],[-80.66704716666668,25.67447741666667],[-80.66678283333334,25.674903972222225],[-80.66635780555556,25.675205611111114],[-80.66577205555556,25.67538227777778],[-80.66465233333334,25.67545988888889],[-80.66381980555556,25.6753815],[-80.66342944444445,25.675204416666666],[-80.66286697222223,25.674767111111112],[-80.6626891388889,25.674439222222222],[-80.66249419444445,25.673908416666666],[-80.66240288888889,25.672826083333334],[-80.66251791666667,25.67240988888889],[-80.66306986111111,25.67094277777778],[-80.66388569444445,25.669933694444445],[-80.66519547222222,25.66855013888889],[-80.6667695,25.666740027777777],[-80.66206708333334,25.66706591666667]]},"properties":{"style":"solid","thickness":1}},{"type":"Feature","geometry":{"type":"LineString","coordinates":[[-80.65405550000001,25.670886722222225],[-80.65422655555557,25.672916083333334],[-80.65454744444445,25.674050555555556],[-80.65474236111112,25.674581361111112],[-80.65500052777779,25.67497175],[-80.65596472222222,25.675721472222225],[-80.65688902777778,25.675997666666667],[-80.65718761111111,25.675976972222223],[-80.65805486111111,25.675576722222225],[-80.65880750000001,25.674708111111112],[-80.65907186111112,25.674281555555556],[-80.65917552777778,25.673730055555556],[-80.65930247222222,25.672564583333333],[-80.65913130555556,25.670535222222224],[-80.6588103888889,25.669400777777778],[-80.65861547222222,25.668869944444445],[-80.65828266666668,25.66848475],[-80.65739313888889,25.66772988888889],[-80.65646891666667,25.667453694444447],[-80.65617036111112,25.66747436111111],[-80.65530316666667,25.667874611111113],[-80.65447586111112,25.668748361111113],[-80.65428613888889,25.669169750000002],[-80.65418247222223,25.669721250000002],[-80.65405550000001,25.670886722222225]]},"properties":{"style":"solid","thickness":1}},{"type":"Feature","geometry":{"type":"LineString","coordinates":[[-79.8761608611111,25.71995047222222],[-79.87688588888888,25.720584277777775],[-79.87704058333333,25.720642416666664],[-79.87802230555555,25.72071575],[-79.87883355555554,25.72052788888889],[-79.87926072222221,25.72022858333333],[-79.87968263888888,25.71986158333333],[-79.88000874999999,25.719228638888886],[-79.87988758333333,25.717672138888886],[-79.87939191666666,25.71709172222222],[-79.87907202777777,25.71684011111111],[-79.87791986111111,25.716505638888886],[-79.87662352777777,25.71624838888889],[-79.87569547222222,25.715899583333332],[-79.87536505555555,25.71551263888889],[-79.87514194444444,25.71457475],[-79.87522288888889,25.713685444444444],[-79.87555427777777,25.713120194444443],[-79.87590672222221,25.712825638888887],[-79.87618975,25.712603555555553],[-79.87654744444444,25.712376666666668],[-79.87735338888888,25.712121166666666],[-79.87780161111111,25.712092527777777],[-79.87826033333333,25.712199249999998],[-79.87887902777777,25.712431777777777],[-79.8792736111111,25.71267861111111],[-79.87983866666666,25.713186583333332]]},"properties":{"style":"solid","thickness":1}},{"type":"Feature","geometry":{"type":"LineString","coordinates":[[-79.85894016666666,25.721525194444443],[-79.85940944444444,25.721767333333332],[-79.85994291666665,25.72186933333333],[-79.86173594444443,25.721755027777775],[-79.86239780555555,25.721576805555554],[-79.86261666666667,25.72149486111111],[-79.86368994444445,25.720814333333333],[-79.86430972222222,25.72009469444444],[-79.86448125,25.719403666666665],[-79.86490952777777,25.718152166666666],[-79.86478855555555,25.716595666666667],[-79.86458127777777,25.715860777777777],[-79.86430983333332,25.715266],[-79.86395841666666,25.71460833333333],[-79.86315352777777,25.713911555555555],[-79.86168155555555,25.713325305555554],[-79.86069463888889,25.71318422222222],[-79.85987291666666,25.71323661111111],[-79.85884283333333,25.713506305555555],[-79.85848508333332,25.713733138888887],[-79.85819677777778,25.71388752777778]]},"properties":{"style":"solid","thickness":1}},{"type":"Feature","geometry":{"type":"LineString","coordinates":[[-79.85542816666666,25.717872472222222],[-79.85079633333332,25.718167527777776]]},"properties":{"style":"solid","thickness":1}},{"type":"Feature","geometry":{"type":"LineString","coordinates":[[-79.84788036111111,25.72025747222222],[-79.8479118611111,25.720663499999997],[-79.84779919444443,25.72114675],[-79.84754761111111,25.72177483333333],[-79.84728027777777,25.722199916666664],[-79.84685302777777,25.72249913888889],[-79.8462658611111,25.722672527777775],[-79.84514519444444,25.72274386111111],[-79.84431288888888,25.722660805555552],[-79.84392358333334,25.722481555555554],[-79.84336388888889,25.72204111111111],[-79.84318822222222,25.72171225],[-79.84299683333333,25.72118036111111],[-79.8429128611111,25.720097555555554],[-79.84303080555556,25.719682],[-79.84359297222221,25.718218055555553],[-79.84441597222222,25.717213555555553],[-79.84573566666666,25.71583738888889],[-79.84732263888888,25.71403613888889],[-79.84261624999999,25.714335694444443]]},"properties":{"style":"solid","thickness":1}},{"type":"Feature","geometry":{"type":"LineString","coordinates":[[-79.8345756111111,25.7181115],[-79.83473291666667,25.72014175],[-79.83504616666666,25.72127797222222],[-79.83523755555555,25.721809888888888],[-79.83549313888888,25.722201694444443],[-79.83645258333333,25.722956777777775],[-79.83737533333333,25.723238166666665],[-79.83767416666666,25.723219138888886],[-79.83854447222221,25.72282375],[-79.83930333333333,25.721959388888887],[-79.83957069444443,25.72153433333333],[-79.83967813888889,25.720983444444443],[-79.83981308333333,25.71981869444444],[-79.83965572222222,25.717788444444444],[-79.83934241666667,25.716652222222223],[-79.83915105555555,25.716120333333333],[-79.83882075,25.715733305555556],[-79.83793605555555,25.714973472222223],[-79.8370133611111,25.714692083333333],[-79.83671452777777,25.71471111111111],[-79.83584430555555,25.71510647222222],[-79.83501075,25.715975583333332],[-79.83481808333333,25.71639588888889],[-79.8347106111111,25.716946777777775],[-79.8345756111111,25.7181115]]},"properties":{"style":"solid","thickness":1}},{"type":"Feature","geometry":{"type":"LineString","coordinates":[[-80.13396066666667,25.502024444444444],[-80.13468569444446,25.502657],[-80.13484019444445,25.502714861111112],[-80.13582027777778,25.50278652777778],[-80.13662966666668,25.502597305555554],[-80.13705541666667,25.50229722222222],[-80.13747577777778,25.5019295],[-80.13780000000001,25.501296027777776],[-80.13767580555556,25.499739722222223],[-80.13717986111112,25.49916013888889],[-80.13686002777779,25.498909083333334],[-80.13570925,25.498576583333335],[-80.13441477777778,25.49832152777778],[-80.13348772222223,25.497974305555555],[-80.1331571111111,25.497587916666667],[-80.13293241666666,25.49665038888889],[-80.13301138888889,25.495760944444445],[-80.133341,25.49519513888889],[-80.13369219444445,25.4949],[-80.13397422222224,25.49467738888889],[-80.13433080555556,25.494449916666667],[-80.13513472222223,25.49419302777778],[-80.13558205555556,25.49416363888889],[-80.13604019444445,25.494269583333335],[-80.13665822222222,25.49450102777778],[-80.13705258333334,25.494747194444447],[-80.13761766666667,25.495254222222222]]},"properties":{"style":"solid","thickness":1}},{"type":"Feature","geometry":{"type":"LineString","coordinates":[[-80.11084672222222,25.50354108333333],[-80.1115716111111,25.504173777777776],[-80.11172613888888,25.504231666666666],[-80.11270622222222,25.504303472222222],[-80.11351563888888,25.50411436111111],[-80.11394147222222,25.503814388888888],[-80.11436188888888,25.503446722222222],[-80.11468622222222,25.50281327777778],[-80.11456233333332,25.501256972222222],[-80.11406649999999,25.500677305555556],[-80.11374672222222,25.500426194444444],[-80.112596,25.5000935],[-80.11130155555556,25.49983825],[-80.11037452777778,25.49949088888889],[-80.11004399999999,25.499104444444445],[-80.1098195,25.49816688888889],[-80.10989863888888,25.497277472222223],[-80.11022836111111,25.496711694444446],[-80.1105796111111,25.496416611111112],[-80.11086166666666,25.496194055555556],[-80.11121830555555,25.49596663888889],[-80.11202227777777,25.49570988888889],[-80.11246963888888,25.495680555555555],[-80.11292775,25.495786555555558],[-80.11354575,25.496018111111113],[-80.11394008333333,25.496264333333333],[-80.11450505555555,25.496771444444445]]},"properties":{"style":"solid","thickness":1}},{"type":"Feature","geometry":{"type":"LineString","coordinates":[[-80.09033722222222,25.505768],[-80.08965488888889,25.497174333333334],[-80.08600147222222,25.497413194444444]]},"properties":{"style":"solid","thickness":1}},{"type":"Feature","geometry":{"type":"LineString","coordinates":[[-80.15014708333334,25.485106583333334],[-80.15087211111111,25.485739055555555],[-80.15102661111112,25.48579691666667],[-80.15200655555556,25.485868444444446],[-80.15281577777779,25.48567913888889],[-80.15324144444445,25.48537902777778],[-80.15366169444445,25.48501125],[-80.15398577777778,25.484377722222224],[-80.1538613888889,25.482821444444443],[-80.15336541666667,25.482241916666666],[-80.15304561111111,25.481990888888888],[-80.15189497222222,25.481658527777775],[-80.15060063888889,25.48140363888889],[-80.14967366666667,25.481056527777778],[-80.14934302777779,25.480670166666666],[-80.14911827777779,25.479732666666663],[-80.14919708333333,25.47884322222222],[-80.14952658333334,25.47827736111111],[-80.14987766666667,25.477982166666663],[-80.1501596388889,25.477759555555554],[-80.15051613888889,25.477532027777777],[-80.15131991666668,25.477275055555555],[-80.15176716666667,25.47724561111111],[-80.15222525,25.477351499999997],[-80.15284322222223,25.477582888888886],[-80.15323758333334,25.477829],[-80.15380263888889,25.478335972222222]]},"properties":{"style":"solid","thickness":1}},{"type":"Feature","geometry":{"type":"LineString","coordinates":[[-80.13296394444444,25.486712694444446],[-80.13343283333334,25.486953972222224],[-80.13396547222223,25.487055],[-80.13575469444446,25.486937416666667],[-80.13641486111112,25.486758000000002],[-80.13663311111112,25.48667563888889],[-80.13770277777779,25.48599313888889],[-80.13831972222223,25.48527238888889],[-80.13848936111111,25.484581055555555],[-80.13891402777779,25.483328777777775],[-80.13878983333333,25.48177247222222],[-80.13858133333333,25.48103797222222],[-80.13830911111111,25.480443666666666],[-80.13795694444445,25.479786638888886],[-80.13715208333333,25.479091305555553],[-80.13568175,25.478507777777775],[-80.13469647222223,25.478368444444442],[-80.13387647222223,25.47842233333333],[-80.13284902777777,25.478693916666664],[-80.13249247222221,25.47892138888889],[-80.13220508333333,25.47907633333333]]},"properties":{"style":"solid","thickness":1}},{"type":"Feature","geometry":{"type":"LineString","coordinates":[[-80.12945077777778,25.48306636111111],[-80.12482877777776,25.483369833333334]]},"properties":{"style":"solid","thickness":1}},{"type":"Feature","geometry":{"type":"LineString","coordinates":[[-80.12192319444443,25.48546511111111],[-80.12195555555554,25.485871083333333],[-80.12184416666666,25.486354527777777],[-80.12159447222221,25.486983083333335],[-80.12132861111111,25.487408666666667],[-80.1209028611111,25.487708666666666],[-80.12031722222221,25.48788313888889],[-80.11919894444443,25.4879565],[-80.11836811111111,25.487874972222222],[-80.11797919444444,25.48769641666667],[-80.1174196111111,25.487257],[-80.11724358333332,25.486928444444445],[-80.11705136111111,25.486396916666667],[-80.11696516666666,25.485314250000002],[-80.11708194444444,25.484898472222223],[-80.11763975,25.4834335],[-80.11845891666665,25.4824275],[-80.11977294444443,25.481048916666666],[-80.12135277777777,25.47924475],[-80.11665636111111,25.479552888888886]]},"properties":{"style":"solid","thickness":1}},{"type":"Feature","geometry":{"type":"LineString","coordinates":[[-80.10864,25.48334338888889],[-80.10880147222221,25.48537336111111],[-80.10911663888888,25.486509027777778],[-80.10930880555556,25.487040583333336],[-80.10956477777778,25.48743191666667],[-80.110524,25.488185277777777],[-80.11144555555555,25.48846497222222],[-80.11174374999999,25.488445416666668],[-80.11261144444444,25.488048444444445],[-80.11336688888888,25.487182694444446],[-80.11363280555555,25.48675713888889],[-80.11373880555556,25.48620602777778],[-80.11387091666666,25.485041055555556],[-80.11370933333333,25.48301108333333],[-80.11339413888888,25.481875416666664],[-80.11320197222221,25.48134386111111],[-80.11287147222221,25.480957416666666],[-80.11198683333333,25.48019919444444],[-80.11106533333333,25.479919527777778],[-80.11076713888889,25.479939055555555],[-80.1098995,25.480336027777778],[-80.10906952777778,25.481206666666665],[-80.10887816666666,25.481627305555556],[-80.10877213888888,25.482178416666667],[-80.10864,25.48334338888889]]},"properties":{"style":"solid","thickness":1}},{"type":"Feature","geometry":{"type":"LineString","coordinates":[[-80.08558563888889,25.48934163888889],[-80.08631033333333,25.48997441666667],[-80.08646480555555,25.490032361111112],[-80.08744474999999,25.490104305555555],[-80.08825411111111,25.489915361111112],[-80.08867994444444,25.489615444444446],[-80.08910041666667,25.489247833333334],[-80.08942483333333,25.488614472222224],[-80.08930127777778,25.48705813888889],[-80.08880561111111,25.48647838888889],[-80.08848591666666,25.486227222222222],[-80.08733541666666,25.48589436111111],[-80.08604119444443,25.48563888888889],[-80.08511433333332,25.485291361111113],[-80.08478391666667,25.48490486111111],[-80.08455963888889,25.48396727777778],[-80.08463894444444,25.48307786111111],[-80.08496875,25.482512166666666],[-80.08532002777777,25.482217111111108],[-80.0856021111111,25.48199461111111],[-80.08595874999999,25.481767249999997],[-80.08676266666666,25.48151063888889],[-80.08720997222221,25.481481388888888],[-80.087668,25.48158747222222],[-80.08828588888889,25.481819138888888],[-80.0886801111111,25.482065416666664],[-80.08924491666666,25.482572638888886]]},"properties":{"style":"solid","thickness":1}},{"type":"Feature","geometry":{"type":"LineString","coordinates":[[-80.05939544444445,25.490779361111112],[-80.05972580555556,25.491165944444447],[-80.06042894444444,25.491528194444445],[-80.06088697222222,25.491634361111114],[-80.0621705,25.491754722222222],[-80.06261786111111,25.491725555555558],[-80.06350180555555,25.491531861111113],[-80.06423130555555,25.491280222222223],[-80.06437505555556,25.491202833333336],[-80.06487013888889,25.490830444444445],[-80.06535988888889,25.490390416666667],[-80.06616344444444,25.489181694444447],[-80.06645047222221,25.488074694444446],[-80.06633255555555,25.486586000000003],[-80.06611913888888,25.485783722222223],[-80.06577272222222,25.485194166666666],[-80.06528252777777,25.48468202777778],[-80.06487225,25.484232666666667],[-80.06422763888888,25.483662555555558],[-80.06360977777777,25.483430805555557],[-80.06299194444445,25.483199027777776],[-80.06245938888888,25.48309772222222],[-80.06111747222222,25.48318525],[-80.06038266666667,25.483369194444446],[-80.05980766666666,25.48367875],[-80.0591635,25.484060833333334],[-80.05874294444445,25.484428333333334],[-80.05806169444445,25.485288944444445],[-80.05766255555555,25.485927111111113],[-80.05754558333334,25.486342833333335],[-80.05763125,25.487425527777777],[-80.0607625,25.48722138888889]]},"properties":{"style":"solid","thickness":1}},{"type":"Feature","geometry":{"type":"LineString","coordinates":[[-80.04871819444445,25.492223250000002],[-80.04918694444444,25.492464805555556],[-80.04971952777778,25.49256613888889],[-80.05150891666666,25.492449611111113],[-80.05216922222222,25.492270555555557],[-80.05238752777778,25.49218830555556],[-80.05345772222222,25.491506444444447],[-80.05407519444444,25.490786055555557],[-80.05424533333333,25.490094777777777],[-80.0546708888889,25.48884275],[-80.05454777777777,25.48728638888889],[-80.05433977777777,25.48655177777778],[-80.05406797222221,25.485957333333335],[-80.05371622222222,25.485300083333335],[-80.05291183333333,25.484604305555557],[-80.05144183333333,25.484019916666668],[-80.0504566111111,25.483880055555556],[-80.04963652777778,25.483933472222223],[-80.0486088611111,25.484204444444444],[-80.04825213888888,25.484431722222222],[-80.04796463888889,25.484586472222222]]},"properties":{"style":"solid","thickness":1}},{"type":"Feature","geometry":{"type":"LineString","coordinates":[[-80.01519888888889,25.494810277777777],[-80.01654097222222,25.494723166666667],[-80.01720669444444,25.494611944444447],[-80.01850077777777,25.493915833333336],[-80.0196776111111,25.49268316666667],[-80.0200556111111,25.49177441666667],[-80.02019397222222,25.490677194444444],[-80.02012463888889,25.4897975],[-80.01991152777778,25.48899516666667],[-80.01946941666667,25.48813966666667],[-80.01856397222222,25.487110194444444],[-80.01823908333333,25.486791194444447],[-80.01761066666667,25.486423916666666],[-80.01631125,25.486100166666667],[-80.01474561111111,25.48620175],[-80.01401072222222,25.486385472222224],[-80.01328647222222,25.48670452777778],[-80.0128551388889,25.486936555555555],[-80.01215222222223,25.48752627777778],[-80.01154516666666,25.488381833333335],[-80.0113641111111,25.488937694444445],[-80.01122036111111,25.48996725],[-80.01134825,25.491591305555556],[-80.01214716666667,25.49317186111111],[-80.01263716666666,25.493684194444445],[-80.01319638888889,25.494124],[-80.01374494444444,25.4944285],[-80.01389938888889,25.4944865],[-80.01519888888889,25.494810277777777]]},"properties":{"style":"solid","thickness":1}},{"type":"Feature","geometry":{"type":"LineString","coordinates":[[-80.14331250000001,25.47109272222222],[-80.14009233333334,25.462665944444442],[-80.13764741666667,25.471465277777774],[-80.13435311111112,25.46304327777778],[-80.13228044444443,25.471818]]},"properties":{"style":"solid","thickness":1}},{"type":"Feature","geometry":{"type":"LineString","coordinates":[[-80.11293469444443,25.470707166666664],[-80.112967,25.47111313888889],[-80.1128556111111,25.47159658333333],[-80.11260588888888,25.472225138888888],[-80.11234002777778,25.472650694444443],[-80.11191430555554,25.472950666666666],[-80.11132872222221,25.47312511111111],[-80.11021058333333,25.473198388888886],[-80.10937986111111,25.473116805555552],[-80.10899099999999,25.47293825],[-80.1084315,25.472498777777776],[-80.10825552777777,25.47217022222222],[-80.10806338888888,25.471638666666664],[-80.10797727777778,25.470556],[-80.10809405555555,25.47014025],[-80.10865191666666,25.468675277777777],[-80.10947102777777,25.467669333333333],[-80.11078499999999,25.466290833333332],[-80.11236480555554,25.464486777777775],[-80.10766891666665,25.46479461111111]]},"properties":{"style":"solid","thickness":1}},{"type":"Feature","geometry":{"type":"LineString","coordinates":[[-80.09939127777777,25.467173388888888],[-80.10460902777777,25.466831638888888],[-80.10074358333333,25.473818666666666],[-80.10007677777777,25.465428055555556]]},"properties":{"style":"solid","thickness":1}},{"type":"Feature","geometry":{"type":"LineString","coordinates":[[-80.08479647222222,25.474930166666667],[-80.08613827777778,25.474842416666664],[-80.08680380555555,25.47473088888889],[-80.08809727777778,25.474034138888886],[-80.08927322222222,25.472800916666664],[-80.08965063888888,25.471891999999997],[-80.08978833333333,25.470794694444443],[-80.08971849999999,25.469915027777777],[-80.08950494444444,25.469112777777777],[-80.08906241666666,25.4682575],[-80.08815655555556,25.467228444444444],[-80.08783152777778,25.46690961111111],[-80.087203,25.46654261111111],[-80.0859036111111,25.46621947222222],[-80.08433827777777,25.466321833333332],[-80.0836036111111,25.46650588888889],[-80.08287966666666,25.466825305555552],[-80.08244852777777,25.467057527777776],[-80.08174608333333,25.46764758333333],[-80.08113961111111,25.468503444444444],[-80.08095891666666,25.469059388888887],[-80.08081577777777,25.470089027777775],[-80.08094458333333,25.471713027777778],[-80.08174427777777,25.473293194444445],[-80.0822345,25.473805305555555],[-80.08279386111111,25.47424486111111],[-80.08334252777777,25.474549083333333],[-80.08349697222222,25.474607],[-80.08479647222222,25.474930166666667]]},"properties":{"style":"solid","thickness":1}},{"type":"Feature","geometry":{"type":"LineString","coordinates":[[-80.07748058333333,25.466770027777777],[-80.07816191666666,25.47536375],[-80.07443463888889,25.47560722222222],[-80.07412572222222,25.47549136111111],[-80.07343336111111,25.475264499999998],[-80.07270883333332,25.474631638888887],[-80.07235702777777,25.473974444444444],[-80.07229269444444,25.473162416666664],[-80.07253725,25.472466277777777],[-80.07315452777777,25.471745805555553],[-80.07380397222222,25.471431305555555],[-80.07409141666666,25.4712765],[-80.07781855555555,25.471033055555555]]},"properties":{"style":"solid","thickness":1}},{"type":"Feature","geometry":{"type":"LineString","coordinates":[[-80.06512125,25.475330916666664],[-80.06584575,25.47596383333333],[-80.06600022222221,25.476021749999997],[-80.06698002777777,25.47609386111111],[-80.06778933333332,25.475904999999997],[-80.06821516666666,25.475605166666664],[-80.06863563888888,25.47523761111111],[-80.06896013888888,25.474604277777775],[-80.06883683333334,25.473047944444442],[-80.06834133333334,25.47246811111111],[-80.06802172222221,25.472216916666664],[-80.06687141666666,25.471883888888886],[-80.06557738888888,25.471628222222222],[-80.06465069444444,25.471280583333332],[-80.06432038888889,25.470894027777778],[-80.06409630555555,25.469956416666665],[-80.06417575,25.469067],[-80.06450558333333,25.46850136111111],[-80.06485686111111,25.46820636111111],[-80.06513897222221,25.467983916666665],[-80.0654956111111,25.467756583333333],[-80.06629947222221,25.46750008333333],[-80.06674672222222,25.467470888888887],[-80.06720469444444,25.467577027777775],[-80.06782244444445,25.467808777777776],[-80.06821661111111,25.468055138888886],[-80.06878127777777,25.468562416666664]]},"properties":{"style":"solid","thickness":1}},{"type":"Feature","geometry":{"type":"LineString","coordinates":[[-80.04946144444445,25.47723597222222],[-80.05080330555555,25.477148555555555],[-80.05146888888889,25.477037194444442],[-80.05276258333333,25.47634075],[-80.05393891666667,25.475107805555552],[-80.0543166111111,25.474199],[-80.05445461111111,25.47310172222222],[-80.05438505555556,25.472222027777775],[-80.05417175,25.47141975],[-80.05372944444444,25.470564333333332],[-80.05282386111111,25.46953508333333],[-80.05249894444444,25.469216166666666],[-80.05187049999999,25.468849027777775],[-80.05057116666666,25.46852558333333],[-80.04900577777778,25.468627555555553],[-80.04827105555556,25.468811444444444],[-80.047547,25.469130666666665],[-80.04711580555555,25.469362777777775],[-80.04641313888888,25.469952666666664],[-80.04580641666666,25.470808388888887],[-80.04562555555556,25.471364305555554],[-80.04548213888889,25.472393888888888],[-80.04561044444445,25.474017916666664],[-80.04640969444445,25.475598277777777],[-80.04689977777778,25.476110499999997],[-80.04745902777778,25.476550194444442],[-80.0480076111111,25.476854555555555],[-80.04816205555555,25.476912499999997],[-80.04946144444445,25.47723597222222]]},"properties":{"style":"solid","thickness":1}},{"type":"Feature","geometry":{"type":"LineString","coordinates":[[-80.04214783333333,25.469074083333332],[-80.04282669444444,25.47766797222222],[-80.03372444444445,25.46962211111111],[-80.03440269444444,25.478216027777776]]},"properties":{"style":"solid","thickness":1}},{"type":"Feature","geometry":{"type":"LineString","coordinates":[[-80.03134616666667,25.478414777777775],[-80.03066813888888,25.469820833333333],[-80.02701547222222,25.470058249999997]]},"properties":{"style":"solid","thickness":1}},{"type":"Feature","geometry":{"type":"LineString","coordinates":[[-80.47130444444444,25.370799055555555],[-80.47203044444444,25.371429944444444],[-80.47218494444445,25.371487444444444],[-80.47316413888889,25.371556805555556],[-80.47397205555556,25.371365722222222],[-80.4743965,25.371064694444446],[-80.47481536111111,25.370696],[-80.47513741666667,25.37006175],[-80.475009,25.368505777777777],[-80.47451197222222,25.36792736111111],[-80.47419180555556,25.367677055555557],[-80.47304138888889,25.36734722222222],[-80.47174763888889,25.367095194444445],[-80.4708206388889,25.36675013888889],[-80.47048930555556,25.366364500000003],[-80.47026225,25.36542752777778],[-80.47033863888889,25.364537916666666],[-80.47066627777778,25.363971361111112],[-80.47101625,25.36367538888889],[-80.47129733333334,25.36345216666667],[-80.4716528888889,25.363223833333336],[-80.47245516666666,25.362965111111112],[-80.47290191666667,25.362934666666668],[-80.47335983333333,25.363039555555556],[-80.47397783333334,25.363269583333334],[-80.47437244444444,25.363514805555557],[-80.47493833333334,25.36402052777778]]},"properties":{"style":"solid","thickness":1}},{"type":"Feature","geometry":{"type":"LineString","coordinates":[[-80.44514536111112,25.372306083333335],[-80.44547661111112,25.37269175],[-80.44618019444445,25.37305213888889],[-80.44663813888889,25.373157111111112],[-80.44792075000001,25.373274055555555],[-80.44836752777778,25.373243694444444],[-80.44924997222222,25.373047694444445],[-80.44997791666667,25.37279413888889],[-80.45012127777778,25.372716361111113],[-80.45061469444445,25.37234266666667],[-80.45110252777778,25.371901333333334],[-80.45190138888888,25.37069052777778],[-80.45218455555556,25.36958277777778],[-80.452062,25.36809441666667],[-80.45184622222223,25.367292722222224],[-80.45149825,25.366704111111112],[-80.45100691666667,25.366193250000002],[-80.45059563888888,25.365745],[-80.44994983333333,25.365176611111114],[-80.44933186111112,25.364946472222222],[-80.44871391666668,25.364716333333334],[-80.44818155555556,25.364616444444447],[-80.44684127777778,25.364707527777778],[-80.44610780555556,25.364893416666668],[-80.44553438888889,25.365204472222224],[-80.44489208333334,25.365588250000002],[-80.4444731388889,25.365956861111112],[-80.44379533333334,25.36681927777778],[-80.44339866666667,25.3674585],[-80.44328311111111,25.36787452777778],[-80.44337216666668,25.368956944444445],[-80.44649961111112,25.36874452777778]]},"properties":{"style":"solid","thickness":1}},{"type":"Feature","geometry":{"type":"LineString","coordinates":[[-80.43448352777779,25.373778194444444],[-80.43495255555555,25.374018500000002],[-80.43548494444445,25.37411841666667],[-80.43727213888889,25.37399713888889],[-80.43793122222223,25.37381636111111],[-80.43814905555556,25.373733527777777],[-80.43921597222223,25.373048833333335],[-80.4398305,25.372326833333332],[-80.43999825,25.37163513888889],[-80.44041936111111,25.370382],[-80.4402913888889,25.368826000000002],[-80.44008125,25.368091916666668],[-80.43980777777779,25.367498222222224],[-80.43945430555556,25.36684191666667],[-80.43864847222223,25.36614827777778],[-80.43717808333334,25.36556777777778],[-80.43619341666667,25.36543052777778],[-80.43537433333334,25.365486111111114],[-80.43434855555556,25.365759805555555],[-80.43399294444446,25.365988027777778],[-80.43370622222223,25.36614352777778]]},"properties":{"style":"solid","thickness":1}},{"type":"Feature","geometry":{"type":"LineString","coordinates":[[-80.40473219444445,25.375317527777778],[-80.40545786111112,25.375948722222223],[-80.40561233333334,25.376006305555556],[-80.40659152777778,25.37607611111111],[-80.40739958333334,25.37588538888889],[-80.40782422222223,25.37558452777778],[-80.40824330555556,25.37521602777778],[-80.40856572222222,25.374581944444444],[-80.4084381388889,25.373025916666666],[-80.40794141666667,25.372447277777777],[-80.40762136111111,25.372196805555557],[-80.40647108333334,25.371866472222223],[-80.40517744444445,25.371613833333335],[-80.40425058333334,25.371268361111113],[-80.40391944444445,25.370882583333334],[-80.40369291666667,25.3699455],[-80.40376977777778,25.369055916666667],[-80.40409775,25.3684895],[-80.4044478888889,25.368193694444447],[-80.40472911111112,25.367970583333335],[-80.40508480555556,25.367742444444445],[-80.40588725,25.367484083333334],[-80.40633405555556,25.367453833333332],[-80.40679191666668,25.367558916666667],[-80.40740980555556,25.36778922222222],[-80.40780430555556,25.36803463888889],[-80.40836991666667,25.36854061111111]]},"properties":{"style":"solid","thickness":1}},{"type":"Feature","geometry":{"type":"LineString","coordinates":[[-80.38756855555556,25.376953722222222],[-80.38803752777778,25.377194166666666],[-80.3885698888889,25.37729427777778],[-80.39035716666667,25.377173555555554],[-80.39101633333334,25.376992972222222],[-80.39123419444445,25.37691022222222],[-80.39230141666667,25.37622588888889],[-80.39291625000001,25.375504055555556],[-80.39308427777779,25.374812416666668],[-80.39350586111112,25.373559416666666],[-80.39337850000001,25.372003361111112],[-80.3931686388889,25.371269222222224],[-80.39289538888889,25.370675444444444],[-80.39254216666667,25.37001902777778],[-80.39173658333334,25.36932513888889],[-80.39026638888889,25.368744166666666],[-80.38928172222222,25.368606583333335],[-80.38846261111112,25.368661916666667],[-80.38743669444445,25.36893527777778],[-80.38708097222222,25.36916338888889],[-80.38679419444445,25.369318805555555]]},"properties":{"style":"solid","thickness":1}},{"type":"Feature","geometry":{"type":"LineString","coordinates":[[-80.38405094444445,25.373313583333335],[-80.37943391666666,25.373625194444443]]},"properties":{"style":"solid","thickness":1}},{"type":"Feature","geometry":{"type":"LineString","coordinates":[[-80.36281341666665,25.373657194444444],[-80.36297905555556,25.375686861111113],[-80.36329633333332,25.376821972222224],[-80.36348944444444,25.377353166666666],[-80.36374599999999,25.377744055555556],[-80.36470591666667,25.378495722222222],[-80.36562719444444,25.378773777777777],[-80.36592508333332,25.37875372222222],[-80.36679113888889,25.378355222222222],[-80.36754405555556,25.377488166666666],[-80.36780877777777,25.37706216666667],[-80.36791352777777,25.37651088888889],[-80.36804302777777,25.375345666666668],[-80.36787730555555,25.37331602777778],[-80.36756,25.372180944444445],[-80.36736686111111,25.371649722222223],[-80.3670358611111,25.37126386111111],[-80.36615044444444,25.370507194444446],[-80.36522922222221,25.370229138888888],[-80.3649313611111,25.370249194444444],[-80.3640653611111,25.370647694444443],[-80.363238,25.37151975],[-80.36304772222222,25.371940722222224],[-80.36294297222221,25.372492],[-80.36281341666665,25.373657194444444]]},"properties":{"style":"solid","thickness":1}},{"type":"Feature","geometry":{"type":"LineString","coordinates":[[-80.69161211111111,25.669302472222224],[-80.68735752777778,25.669598055555557]]},"properties":{"style":"solid","thickness":1}},{"type":"Feature","geometry":{"type":"LineString","coordinates":[[-80.68749975,25.673942805555555],[-80.69197841666667,25.67363166666667],[-80.69125158333334,25.66504088888889]]},"properties":{"style":"solid","thickness":1}},{"type":"Feature","geometry":{"type":"LineString","coordinates":[[-79.87215702777777,25.71673761111111],[-79.86789880555555,25.71700936111111]]},"properties":{"style":"solid","thickness":1}},{"type":"Feature","geometry":{"type":"LineString","coordinates":[[-79.86801144444443,25.721354777777776],[-79.87249394444444,25.72106872222222],[-79.87182541666667,25.712474138888886]]},"properties":{"style":"solid","thickness":1}},{"type":"Feature","geometry":{"type":"LineString","coordinates":[[-80.15648602777779,25.498774333333333],[-80.15026191666668,25.495919083333334]]},"properties":{"style":"solid","thickness":1}},{"type":"Feature","geometry":{"type":"LineString","coordinates":[[-80.15044147222223,25.499104222222222],[-80.15623177777778,25.495594083333334]]},"properties":{"style":"solid","thickness":1}},{"type":"Feature","geometry":{"type":"LineString","coordinates":[[-80.15355355555556,25.50053188888889],[-80.15304519444445,25.49417138888889]]},"properties":{"style":"solid","thickness":1}},{"type":"Feature","geometry":{"type":"LineString","coordinates":[[-80.1475953888889,25.501944305555554],[-80.1469143888889,25.493418527777777]]},"properties":{"style":"solid","thickness":1}},{"type":"Feature","geometry":{"type":"LineString","coordinates":[[-80.14125777777778,25.50236111111111],[-80.14057725,25.493835305555557]]},"properties":{"style":"solid","thickness":1}},{"type":"Feature","geometry":{"type":"LineString","coordinates":[[-80.1472765,25.497952083333335],[-80.14093911111112,25.49836886111111]]},"properties":{"style":"solid","thickness":1}},{"type":"Feature","geometry":{"type":"LineString","coordinates":[[-80.13030277777777,25.503148944444444],[-80.1249343611111,25.503501416666666]]},"properties":{"style":"solid","thickness":1}},{"type":"Feature","geometry":{"type":"LineString","coordinates":[[-80.12769313888889,25.503320305555555],[-80.12700816666666,25.494726777777778]]},"properties":{"style":"solid","thickness":1}},{"type":"Feature","geometry":{"type":"LineString","coordinates":[[-80.10718319444445,25.50459736111111],[-80.10650505555554,25.496071416666666]]},"properties":{"style":"solid","thickness":1}},{"type":"Feature","geometry":{"type":"LineString","coordinates":[[-80.10084533333333,25.505012444444443],[-80.10016763888888,25.496486444444447]]},"properties":{"style":"solid","thickness":1}},{"type":"Feature","geometry":{"type":"LineString","coordinates":[[-80.10686563888888,25.500605055555557],[-80.10052797222221,25.50102011111111]]},"properties":{"style":"solid","thickness":1}},{"type":"Feature","geometry":{"type":"LineString","coordinates":[[-80.09324522222222,25.505577805555557],[-80.0977936111111,25.505280194444445],[-80.09711075,25.496686555555556],[-80.09248811111111,25.49698902777778]]},"properties":{"style":"solid","thickness":1}},{"type":"Feature","geometry":{"type":"LineString","coordinates":[[-80.09744947222222,25.500949555555554],[-80.09305036111111,25.50123738888889]]},"properties":{"style":"solid","thickness":1}},{"type":"Feature","geometry":{"type":"LineString","coordinates":[[-80.08328277777777,25.50187602777778],[-80.07903275,25.502153694444445]]},"properties":{"style":"solid","thickness":1}},{"type":"Feature","geometry":{"type":"LineString","coordinates":[[-80.07915252777778,25.506499],[-80.08362641666666,25.506206694444444],[-80.08294455555556,25.497613]]},"properties":{"style":"solid","thickness":1}},{"type":"Feature","geometry":{"type":"LineString","coordinates":[[-80.14614405555557,25.48190097222222],[-80.14189486111111,25.482180472222222]]},"properties":{"style":"solid","thickness":1}},{"type":"Feature","geometry":{"type":"LineString","coordinates":[[-80.14201691666668,25.486525750000002],[-80.1464898888889,25.48623152777778],[-80.14580363888889,25.477638083333332]]},"properties":{"style":"solid","thickness":1}},{"type":"Feature","geometry":{"type":"LineString","coordinates":[[-80.09921888888888,25.489265944444444],[-80.09854133333333,25.48073997222222]]},"properties":{"style":"solid","thickness":1}},{"type":"Feature","geometry":{"type":"LineString","coordinates":[[-80.09288183333332,25.48968066666667],[-80.09220472222222,25.48115469444444]]},"properties":{"style":"solid","thickness":1}},{"type":"Feature","geometry":{"type":"LineString","coordinates":[[-80.0989016111111,25.48527363888889],[-80.09256475,25.485688361111112]]},"properties":{"style":"solid","thickness":1}},{"type":"Feature","geometry":{"type":"LineString","coordinates":[[-80.08192772222222,25.490464944444444],[-80.07655975,25.49081563888889]]},"properties":{"style":"solid","thickness":1}},{"type":"Feature","geometry":{"type":"LineString","coordinates":[[-80.07931830555555,25.490635444444447],[-80.07863680555555,25.48204172222222]]},"properties":{"style":"solid","thickness":1}},{"type":"Feature","geometry":{"type":"LineString","coordinates":[[-80.04493975,25.48423930555556],[-80.04151819444444,25.493100055555555],[-80.03696263888888,25.48475838888889]]},"properties":{"style":"solid","thickness":1}},{"type":"Feature","geometry":{"type":"LineString","coordinates":[[-80.04381702777778,25.487101055555556],[-80.0384491111111,25.487450333333335]]},"properties":{"style":"solid","thickness":1}},{"type":"Feature","geometry":{"type":"LineString","coordinates":[[-80.02745783333333,25.489661277777778],[-80.02320811111112,25.489937361111114]]},"properties":{"style":"solid","thickness":1}},{"type":"Feature","geometry":{"type":"LineString","coordinates":[[-80.02332588888889,25.494282694444447],[-80.02779944444444,25.493992083333335],[-80.02712158333333,25.48539813888889]]},"properties":{"style":"solid","thickness":1}},{"type":"Feature","geometry":{"type":"LineString","coordinates":[[-80.00553802777777,25.49108388888889],[-80.00184755555556,25.487038166666668]]},"properties":{"style":"solid","thickness":1}},{"type":"Feature","geometry":{"type":"LineString","coordinates":[[-80.00788655555556,25.486646694444445],[-80.00856305555556,25.495240694444444],[-80.004835,25.495482388888888],[-80.0045261111111,25.49536638888889],[-80.00383377777777,25.495139194444445],[-80.0031095,25.494506],[-80.002758,25.49384863888889],[-80.00269413888888,25.493036583333335],[-80.00293913888889,25.492340583333334],[-80.00355691666667,25.49162038888889],[-80.00420663888889,25.491306222222224],[-80.00449422222222,25.491151555555557],[-80.00822211111111,25.490909861111113]]},"properties":{"style":"solid","thickness":1}},{"type":"Feature","geometry":{"type":"LineString","coordinates":[[-80.14937702777779,25.46634036111111],[-80.14568247222223,25.46229822222222]]},"properties":{"style":"solid","thickness":1}},{"type":"Feature","geometry":{"type":"LineString","coordinates":[[-80.15171977777779,25.46190083333333],[-80.15240638888889,25.470494249999998],[-80.1486793888889,25.47073958333333],[-80.14837041666668,25.470623888888888],[-80.14767794444445,25.470397388888887],[-80.14695305555556,25.469764888888886],[-80.14660086111111,25.46910786111111],[-80.14653602777778,25.46829586111111],[-80.1467801388889,25.46759961111111],[-80.14739694444445,25.466878805555552],[-80.14804616666667,25.466563999999998],[-80.1483335,25.466409055555555],[-80.15206036111111,25.466163694444443]]},"properties":{"style":"solid","thickness":1}},{"type":"Feature","geometry":{"type":"LineString","coordinates":[[-80.12914972222221,25.472023666666665],[-80.12551847222221,25.466888583333333],[-80.12281366666666,25.472439694444443]]},"properties":{"style":"solid","thickness":1}},{"type":"Feature","geometry":{"type":"LineString","coordinates":[[-80.12551847222221,25.466888583333333],[-80.12526508333333,25.463708305555556]]},"properties":{"style":"solid","thickness":1}},{"type":"Feature","geometry":{"type":"LineString","coordinates":[[-80.02463672222223,25.478850777777776],[-80.02100972222222,25.473713138888886],[-80.01829997222222,25.479262305555554]]},"properties":{"style":"solid","thickness":1}},{"type":"Feature","geometry":{"type":"LineString","coordinates":[[-80.02100972222222,25.473713138888886],[-80.02075908333333,25.470532694444444]]},"properties":{"style":"solid","thickness":1}},{"type":"Feature","geometry":{"type":"LineString","coordinates":[[-80.48492363888889,25.370687305555556],[-80.48421944444445,25.36216330555556]]},"properties":{"style":"solid","thickness":1}},{"type":"Feature","geometry":{"type":"LineString","coordinates":[[-80.47859433333333,25.371118805555557],[-80.47789058333333,25.36259477777778]]},"properties":{"style":"solid","thickness":1}},{"type":"Feature","geometry":{"type":"LineString","coordinates":[[-80.4845938888889,25.366695916666668],[-80.47826477777778,25.36712738888889]]},"properties":{"style":"solid","thickness":1}},{"type":"Feature","geometry":{"type":"LineString","coordinates":[[-80.46765383333333,25.371932055555558],[-80.46229244444444,25.372296916666667]]},"properties":{"style":"solid","thickness":1}},{"type":"Feature","geometry":{"type":"LineString","coordinates":[[-80.46504761111112,25.372109444444444],[-80.46433922222222,25.363517694444447]]},"properties":{"style":"solid","thickness":1}},{"type":"Feature","geometry":{"type":"LineString","coordinates":[[-80.43068327777779,25.365804361111113],[-80.42729361111111,25.37467402777778],[-80.42271586111112,25.36634452777778]]},"properties":{"style":"solid","thickness":1}},{"type":"Feature","geometry":{"type":"LineString","coordinates":[[-80.42957086111112,25.368669027777777],[-80.42420947222223,25.36903252777778]]},"properties":{"style":"solid","thickness":1}},{"type":"Feature","geometry":{"type":"LineString","coordinates":[[-80.42000491666667,25.371630472222222],[-80.41851561111112,25.371731361111113],[-80.41840455555555,25.370378277777778],[-80.41989386111112,25.37027738888889],[-80.42000491666667,25.371630472222222]]},"properties":{"style":"solid","thickness":1}},{"type":"Feature","geometry":{"type":"LineString","coordinates":[[-80.41969950000001,25.36790952777778],[-80.41821025,25.368010416666667],[-80.41809919444445,25.366657361111113],[-80.41958844444444,25.366556444444445],[-80.41969950000001,25.36790952777778]]},"properties":{"style":"solid","thickness":1}},{"type":"Feature","geometry":{"type":"LineString","coordinates":[[-80.40072608333334,25.37211897222222],[-80.39648147222223,25.37240591666667]]},"properties":{"style":"solid","thickness":1}},{"type":"Feature","geometry":{"type":"LineString","coordinates":[[-80.3966126388889,25.37675088888889],[-80.40108080555557,25.376448833333335],[-80.40037694444445,25.367856777777778]]},"properties":{"style":"solid","thickness":1}},{"type":"Feature","geometry":{"type":"LineString","coordinates":[[-80.37611080555556,25.37602625],[-80.37608055555555,25.37657252777778],[-80.37595927777777,25.376920833333333],[-80.37548772222222,25.37756488888889],[-80.37506302777777,25.37786563888889],[-80.37463830555555,25.37816638888889],[-80.3739791111111,25.37834688888889],[-80.37360675,25.378372],[-80.37277649999999,25.378291944444445],[-80.37206758333333,25.377863527777777],[-80.37158205555555,25.377420083333334],[-80.37147444444444,25.377019166666667],[-80.37136391666667,25.375666055555556],[-80.37162863888888,25.375240055555555],[-80.37211124999999,25.374731305555557],[-80.37273725,25.37414488888889],[-80.37325852777776,25.37410975]]},"properties":{"style":"solid","thickness":1}},{"type":"Feature","geometry":{"type":"LineString","coordinates":[[-80.37273725,25.37414488888889],[-80.37180494444443,25.373731555555555],[-80.37148497222222,25.373481],[-80.37107394444443,25.373032527777777],[-80.37098288888889,25.372834583333333],[-80.37085869444444,25.372230694444443],[-80.3708421111111,25.37202775],[-80.37087236111111,25.37148147222222],[-80.37098816666666,25.3710655],[-80.37132180555555,25.370566833333335],[-80.37174097222221,25.370198416666668],[-80.3724525,25.369742277777778],[-80.37416522222222,25.36962677777778],[-80.37470305555554,25.36979461111111],[-80.37556641666666,25.370280583333333],[-80.37572641666667,25.370405861111113],[-80.37600508333333,25.371067333333333],[-80.37602719444443,25.37133797222222]]},"properties":{"style":"solid","thickness":1}}]}
