{"type":"FeatureCollection","features":[{"type":"Feature","geometry":{"type":"LineString","coordinates":[[-80.78223772222222,25.57906225],[-80.76101458333333,25.62667863888889]]},"properties":{"style":"solid","thickness":1}},{"type":"Feature","geometry":{"type":"LineString","coordinates":[[-80.76723224999999,25.62203275],[-80.76101458333333,25.62667863888889],[-80.76010461111112,25.619420666666667]]},"properties":{"style":"solid","thickness":1}},{"type":"Feature","geometry":{"type":"LineString","coordinates":[[-80.85707697222222,25.395240388888887],[-80.78884047222222,25.56355013888889]]},"properties":{"style":"solid","thickness":1}},{"type":"Feature","geometry":{"type":"LineString","coordinates":[[-80.85669655555554,25.395104472222222],[-80.83545377777777,25.44110447222222]]},"properties":{"style":"solid","thickness":1}},{"type":"Feature","geometry":{"type":"LineString","coordinates":[[-80.82894616666667,25.456639527777778],[-80.78863894444444,25.56348525]]},"properties":{"style":"solid","thickness":1}},{"type":"Feature","geometry":{"type":"LineString","coordinates":[[-80.7826975,25.579217888888888],[-80.76023252777777,25.638664833333333]]},"properties":{"style":"solid","thickness":1}},{"type":"Feature","geometry":{"type":"LineString","coordinates":[[-80.74957327777778,25.651071027777775],[-80.576366,25.770280083333333]]},"properties":{"style":"solid","thickness":1}},{"type":"Feature","geometry":{"type":"LineString","coordinates":[[-80.86400183333333,25.379857222222224],[-81.11511008333333,24.872135333333333]]},"properties":{"style":"solid","thickness":1}},{"type":"Feature","geometry":{"type":"LineString","coordinates":[[-80.82378655555556,25.419950583333335],[-80.7961235,25.42175291666667]]},"properties":{"style":"solid","thickness":1}},{"type":"Feature","geometry":{"type":"LineString","coordinates":[[-80.82527616666667,25.438775944444444],[-80.79760880555556,25.440578583333334]]},"properties":{"style":"solid","thickness":1}},{"type":"Feature","geometry":{"type":"LineString","coordinates":[[-80.79435972222223,25.440882694444444],[-80.7691436111111,25.442520472222224]]},"properties":{"style":"solid","thickness":1}},{"type":"Feature","geometry":{"type":"LineString","coordinates":[[-80.79366386111111,25.432060722222225],[-80.76844955555555,25.433698361111112]]},"properties":{"style":"solid","thickness":1}},{"type":"Feature","geometry":{"type":"LineString","coordinates":[[-80.57560286111111,25.784112750000002],[-80.54785205555555,25.785868555555556]]},"properties":{"style":"solid","thickness":1}},{"type":"Feature","geometry":{"type":"LineString","coordinates":[[-80.57626116666667,25.792925444444446],[-80.5485083611111,25.794681361111113]]},"properties":{"style":"solid","thickness":1}},{"type":"Feature","geometry":{"type":"LineString","coordinates":[[-80.86876308333332,25.38441263888889],[-81.31326822222222,25.22590783333333]]},"properties":{"style":"solid","thickness":1}},{"type":"Feature","geometry":{"type":"LineString","coordinates":[[-80.74170819444444,25.632824805555558],[-80.74221441666667,25.639083333333332],[-80.73909886111112,25.632998222222223],[-80.73710419444444,25.639422888888888],[-80.73659822222223,25.633164361111113]]},"properties":{"style":"solid","thickness":1}},{"type":"Feature","geometry":{"type":"LineString","coordinates":[[-80.73286377777778,25.639704555555554],[-80.7323201388889,25.639740638888888],[-80.73136805555556,25.639457055555557],[-80.73041461111112,25.638479916666665],[-80.73009761111112,25.637262361111112],[-80.73000605555556,25.636128916666667],[-80.73012397222223,25.634882472222223],[-80.73096452777779,25.63378625],[-80.73181441666667,25.633482083333334],[-80.73235802777778,25.633446],[-80.73319336111112,25.63363825],[-80.73420116666667,25.63461175],[-80.73451816666667,25.635829305555554],[-80.73460977777778,25.63696275],[-80.73449588888889,25.638258444444443],[-80.73365533333333,25.639354722222222],[-80.73286377777778,25.639704555555554]]},"properties":{"style":"solid","thickness":1}},{"type":"Feature","geometry":{"type":"LineString","coordinates":[[-80.72511472222223,25.637147166666665],[-80.72327955555556,25.634048555555555]]},"properties":{"style":"solid","thickness":1}},{"type":"Feature","geometry":{"type":"LineString","coordinates":[[-80.72757419444444,25.633763583333334],[-80.72807966666667,25.640022138888888],[-80.72530705555556,25.64020613888889],[-80.72447169444445,25.640013833333335],[-80.7236853888889,25.63907511111111],[-80.72363763888889,25.63848375],[-80.72421041666666,25.63745488888889],[-80.72506036111112,25.637150777777777],[-80.7278328888889,25.636966777777776]]},"properties":{"style":"solid","thickness":1}},{"type":"Feature","geometry":{"type":"LineString","coordinates":[[-80.72130527777777,25.637350333333334],[-80.71847833333334,25.637537805555557]]},"properties":{"style":"solid","thickness":1}},{"type":"Feature","geometry":{"type":"LineString","coordinates":[[-80.71758719444445,25.64071813888889],[-80.72155586111111,25.640454972222223],[-80.72105072222223,25.63419638888889],[-80.71681041666668,25.634477555555556]]},"properties":{"style":"solid","thickness":1}},{"type":"Feature","geometry":{"type":"LineString","coordinates":[[-80.71100408333334,25.636348694444443],[-80.71442897222222,25.63612175]]},"properties":{"style":"solid","thickness":1}},{"type":"Feature","geometry":{"type":"LineString","coordinates":[[-80.71485336111111,25.634607305555555],[-80.71307483333334,25.64101725],[-80.71034125,25.634906305555557]]},"properties":{"style":"solid","thickness":1}},{"type":"Feature","geometry":{"type":"LineString","coordinates":[[-80.82499802777778,25.57545738888889],[-80.82595172222221,25.57643388888889],[-80.82683713888889,25.576572694444444],[-80.82743480555555,25.576532611111112],[-80.82823372222222,25.576280833333332],[-80.82907297222222,25.575184027777777],[-80.82917775,25.573789666666666],[-80.82911744444444,25.5730505],[-80.82907725,25.57255775],[-80.82898675,25.57211788888889],[-80.82875944444444,25.57134038888889],[-80.82775547222222,25.570416805555556],[-80.82692444444444,25.57027436111111],[-80.82643547222222,25.570307166666666],[-80.82552791666666,25.570566222222222],[-80.82468466666667,25.57161372222222]]},"properties":{"style":"solid","thickness":1}},{"type":"Feature","geometry":{"type":"LineString","coordinates":[[-80.81944783333333,25.577068194444443],[-80.81904227777777,25.57209113888889],[-80.8193,25.571231555555556],[-80.82029613888888,25.57071886111111],[-80.82089377777777,25.570678805555556],[-80.82212519444444,25.571042166666665],[-80.82246111111111,25.57181238888889],[-80.8225253611111,25.572600833333333]]},"properties":{"style":"solid","thickness":1}},{"type":"Feature","geometry":{"type":"LineString","coordinates":[[-80.81286452777778,25.572703277777777],[-80.81628741666667,25.572473944444443]]},"properties":{"style":"solid","thickness":1}},{"type":"Feature","geometry":{"type":"LineString","coordinates":[[-80.81671030555555,25.570959194444445],[-80.81493813888889,25.577370388888887],[-80.81220086111111,25.571261333333332]]},"properties":{"style":"solid","thickness":1}},{"type":"Feature","geometry":{"type":"LineString","coordinates":[[-80.80612738888888,25.573154416666668],[-80.80955030555555,25.57292525]]},"properties":{"style":"solid","thickness":1}},{"type":"Feature","geometry":{"type":"LineString","coordinates":[[-80.80997327777777,25.57141052777778],[-80.80820072222222,25.57782163888889],[-80.80546377777777,25.571712444444444]]},"properties":{"style":"solid","thickness":1}},{"type":"Feature","geometry":{"type":"LineString","coordinates":[[-80.80132744444444,25.575259305555555],[-80.80106291666667,25.572006944444443]]},"properties":{"style":"solid","thickness":1}},{"type":"Feature","geometry":{"type":"LineString","coordinates":[[-80.80374530555555,25.578119861111112],[-80.80132744444444,25.575259305555555],[-80.79939855555556,25.578410694444443]]},"properties":{"style":"solid","thickness":1}},{"type":"Feature","geometry":{"type":"LineString","coordinates":[[-80.81289441666667,25.448549333333332],[-80.81238541666666,25.442290916666668]]},"properties":{"style":"solid","thickness":1}},{"type":"Feature","geometry":{"type":"LineString","coordinates":[[-80.80847775,25.44255286111111],[-80.80898655555555,25.448811305555555]]},"properties":{"style":"solid","thickness":1}},{"type":"Feature","geometry":{"type":"LineString","coordinates":[[-80.80873413888888,25.445706722222223],[-80.81264191666666,25.445444777777777]]},"properties":{"style":"solid","thickness":1}},{"type":"Feature","geometry":{"type":"LineString","coordinates":[[-80.80235638888888,25.444449416666668],[-80.80577566666666,25.44422036111111]]},"properties":{"style":"solid","thickness":1}},{"type":"Feature","geometry":{"type":"LineString","coordinates":[[-80.80619825,25.44270563888889],[-80.80442733333334,25.449116805555555],[-80.80169355555556,25.44300738888889]]},"properties":{"style":"solid","thickness":1}},{"type":"Feature","geometry":{"type":"LineString","coordinates":[[-80.79597844444444,25.44923661111111],[-80.7971,25.449607472222223],[-80.79834836111111,25.449523916666667],[-80.79945213888888,25.449004083333335],[-80.79987658333333,25.44818288888889],[-80.79985258333333,25.44788722222222],[-80.79924977777777,25.44718438888889],[-80.79598175,25.44591675],[-80.79538297222221,25.445263166666667],[-80.79538925,25.444668166666666],[-80.79581369444445,25.443847],[-80.79670033333333,25.443341722222222],[-80.79800291666666,25.44325452777778],[-80.79861594444445,25.443411666666666],[-80.79952836111111,25.44389561111111]]},"properties":{"style":"solid","thickness":1}},{"type":"Feature","geometry":{"type":"LineString","coordinates":[[-80.79346341666667,25.449850861111113],[-80.79295541666666,25.44359236111111],[-80.78904766666666,25.443853805555555]]},"properties":{"style":"solid","thickness":1}},{"type":"Feature","geometry":{"type":"LineString","coordinates":[[-80.78676813888889,25.44400625],[-80.78727580555555,25.450264777777775],[-80.78416294444445,25.444180444444445],[-80.78217372222223,25.45060586111111],[-80.78166627777777,25.444347333333333]]},"properties":{"style":"solid","thickness":1}},{"type":"Feature","geometry":{"type":"LineString","coordinates":[[-80.82379722222223,25.431216694444444],[-80.82430677777778,25.437475083333332]]},"properties":{"style":"solid","thickness":1}},{"type":"Feature","geometry":{"type":"LineString","coordinates":[[-80.82202741666666,25.437628083333333],[-80.81839124999999,25.437872083333332],[-80.81854819444445,25.437118333333334],[-80.81888397222222,25.43655077777778],[-80.81938658333333,25.436021583333332],[-80.8204318611111,25.435455972222222],[-80.81961783333333,25.435510583333333],[-80.81872144444444,25.43522388888889],[-80.81813863888888,25.43476752777778],[-80.81780313888889,25.433997277777777],[-80.81773497222221,25.43315952777778],[-80.81793816666666,25.432303583333333],[-80.818495,25.431770750000002],[-80.819293,25.431519],[-80.82021555555555,25.43145711111111],[-80.8210456111111,25.431599583333334],[-80.82157813888888,25.43210886111111]]},"properties":{"style":"solid","thickness":1}},{"type":"Feature","geometry":{"type":"LineString","coordinates":[[-80.81388677777778,25.438174222222223],[-80.81334405555555,25.43821061111111],[-80.81239338888889,25.437927527777777],[-80.81144088888888,25.43695088888889],[-80.81112363888889,25.43573347222222],[-80.81103147222223,25.434600055555556],[-80.81114838888888,25.43335352777778],[-80.81198680555555,25.432256805555557],[-80.81283508333333,25.431952194444445],[-80.81337775,25.43191580555556],[-80.81421183333333,25.432107611111114],[-80.81521855555555,25.433080583333336],[-80.8155358611111,25.434298000000002],[-80.81562805555555,25.435431416666667],[-80.81551519444444,25.436727222222224],[-80.81467677777778,25.437823972222223],[-80.81388677777778,25.438174222222223]]},"properties":{"style":"solid","thickness":1}},{"type":"Feature","geometry":{"type":"LineString","coordinates":[[-80.80715711111111,25.43862536111111],[-80.80661438888889,25.43866172222222],[-80.80566375,25.438378611111112],[-80.80471130555556,25.437401916666666],[-80.80439411111111,25.436184472222223],[-80.80430202777778,25.435051055555554],[-80.804419,25.433804527777777],[-80.80525747222222,25.432707861111112],[-80.80610575,25.43240327777778],[-80.80664844444445,25.432366916666666],[-80.80748249999999,25.432558750000002],[-80.80848919444445,25.433531777777777],[-80.80880641666667,25.434749222222223],[-80.80889855555556,25.435882638888888],[-80.80878563888889,25.437178444444445],[-80.80794713888889,25.43827513888889],[-80.80715711111111,25.43862536111111]]},"properties":{"style":"solid","thickness":1}},{"type":"Feature","geometry":{"type":"LineString","coordinates":[[-80.80042741666666,25.439076194444446],[-80.79988469444444,25.439112527777777],[-80.79893405555555,25.43882936111111],[-80.79798166666666,25.437852638888888],[-80.79766452777777,25.436635194444445],[-80.7975725,25.43550175],[-80.79768955555555,25.43425525],[-80.79852808333334,25.43315861111111],[-80.79937638888889,25.432854055555556],[-80.79991908333334,25.432817722222225],[-80.80075313888888,25.433009583333334],[-80.80175977777778,25.433982666666665],[-80.80207694444444,25.43520011111111],[-80.80216902777778,25.436333527777776],[-80.80205602777778,25.437629333333334],[-80.80121747222222,25.438726],[-80.80042741666666,25.439076194444446]]},"properties":{"style":"solid","thickness":1}},{"type":"Feature","geometry":{"type":"LineString","coordinates":[[-80.79283077777778,25.4385205],[-80.79266169444445,25.43912638888889],[-80.79210469444445,25.439659111111112],[-80.79130658333334,25.439910722222223],[-80.79070958333332,25.439950638888888],[-80.7898795,25.439808],[-80.78923852777777,25.439305861111112],[-80.78892319444444,25.438781916666667],[-80.78887922222222,25.43823986111111],[-80.78906030555555,25.437781805555556],[-80.79034113888889,25.436754722222222],[-80.79229775,25.434641944444444],[-80.79247483333333,25.434134611111112],[-80.79242683333334,25.43354325],[-80.78851941666666,25.433804666666667]]},"properties":{"style":"solid","thickness":1}},{"type":"Feature","geometry":{"type":"LineString","coordinates":[[-80.78311136111111,25.440458777777778],[-80.78647630555555,25.440233805555557],[-80.7865078611111,25.43725886111111],[-80.78524927777778,25.437888027777777],[-80.78432666666666,25.43794972222222],[-80.78343433333333,25.43771211111111],[-80.78284766666667,25.437206305555556],[-80.7825163888889,25.43648525],[-80.78245244444444,25.43569677777778],[-80.78265988888889,25.43489013888889],[-80.78316263888888,25.434361083333332],[-80.7843406111111,25.43408413888889],[-80.78515466666667,25.434029694444444],[-80.78576761111111,25.43418688888889],[-80.7863,25.434696305555555]]},"properties":{"style":"solid","thickness":1}},{"type":"Feature","geometry":{"type":"LineString","coordinates":[[-80.77860669444445,25.440759833333335],[-80.77806394444444,25.440796111111112],[-80.77711333333333,25.440512777777776],[-80.77616111111111,25.439535916666667],[-80.77584422222222,25.438318416666668],[-80.77575238888889,25.437184972222223],[-80.77586963888889,25.435938472222222],[-80.77670841666666,25.434841944444443],[-80.77755677777778,25.434537527777778],[-80.7780995,25.434501277777777],[-80.77893352777778,25.43469327777778],[-80.77994,25.4356665],[-80.78025694444445,25.436884],[-80.78034880555555,25.438017444444444],[-80.78023558333334,25.43931322222222],[-80.77939683333334,25.44040975],[-80.77860669444445,25.440759833333335]]},"properties":{"style":"solid","thickness":1}},{"type":"Feature","geometry":{"type":"LineString","coordinates":[[-80.77383061111111,25.44107888888889],[-80.77332363888888,25.434820305555554]]},"properties":{"style":"solid","thickness":1}},{"type":"Feature","geometry":{"type":"LineString","coordinates":[[-80.77051988888888,25.441299944444445],[-80.77350727777778,25.437087194444445]]},"properties":{"style":"solid","thickness":1}},{"type":"Feature","geometry":{"type":"LineString","coordinates":[[-80.77252558333333,25.43844097222222],[-80.76941613888889,25.435081222222223]]},"properties":{"style":"solid","thickness":1}},{"type":"Feature","geometry":{"type":"LineString","coordinates":[[-80.85207716666666,25.375261083333335],[-80.85319819444445,25.3756315],[-80.85444577777777,25.375547472222223],[-80.85554863888888,25.375027222222222],[-80.85597244444443,25.374205888888888],[-80.85594830555554,25.37391022222222],[-80.85534555555554,25.373207583333333],[-80.85207894444444,25.371941166666666],[-80.85148025,25.371287805555557],[-80.85148625,25.370692833333333],[-80.85191008333332,25.369871500000002],[-80.85279594444444,25.36936588888889],[-80.85409769444443,25.369278194444444],[-80.85471038888889,25.369435111111112],[-80.85562247222222,25.369918694444443]]},"properties":{"style":"solid","thickness":1}},{"type":"Feature","geometry":{"type":"LineString","coordinates":[[-80.84905344444444,25.369617944444446],[-80.849564,25.375876277777778],[-80.84476852777777,25.36990638888889],[-80.84527886111111,25.37616475]]},"properties":{"style":"solid","thickness":1}},{"type":"Feature","geometry":{"type":"LineString","coordinates":[[-80.84305491666666,25.376314416666666],[-80.84055975,25.376482305555555],[-80.8396015,25.376100833333332],[-80.83891647222222,25.375056833333336],[-80.83852880555555,25.373646],[-80.83870966666666,25.371850083333335],[-80.83921797222222,25.370725805555555],[-80.84004966666666,25.370223916666667],[-80.84254469444444,25.370056055555555],[-80.84305491666666,25.376314416666666]]},"properties":{"style":"solid","thickness":1}},{"type":"Feature","geometry":{"type":"LineString","coordinates":[[-80.83322113888889,25.374102],[-80.83267263888888,25.374733444444445],[-80.83246163888889,25.37549086111111],[-80.83248169444444,25.37573725],[-80.83282113888889,25.37655675],[-80.83377938888889,25.37693827777778],[-80.83654580555555,25.37675227777778],[-80.83603591666666,25.37049388888889],[-80.83294422222222,25.370701750000002],[-80.83211247222222,25.371203611111113],[-80.83185524999999,25.372063222222224],[-80.83191544444443,25.37280238888889],[-80.83230111111111,25.373519694444443],[-80.83322113888889,25.374102],[-80.83631291666666,25.373894111111113]]},"properties":{"style":"solid","thickness":1}},{"type":"Feature","geometry":{"type":"LineString","coordinates":[[-80.82707574999999,25.37431677777778],[-80.82524205555555,25.371219333333332]]},"properties":{"style":"solid","thickness":1}},{"type":"Feature","geometry":{"type":"LineString","coordinates":[[-80.82952705555554,25.370931444444444],[-80.83003661111111,25.377189833333333],[-80.82727019444444,25.377375722222222],[-80.8264365,25.377184],[-80.82565111111111,25.37624577777778],[-80.825603,25.375654444444447],[-80.82617369444444,25.374625138888888],[-80.8270215,25.374320444444447],[-80.8297878611111,25.374134555555557]]},"properties":{"style":"solid","thickness":1}},{"type":"Feature","geometry":{"type":"LineString","coordinates":[[-81.14664980555557,24.84668611111111],[-81.14717302777778,24.852943500000002],[-81.14441902777779,24.853135222222225],[-81.14358844444445,24.852945222222225],[-81.14280405555556,24.852008666666666],[-81.14275463888889,24.851417416666667],[-81.14332027777779,24.85038688888889],[-81.14416366666667,24.850080416666668],[-81.14691758333333,24.84988872222222]]},"properties":{"style":"solid","thickness":1}},{"type":"Feature","geometry":{"type":"LineString","coordinates":[[-81.13635175,24.84888938888889],[-81.13975363888889,24.848652777777776]]},"properties":{"style":"solid","thickness":1}},{"type":"Feature","geometry":{"type":"LineString","coordinates":[[-81.14017011111112,24.847137055555553],[-81.13842500000001,24.85355227777778],[-81.13568827777779,24.847448805555555]]},"properties":{"style":"solid","thickness":1}},{"type":"Feature","geometry":{"type":"LineString","coordinates":[[-81.13347436111111,24.84760275],[-81.13399694444445,24.853860222222224],[-81.13088247222221,24.847782944444443],[-81.1289208611111,24.854213055555558],[-81.12839852777778,24.84795558333333]]},"properties":{"style":"solid","thickness":1}},{"type":"Feature","geometry":{"type":"LineString","coordinates":[[-81.12613061111111,24.848113166666664],[-81.12665280555555,24.854370666666668],[-81.12389872222222,24.854561972222225],[-81.12306816666666,24.854371888888892],[-81.12228394444443,24.853435194444447],[-81.12223461111111,24.852843944444444],[-81.12280041666666,24.851813500000002],[-81.1236438611111,24.85150713888889],[-81.1263978611111,24.851315833333334]]},"properties":{"style":"solid","thickness":1}},{"type":"Feature","geometry":{"type":"LineString","coordinates":[[-81.11721783333333,24.851953333333334],[-81.11538480555555,24.84885936111111]]},"properties":{"style":"solid","thickness":1}},{"type":"Feature","geometry":{"type":"LineString","coordinates":[[-81.11965074999999,24.84856322222222],[-81.12017263888889,24.854820750000002],[-81.11741852777777,24.855011944444446],[-81.11658797222222,24.854821805555556],[-81.11580377777777,24.85388511111111],[-81.1157545,24.853293833333336],[-81.11632036111111,24.85226341666667],[-81.11716383333332,24.851957083333335],[-81.11991783333333,24.85176588888889]]},"properties":{"style":"solid","thickness":1}},{"type":"Feature","geometry":{"type":"LineString","coordinates":[[-80.8210286111111,25.42133438888889],[-80.82153794444444,25.427592805555555]]},"properties":{"style":"solid","thickness":1}},{"type":"Feature","geometry":{"type":"LineString","coordinates":[[-80.81874952777777,25.421487333333335],[-80.81925877777778,25.42774575]]},"properties":{"style":"solid","thickness":1}},{"type":"Feature","geometry":{"type":"LineString","coordinates":[[-80.81502597222222,25.428029722222224],[-80.81448330555556,25.42806611111111],[-80.81353272222222,25.427783027777778],[-80.81258030555556,25.42680641666667],[-80.81226308333333,25.425588972222222],[-80.81217091666666,25.424455555555557],[-80.81228780555556,25.42320902777778],[-80.81312613888889,25.422112305555558],[-80.81397433333333,25.421807694444446],[-80.81451697222222,25.421771305555556],[-80.81535097222222,25.421963083333335],[-80.81635763888889,25.422936055555557],[-80.81667491666666,25.424153472222223],[-80.8167671111111,25.42528688888889],[-80.81665427777777,25.426582722222225],[-80.81581591666666,25.427679444444447],[-80.81502597222222,25.428029722222224]]},"properties":{"style":"solid","thickness":1}},{"type":"Feature","geometry":{"type":"LineString","coordinates":[[-80.80829688888889,25.42848091666667],[-80.80775422222221,25.42851727777778],[-80.80680363888888,25.42823416666667],[-80.80585127777778,25.427257472222223],[-80.80553411111111,25.42604002777778],[-80.805442,25.424906611111112],[-80.80555897222222,25.423660083333335],[-80.80639738888888,25.42256341666667],[-80.80724558333333,25.422258833333334],[-80.80778822222221,25.422222444444447],[-80.80862222222223,25.42241427777778],[-80.80962883333333,25.423387305555558],[-80.80994602777777,25.42460475],[-80.81003816666666,25.42573816666667],[-80.80992527777778,25.427033972222223],[-80.80908686111111,25.428130666666668],[-80.80829688888889,25.42848091666667]]},"properties":{"style":"solid","thickness":1}},{"type":"Feature","geometry":{"type":"LineString","coordinates":[[-80.80156775,25.42893177777778],[-80.80102508333333,25.42896813888889],[-80.80007452777778,25.428684972222225],[-80.79912219444444,25.427708250000002],[-80.79880508333333,25.42649077777778],[-80.79871305555555,25.42535736111111],[-80.79883008333333,25.424110833333334],[-80.79966855555556,25.423014194444445],[-80.80051677777777,25.42270963888889],[-80.80105944444445,25.422673305555556],[-80.80189341666666,25.422865166666668],[-80.80289997222222,25.423838250000003],[-80.80321711111111,25.425055694444445],[-80.80330919444444,25.426189111111114],[-80.80319622222223,25.427484916666668],[-80.80235775,25.428581583333333],[-80.80156775,25.42893177777778]]},"properties":{"style":"solid","thickness":1}},{"type":"Feature","geometry":{"type":"LineString","coordinates":[[-80.57918016666666,25.801671722222224],[-80.57868169444444,25.79541277777778],[-80.57476199999999,25.795668527777778]]},"properties":{"style":"solid","thickness":1}},{"type":"Feature","geometry":{"type":"LineString","coordinates":[[-80.57297366666667,25.802076638888888],[-80.5724755,25.795817694444445],[-80.56855577777777,25.79607327777778]]},"properties":{"style":"solid","thickness":1}},{"type":"Feature","geometry":{"type":"LineString","coordinates":[[-80.56652013888889,25.799376472222225],[-80.56368913888889,25.799560944444448]]},"properties":{"style":"solid","thickness":1}},{"type":"Feature","geometry":{"type":"LineString","coordinates":[[-80.56279272222221,25.802740305555556],[-80.5667671111111,25.802481305555556],[-80.56626927777778,25.796222333333336],[-80.56202288888889,25.79649902777778]]},"properties":{"style":"solid","thickness":1}},{"type":"Feature","geometry":{"type":"LineString","coordinates":[[-80.55616152777777,25.801933722222223],[-80.55716930555555,25.802908416666668],[-80.55805608333333,25.803048833333335],[-80.55870941666666,25.80300627777778],[-80.55940152777778,25.802763055555555],[-80.56024480555556,25.801667805555557],[-80.56035680555556,25.800322972222222],[-80.56027452777778,25.79928802777778],[-80.55988480555555,25.79782725],[-80.55898986111112,25.796894750000003],[-80.55815755555555,25.796750805555558],[-80.55755872222223,25.79678980555556],[-80.55670330555556,25.797043666666667],[-80.55586002777777,25.798138861111113],[-80.55595791666667,25.799370972222224],[-80.55715563888889,25.799292972222222]]},"properties":{"style":"solid","thickness":1}},{"type":"Feature","geometry":{"type":"LineString","coordinates":[[-80.54962825,25.802358916666666],[-80.550636,25.803333666666667],[-80.55152275,25.80347411111111],[-80.55217608333334,25.80343161111111],[-80.55286822222222,25.80318838888889],[-80.55371155555555,25.802093194444446],[-80.55382363888889,25.80074836111111],[-80.55374141666667,25.79971341666667],[-80.55335177777778,25.798252611111113],[-80.55245686111111,25.797320083333336],[-80.55162458333334,25.797176111111114],[-80.55102572222222,25.797215083333334],[-80.55017030555555,25.79746888888889],[-80.54932697222222,25.798564055555556],[-80.54942477777777,25.799796166666667],[-80.55062252777778,25.799718222222225]]},"properties":{"style":"solid","thickness":1}},{"type":"Feature","geometry":{"type":"LineString","coordinates":[[-80.57160283333333,25.787991972222223],[-80.57552227777778,25.78773630555556],[-80.57554188888888,25.787982722222225],[-80.57279936111111,25.792025694444447],[-80.57241827777777,25.79205052777778],[-80.57192019444444,25.78579155555556]]},"properties":{"style":"solid","thickness":1}},{"type":"Feature","geometry":{"type":"LineString","coordinates":[[-80.56768211111111,25.792359361111114],[-80.56713772222221,25.792394861111113],[-80.56618480555555,25.792110194444447],[-80.56523147222222,25.791132],[-80.56491575,25.789914111111113],[-80.5648256111111,25.788780583333335],[-80.56494538888889,25.787534305555557],[-80.56578852777777,25.786439055555558],[-80.56663991666666,25.786135861111113],[-80.56718427777777,25.786100361111114],[-80.56802041666667,25.786293555555556],[-80.56902816666667,25.787268166666667],[-80.56934391666667,25.788486055555556],[-80.56943411111111,25.789619583333334],[-80.56931827777777,25.79091513888889],[-80.56847516666666,25.792010416666667],[-80.56768211111111,25.792359361111114]]},"properties":{"style":"solid","thickness":1}},{"type":"Feature","geometry":{"type":"LineString","coordinates":[[-80.56093163888889,25.792799277777778],[-80.56038724999999,25.792834722222224],[-80.5594343611111,25.79255002777778],[-80.55848108333333,25.791571805555556],[-80.55816541666667,25.79035388888889],[-80.55807536111111,25.789220361111113],[-80.55819519444444,25.787974083333335],[-80.55903838888888,25.786878861111113],[-80.55988980555556,25.786575722222224],[-80.56043416666667,25.78654025],[-80.56127030555555,25.786733472222224],[-80.56227799999999,25.787708138888892],[-80.56259369444444,25.78892602777778],[-80.56268380555555,25.79005955555556],[-80.56256791666667,25.791355111111113],[-80.56172472222222,25.79245036111111],[-80.56093163888889,25.792799277777778]]},"properties":{"style":"solid","thickness":1}},{"type":"Feature","geometry":{"type":"LineString","coordinates":[[-80.5541811388889,25.793238861111114],[-80.55363672222222,25.793274305555556],[-80.5526838611111,25.792989555555558],[-80.55173063888888,25.792011277777778],[-80.55141502777778,25.790793361111113],[-80.55132502777778,25.789659833333335],[-80.55144494444444,25.788413555555557],[-80.55228819444444,25.78731836111111],[-80.55313963888888,25.787015250000003],[-80.553684,25.786979805555557],[-80.5545201111111,25.787173083333336],[-80.55552777777777,25.78814777777778],[-80.55584338888889,25.789365694444445],[-80.55593344444443,25.790499222222223],[-80.55581747222222,25.79179477777778],[-80.55497422222221,25.792890000000003],[-80.5541811388889,25.793238861111114]]},"properties":{"style":"solid","thickness":1}},{"type":"Feature","geometry":{"type":"LineString","coordinates":[[-80.29401894444445,25.798500222222223],[-80.29401894444445,25.797077555555557]]},"properties":{"style":"solid","thickness":1}},{"type":"Feature","geometry":{"type":"LineString","coordinates":[[-80.29361372222222,25.798669305555556],[-80.29361372222222,25.796908472222224]]},"properties":{"style":"solid","thickness":1}},{"type":"Feature","geometry":{"type":"LineString","coordinates":[[-80.29320849999999,25.798669305555556],[-80.29320849999999,25.796908472222224]]},"properties":{"style":"solid","thickness":1}},{"type":"Feature","geometry":{"type":"LineString","coordinates":[[-80.29280324999999,25.798500222222223],[-80.29280324999999,25.797077555555557]]},"properties":{"style":"solid","thickness":1}},{"type":"Feature","geometry":{"type":"LineString","coordinates":[[-80.2923575,25.797788888888892],[-80.29237444444445,25.797959194444445],[-80.29242469444445,25.798124027777778],[-80.29250663888888,25.798278083333336],[-80.29261766666666,25.79841641666667],[-80.29275419444444,25.798534583333335],[-80.29291183333333,25.79862877777778],[-80.29308552777778,25.798695972222223],[-80.29326966666666,25.79873402777778],[-80.2934583888889,25.798741694444445],[-80.29364555555556,25.798718750000003],[-80.29382519444444,25.798665916666668],[-80.29399152777778,25.79858488888889],[-80.29413922222221,25.79847827777778],[-80.2942635,25.7983495],[-80.2943603611111,25.798202722222225],[-80.29442675,25.798042611111114],[-80.29446047222223,25.79787438888889],[-80.29446047222223,25.79770338888889],[-80.29442675,25.79753513888889],[-80.2943603611111,25.79737505555556],[-80.29426347222223,25.79722827777778],[-80.29413919444444,25.7970995],[-80.29399152777778,25.79699288888889],[-80.29382519444444,25.796911861111113],[-80.29364555555556,25.796859027777778],[-80.2934583888889,25.796836083333336],[-80.29326966666666,25.79684375],[-80.29308552777778,25.796881805555557],[-80.29291183333333,25.796949],[-80.29275419444444,25.797043194444445],[-80.29261766666666,25.79716136111111],[-80.29250663888888,25.797299694444447],[-80.29242469444445,25.797453750000003],[-80.29237444444445,25.797618583333335],[-80.2923575,25.797788888888892]]},"properties":{"style":"solid","thickness":1}},{"type":"Feature","geometry":{"type":"LineString","coordinates":[[-81.3179326111111,25.223129527777775],[-81.31804752777778,25.223748805555555],[-81.31828216666666,25.22433947222222],[-81.318629,25.224882527777776],[-81.31907683333333,25.225360527777777],[-81.31961133333333,25.22575811111111],[-81.32021527777778,25.226062499999998],[-81.32086927777777,25.226263888888887],[-81.32155227777777,25.226355805555553],[-81.32224236111111,25.22633533333333],[-81.32291733333334,25.22620308333333],[-81.3235555,25.225963333333333],[-81.3241363611111,25.225623805555554],[-81.32464119444444,25.22519536111111],[-81.32505383333333,25.224691805555555],[-81.325361,25.22412933333333],[-81.32555280555555,25.223526],[-81.32562308333333,25.22290122222222],[-81.3255696111111,25.222275055555553],[-81.32539408333334,25.22166763888889],[-81.32510216666667,25.2210985],[-81.32470322222221,25.220585916666664],[-81.32421005555555,25.22014638888889],[-81.32363855555555,25.219793999999997],[-81.32300705555555,25.219540111111108],[-81.32233588888889,25.21939286111111],[-81.3216466111111,25.219357],[-81.3209613611111,25.219433666666664],[-81.32030216666666,25.219620388888888],[-81.31969022222222,25.219911194444443],[-81.31914519444445,25.22029672222222],[-81.31868458333334,25.22076458333333],[-81.31832322222222,25.22129972222222],[-81.31807269444444,25.22188497222222],[-81.31794108333332,25.2225015],[-81.3179326111111,25.223129527777775]]},"properties":{"style":"solid","thickness":1}},{"type":"Feature","geometry":{"type":"LineString","coordinates":[[-81.32246308333333,25.230950333333332],[-81.32209833333333,25.22941197222222],[-81.3214273611111,25.227961416666666],[-81.32047327777778,25.22664861111111],[-81.31926894444445,25.225518777777776],[-81.31785586111111,25.224610805555553],[-81.31628269444444,25.223955999999998],[-81.31460358333334,25.22357686111111],[-81.31287638888888,25.22348647222222]]},"properties":{"style":"solid","thickness":1}},{"type":"Feature","geometry":{"type":"LineString","coordinates":[[-81.31287638888888,25.22348647222222],[-81.31456758333333,25.223154805555556],[-81.31616224999999,25.222544527777774],[-81.31760547222221,25.22167672222222],[-81.31884755555555,25.220581277777775],[-81.31984566666667,25.219295888888887],[-81.32056547222221,25.21786483333333],[-81.32098219444444,25.216337444444445],[-81.32108144444445,25.214766305555553]]},"properties":{"style":"solid","thickness":1}},{"type":"Feature","geometry":{"type":"LineString","coordinates":[[-81.32108144444445,25.214766305555553],[-81.32144613888889,25.216304666666666],[-81.32211705555555,25.21775522222222],[-81.32307108333333,25.219068027777777],[-81.3242753611111,25.22019783333333],[-81.32568844444444,25.22110575],[-81.32726163888888,25.221760472222222],[-81.32894075,25.22213947222222],[-81.33066794444444,25.222229666666664]]},"properties":{"style":"solid","thickness":1}},{"type":"Feature","geometry":{"type":"LineString","coordinates":[[-81.33066794444444,25.222229666666664],[-81.32897680555556,25.222561527777778],[-81.32738219444444,25.223171916666665],[-81.32593902777778,25.224039805555552],[-81.324697,25.22513533333333],[-81.32369888888888,25.22642075],[-81.32297905555555,25.227851805555552],[-81.32256233333332,25.229379194444444],[-81.32246308333333,25.230950333333332]]},"properties":{"style":"solid","thickness":1}},{"type":"Feature","geometry":{"type":"LineString","coordinates":[[-81.36567505555556,25.228779],[-81.36621149999999,25.23503527777778],[-81.36344930555555,25.235231194444445],[-81.36261577777778,25.235042500000002],[-81.36182724999999,25.234107194444444],[-81.36177658333332,25.233516055555558],[-81.36234205555554,25.23248472222222],[-81.3631875,25.232176944444443],[-81.3659496111111,25.231981027777778]]},"properties":{"style":"solid","thickness":1}},{"type":"Feature","geometry":{"type":"LineString","coordinates":[[-81.35728833333333,25.23264475],[-81.35700977777778,25.229393444444444]]},"properties":{"style":"solid","thickness":1}},{"type":"Feature","geometry":{"type":"LineString","coordinates":[[-81.35971222222221,25.235496194444444],[-81.35728833333333,25.23264475],[-81.35537933333333,25.235803305555557]]},"properties":{"style":"solid","thickness":1}},{"type":"Feature","geometry":{"type":"LineString","coordinates":[[-81.35013497222222,25.233102055555555],[-81.34829022222222,25.23001122222222]]},"properties":{"style":"solid","thickness":1}},{"type":"Feature","geometry":{"type":"LineString","coordinates":[[-81.35256877777778,25.229708166666665],[-81.35310455555555,25.235964472222225],[-81.35034230555554,25.236160166666668],[-81.34950880555554,25.23597138888889],[-81.3487203611111,25.235036],[-81.34866975,25.23444486111111],[-81.34923533333333,25.233413583333334],[-81.35008080555555,25.233105888888886],[-81.352843,25.23291022222222]]},"properties":{"style":"solid","thickness":1}},{"type":"Feature","geometry":{"type":"LineString","coordinates":[[-81.34633952777777,25.233321277777776],[-81.34352319444444,25.23352063888889]]},"properties":{"style":"solid","thickness":1}},{"type":"Feature","geometry":{"type":"LineString","coordinates":[[-81.34265133333332,25.236704722222225],[-81.34660513888889,25.236424805555558],[-81.34606972222221,25.23016847222222],[-81.34184530555555,25.2304675]]},"properties":{"style":"solid","thickness":1}},{"type":"Feature","geometry":{"type":"LineString","coordinates":[[-81.34043066666666,25.236861861111112],[-81.33556277777777,25.230912]]},"properties":{"style":"solid","thickness":1}},{"type":"Feature","geometry":{"type":"LineString","coordinates":[[-81.33989555555556,25.23060547222222],[-81.33609766666666,25.237168416666666]]},"properties":{"style":"solid","thickness":1}},{"type":"Feature","geometry":{"type":"LineString","coordinates":[[-80.85639011111111,25.387695305555557],[-80.85650286111111,25.388314944444446],[-80.85673558333333,25.38890636111111],[-80.85708083333333,25.38945052777778],[-80.85752749999999,25.389929944444443],[-80.85806122222222,25.390329194444444],[-80.85866486111111,25.390635472222222],[-80.859319,25.390838916666667],[-80.86000263888889,25.390933],[-80.86069375,25.390914666666667],[-80.86137016666666,25.39078452777778],[-80.86201013888888,25.39054677777778],[-80.86259308333332,25.39020902777778],[-80.86310024999999,25.389782166666667],[-80.86351536111111,25.38927988888889],[-80.86382508333332,25.38871836111111],[-80.86401944444444,25.388115638888888],[-80.86409219444444,25.387491055555554],[-80.86404102777777,25.386864694444444],[-80.86386755555554,25.38625672222222],[-80.86357736111111,25.385686666666665],[-80.86317980555555,25.385172805555555],[-80.8626876111111,25.38473172222222],[-80.86211663888888,25.384377555555556],[-80.86148525,25.384121666666665],[-80.86081369444445,25.383972333333332],[-80.86012358333333,25.383934305555556],[-80.85943708333333,25.384008833333333],[-80.85877627777778,25.3841935],[-80.8581623611111,25.384482388888888],[-80.8576151111111,25.38486622222222],[-80.8571521111111,25.385332666666667],[-80.85678819444443,25.385866694444445],[-80.8565351111111,25.386451166666667],[-80.85640097222222,25.387067305555554],[-80.85639011111111,25.387695305555557]]},"properties":{"style":"solid","thickness":1}},{"type":"Feature","geometry":{"type":"LineString","coordinates":[[-80.86089733333333,25.395530472222223],[-80.86053788888889,25.393990944444443],[-80.85987147222221,25.39253825],[-80.85892102777777,25.391222416666665],[-80.85771927777778,25.390088777777777],[-80.85630766666667,25.389176388888888],[-80.85473474999999,25.38851661111111],[-80.85305475,25.38813222222222],[-80.85132549999999,25.388036444444445]]},"properties":{"style":"solid","thickness":1}},{"type":"Feature","geometry":{"type":"LineString","coordinates":[[-80.85132549999999,25.388036444444445],[-80.85302030555555,25.387710055555555],[-80.8546195,25.38710477777778],[-80.85606802777777,25.386241444444444],[-80.85731597222221,25.38514986111111],[-80.85832036111111,25.383867555555554],[-80.85904658333332,25.382438722222222],[-80.85946963888888,25.38091261111111],[-80.85957499999999,25.379341750000002]]},"properties":{"style":"solid","thickness":1}},{"type":"Feature","geometry":{"type":"LineString","coordinates":[[-80.85957499999999,25.379341750000002],[-80.8599343611111,25.380881277777778],[-80.86060072222222,25.382333972222224],[-80.86155113888888,25.383649777777777],[-80.86275283333333,25.384783388888888],[-80.86416444444444,25.385695722222223],[-80.8657373611111,25.386355388888887],[-80.86741738888888,25.386739638888887],[-80.86914663888888,25.38683525]]},"properties":{"style":"solid","thickness":1}},{"type":"Feature","geometry":{"type":"LineString","coordinates":[[-80.86914663888888,25.38683525],[-80.86745188888888,25.387161833333334],[-80.86585274999999,25.38776725],[-80.86440427777777,25.388630638888888],[-80.86315636111111,25.389722305555555],[-80.86215197222222,25.391004638888887],[-80.86142575,25.392433472222223],[-80.86100266666666,25.39395961111111],[-80.86089733333333,25.395530472222223]]},"properties":{"style":"solid","thickness":1}},{"type":"Feature","geometry":{"type":"LineString","coordinates":[[-81.11501552777777,24.86481575],[-81.11512905555556,24.865435222222224],[-81.11536199999999,24.86602625],[-81.11570688888888,24.866569833333333],[-81.11615263888888,24.8670485],[-81.11668488888888,24.867446861111112],[-81.11728655555555,24.867752111111113],[-81.11793830555555,24.867954444444447],[-81.11861916666666,24.868047333333333],[-81.11930730555555,24.868027833333333],[-81.11998052777777,24.867896527777777],[-81.12061725,24.867657666666666],[-81.12119697222222,24.867318944444445],[-81.12170111111111,24.866891194444445],[-81.12211338888888,24.866388222222223],[-81.12242063888888,24.86582613888889],[-81.12261291666665,24.865223055555557],[-81.12268405555555,24.864598361111113],[-81.12263180555554,24.863972083333334],[-81.12245783333333,24.86336438888889],[-81.12216772222222,24.862794805555556],[-81.12177080555554,24.86228163888889],[-81.12127983333333,24.86184138888889],[-81.12071058333332,24.861488166666668],[-81.1200813611111,24.86123336111111],[-81.11941241666666,24.86108516666667],[-81.11872519444444,24.861048333333336],[-81.11804180555555,24.86112402777778],[-81.11738419444444,24.861309833333333],[-81.11677352777777,24.86159977777778],[-81.11622941666666,24.86198455555556],[-81.1157693611111,24.86245177777778],[-81.11540813888888,24.862986444444445],[-81.11515733333333,24.863571361111113],[-81.11502505555555,24.864187722222223],[-81.11501552777777,24.86481575]]},"properties":{"style":"solid","thickness":1}},{"type":"Feature","geometry":{"type":"LineString","coordinates":[[-81.1195195,24.872643361111113],[-81.11915841666666,24.871104416666668],[-81.11849188888888,24.869652833333333],[-81.11754280555554,24.868338611111113],[-81.11634391666666,24.867207027777777],[-81.11493647222221,24.866297000000003],[-81.11336897222222,24.86563991666667],[-81.11169541666666,24.86525838888889],[-81.10997338888889,24.865165555555556]]},"properties":{"style":"solid","thickness":1}},{"type":"Feature","geometry":{"type":"LineString","coordinates":[[-81.10997338888889,24.865165555555556],[-81.11166022222221,24.86483627777778],[-81.11325130555555,24.86422825],[-81.11469183333332,24.863362444444444],[-81.11593216666667,24.862268694444445],[-81.11692958333333,24.860984666666667],[-81.11764972222221,24.859554583333335],[-81.11806783333333,24.858027694444445],[-81.1181695,24.85645663888889]]},"properties":{"style":"solid","thickness":1}},{"type":"Feature","geometry":{"type":"LineString","coordinates":[[-81.1181695,24.85645663888889],[-81.11853049999999,24.857995583333334],[-81.11919697222221,24.85944716666667],[-81.12014599999999,24.860761361111113],[-81.1213448611111,24.861892944444445],[-81.12275230555555,24.86280288888889],[-81.12431980555554,24.863459861111114],[-81.12599338888889,24.86384125],[-81.12771541666666,24.863933916666667]]},"properties":{"style":"solid","thickness":1}},{"type":"Feature","geometry":{"type":"LineString","coordinates":[[-81.12771541666666,24.863933916666667],[-81.12602861111111,24.86426338888889],[-81.1244376111111,24.86487152777778],[-81.12299713888888,24.865737444444445],[-81.12175683333332,24.86683125],[-81.12075941666666,24.868115333333336],[-81.12003924999999,24.869545416666668],[-81.11962113888889,24.871072305555558],[-81.1195195,24.872643361111113]]},"properties":{"style":"solid","thickness":1}},{"type":"Feature","geometry":{"type":"LineString","coordinates":[[-80.82806308333333,25.449030666666665],[-80.82817575,25.44965036111111],[-80.82840847222222,25.450241805555557],[-80.82875377777778,25.450786027777777],[-80.82920055555554,25.451265527777778],[-80.82973447222221,25.45166488888889],[-80.83033833333333,25.451971277777776],[-80.83099277777778,25.452174833333334],[-80.83167672222221,25.452269027777778],[-80.83236819444444,25.452250833333334],[-80.83304497222223,25.452120833333332],[-80.83368533333334,25.451883194444445],[-80.83426863888889,25.451545555555555],[-80.83477616666666,25.451118805555556],[-80.8351916111111,25.450616611111112],[-80.83550161111111,25.45005513888889],[-80.83569622222221,25.449452444444443],[-80.83576916666667,25.44882788888889],[-80.83571808333333,25.44820152777778],[-80.83554466666666,25.447593527777777],[-80.83525447222222,25.447023416666667],[-80.83485680555555,25.4465095],[-80.83436447222222,25.446068305555556],[-80.83379330555555,25.44571402777778],[-80.83316163888888,25.44545802777778],[-80.83248977777778,25.445308555555556],[-80.83179933333334,25.445270416666666],[-80.83111247222222,25.445344805555557],[-80.83045127777777,25.445529361111113],[-80.829837,25.44581813888889],[-80.82928936111111,25.44620186111111],[-80.82882599999999,25.446668194444445],[-80.82846180555555,25.447202166666667],[-80.82820844444444,25.447786583333333],[-80.8280741111111,25.448402694444443],[-80.82806308333333,25.449030666666665]]},"properties":{"style":"solid","thickness":1}},{"type":"Feature","geometry":{"type":"LineString","coordinates":[[-80.83257080555555,25.456866666666667],[-80.83221152777777,25.455327055555554],[-80.83154511111111,25.45387425],[-80.83059447222222,25.45255825],[-80.82939238888889,25.451424416666665],[-80.82798027777777,25.45051175],[-80.82640672222222,25.449851694444444],[-80.82472594444444,25.449466972222222],[-80.82299580555555,25.44937086111111]]},"properties":{"style":"solid","thickness":1}},{"type":"Feature","geometry":{"type":"LineString","coordinates":[[-80.82299580555555,25.44937086111111],[-80.82469155555555,25.449044805555555],[-80.82629172222222,25.448439833333335],[-80.82774119444444,25.44757677777778],[-80.82898999999999,25.44648541666667],[-80.82999519444444,25.445203333333332],[-80.8307221111111,25.44377463888889],[-80.83114574999999,25.44224861111111],[-80.8312515,25.44067777777778]]},"properties":{"style":"solid","thickness":1}},{"type":"Feature","geometry":{"type":"LineString","coordinates":[[-80.8312515,25.44067777777778],[-80.83161072222222,25.44221738888889],[-80.83227708333332,25.443670194444444],[-80.83322766666666,25.444986166666666],[-80.83442972222221,25.44612],[-80.83584183333333,25.447032611111112],[-80.83741541666666,25.447692555555555],[-80.83909619444444,25.44807711111111],[-80.84082630555555,25.448173027777777]]},"properties":{"style":"solid","thickness":1}},{"type":"Feature","geometry":{"type":"LineString","coordinates":[[-80.84082630555555,25.448173027777777],[-80.83913063888889,25.448499305555554],[-80.83753052777777,25.449104416666668],[-80.83608111111111,25.44996752777778],[-80.83483233333332,25.45105897222222],[-80.83382713888888,25.452341083333334],[-80.83310019444444,25.453769777777776],[-80.83267655555555,25.455295833333334],[-80.83257080555555,25.456866666666667]]},"properties":{"style":"solid","thickness":1}},{"type":"Feature","geometry":{"type":"LineString","coordinates":[[-80.78182019444445,25.571610055555556],[-80.78193272222222,25.572229749999998],[-80.78216547222222,25.572821277777777],[-80.78251091666667,25.573365583333334],[-80.78295797222222,25.57384522222222],[-80.78349227777778,25.574244722222222],[-80.78409663888888,25.574551305555556],[-80.78475166666666,25.574755055555556],[-80.78543627777778,25.574849472222223],[-80.78612847222222,25.574831472222222],[-80.786806,25.574701694444443],[-80.78744708333333,25.57446425],[-80.78803111111111,25.574126805555554],[-80.78853933333333,25.573700194444445],[-80.7889553888889,25.573198166666668],[-80.78926591666666,25.572636777777777],[-80.78946091666667,25.572034166666665],[-80.78953416666667,25.571409638888888],[-80.78948330555555,25.570783277777778],[-80.78930991666667,25.570175222222222],[-80.78901963888889,25.569605027777776],[-80.78862177777778,25.569091],[-80.7881291111111,25.568649666666666],[-80.78755747222222,25.568295194444445],[-80.78692525,25.56803902777778],[-80.78625277777778,25.567889333333333],[-80.7855616388889,25.56785097222222],[-80.78487402777778,25.567925166666665],[-80.7842121111111,25.5681095],[-80.78359708333333,25.56839808333333],[-80.78304877777778,25.56878163888889],[-80.78258477777777,25.569247833333332],[-80.78222,25.569781666666668],[-80.78196616666666,25.570366027777776],[-80.78183144444445,25.570982083333334],[-80.78182019444445,25.571610055555556]]},"properties":{"style":"solid","thickness":1}},{"type":"Feature","geometry":{"type":"LineString","coordinates":[[-80.78632955555555,25.579447305555554],[-80.7859705,25.57790761111111],[-80.78530394444444,25.57645461111111],[-80.78435283333333,25.57513836111111],[-80.78314994444445,25.57400413888889],[-80.78173672222222,25.573091055555555],[-80.78016180555555,25.572430527777776],[-80.77847947222222,25.572045305555555],[-80.7767476111111,25.571948666666668]]},"properties":{"style":"solid","thickness":1}},{"type":"Feature","geometry":{"type":"LineString","coordinates":[[-80.7767476111111,25.571948666666668],[-80.77844522222222,25.571623111111112],[-80.78004722222222,25.571018638888887],[-80.7814985,25.570156083333334],[-80.782749,25.56906511111111],[-80.78375569444444,25.567783333333335],[-80.78448388888889,25.56635491666667],[-80.78490852777777,25.56482902777778],[-80.78501497222221,25.56325825]]},"properties":{"style":"solid","thickness":1}},{"type":"Feature","geometry":{"type":"LineString","coordinates":[[-80.78501497222221,25.56325825],[-80.78537397222222,25.564797944444447],[-80.78604047222223,25.566250916666668],[-80.78699152777777,25.567567194444443],[-80.78819438888888,25.56870136111111],[-80.78960761111111,25.569614388888887],[-80.79118252777778,25.570274805555556],[-80.79286488888889,25.570659888888887],[-80.79459672222222,25.570756333333332]]},"properties":{"style":"solid","thickness":1}},{"type":"Feature","geometry":{"type":"LineString","coordinates":[[-80.79459672222222,25.570756333333332],[-80.79289919444444,25.571082083333334],[-80.79129725,25.571686694444445],[-80.78984602777777,25.57254936111111],[-80.78859555555556,25.57364038888889],[-80.7875888611111,25.574922194444444],[-80.78686066666667,25.57635063888889],[-80.786436,25.57787652777778],[-80.78632955555555,25.579447305555554]]},"properties":{"style":"solid","thickness":1}},{"type":"Feature","geometry":{"type":"LineString","coordinates":[[-80.75340383333334,25.646787083333333],[-80.75351630555555,25.647406805555555],[-80.75374902777777,25.64799836111111],[-80.75409458333333,25.64854275],[-80.75454180555556,25.649022444444444],[-80.75507636111111,25.649422083333334],[-80.75568102777778,25.64972875],[-80.75633641666667,25.649932638888888],[-80.75702144444445,25.650027166666664],[-80.75771405555555,25.650009305555553],[-80.75839205555556,25.649879638888887],[-80.75903358333333,25.649642333333333],[-80.75961805555555,25.649305],[-80.76012669444444,25.6488785],[-80.76054313888889,25.648376527777778],[-80.76085397222222,25.64781522222222],[-80.76104925,25.647212638888888],[-80.76112269444444,25.646588138888887],[-80.76107191666667,25.645961777777778],[-80.76089858333333,25.645353694444445],[-80.76060825,25.644783444444442],[-80.76021025,25.644269333333334],[-80.75971736111111,25.643827916666666],[-80.75914547222222,25.64347336111111],[-80.75851291666666,25.643217055555557],[-80.75784005555556,25.643067277777778],[-80.75714847222223,25.643028777777776],[-80.75646044444444,25.643102833333334],[-80.75579805555556,25.643287055555554],[-80.75518258333334,25.6435755],[-80.75463383333333,25.643958944444442],[-80.75416941666667,25.644425055555555],[-80.75380430555556,25.644958805555554],[-80.75355019444444,25.64554311111111],[-80.75341525,25.64615911111111],[-80.75340383333334,25.646787083333333]]},"properties":{"style":"solid","thickness":1}},{"type":"Feature","geometry":{"type":"LineString","coordinates":[[-80.75791422222223,25.65462511111111],[-80.75755527777778,25.653085388888886],[-80.7568886388889,25.651632277777775],[-80.75593725,25.65031586111111],[-80.7547338611111,25.649181416666668],[-80.75331997222223,25.64826808333333],[-80.75174422222223,25.64760725],[-80.75006091666667,25.647221722222223],[-80.748328,25.64712475]]},"properties":{"style":"solid","thickness":1}},{"type":"Feature","geometry":{"type":"LineString","coordinates":[[-80.748328,25.64712475],[-80.75002675,25.646799527777777],[-80.75162988888889,25.64619536111111],[-80.75308227777778,25.645333083333334],[-80.75433380555556,25.64424236111111],[-80.75534141666667,25.642960777777777],[-80.75607041666666,25.6415325],[-80.75649566666667,25.64000672222222],[-80.75660252777777,25.638435972222222]]},"properties":{"style":"solid","thickness":1}},{"type":"Feature","geometry":{"type":"LineString","coordinates":[[-80.75660252777777,25.638435972222222],[-80.75696141666667,25.63997572222222],[-80.757628,25.641428833333332],[-80.75857933333333,25.64274525],[-80.75978269444444,25.643879638888887],[-80.76119658333333,25.644792916666667],[-80.76277233333333,25.64545363888889],[-80.76445566666666,25.64583902777778],[-80.76618855555556,25.645935833333333]]},"properties":{"style":"solid","thickness":1}},{"type":"Feature","geometry":{"type":"LineString","coordinates":[[-80.76618855555556,25.645935833333333],[-80.76448988888889,25.646261222222222],[-80.76288680555555,25.646865527777777],[-80.76143447222222,25.647727916666668],[-80.76018297222222,25.648818694444444],[-80.7591753611111,25.650100305555554],[-80.75844636111111,25.65152858333333],[-80.75802108333333,25.653054388888886],[-80.75791422222223,25.65462511111111]]},"properties":{"style":"solid","thickness":1}},{"type":"Feature","geometry":{"type":"LineString","coordinates":[[-80.56519091666667,25.77555713888889],[-80.56530255555555,25.776177],[-80.5655346111111,25.776768861111112],[-80.56587969444445,25.777313666666664],[-80.56632663888888,25.777793944444443],[-80.56686113888888,25.778194222222222],[-80.567466,25.778501694444444],[-80.56812177777778,25.77870638888889],[-80.56880738888889,25.778801805555556],[-80.56950080555555,25.778784833333333],[-80.57017972222222,25.778656055555555],[-80.57082230555555,25.778419555555555],[-80.57140794444445,25.778083],[-80.57191777777777,25.777657138888888],[-80.57233544444443,25.777155722222222],[-80.57264752777778,25.776594833333334],[-80.57284394444444,25.775992499999997],[-80.57291844444444,25.775368083333333],[-80.57286858333333,25.774741666666667],[-80.57269602777778,25.77413336111111],[-80.57240625,25.77356275],[-80.57200863888889,25.773048166666666],[-80.57151591666667,25.77260611111111],[-80.57094394444444,25.77225083333333],[-80.57031111111111,25.77199372222222],[-80.56963775,25.771843055555554],[-80.5689455,25.771803666666667],[-80.56825658333332,25.77187686111111],[-80.56759319444444,25.772060222222223],[-80.5669766111111,25.772347888888888],[-80.56642666666666,25.772730638888888],[-80.56596102777777,25.773196111111112],[-80.56559469444444,25.773729416666665],[-80.56533938888889,25.774313361111112],[-80.56520333333333,25.774929194444443],[-80.56519091666667,25.77555713888889]]},"properties":{"style":"solid","thickness":1}},{"type":"Feature","geometry":{"type":"LineString","coordinates":[[-80.56969394444444,25.783400833333335],[-80.56933705555555,25.781860666666667],[-80.56867194444445,25.78040672222222],[-80.56772158333332,25.77908911111111],[-80.56651866666667,25.777953166666666],[-80.56510466666667,25.777037999999997],[-80.56352824999999,25.776375166666664],[-80.56184372222222,25.7759875],[-80.5601091111111,25.775888305555554]]},"properties":{"style":"solid","thickness":1}},{"type":"Feature","geometry":{"type":"LineString","coordinates":[[-80.5601091111111,25.775888305555554],[-80.56181016666666,25.77556525],[-80.563416,25.774963166666666],[-80.56487127777777,25.774102749999997],[-80.56612588888889,25.773013638888887],[-80.56713658333332,25.771733388888887],[-80.56786858333334,25.770306055555555],[-80.56829666666667,25.76878083333333],[-80.56840613888889,25.767210249999998]]},"properties":{"style":"solid","thickness":1}},{"type":"Feature","geometry":{"type":"LineString","coordinates":[[-80.56840613888889,25.767210249999998],[-80.56876297222222,25.768750416666666],[-80.56942802777778,25.77020436111111],[-80.57037833333332,25.771521999999997],[-80.57158122222222,25.772657916666667],[-80.57299522222222,25.773573],[-80.57457163888888,25.774235722222222],[-80.57625616666667,25.774623249999998],[-80.57799080555556,25.77472225]]},"properties":{"style":"solid","thickness":1}},{"type":"Feature","geometry":{"type":"LineString","coordinates":[[-80.57799080555556,25.77472225],[-80.57628977777777,25.775045499999997],[-80.57468402777778,25.77564772222222],[-80.57322877777777,25.77650825],[-80.57197422222222,25.777597416666666],[-80.57096352777778,25.778877694444443],[-80.57023149999999,25.78030502777778],[-80.56980338888889,25.78183025],[-80.56969394444444,25.783400833333335]]},"properties":{"style":"solid","thickness":1}}]}
