{"type":"FeatureCollection","features":[{"type":"Feature","geometry":{"type":"LineString","coordinates":[[-80.2932391388889,25.79690666666667],[-80.29438566666667,25.797944583333337]]},"properties":{"style":"solid","thickness":1}},{"type":"Feature","geometry":{"type":"LineString","coordinates":[[-80.29283783333334,25.797062333333336],[-80.29421369444444,25.798307833333336]]},"properties":{"style":"solid","thickness":1}},{"type":"Feature","geometry":{"type":"LineString","coordinates":[[-80.29255119444444,25.797321833333335],[-80.29392705555556,25.798567333333335]]},"properties":{"style":"solid","thickness":1}},{"type":"Feature","geometry":{"type":"LineString","coordinates":[[-80.29237922222222,25.797685083333334],[-80.29352575,25.79872302777778]]},"properties":{"style":"solid","thickness":1}},{"type":"Feature","geometry":{"type":"LineString","coordinates":[[-80.29266583333333,25.79846352777778],[-80.29275158333333,25.798533083333336],[-80.2928508611111,25.79859702777778],[-80.2929635,25.79865266666667],[-80.29308844444444,25.798697166666667],[-80.29322377777778,25.798727805555558],[-80.29336666666667,25.79874213888889],[-80.29351341666667,25.798738472222222],[-80.29365983333334,25.79871602777778],[-80.29380155555555,25.798675111111113],[-80.29393441666666,25.798617055555557],[-80.29405494444444,25.798544250000003],[-80.29416058333334,25.798459694444446],[-80.29424983333332,25.79836666666667],[-80.29432222222222,25.798268500000002],[-80.29437816666666,25.79816827777778],[-80.29441874999999,25.798068555555556],[-80.29444616666666,25.797968750000003],[-80.294462,25.797861416666667],[-80.29446405555555,25.797747194444447],[-80.29444997222222,25.797628055555556],[-80.29441788888889,25.797506694444447],[-80.29436666666666,25.797386361111112],[-80.29429608333334,25.797270722222223],[-80.2942071111111,25.797163555555557],[-80.29410188888889,25.79706827777778],[-80.29398347222222,25.796987750000003],[-80.29385574999999,25.796923861111114],[-80.29372283333333,25.796877472222224],[-80.29358877777777,25.796848444444446],[-80.29345716666667,25.796835694444447],[-80.293331,25.79683755555556],[-80.29321241666666,25.79685188888889],[-80.29310216666667,25.796876694444446],[-80.29299202777777,25.796913472222222],[-80.29288130555555,25.796964111111112],[-80.2927728611111,25.797029611111114],[-80.29267011111111,25.79711041666667],[-80.29257666666666,25.797206055555556],[-80.29249625,25.797315166666667],[-80.29243213888888,25.797435444444446],[-80.29238691666666,25.797563722222225],[-80.29236213888889,25.797696277777778],[-80.29235808333333,25.797829111111113],[-80.29237394444445,25.797958444444447],[-80.29240775,25.798080972222223],[-80.29245691666667,25.798194083333335],[-80.2925183888889,25.79829602777778],[-80.29258899999999,25.798385916666668],[-80.29266583333333,25.79846352777778]]},"properties":{"style":"solid","thickness":1}},{"type":"Feature","geometry":{"type":"LineString","coordinates":[[-80.14943333333333,26.04351666666667],[-80.1504638888889,26.07207777777778],[-80.13364444444446,26.071983333333332],[-80.13313333333333,26.043325000000003]]},"properties":{"style":"solid","thickness":1}},{"type":"Feature","geometry":{"type":"LineString","coordinates":[[-80.14943333333333,26.04351666666667],[-80.13313333333333,26.043325000000003],[-79.96640555555555,26.041275000000002],[-79.83458055555555,26.039658333333335],[-79.78116944444444,26.03938888888889],[-79.59479444444445,26.037100000000002],[-79.55,26.066666666666666]]},"properties":{"style":"solid","thickness":1}},{"type":"Feature","geometry":{"type":"LineString","coordinates":[[-80.14943333333333,26.04351666666667],[-80.14580000000001,25.96321111111111],[-79.99961944444445,25.96335277777778],[-79.97236666666667,25.96334722222222],[-79.95691111111111,25.93982777777778],[-79.94041666666666,25.904975],[-79.93115277777778,25.876466666666666],[-79.92214166666668,25.841491666666666],[-79.91828333333333,25.81258888888889]]},"properties":{"style":"solid","thickness":1}},{"type":"Feature","geometry":{"type":"LineString","coordinates":[[-79.78116944444444,26.03938888888889],[-79.78285277777778,26.06940277777778],[-79.63615277777778,26.06767222222222],[-79.55,26.066666666666666],[-79.49805555555555,26.060833333333335]]},"properties":{"style":"solid","thickness":1}},{"type":"Feature","geometry":{"type":"LineString","coordinates":[[-80.14580000000001,25.96321111111111],[-80.24617222222223,25.963224999999998],[-80.28958333333333,25.96318611111111],[-80.29028333333333,25.912605555555555],[-80.29080277777777,25.867763888888888],[-80.22366666666667,25.867594444444446],[-80.19889722222223,25.86758888888889],[-80.12355277777777,25.867572222222222],[-80.11815277777777,25.85653611111111],[-80.11301666666667,25.843130555555554],[-80.1099,25.83271111111111],[-80.10706666666665,25.81949722222222],[-80.10580277777777,25.809527777777777],[-80.10533055555555,25.802658333333333],[-80.06152222222222,25.805344444444444],[-79.99938333333334,25.80848611111111],[-79.91828333333333,25.81258888888889]]},"properties":{"style":"solid","thickness":1}},{"type":"Feature","geometry":{"type":"LineString","coordinates":[[-79.49805555555555,26.060833333333335],[-79.53999722222223,25.99655277777778],[-79.57034999999999,25.94994722222222],[-79.65293333333334,25.82275],[-79.66196944444445,25.808794444444445],[-79.7,25.75],[-79.70001666666667,25.707327777777778],[-79.83978611111111,25.774733333333334],[-79.91828333333333,25.81258888888889]]},"properties":{"style":"solid","thickness":1}},{"type":"Feature","geometry":{"type":"LineString","coordinates":[[-79.57034999999999,25.94994722222222],[-79.69676666666668,25.951166666666666],[-79.76075833333333,25.851408333333335],[-79.66196944444445,25.808794444444445]]},"properties":{"style":"solid","thickness":1}},{"type":"Feature","geometry":{"type":"LineString","coordinates":[[-80.1800963888889,26.04602363888889],[-80.14098650000001,26.061404111111113]]},"properties":{"style":"solid","thickness":1}},{"type":"Feature","geometry":{"type":"LineString","coordinates":[[-80.15307555555556,26.06235447222222],[-80.14098650000001,26.061404111111113],[-80.14845444444445,26.052765472222223]]},"properties":{"style":"solid","thickness":1}},{"type":"Feature","geometry":{"type":"LineString","coordinates":[[-79.68916247222222,26.05464027777778],[-79.68988852777778,26.05527497222222],[-79.69004352777777,26.055333305555557],[-79.6910278888889,26.055407916666667],[-79.69184169444445,26.05522113888889],[-79.69227055555555,26.05492238888889],[-79.69269422222223,26.05455597222222],[-79.69302225,26.05392352777778],[-79.69290319444445,26.052367],[-79.69240711111111,26.051785972222223],[-79.69208672222223,26.051533944444444],[-79.69093186111111,26.05119802777778],[-79.68963233333334,26.050939083333333],[-79.68870225,26.050589111111112],[-79.68837152777778,26.05020175],[-79.68814925000001,26.049263638888892],[-79.68823186111112,26.048374527777778],[-79.68856505555556,26.047809750000003],[-79.68891897222223,26.047515694444446],[-79.6892031388889,26.047293972222224],[-79.68956219444445,26.047067583333334],[-79.69037077777779,26.04681313888889],[-79.69082027777777,26.046785111111113],[-79.6912801388889,26.04689241666667],[-79.69190019444444,26.047125722222223],[-79.69229547222223,26.04737302777778],[-79.69286130555555,26.047881722222225]]},"properties":{"style":"solid","thickness":1}},{"type":"Feature","geometry":{"type":"LineString","coordinates":[[-79.67189119444446,26.056192444444445],[-79.67236141666667,26.056435166666667],[-79.67289622222222,26.056537861111114],[-79.67469441666667,26.05642588888889],[-79.67535841666667,26.056248555555555],[-79.675578,26.05616688888889],[-79.67665538888889,26.055487805555558],[-79.67727802777779,26.054769055555557],[-79.6774511388889,26.054078305555556],[-79.67788258333334,26.052827472222223],[-79.67776375000001,26.051270916666667],[-79.67755708333334,26.050535833333335],[-79.67728583333334,26.04994075],[-79.67693447222223,26.04928263888889],[-79.67612844444444,26.04858488888889],[-79.67465333333334,26.04799677777778],[-79.67366386111111,26.04785438888889],[-79.67283975000001,26.047905722222225],[-79.6718063888889,26.04817402777778],[-79.67144727777779,26.04840038888889],[-79.67115791666667,26.048554388888892]]},"properties":{"style":"solid","thickness":1}},{"type":"Feature","geometry":{"type":"LineString","coordinates":[[-79.66837522222222,26.052535416666668],[-79.66373,26.052824416666667]]},"properties":{"style":"solid","thickness":1}},{"type":"Feature","geometry":{"type":"LineString","coordinates":[[-79.64701461111112,26.05277513888889],[-79.64716908333334,26.054805416666667],[-79.64748138888889,26.05594197222222],[-79.64767244444445,26.056474083333335],[-79.6479281388889,26.056866194444446],[-79.64888905555556,26.057622472222224],[-79.64981391666667,26.057905027777778],[-79.65011361111112,26.05788641666667],[-79.65098697222223,26.057492194444446],[-79.65174933333334,26.05662888888889],[-79.65201813888889,26.056204222222224],[-79.65212677777778,26.055653500000002],[-79.65226394444446,26.054489055555557],[-79.65210938888889,26.05245875],[-79.65179702777779,26.051322222222222],[-79.65160597222223,26.050790111111112],[-79.65127536111112,26.050402666666667],[-79.65038941666667,26.049641722222223],[-79.64946461111111,26.049359194444445],[-79.64916491666668,26.049377805555558],[-79.64829161111112,26.049772],[-79.64745436111112,26.050639944444445],[-79.64726047222223,26.051059972222223],[-79.64715183333334,26.05161066666667],[-79.64701461111112,26.05277513888889]]},"properties":{"style":"solid","thickness":1}},{"type":"Feature","geometry":{"type":"LineString","coordinates":[[-79.69094980555556,25.89287511111111],[-79.6916748888889,25.893509805555556],[-79.69182969444445,25.89356811111111],[-79.69281272222223,25.893642694444445],[-79.69362541666668,25.893455888888887],[-79.69405366666668,25.893157111111112],[-79.69447672222222,25.892790666666667],[-79.69480430555556,25.892158194444445],[-79.69468536111111,25.890601611111112],[-79.69418991666667,25.89002058333333],[-79.69386994444444,25.889768583333332],[-79.6927166388889,25.889432666666668],[-79.69141888888889,25.889173777777778],[-79.69049005555556,25.888823833333333],[-79.69015975,25.88843647222222],[-79.68993777777779,25.887498333333333],[-79.69002022222223,25.886609194444443],[-79.69035297222223,25.886044388888887],[-79.69070636111111,25.885750305555554],[-79.69099013888889,25.885528583333333],[-79.69134869444444,25.885302166666666],[-79.69215616666666,25.885047694444445],[-79.69260508333333,25.88501963888889],[-79.69306430555557,25.885126944444444],[-79.69368352777778,25.88536022222222],[-79.69407827777778,25.885607555555556],[-79.69464336111112,25.88611622222222]]},"properties":{"style":"solid","thickness":1}},{"type":"Feature","geometry":{"type":"LineString","coordinates":[[-79.67370211111111,25.89442783333333],[-79.67417169444445,25.894670555555557],[-79.67470575,25.89477322222222],[-79.6765015,25.894661222222222],[-79.67716458333334,25.894483833333332],[-79.6773838888889,25.894402166666666],[-79.67845977777779,25.893723027777778],[-79.67908155555556,25.89300425],[-79.67925438888889,25.892313444444444],[-79.67968522222223,25.891062583333333],[-79.67956647222222,25.889506],[-79.67936005555556,25.88877088888889],[-79.6790891388889,25.888175805555555],[-79.67873825000001,25.887517694444444],[-79.67793330555556,25.886819944444444],[-79.6764601388889,25.88623186111111],[-79.67547205555556,25.8860895],[-79.67464905555556,25.886140833333332],[-79.67361708333334,25.886409222222223],[-79.67325847222223,25.886635583333334],[-79.67296952777778,25.886789611111112]]},"properties":{"style":"solid","thickness":1}},{"type":"Feature","geometry":{"type":"LineString","coordinates":[[-79.67019077777778,25.890770833333335],[-79.6655518888889,25.891059972222223]]},"properties":{"style":"solid","thickness":1}},{"type":"Feature","geometry":{"type":"LineString","coordinates":[[-79.65771569444445,25.895764],[-79.66115758333333,25.895549666666668],[-79.66177725,25.891839138888887],[-79.66112447222223,25.892151777777777],[-79.66055163888889,25.892527444444443],[-79.65920486111112,25.89261133333333],[-79.6585211388889,25.89251788888889],[-79.65781686111112,25.89215375],[-79.65699652777778,25.89125286111111],[-79.65678511111112,25.890450027777778],[-79.65670786111112,25.88943486111111],[-79.6571001388889,25.888662444444442],[-79.65756722222223,25.88788538888889],[-79.65777622222222,25.88766836111111],[-79.65819938888889,25.88730202777778],[-79.65893727777778,25.887120083333333],[-79.65976027777778,25.887068833333334],[-79.6603691388889,25.887166916666665],[-79.66113791666668,25.887391027777777],[-79.66185250000001,25.8878905],[-79.66194277777778,25.888088888888888]]},"properties":{"style":"solid","thickness":1}},{"type":"Feature","geometry":{"type":"LineString","coordinates":[[-79.64855994444446,25.891029833333334],[-79.64871427777778,25.893060194444445],[-79.64902622222223,25.89419675],[-79.64921702777778,25.89472888888889],[-79.6494723888889,25.895121],[-79.65043202777778,25.895877277777778],[-79.6513556388889,25.896159805555556],[-79.65165494444445,25.896141194444443],[-79.65252708333334,25.895746944444443],[-79.6532883888889,25.894883583333332],[-79.65355680555557,25.894458888888888],[-79.65366525,25.89390813888889],[-79.65380222222223,25.892743638888888],[-79.65364777777778,25.890713305555554],[-79.65333580555556,25.88957675],[-79.65314500000001,25.889044638888887],[-79.65281483333334,25.888657194444445],[-79.65193005555557,25.88789625],[-79.65100647222222,25.887613722222223],[-79.65070722222222,25.887632333333332],[-79.64983511111112,25.888026583333332],[-79.648999,25.888894583333332],[-79.64880541666668,25.88931461111111],[-79.64869694444445,25.88986536111111],[-79.64855994444446,25.891029833333334]]},"properties":{"style":"solid","thickness":1}},{"type":"Feature","geometry":{"type":"LineString","coordinates":[[-79.88639350000001,25.97356261111111],[-79.88712008333334,25.97419633333333],[-79.88727511111112,25.974254444444444],[-79.8882588888889,25.97432772222222],[-79.88907183333335,25.97413986111111],[-79.88949988888889,25.973840527777774],[-79.88992263888889,25.973473527777777],[-79.89024941666668,25.972840638888886],[-79.8901278888889,25.971284277777777],[-79.88963116666667,25.970703916666665],[-79.88931058333334,25.97045233333333],[-79.88815597222222,25.970117944444443],[-79.88685694444445,25.969860777777775],[-79.88592691666668,25.969512055555555],[-79.88559577777778,25.969125111111108],[-79.8853721388889,25.968187305555553],[-79.88545322222222,25.967298083333333],[-79.88578525000001,25.966732861111108],[-79.88613844444446,25.966438305555556],[-79.88642202777778,25.966216222222222],[-79.88678047222223,25.965989333333333],[-79.88758808333334,25.965733805555555],[-79.88803722222222,25.965705166666666],[-79.88849694444446,25.96581186111111],[-79.88911694444445,25.966044333333333],[-79.88951236111112,25.966291138888888],[-79.8900786388889,25.966799055555555]]},"properties":{"style":"solid","thickness":1}},{"type":"Feature","geometry":{"type":"LineString","coordinates":[[-79.86913680555556,25.975137999999998],[-79.86960708333332,25.97538008333333],[-79.87014169444444,25.975482055555553],[-79.87193844444444,25.975367694444444],[-79.87260169444444,25.975189444444442],[-79.87282099999999,25.97510747222222],[-79.87389652777777,25.974426944444442],[-79.87451755555554,25.97370736111111],[-79.87468938888888,25.97301636111111],[-79.8751185,25.97176494444444],[-79.87499716666666,25.970208555555555],[-79.87478941666666,25.96947375],[-79.8745173611111,25.968879027777778],[-79.87416519444444,25.968221416666665],[-79.87335858333333,25.96752472222222],[-79.8718835,25.96693861111111],[-79.87089449999999,25.966797555555555],[-79.87007105555556,25.96684997222222],[-79.86903883333332,25.967119694444442],[-79.86868033333333,25.967346527777774],[-79.86839144444444,25.967500916666665]]},"properties":{"style":"solid","thickness":1}},{"type":"Feature","geometry":{"type":"LineString","coordinates":[[-79.86561725,25.97148572222222],[-79.86097575,25.971780944444443]]},"properties":{"style":"solid","thickness":1}},{"type":"Feature","geometry":{"type":"LineString","coordinates":[[-79.85239633333333,25.96981013888889],[-79.85763666666666,25.96947708333333],[-79.85374080555555,25.976457083333333],[-79.85308827777777,25.968066055555553]]},"properties":{"style":"solid","thickness":1}},{"type":"Feature","geometry":{"type":"LineString","coordinates":[[-79.84427186111111,25.971754166666663],[-79.84442958333332,25.973784249999998],[-79.84474355555555,25.974920388888886],[-79.84493536111111,25.97545225],[-79.8451915,25.975844],[-79.846153,25.976598999999997],[-79.84707769444444,25.976880305555554],[-79.84737716666666,25.976861305555556],[-79.84824925,25.97646588888889],[-79.84900966666666,25.975601555555553],[-79.84927758333333,25.975176527777776],[-79.84938522222222,25.974625666666665],[-79.84952038888889,25.973461027777777],[-79.84936258333333,25.971430916666666],[-79.84904855555556,25.970294805555554],[-79.84885677777777,25.969762944444444],[-79.84852575,25.969375944444444],[-79.84763916666667,25.96861622222222],[-79.84671452777778,25.968334916666667],[-79.84641508333333,25.968353916666665],[-79.84554302777778,25.968749305555555],[-79.84470777777777,25.96961836111111],[-79.84451475,25.970038638888887],[-79.84440708333332,25.9705895],[-79.84427186111111,25.971754166666663]]},"properties":{"style":"solid","thickness":1}},{"type":"Feature","geometry":{"type":"LineString","coordinates":[[-80.05328961111111,25.90570711111111],[-80.05401669444444,25.90634],[-80.05417172222222,25.906397916666666],[-80.05515505555556,25.906470055555555],[-80.05596725,25.90628122222222],[-80.05639463888889,25.905981388888886],[-80.05681663888889,25.905613916666667],[-80.05714230555556,25.90498061111111],[-80.05701863888889,25.90342436111111],[-80.05652136111111,25.902844583333334],[-80.05620061111111,25.90259336111111],[-80.05504616666667,25.90226033333333],[-80.0537475,25.902004666666667],[-80.0528175,25.901657027777777],[-80.052486,25.9012705],[-80.05226113888888,25.900332916666667],[-80.05234088888889,25.899443583333333],[-80.05267194444444,25.898877972222223],[-80.05302449999999,25.898583],[-80.05330761111111,25.898360555555556],[-80.05366552777778,25.898133277777777],[-80.05447230555555,25.897876805555555],[-80.05492116666666,25.89784761111111],[-80.05538077777777,25.897953777777776],[-80.05600075,25.898185527777777],[-80.05639630555555,25.89843186111111],[-80.056963,25.89893913888889]]},"properties":{"style":"solid","thickness":1}},{"type":"Feature","geometry":{"type":"LineString","coordinates":[[-80.03604494444444,25.90730272222222],[-80.03651530555555,25.907544249999997],[-80.03704975,25.90764561111111],[-80.03884533333333,25.907529138888886],[-80.03950794444444,25.90735011111111],[-80.039727,25.90726788888889],[-80.04080094444444,25.90658608333333],[-80.04142058333333,25.90586575],[-80.04159133333333,25.905174555555554],[-80.04201841666666,25.90392261111111],[-80.04189491666666,25.90236636111111],[-80.04168625,25.90163175],[-80.0414135,25.90103736111111],[-80.04106058333333,25.900380138888888],[-80.04025341666666,25.89968438888889],[-80.03877833333333,25.89909997222222],[-80.03778969444444,25.898960083333332],[-80.03696677777778,25.899013472222222],[-80.03593552777778,25.899284388888887],[-80.03557758333334,25.89951163888889],[-80.03528905555555,25.89966638888889]]},"properties":{"style":"solid","thickness":1}},{"type":"Feature","geometry":{"type":"LineString","coordinates":[[-80.0325221388889,25.9036545],[-80.02788366666667,25.903955166666666]]},"properties":{"style":"solid","thickness":1}},{"type":"Feature","geometry":{"type":"LineString","coordinates":[[-80.02496633333334,25.906048527777777],[-80.0249985,25.9064545],[-80.02488638888889,25.90693786111111],[-80.02463536111111,25.907566222222222],[-80.02436822222222,25.90799158333333],[-80.02394077777778,25.90829133333333],[-80.02335294444444,25.908465416666665],[-80.02223069444445,25.90853811111111],[-80.021397,25.90845608333333],[-80.02100683333333,25.908277305555554],[-80.02044561111111,25.907837583333333],[-80.02026919444444,25.907508944444444],[-80.02007672222223,25.906977305555554],[-80.01999102777778,25.90589469444444],[-80.02010849999999,25.905479],[-80.0206693611111,25.904014444444442],[-80.02149213888889,25.903008999999997],[-80.02281177777778,25.901631305555554],[-80.02439852777778,25.89982825],[-80.01968536111112,25.9001335]]},"properties":{"style":"solid","thickness":1}},{"type":"Feature","geometry":{"type":"LineString","coordinates":[[-80.01163808333334,25.90391888888889],[-80.01179861111112,25.905948833333333],[-80.01211405555556,25.90708461111111],[-80.0123065,25.90761625],[-80.01256305555556,25.90800772222222],[-80.01352511111111,25.90876161111111],[-80.01444966666666,25.909041833333333],[-80.01474894444445,25.909022472222222],[-80.01562,25.908626055555555],[-80.01637872222223,25.907760805555554],[-80.01664586111112,25.907335444444442],[-80.01675266666666,25.906784444444444],[-80.01688608333333,25.90561961111111],[-80.01672544444445,25.903589666666665],[-80.01641,25.902453916666666],[-80.01621752777778,25.901922277777775],[-80.01588616666666,25.901535638888888],[-80.01499897222222,25.90077694444444],[-80.01407444444445,25.900496722222222],[-80.01377519444445,25.900516083333333],[-80.01290422222222,25.900912499999997],[-80.01207069444445,25.901782555555553],[-80.01187836111112,25.902203055555553],[-80.01177152777778,25.902754055555555],[-80.01163808333334,25.90391888888889]]},"properties":{"style":"solid","thickness":1}},{"type":"Feature","geometry":{"type":"LineString","coordinates":[[-80.19796077777778,26.04620855555556],[-80.19799355555556,26.0466145],[-80.197882,26.047097972222225],[-80.19763158333333,26.047726611111113],[-80.19736477777778,26.04815227777778],[-80.19693725,26.04845252777778],[-80.19634897222222,26.048627305555556],[-80.1952255,26.048701333333334],[-80.19439069444445,26.04862027777778],[-80.19399983333334,26.048441972222225],[-80.19343730555556,26.04800291666667],[-80.19326022222222,26.047674500000003],[-80.19306672222223,26.04714311111111],[-80.19297936111111,26.046060611111113],[-80.19309638888889,26.045644805555558],[-80.19365577777778,26.04417961111111],[-80.19447805555556,26.043173222222222],[-80.19579730555556,26.04179402777778],[-80.19738327777779,26.03998911111111],[-80.19266502777778,26.040299944444445]]},"properties":{"style":"solid","thickness":1}},{"type":"Feature","geometry":{"type":"LineString","coordinates":[[-80.18511416666666,26.04936702777778],[-80.18855952777778,26.04914027777778],[-80.18916355555555,26.04542766666667],[-80.18851130555556,26.04574266666667],[-80.18793944444445,26.04612038888889],[-80.18659127777778,26.046209111111114],[-80.18590630555556,26.04611816666667],[-80.18519947222222,26.045756583333336],[-80.1843741388889,26.044858694444446],[-80.18415888888889,26.04405666666667],[-80.18407705555556,26.043041805555557],[-80.18446641666667,26.042268],[-80.18493066666667,26.041489277777778],[-80.18513897222222,26.04127152777778],[-80.18556105555555,26.04090366666667],[-80.18629908333334,26.040719055555556],[-80.18712291666667,26.040664833333334],[-80.18773297222222,26.040760722222224],[-80.18850375000001,26.040982055555556],[-80.18922144444444,26.04147891666667],[-80.18931272222223,26.041676972222223]]},"properties":{"style":"solid","thickness":1}},{"type":"Feature","geometry":{"type":"LineString","coordinates":[[-79.68515258333333,26.051422444444444],[-79.68088205555556,26.05168861111111]]},"properties":{"style":"solid","thickness":1}},{"type":"Feature","geometry":{"type":"LineString","coordinates":[[-79.68098808333333,26.05603386111111],[-79.68548352777778,26.055753666666668],[-79.68482680555556,26.04715888888889]]},"properties":{"style":"solid","thickness":1}},{"type":"Feature","geometry":{"type":"LineString","coordinates":[[-79.6603736388889,26.055209027777778],[-79.66033997222223,26.055755083333334],[-79.66021591666667,26.056102777777777],[-79.65973786111111,26.056744472222224],[-79.65930891666667,26.05704313888889],[-79.65888000000001,26.05734177777778],[-79.65821597222222,26.057519055555556],[-79.65784133333334,26.057542333333334],[-79.65700683333334,26.057458194444447],[-79.65629641666668,26.057026361111113],[-79.65581077777779,26.056580583333336],[-79.65570494444445,26.056179166666666],[-79.65560186111112,26.05482563888889],[-79.65587061111111,26.054400972222222],[-79.65635900000001,26.053894638888888],[-79.65699208333334,26.053311333333333],[-79.65751655555556,26.053278722222224]]},"properties":{"style":"solid","thickness":1}},{"type":"Feature","geometry":{"type":"LineString","coordinates":[[-79.65699208333334,26.053311333333333],[-79.65605691666667,26.052893472222223],[-79.65573661111112,26.05264138888889],[-79.65532591666667,26.052190916666667],[-79.65523552777778,26.051992555555557],[-79.65511422222222,26.051388111111113],[-79.65509875000001,26.051185083333333],[-79.65513244444445,26.050639027777777],[-79.65525136111111,26.050223666666668],[-79.6555898888889,26.04972663888889],[-79.65601366666667,26.049360333333336],[-79.65673194444445,26.048907694444445],[-79.65845511111112,26.048800611111112],[-79.65899502777778,26.048971027777778],[-79.6598603888889,26.049461194444447],[-79.66002055555556,26.049587250000002],[-79.6602968888889,26.05025002777778],[-79.66031752777778,26.050520722222224]]},"properties":{"style":"solid","thickness":1}},{"type":"Feature","geometry":{"type":"LineString","coordinates":[[-79.68694525000001,25.889657277777776],[-79.68268055555556,25.88992361111111]]},"properties":{"style":"solid","thickness":1}},{"type":"Feature","geometry":{"type":"LineString","coordinates":[[-79.68278658333334,25.89426897222222],[-79.68727591666666,25.89398863888889],[-79.68661977777778,25.88539361111111]]},"properties":{"style":"solid","thickness":1}},{"type":"Feature","geometry":{"type":"LineString","coordinates":[[-79.8823811111111,25.970350138888886],[-79.87811397222221,25.970622055555555]]},"properties":{"style":"solid","thickness":1}},{"type":"Feature","geometry":{"type":"LineString","coordinates":[[-79.87822708333333,25.974967166666666],[-79.88271897222222,25.974680944444444],[-79.88204852777777,25.966087027777778]]},"properties":{"style":"solid","thickness":1}},{"type":"Feature","geometry":{"type":"LineString","coordinates":[[-80.04927488888889,25.902499277777775],[-80.04501058333334,25.902776222222222]]},"properties":{"style":"solid","thickness":1}},{"type":"Feature","geometry":{"type":"LineString","coordinates":[[-80.04512983333333,25.90712125],[-80.04961875,25.90682975],[-80.04893641666666,25.898236472222223]]},"properties":{"style":"solid","thickness":1}}]}
