{"type":"FeatureCollection","features":[{"type":"Feature","geometry":{"type":"LineString","coordinates":[[-80.57725813888888,26.4538275],[-80.56020649999999,26.45493325]]},"properties":{"style":"solid","thickness":1}},{"type":"Feature","geometry":{"type":"LineString","coordinates":[[-80.43426711111111,26.295439194444445],[-80.41723694444445,26.29652816666667]]},"properties":{"style":"solid","thickness":1}},{"type":"Feature","geometry":{"type":"LineString","coordinates":[[-80.41486822222222,26.116360694444445],[-80.39786358333335,26.117447416666668]]},"properties":{"style":"solid","thickness":1}},{"type":"Feature","geometry":{"type":"LineString","coordinates":[[-80.83939322222221,26.08881275],[-80.82239677777777,26.089948944444444]]},"properties":{"style":"solid","thickness":1}},{"type":"Feature","geometry":{"type":"LineString","coordinates":[[-80.46771072222222,25.99998352777778],[-80.45072319444445,26.00107638888889]]},"properties":{"style":"solid","thickness":1}},{"type":"Feature","geometry":{"type":"LineString","coordinates":[[-80.5070235,25.934561833333333],[-80.49004566666667,25.935659277777777]]},"properties":{"style":"solid","thickness":1}},{"type":"Feature","geometry":{"type":"LineString","coordinates":[[-80.55210124999999,25.856572777777778],[-80.53513491666666,25.857675444444446]]},"properties":{"style":"solid","thickness":1}},{"type":"Feature","geometry":{"type":"LineString","coordinates":[[-80.4404871388889,25.832296166666666],[-80.42352316666667,25.833385888888888]]},"properties":{"style":"solid","thickness":1}},{"type":"Feature","geometry":{"type":"LineString","coordinates":[[-80.98880972222223,25.77551847222222],[-80.97185938888889,25.776671694444442]]},"properties":{"style":"solid","thickness":1}},{"type":"Feature","geometry":{"type":"LineString","coordinates":[[-80.80443925,25.877450638888888],[-80.78747252777778,25.878582583333333]]},"properties":{"style":"solid","thickness":1}},{"type":"Feature","geometry":{"type":"LineString","coordinates":[[-79.99463213888889,25.949104388888887],[-79.97764769444444,25.950142222222222]]},"properties":{"style":"solid","thickness":1}},{"type":"Feature","geometry":{"type":"LineString","coordinates":[[-79.70415891666667,26.056838222222222],[-79.68715691666667,26.05784211111111]]},"properties":{"style":"solid","thickness":1}},{"type":"Feature","geometry":{"type":"LineString","coordinates":[[-79.91999311111111,26.126879388888888],[-79.90298269444445,26.12790836111111]]},"properties":{"style":"solid","thickness":1}},{"type":"Feature","geometry":{"type":"LineString","coordinates":[[-80.89063800000001,25.766527],[-80.89063800000001,25.766527],[-80.87514805555556,25.637834777777776]]},"properties":{"style":"solid","thickness":1}},{"type":"Feature","geometry":{"type":"LineString","coordinates":[[-80.87514805555556,25.637834777777776],[-80.87514805555556,25.637834777777776],[-81.00649397222222,25.74876688888889]]},"properties":{"style":"solid","thickness":1}},{"type":"Feature","geometry":{"type":"LineString","coordinates":[[-81.00649397222222,25.74876688888889],[-81.00649397222222,25.74876688888889],[-80.999134,25.816247]]},"properties":{"style":"solid","thickness":1}},{"type":"Feature","geometry":{"type":"LineString","coordinates":[[-80.999134,25.816247],[-80.999134,25.816247],[-80.985281,25.944728]]},"properties":{"style":"solid","thickness":1}},{"type":"Feature","geometry":{"type":"LineString","coordinates":[[-80.985281,25.944728],[-80.985281,25.944728],[-80.613406,25.962346999999998]]},"properties":{"style":"solid","thickness":1}},{"type":"Feature","geometry":{"type":"LineString","coordinates":[[-80.613406,25.962346999999998],[-80.613406,25.962346999999998],[-80.627989,25.933078000000002]]},"properties":{"style":"solid","thickness":1}},{"type":"Feature","geometry":{"type":"LineString","coordinates":[[-80.627989,25.933078000000002],[-80.627989,25.933078000000002],[-80.638917,25.911710999999997]]},"properties":{"style":"solid","thickness":1}},{"type":"Feature","geometry":{"type":"LineString","coordinates":[[-80.638917,25.911710999999997],[-80.638917,25.911710999999997],[-80.64761100000001,25.888575]]},"properties":{"style":"solid","thickness":1}},{"type":"Feature","geometry":{"type":"LineString","coordinates":[[-80.64761100000001,25.888575],[-80.64761100000001,25.888575],[-80.65613300000001,25.855208]]},"properties":{"style":"solid","thickness":1}},{"type":"Feature","geometry":{"type":"LineString","coordinates":[[-80.65613300000001,25.855208],[-80.65613300000001,25.855208],[-80.660994,25.827247]]},"properties":{"style":"solid","thickness":1}},{"type":"Feature","geometry":{"type":"LineString","coordinates":[[-80.660994,25.827247],[-80.660994,25.827247],[-80.66169400000001,25.800378000000002]]},"properties":{"style":"solid","thickness":1}},{"type":"Feature","geometry":{"type":"LineString","coordinates":[[-80.66169400000001,25.800378000000002],[-80.66169400000001,25.800378000000002],[-80.66029400000001,25.778005999999998]]},"properties":{"style":"solid","thickness":1}},{"type":"Feature","geometry":{"type":"LineString","coordinates":[[-80.66029400000001,25.778005999999998],[-80.66029400000001,25.778005999999998],[-80.47712800000001,25.785675]]},"properties":{"style":"solid","thickness":1}},{"type":"Feature","geometry":{"type":"LineString","coordinates":[[-80.66029400000001,25.778005999999998],[-80.89063800000001,25.766527]]},"properties":{"style":"solid","thickness":1}},{"type":"Feature","geometry":{"type":"LineString","coordinates":[[-80.47712800000001,25.785675],[-80.47712800000001,25.785675],[-80.291372,25.794558000000002]]},"properties":{"style":"solid","thickness":1}},{"type":"Feature","geometry":{"type":"LineString","coordinates":[[-80.291372,25.794558000000002],[-80.291372,25.794558000000002],[-80.290803,25.867764]]},"properties":{"style":"solid","thickness":1}},{"type":"Feature","geometry":{"type":"LineString","coordinates":[[-80.290803,25.867764],[-80.290803,25.867764],[-80.459367,25.867242]]},"properties":{"style":"solid","thickness":1}},{"type":"Feature","geometry":{"type":"LineString","coordinates":[[-80.459367,25.867242],[-80.459367,25.867242],[-80.467525,25.850478000000003]]},"properties":{"style":"solid","thickness":1}},{"type":"Feature","geometry":{"type":"LineString","coordinates":[[-80.467525,25.850478000000003],[-80.467525,25.850478000000003],[-80.47111100000001,25.838883]]},"properties":{"style":"solid","thickness":1}},{"type":"Feature","geometry":{"type":"LineString","coordinates":[[-80.47111100000001,25.838883],[-80.47111100000001,25.838883],[-80.474014,25.827575]]},"properties":{"style":"solid","thickness":1}},{"type":"Feature","geometry":{"type":"LineString","coordinates":[[-80.474014,25.827575],[-80.474014,25.827575],[-80.476603,25.81185]]},"properties":{"style":"solid","thickness":1}},{"type":"Feature","geometry":{"type":"LineString","coordinates":[[-80.476603,25.81185],[-80.476603,25.81185],[-80.47757800000001,25.796619000000003]]},"properties":{"style":"solid","thickness":1}},{"type":"Feature","geometry":{"type":"LineString","coordinates":[[-80.47757800000001,25.796619000000003],[-80.47757800000001,25.796619000000003],[-80.47712800000001,25.785675]]},"properties":{"style":"solid","thickness":1}},{"type":"Feature","geometry":{"type":"LineString","coordinates":[[-80.290283,25.912606],[-80.290283,25.912606],[-80.290803,25.867764]]},"properties":{"style":"solid","thickness":1}},{"type":"Feature","geometry":{"type":"LineString","coordinates":[[-80.290283,25.912606],[-80.290283,25.912606],[-80.289583,25.963186]]},"properties":{"style":"solid","thickness":1}},{"type":"Feature","geometry":{"type":"LineString","coordinates":[[-80.290283,25.912606],[-80.290283,25.912606],[-80.52465,25.902338999999998]]},"properties":{"style":"solid","thickness":1}},{"type":"Feature","geometry":{"type":"LineString","coordinates":[[-80.52465,25.902338999999998],[-80.52465,25.902338999999998],[-80.588678,25.963425]]},"properties":{"style":"solid","thickness":1}},{"type":"Feature","geometry":{"type":"LineString","coordinates":[[-80.289583,25.963186],[-80.289583,25.963186],[-80.588678,25.963425]]},"properties":{"style":"solid","thickness":1}},{"type":"Feature","geometry":{"type":"LineString","coordinates":[[-80.588678,25.963425],[-80.588678,25.963425],[-80.613406,25.962346999999998]]},"properties":{"style":"solid","thickness":1}},{"type":"Feature","geometry":{"type":"LineString","coordinates":[[-80.985281,25.944728],[-80.985281,25.944728],[-80.976744,26.022050999999998]]},"properties":{"style":"solid","thickness":1}},{"type":"Feature","geometry":{"type":"LineString","coordinates":[[-80.976744,26.022050999999998],[-80.976744,26.022050999999998],[-80.667798,26.037013]]},"properties":{"style":"solid","thickness":1}},{"type":"Feature","geometry":{"type":"LineString","coordinates":[[-80.150464,26.072078],[-80.150464,26.072078],[-80.14580000000001,25.963210999999998]]},"properties":{"style":"solid","thickness":1}},{"type":"Feature","geometry":{"type":"LineString","coordinates":[[-80.14580000000001,25.963210999999998],[-80.14580000000001,25.963210999999998],[-80.289583,25.963186]]},"properties":{"style":"solid","thickness":1}},{"type":"Feature","geometry":{"type":"LineString","coordinates":[[-80.667798,26.037013],[-80.667798,26.037013],[-80.807292,26.167983]]},"properties":{"style":"solid","thickness":1}},{"type":"Feature","geometry":{"type":"LineString","coordinates":[[-80.807292,26.167983],[-80.807292,26.167983],[-80.63536400000001,26.197306]]},"properties":{"style":"solid","thickness":1}},{"type":"Feature","geometry":{"type":"LineString","coordinates":[[-80.63536400000001,26.197306],[-80.63536400000001,26.197306],[-80.15420800000001,26.19825]]},"properties":{"style":"solid","thickness":1}},{"type":"Feature","geometry":{"type":"LineString","coordinates":[[-80.15420800000001,26.19825],[-80.15420800000001,26.19825],[-80.150464,26.072078]]},"properties":{"style":"solid","thickness":1}},{"type":"Feature","geometry":{"type":"LineString","coordinates":[[-80.89027800000001,26.180556000000003],[-80.89027800000001,26.180556000000003],[-80.67194400000001,26.383333]]},"properties":{"style":"solid","thickness":1}},{"type":"Feature","geometry":{"type":"LineString","coordinates":[[-80.67194400000001,26.383333],[-80.67194400000001,26.383333],[-80.09694063888888,26.38506577777778]]},"properties":{"style":"solid","thickness":1}},{"type":"Feature","geometry":{"type":"LineString","coordinates":[[-80.09797022222222,26.384138805555555],[-80.09797022222222,26.384138805555555],[-80.09899983333332,26.199203194444443]]},"properties":{"style":"solid","thickness":1}},{"type":"Feature","geometry":{"type":"LineString","coordinates":[[-80.09899983333332,26.199203194444443],[-80.09899983333332,26.199203194444443],[-80.15420800000001,26.19825]]},"properties":{"style":"solid","thickness":1}},{"type":"Feature","geometry":{"type":"LineString","coordinates":[[-80.89027800000001,26.180556000000003],[-80.89027800000001,26.180556000000003],[-80.89744683333333,26.287267777777778]]},"properties":{"style":"solid","thickness":1}},{"type":"Feature","geometry":{"type":"LineString","coordinates":[[-80.89744683333333,26.287267777777778],[-80.89744683333333,26.287267777777778],[-80.656008,26.514381666666665]]},"properties":{"style":"solid","thickness":1}},{"type":"Feature","geometry":{"type":"LineString","coordinates":[[-80.65549319444445,26.514845138888887],[-80.65549319444445,26.514845138888887],[-80.27403011111112,26.513918166666667]]},"properties":{"style":"solid","thickness":1}},{"type":"Feature","geometry":{"type":"LineString","coordinates":[[-80.27403011111112,26.513918166666667],[-80.27403011111112,26.513918166666667],[-80.180712,26.383371999999998]]},"properties":{"style":"solid","thickness":1}},{"type":"Feature","geometry":{"type":"LineString","coordinates":[[-80.150464,26.072078],[-80.150464,26.072078],[-79.89617844444444,26.070957222222223]]},"properties":{"style":"solid","thickness":1}},{"type":"Feature","geometry":{"type":"LineString","coordinates":[[-79.89617844444444,26.070957222222223],[-79.89617844444444,26.070957222222223],[-79.833816,26.098247999999998]]},"properties":{"style":"solid","thickness":1}},{"type":"Feature","geometry":{"type":"LineString","coordinates":[[-79.833816,26.098247999999998],[-79.833816,26.098247999999998],[-79.609783,26.196315555555557]]},"properties":{"style":"solid","thickness":1}},{"type":"Feature","geometry":{"type":"LineString","coordinates":[[-79.6100591111111,26.195688055555557],[-79.6100591111111,26.195688055555557],[-79.58313102777777,26.137500499999998]]},"properties":{"style":"solid","thickness":1}},{"type":"Feature","geometry":{"type":"LineString","coordinates":[[-79.58313102777777,26.137500499999998],[-79.58313102777777,26.137500499999998],[-79.50281505555556,26.076361416666668]]},"properties":{"style":"solid","thickness":1}},{"type":"Feature","geometry":{"type":"LineString","coordinates":[[-79.50281505555556,26.076361416666668],[-79.50281505555556,26.076361416666668],[-79.498056,26.060833000000002]]},"properties":{"style":"solid","thickness":1}},{"type":"Feature","geometry":{"type":"LineString","coordinates":[[-79.83401699999999,26.069972],[-79.83401699999999,26.069972],[-79.833816,26.098247999999998]]},"properties":{"style":"solid","thickness":1}},{"type":"Feature","geometry":{"type":"LineString","coordinates":[[-79.83401699999999,26.069972],[-79.83401699999999,26.069972],[-79.83601399999999,25.962606]]},"properties":{"style":"solid","thickness":1}},{"type":"Feature","geometry":{"type":"LineString","coordinates":[[-79.83601399999999,25.962606],[-79.83601399999999,25.962606],[-79.70054400000001,25.962896]]},"properties":{"style":"solid","thickness":1}},{"type":"Feature","geometry":{"type":"LineString","coordinates":[[-79.70054400000001,25.962896],[-79.70054400000001,25.962896],[-79.69958600000001,25.821925]]},"properties":{"style":"solid","thickness":1}},{"type":"Feature","geometry":{"type":"LineString","coordinates":[[-79.69958600000001,25.821925],[-79.69958600000001,25.821925],[-79.652932,25.822751]]},"properties":{"style":"solid","thickness":1}},{"type":"Feature","geometry":{"type":"LineString","coordinates":[[-79.652932,25.822751],[-79.652932,25.822751],[-79.498056,26.060833000000002]]},"properties":{"style":"solid","thickness":1}},{"type":"Feature","geometry":{"type":"LineString","coordinates":[[-79.652932,25.822751],[-79.652932,25.822751],[-79.69979083333334,25.750111694444445]]},"properties":{"style":"solid","thickness":1}},{"type":"Feature","geometry":{"type":"LineString","coordinates":[[-79.69979083333334,25.750111694444445],[-79.69979083333334,25.750111694444445],[-79.69912275,25.708006194444444]]},"properties":{"style":"solid","thickness":1}},{"type":"Feature","geometry":{"type":"LineString","coordinates":[[-79.92025669444445,25.812668416666668],[-79.92025669444445,25.812668416666668],[-79.69912275,25.706803194444444]]},"properties":{"style":"solid","thickness":1}},{"type":"Feature","geometry":{"type":"LineString","coordinates":[[-79.91958861111111,25.81086391666667],[-79.91958861111111,25.81086391666667],[-80.291372,25.794558000000002]]},"properties":{"style":"solid","thickness":1}},{"type":"Feature","geometry":{"type":"LineString","coordinates":[[-80.89027800000001,26.180556000000003],[-80.89027800000001,26.180556000000003],[-80.96594080555556,26.106307944444445]]},"properties":{"style":"solid","thickness":1}},{"type":"Feature","geometry":{"type":"LineString","coordinates":[[-80.96594080555556,26.106307944444445],[-80.96594080555556,26.106307944444445],[-80.976744,26.022050999999998]]},"properties":{"style":"solid","thickness":1}},{"type":"Feature","geometry":{"type":"LineString","coordinates":[[-80.89023883333334,26.180862055555558],[-80.89023883333334,26.180862055555558],[-80.80694238888888,26.167819222222224]]},"properties":{"style":"solid","thickness":1}},{"type":"Feature","geometry":{"type":"LineString","coordinates":[[-79.895639,26.070414],[-79.895639,26.070414],[-79.83401699999999,26.069972]]},"properties":{"style":"solid","thickness":1}},{"type":"Feature","geometry":{"type":"LineString","coordinates":[[-80.667798,26.037013],[-80.667798,26.037013],[-80.52063199999999,26.043719000000003]]},"properties":{"style":"solid","thickness":1}},{"type":"Feature","geometry":{"type":"LineString","coordinates":[[-80.52063199999999,26.043719000000003],[-80.52063199999999,26.043719000000003],[-80.482832,26.04519]]},"properties":{"style":"solid","thickness":1}},{"type":"Feature","geometry":{"type":"LineString","coordinates":[[-80.482832,26.04519],[-80.482832,26.04519],[-80.149433,26.043517]]},"properties":{"style":"solid","thickness":1}},{"type":"Feature","geometry":{"type":"LineString","coordinates":[[-80.9314771388889,25.722974694444442],[-80.91453361111111,25.724121194444443]]},"properties":{"style":"solid","thickness":1}},{"type":"Feature","geometry":{"type":"LineString","coordinates":[[-80.89063800000001,25.766527],[-81.00519494444444,25.760682305555555]]},"properties":{"style":"solid","thickness":1}},{"type":"Feature","geometry":{"type":"LineString","coordinates":[[-80.89737413888889,25.79795341666667],[-80.89063800000001,25.766527]]},"properties":{"style":"solid","thickness":1}},{"type":"Feature","geometry":{"type":"LineString","coordinates":[[-80.89737777777779,25.79795277777778],[-81.00214702777778,25.788630611111113]]},"properties":{"style":"solid","thickness":1}},{"type":"Feature","geometry":{"type":"LineString","coordinates":[[-79.88243652777777,26.101615916666667],[-79.85147319444444,26.075106166666668]]},"properties":{"style":"solid","thickness":1}},{"type":"Feature","geometry":{"type":"LineString","coordinates":[[-79.8552283611111,26.085528527777775],[-79.85147319444444,26.075106166666668],[-79.8631968611111,26.077939833333332]]},"properties":{"style":"solid","thickness":1}},{"type":"Feature","geometry":{"type":"LineString","coordinates":[[-80.57875683333333,26.464187638888887],[-80.57763330555555,26.464299916666665],[-80.57660202777777,26.455940444444444]]},"properties":{"style":"solid","thickness":1}},{"type":"Feature","geometry":{"type":"LineString","coordinates":[[-80.56984347222222,26.465078249999998],[-80.57076741666667,26.463962277777778],[-80.57154983333334,26.462928666666667],[-80.57219077777778,26.461977444444443],[-80.57257366666666,26.46139322222222],[-80.57286502777778,26.46068163888889],[-80.57293166666666,26.45999252777778],[-80.57293175,26.459378305555553],[-80.57278208333332,26.45816483333333],[-80.57249919444445,26.45771536111111],[-80.57214972222222,26.457340805555553],[-80.57179194444444,26.456898833333334],[-80.57015258333332,26.45651663888889],[-80.56925383333333,26.456606416666666],[-80.56833833333333,26.45717558333333],[-80.56820516666666,26.457325388888886],[-80.56767247222221,26.457924555555554],[-80.56761419444445,26.45806686111111],[-80.56743097222221,26.45904061111111],[-80.56751408333334,26.459714777777776],[-80.56772205555555,26.46017172222222],[-80.56792172222222,26.460561249999998],[-80.5682795,26.46100325],[-80.56893688888889,26.461415305555555],[-80.56956933333333,26.46162511111111],[-80.56995216666667,26.46165511111111],[-80.57047644444444,26.46160272222222],[-80.57084263888889,26.461497916666666],[-80.57204944444445,26.460831388888888],[-80.57294,26.460059944444442]]},"properties":{"style":"solid","thickness":1}},{"type":"Feature","geometry":{"type":"LineString","coordinates":[[-80.55931661111111,26.4608745],[-80.55956580555555,26.462896999999998],[-80.55993175,26.46402063888889],[-80.560148,26.464544999999998],[-80.56042255555555,26.464927083333333],[-80.56142108333333,26.465646333333332],[-80.56236147222222,26.465893666666666],[-80.56266108333332,26.465863777777777],[-80.56351838888888,26.465436944444445],[-80.56424261111111,26.464545694444443],[-80.5644923611111,26.46411127777778],[-80.56457569444444,26.463556999999998],[-80.56465913888889,26.462388472222223],[-80.56440983333333,26.460366],[-80.56404388888889,26.45924238888889],[-80.56382761111111,26.458717999999998],[-80.56347816666667,26.458343416666665],[-80.56255458333332,26.457616694444443],[-80.56161424999999,26.45736936111111],[-80.56131466666666,26.457399249999998],[-80.56045741666667,26.457826083333334],[-80.55965830555556,26.45872477777778],[-80.55948344444444,26.45915172222222],[-80.5594001111111,26.459706],[-80.55931661111111,26.4608745]]},"properties":{"style":"solid","thickness":1}},{"type":"Feature","geometry":{"type":"LineString","coordinates":[[-80.57752233333333,26.450663972222223],[-80.57639894444443,26.45077625],[-80.57536788888889,26.44241675]]},"properties":{"style":"solid","thickness":1}},{"type":"Feature","geometry":{"type":"LineString","coordinates":[[-80.56644752777777,26.44508241666667],[-80.57168980555555,26.444558722222222],[-80.56809405555555,26.451674305555557],[-80.56706358333334,26.44331475]]},"properties":{"style":"solid","thickness":1}},{"type":"Feature","geometry":{"type":"LineString","coordinates":[[-80.55838397222222,26.44732075],[-80.5586331111111,26.449343250000002],[-80.558999,26.450466916666667],[-80.55921522222222,26.450991277777778],[-80.55948975,26.45137336111111],[-80.56048816666666,26.45209261111111],[-80.56142844444445,26.452339972222223],[-80.561728,26.452310055555554],[-80.56258522222222,26.451883249999998],[-80.56330936111111,26.450992],[-80.56355908333333,26.45055758333333],[-80.56364241666667,26.450003305555555],[-80.56372583333334,26.44883477777778],[-80.56347661111111,26.446812305555557],[-80.56311069444445,26.445688666666666],[-80.56289444444444,26.445164277777778],[-80.56254505555555,26.444789694444445],[-80.56162158333333,26.444062972222223],[-80.56068136111111,26.443815611111113],[-80.56038180555555,26.44384552777778],[-80.55952466666666,26.444272333333334],[-80.55872563888889,26.44517102777778],[-80.55855077777777,26.445597972222224],[-80.55846744444445,26.44615225],[-80.55838397222222,26.44732075]]},"properties":{"style":"solid","thickness":1}},{"type":"Feature","geometry":{"type":"LineString","coordinates":[[-80.43575119444445,26.30580127777778],[-80.43462902777779,26.30591247222222],[-80.43360930555556,26.297551583333334]]},"properties":{"style":"solid","thickness":1}},{"type":"Feature","geometry":{"type":"LineString","coordinates":[[-80.42684869444444,26.306683166666666],[-80.42777275,26.305568027777777],[-80.4285553888889,26.30453513888889],[-80.42919661111111,26.3035845],[-80.42957969444446,26.30300063888889],[-80.42987152777778,26.302289305555558],[-80.42993894444444,26.301600222222223],[-80.42993975,26.30098597222222],[-80.42979177777778,26.299772305555557],[-80.42950980555555,26.29932255555556],[-80.42916125,26.298947611111114],[-80.4288045,26.298505277777778],[-80.42716780555556,26.298121444444448],[-80.4262701388889,26.298210333333333],[-80.42535516666668,26.29877863888889],[-80.425222,26.298928305555556],[-80.42468927777779,26.299526972222225],[-80.42463091666667,26.29966925],[-80.42444675,26.30064286111111],[-80.42452891666667,26.30131711111111],[-80.42473605555556,26.301774305555558],[-80.424935,26.302164055555558],[-80.42529175,26.302606416666666],[-80.42594775,26.30301913888889],[-80.42657911111111,26.303229583333334],[-80.4269613888889,26.303259944444445],[-80.42748505555556,26.303208083333335],[-80.42785086111111,26.30310363888889],[-80.42905686111112,26.30243825],[-80.42994716666666,26.301667666666667]]},"properties":{"style":"solid","thickness":1}},{"type":"Feature","geometry":{"type":"LineString","coordinates":[[-80.41634102777779,26.302468833333332],[-80.41658744444445,26.30449163888889],[-80.41695150000001,26.305615694444445],[-80.41716683333334,26.306140305555555],[-80.41744055555556,26.306522666666666],[-80.41843688888889,26.307242944444447],[-80.41937572222223,26.30749122222222],[-80.41967497222223,26.307461611111112],[-80.42053163888889,26.30703561111111],[-80.42125597222223,26.306145027777777],[-80.42150591666667,26.305710861111113],[-80.42158980555556,26.305156611111112],[-80.42167455555555,26.30398813888889],[-80.42142805555557,26.301965333333335],[-80.42106394444446,26.300841277777778],[-80.42084861111111,26.300316666666667],[-80.42050008333334,26.299941722222226],[-80.41957861111112,26.299214055555556],[-80.41863986111112,26.29896577777778],[-80.41834061111112,26.29899538888889],[-80.417484,26.29942138888889],[-80.4166848888889,26.300319333333334],[-80.41650972222223,26.300746111111113],[-80.41642583333334,26.30130036111111],[-80.41634102777779,26.302468833333332]]},"properties":{"style":"solid","thickness":1}},{"type":"Feature","geometry":{"type":"LineString","coordinates":[[-80.43326316666668,26.29240177777778],[-80.4321411388889,26.292512944444447],[-80.43112169444444,26.28415202777778]]},"properties":{"style":"solid","thickness":1}},{"type":"Feature","geometry":{"type":"LineString","coordinates":[[-80.42742858333334,26.29297977777778],[-80.42630652777778,26.293090916666667],[-80.42528750000001,26.284729944444447]]},"properties":{"style":"solid","thickness":1}},{"type":"Feature","geometry":{"type":"LineString","coordinates":[[-80.41669772222222,26.288787694444448],[-80.41694408333333,26.29081052777778],[-80.4173081388889,26.291934583333337],[-80.41752344444446,26.292459194444447],[-80.4177971388889,26.292841555555558],[-80.41879333333334,26.293561833333335],[-80.41973205555556,26.293810111111114],[-80.42003127777778,26.2937805],[-80.42088783333334,26.293354500000003],[-80.42161208333334,26.29246388888889],[-80.421862,26.292029722222225],[-80.4219458888889,26.291475472222224],[-80.42203061111111,26.290307000000002],[-80.4217841388889,26.288284166666667],[-80.42142008333335,26.28716013888889],[-80.42120475,26.28663552777778],[-80.42085627777779,26.286260583333334],[-80.41993491666668,26.285532916666668],[-80.41899625,26.285284611111113],[-80.41869705555555,26.285314250000003],[-80.41784055555556,26.285740222222223],[-80.41704152777778,26.286638194444446],[-80.41686638888889,26.287064972222225],[-80.41678250000001,26.287619194444446],[-80.41669772222222,26.288787694444448]]},"properties":{"style":"solid","thickness":1}},{"type":"Feature","geometry":{"type":"LineString","coordinates":[[-80.41634833333335,26.126723444444444],[-80.41522786111112,26.1268345],[-80.41421105555555,26.11847311111111]]},"properties":{"style":"solid","thickness":1}},{"type":"Feature","geometry":{"type":"LineString","coordinates":[[-80.4074591388889,26.127604166666668],[-80.40838197222223,26.126489111111113],[-80.40916361111111,26.12545627777778],[-80.40980402777778,26.124505694444444],[-80.41018661111111,26.123921833333334],[-80.41047813888889,26.12321052777778],[-80.41054555555556,26.122521416666668],[-80.41054647222222,26.12190713888889],[-80.41039891666668,26.12069338888889],[-80.41011744444445,26.120243583333334],[-80.40976950000001,26.119868583333332],[-80.40941333333333,26.119426166666667],[-80.40777916666667,26.11904211111111],[-80.40688283333334,26.11913088888889],[-80.40596919444445,26.119699083333334],[-80.40583619444445,26.11984875],[-80.40530416666667,26.12044736111111],[-80.40524586111111,26.12058963888889],[-80.40506180555556,26.12156325],[-80.40514375000001,26.122237555555557],[-80.40535050000001,26.122694777777777],[-80.40554905555557,26.123084583333334],[-80.40590522222223,26.123527],[-80.40656016666668,26.123939833333335],[-80.40719052777779,26.12415038888889],[-80.40757222222223,26.124180805555557],[-80.40809508333334,26.12412902777778],[-80.4084603888889,26.12402461111111],[-80.40966466666667,26.123359361111113],[-80.41055375,26.12258886111111]]},"properties":{"style":"solid","thickness":1}},{"type":"Feature","geometry":{"type":"LineString","coordinates":[[-80.39696802777779,26.12338822222222],[-80.39721372222223,26.125411166666666],[-80.39757705555556,26.126535305555556],[-80.39779197222222,26.127059972222224],[-80.39806522222223,26.127442388888888],[-80.39905991666667,26.128162833333334],[-80.39999730555556,26.12841125],[-80.40029611111112,26.128381666666666],[-80.40115155555556,26.127955777777778],[-80.40187491666667,26.12706525],[-80.40212458333333,26.126631083333333],[-80.40220841666667,26.126076833333332],[-80.40229325,26.124908333333334],[-80.40204744444445,26.12288538888889],[-80.40168408333334,26.12176125],[-80.40146916666667,26.121236583333335],[-80.40112122222223,26.120861583333333],[-80.40020127777778,26.12013375],[-80.39926397222223,26.119885305555556],[-80.39896519444446,26.11991488888889],[-80.39810977777779,26.120340777777777],[-80.39731172222223,26.121238694444443],[-80.39713677777779,26.121665444444446],[-80.3970528888889,26.122219694444446],[-80.39696802777779,26.12338822222222]]},"properties":{"style":"solid","thickness":1}},{"type":"Feature","geometry":{"type":"LineString","coordinates":[[-80.41092608333334,26.10965627777778],[-80.40876011111112,26.109870861111112],[-80.40750866666667,26.108902944444445],[-80.40731011111112,26.10851316666667],[-80.40711977777778,26.10819080555556],[-80.40702144444445,26.107381611111112],[-80.40724644444445,26.10674513888889],[-80.40762080555557,26.106093861111113],[-80.40803613888889,26.10577975],[-80.40831030555556,26.105547861111113],[-80.40888319444446,26.10528638888889],[-80.41022752777778,26.105153194444444],[-80.41084961111112,26.10529627777778],[-80.41133872222223,26.10558902777778],[-80.41176952777778,26.106024055555558],[-80.41205913888889,26.10654127777778],[-80.41219122222223,26.10700591666667],[-80.41227319444445,26.107680222222225],[-80.41223950000001,26.10802477777778],[-80.41206461111112,26.108451555555558],[-80.41179047222222,26.108683444444445],[-80.41092608333334,26.10965627777778],[-80.41166386111112,26.110129111111114],[-80.41210286111112,26.110631555555557],[-80.41229325,26.110953916666666],[-80.41242441666667,26.112032805555558],[-80.41214933333333,26.112878972222223],[-80.41194986111111,26.113103472222225],[-80.41131041666667,26.113439805555558],[-80.41088686111112,26.1136865],[-80.40991588888889,26.113782694444446],[-80.40921908333334,26.113647],[-80.40815794444445,26.113001444444446],[-80.40796758333335,26.112679083333333],[-80.40782008333333,26.111465333333335],[-80.40796219444445,26.110768833333335],[-80.40802869444445,26.110694000000002],[-80.40836936111111,26.11038727777778],[-80.40876011111112,26.109870861111112]]},"properties":{"style":"solid","thickness":1}},{"type":"Feature","geometry":{"type":"LineString","coordinates":[[-80.39904430555556,26.109536444444444],[-80.39929000000001,26.11155941666667],[-80.39965330555556,26.112683555555556],[-80.39986822222222,26.113208222222223],[-80.40014144444444,26.11359063888889],[-80.40113602777778,26.114311055555557],[-80.40207330555556,26.114559472222222],[-80.40237205555556,26.11452988888889],[-80.4032273888889,26.114103972222225],[-80.40395069444445,26.113213444444447],[-80.40420030555556,26.112779250000003],[-80.4042841388889,26.11222502777778],[-80.40436891666667,26.1110565],[-80.40412311111112,26.109033555555555],[-80.40375977777778,26.10790941666667],[-80.40354486111111,26.10738475],[-80.40319697222223,26.107009750000003],[-80.40227711111112,26.106281916666667],[-80.40133991666667,26.10603352777778],[-80.40104116666667,26.106063111111112],[-80.40018586111111,26.106489],[-80.39938791666667,26.10738691666667],[-80.39921297222223,26.107813694444445],[-80.3991291388889,26.108367944444446],[-80.39904430555556,26.109536444444444]]},"properties":{"style":"solid","thickness":1}},{"type":"Feature","geometry":{"type":"LineString","coordinates":[[-80.84090994444443,26.099171027777775],[-80.83979016666666,26.09928533333333],[-80.83874377777778,26.090927027777777]]},"properties":{"style":"solid","thickness":1}},{"type":"Feature","geometry":{"type":"LineString","coordinates":[[-80.83202616666667,26.10007761111111],[-80.83294477777777,26.09895988888889],[-80.83372252777777,26.097924805555554],[-80.83435938888888,26.09697236111111],[-80.83473980555556,26.096387416666666],[-80.83502872222222,26.09567525],[-80.83509363888888,26.094985972222222],[-80.83509238888888,26.094371694444444],[-80.83494052777777,26.093158388888888],[-80.83465752777778,26.09270938888889],[-80.83430830555555,26.092335444444444],[-80.83395066666667,26.091894055555553],[-80.83231555555555,26.091514749999998],[-80.83141977777777,26.09160613888889],[-80.83050836111111,26.092177],[-80.83037594444444,26.092327027777777],[-80.82984619444444,26.092927194444442],[-80.82978841666666,26.09306963888889],[-80.82960788888889,26.094043777777777],[-80.82969222222222,26.09471783333333],[-80.82990055555555,26.095174444444442],[-80.83010044444444,26.095563666666667],[-80.83045808333333,26.096005027777778],[-80.83111433333333,26.09641597222222],[-80.83174530555556,26.096624666666667],[-80.832127,26.096653999999997],[-80.83264955555555,26.096600666666667],[-80.83301438888888,26.096495194444444],[-80.83421597222221,26.095826444444445],[-80.83510208333333,26.09505336111111]]},"properties":{"style":"solid","thickness":1}},{"type":"Feature","geometry":{"type":"LineString","coordinates":[[-80.82152266666667,26.09589225],[-80.82177552777777,26.09791444444444],[-80.82214277777777,26.099037527777778],[-80.82235952777778,26.099561555555553],[-80.82263405555555,26.099943166666666],[-80.82363108333332,26.100660722222223],[-80.8245691111111,26.100906416666668],[-80.82486772222222,26.100875944444446],[-80.82572144444444,26.100447583333334],[-80.82644144444444,26.099554944444442],[-80.82668947222221,26.099120055555556],[-80.82677133333333,26.098565583333333],[-80.82685194444444,26.09739683333333],[-80.826599,26.095374638888888],[-80.82623172222222,26.09425158333333],[-80.82601497222223,26.093727555555553],[-80.82566577777777,26.093353555555556],[-80.82474347222222,26.092628416666667],[-80.82380552777778,26.092382722222222],[-80.82350691666666,26.092413194444443],[-80.82265325,26.092841555555555],[-80.82185858333332,26.09374175],[-80.82168522222221,26.094169027777777],[-80.82160333333333,26.094723499999997],[-80.82152266666667,26.09589225]]},"properties":{"style":"solid","thickness":1}},{"type":"Feature","geometry":{"type":"LineString","coordinates":[[-80.83942574999999,26.085671388888887],[-80.83830608333332,26.085785666666666],[-80.83725991666667,26.077427333333333]]},"properties":{"style":"solid","thickness":1}},{"type":"Feature","geometry":{"type":"LineString","coordinates":[[-80.83422080555555,26.083949777777775],[-80.83427141666667,26.08435422222222],[-80.83418116666667,26.084841305555553],[-80.8339585,26.085478416666664],[-80.83371052777777,26.08591333333333],[-80.83329641666667,26.086228638888887],[-80.83271611111111,26.086424388888886],[-80.83159641666666,26.08653863888889],[-80.83075844444444,26.086487583333334],[-80.83035991666667,26.086323444444442],[-80.82977836111111,26.085904916666667],[-80.82958691666666,26.08558311111111],[-80.82937016666666,26.08505908333333],[-80.82923525,26.083980583333332],[-80.82933394444444,26.083560916666666],[-80.82982866666666,26.082076833333332],[-80.83060633333334,26.081041777777777],[-80.83186430555556,26.07961636111111],[-80.83337019444444,26.077756027777777],[-80.82866783333333,26.078235805555554]]},"properties":{"style":"solid","thickness":1}},{"type":"Feature","geometry":{"type":"LineString","coordinates":[[-80.82078713888889,26.082316277777778],[-80.82103994444444,26.08433847222222],[-80.82140716666666,26.085461555555554],[-80.82162388888888,26.08598561111111],[-80.82189838888888,26.086367222222222],[-80.82289527777777,26.08708475],[-80.82383319444445,26.087330444444444],[-80.82413177777778,26.0873],[-80.82498538888889,26.086871638888887],[-80.82570533333333,26.08597902777778],[-80.82595333333333,26.08554411111111],[-80.82603519444444,26.08498963888889],[-80.82611580555555,26.083820888888887],[-80.82586291666667,26.081798694444444],[-80.82549566666667,26.08067561111111],[-80.82527894444443,26.080151583333333],[-80.82492980555556,26.079777611111112],[-80.82400758333333,26.079052444444443],[-80.82306975,26.07880675],[-80.82277119444444,26.078837194444443],[-80.8219176111111,26.079265555555555],[-80.82112305555555,26.08016577777778],[-80.82094966666666,26.080593055555557],[-80.82086780555555,26.081147527777777],[-80.82078713888889,26.082316277777778]]},"properties":{"style":"solid","thickness":1}},{"type":"Feature","geometry":{"type":"LineString","coordinates":[[-80.46919394444444,26.010346],[-80.4680746111111,26.01045747222222],[-80.4670551388889,26.00209622222222]]},"properties":{"style":"solid","thickness":1}},{"type":"Feature","geometry":{"type":"LineString","coordinates":[[-80.46031383333333,26.011229944444445],[-80.46123527777777,26.010114527777777],[-80.46201569444445,26.009081388888887],[-80.46265505555556,26.008130555555557],[-80.46303702777779,26.007546555555557],[-80.46332794444444,26.006835111111112],[-80.463395,26.00614597222222],[-80.4633956388889,26.005531666666666],[-80.46324769444445,26.004317944444445],[-80.46296630555555,26.003868222222223],[-80.46261852777778,26.003493333333335],[-80.46226252777778,26.003051055555556],[-80.46062980555556,26.002667555555554],[-80.45973438888889,26.002756666666667],[-80.45882186111112,26.003325194444443],[-80.45868905555555,26.003474916666665],[-80.45815783333333,26.00407375],[-80.4580996388889,26.004216027777776],[-80.45791619444445,26.00518975],[-80.45799836111111,26.005864055555556],[-80.45820511111111,26.006321222222223],[-80.4584036388889,26.006710944444446],[-80.45875963888889,26.00715325],[-80.45941413888889,26.00756586111111],[-80.46004397222222,26.007776166666666],[-80.46042530555556,26.00780647222222],[-80.4609476388889,26.0077545],[-80.46131252777778,26.007649944444445],[-80.46251533333334,26.00698425],[-80.46340322222223,26.006213388888888]]},"properties":{"style":"solid","thickness":1}},{"type":"Feature","geometry":{"type":"LineString","coordinates":[[-80.4498311388889,26.007017666666666],[-80.4500775,26.009040583333334],[-80.45044097222222,26.010164638888888],[-80.45065591666668,26.010689222222222],[-80.45092905555556,26.011071555555557],[-80.45192311111111,26.011791666666667],[-80.45285966666667,26.01203975],[-80.45315816666667,26.012010055555557],[-80.45401258333334,26.011583833333333],[-80.45473486111112,26.010693027777776],[-80.45498408333333,26.01025875],[-80.45506761111112,26.00970447222222],[-80.45515180555556,26.00853588888889],[-80.45490536111112,26.006513],[-80.45454186111111,26.005388944444444],[-80.45432691666667,26.00486436111111],[-80.45397916666667,26.00448947222222],[-80.45305977777778,26.003761944444445],[-80.45212327777779,26.00351386111111],[-80.45182480555556,26.003543555555556],[-80.45097044444445,26.00396975],[-80.45017355555557,26.004867972222222],[-80.44999894444445,26.005294805555554],[-80.44991541666667,26.005849083333334],[-80.4498311388889,26.007017666666666]]},"properties":{"style":"solid","thickness":1}},{"type":"Feature","geometry":{"type":"LineString","coordinates":[[-80.46104597222222,25.997578055555557],[-80.46447822222223,25.997236416666667],[-80.46492975,25.993506083333333],[-80.46429111111111,25.99384266666667],[-80.46373530555556,25.994239222222223],[-80.46239227777778,25.994372916666666],[-80.46170433333333,25.99430488888889],[-80.46098352777778,25.99396713888889],[-80.46012236111112,25.99309738888889],[-80.45987452777779,25.992303083333333],[-80.45975130555556,25.99129163888889],[-80.46010858333334,25.990505333333335],[-80.46054047222222,25.98971163888889],[-80.4607396388889,25.989487055555557],[-80.46114622222223,25.98910536111111],[-80.4618758888889,25.98889625],[-80.46269658333334,25.988814555555557],[-80.46330988888889,25.98889],[-80.46408886111111,25.989085444444445],[-80.46482608333334,25.98955802777778],[-80.46492536111111,25.98975288888889]]},"properties":{"style":"solid","thickness":1}},{"type":"Feature","geometry":{"type":"LineString","coordinates":[[-80.45167541666667,25.993187083333336],[-80.45192177777778,25.99521],[-80.45228522222223,25.996334055555558],[-80.45250016666667,25.99685863888889],[-80.45277327777778,25.997240972222222],[-80.45376722222223,25.997961055555557],[-80.45470366666667,25.99820913888889],[-80.45500213888889,25.998179444444446],[-80.45585644444445,25.997753222222222],[-80.45657863888889,25.99686238888889],[-80.45682780555556,25.99642811111111],[-80.45691130555556,25.995873833333334],[-80.4569955,25.994705250000003],[-80.45674905555556,25.992682333333335],[-80.45638558333333,25.991558305555557],[-80.45617063888889,25.991033694444447],[-80.45582291666668,25.990658833333335],[-80.4549036388889,25.989931305555558],[-80.45396725,25.989683222222222],[-80.45366880555555,25.98971291666667],[-80.45281452777778,25.99013913888889],[-80.45201775,25.99103736111111],[-80.45184319444445,25.991464222222223],[-80.45175966666667,25.9920185],[-80.45167541666667,25.993187083333336]]},"properties":{"style":"solid","thickness":1}},{"type":"Feature","geometry":{"type":"LineString","coordinates":[[-80.50850933333334,25.944924083333333],[-80.5073906388889,25.945035833333332],[-80.50636897222222,25.93667475]]},"properties":{"style":"solid","thickness":1}},{"type":"Feature","geometry":{"type":"LineString","coordinates":[[-80.4996343611111,25.94581038888889],[-80.50055494444445,25.944694722222224],[-80.50133458333333,25.94366136111111],[-80.50197330555555,25.942710333333334],[-80.50235486111112,25.94212622222222],[-80.5026453888889,25.941414694444443],[-80.50271216666667,25.94072552777778],[-80.50271261111111,25.94011122222222],[-80.50256436111111,25.93889752777778],[-80.50228297222222,25.93844786111111],[-80.50193525,25.938073083333332],[-80.50157930555555,25.93763086111111],[-80.49994736111111,25.937247805555558],[-80.49905247222222,25.937337166666666],[-80.49814063888888,25.937905944444445],[-80.49800794444444,25.938055694444444],[-80.49747722222223,25.938654694444445],[-80.49741911111111,25.93879697222222],[-80.49723608333333,25.93977075],[-80.49731841666667,25.940445055555557],[-80.49752519444445,25.940902166666667],[-80.49772375,25.941291833333334],[-80.49807969444444,25.941734055555557],[-80.49873397222223,25.9421465],[-80.49936352777777,25.94235663888889],[-80.49974466666667,25.94238686111111],[-80.50026669444445,25.942334722222224],[-80.50063136111112,25.942230055555555],[-80.50183327777778,25.941564055555556],[-80.50272041666666,25.940792944444446]]},"properties":{"style":"solid","thickness":1}},{"type":"Feature","geometry":{"type":"LineString","coordinates":[[-80.48915605555555,25.941600861111112],[-80.48940294444445,25.94362375],[-80.48976658333333,25.944747694444445],[-80.48998158333333,25.94527225],[-80.49025469444445,25.9456545],[-80.49124844444445,25.94637436111111],[-80.49218455555555,25.946622194444444],[-80.49248288888889,25.946592444444445],[-80.49333669444445,25.94616597222222],[-80.49405830555555,25.945274972222222],[-80.49430722222222,25.94484061111111],[-80.49439052777778,25.944286305555554],[-80.49447430555556,25.943117694444446],[-80.49422733333333,25.941094833333334],[-80.49386366666667,25.93997086111111],[-80.49364866666667,25.939446333333333],[-80.49330097222223,25.939071527777777],[-80.49238186111111,25.93834425],[-80.49144580555556,25.93809638888889],[-80.4911475,25.938126166666667],[-80.49029372222222,25.93855261111111],[-80.48949755555556,25.939451055555555],[-80.48932322222223,25.939877944444444],[-80.48923988888889,25.94043225],[-80.48915605555555,25.941600861111112]]},"properties":{"style":"solid","thickness":1}},{"type":"Feature","geometry":{"type":"LineString","coordinates":[[-80.50458877777778,25.929688444444444],[-80.50458008333334,25.930235333333336],[-80.50447213888889,25.93058736111111],[-80.50402427777777,25.93124636111111],[-80.50360980555556,25.931560750000003],[-80.50319533333334,25.931875166666668],[-80.50254066666666,25.93207702777778],[-80.50216780555556,25.932114277777778],[-80.50133105555555,25.932061333333333],[-80.50060225,25.931656361111113],[-80.50009719444445,25.93122902777778],[-80.49997322222222,25.93083191666667],[-80.49980852777777,25.929483333333334],[-80.50005738888889,25.929048972222223],[-80.50052175,25.92852486111111],[-80.50112697222222,25.927918416666667],[-80.50164897222223,25.927866277777778]]},"properties":{"style":"solid","thickness":1}},{"type":"Feature","geometry":{"type":"LineString","coordinates":[[-80.50112697222222,25.927918416666667],[-80.5001745,25.92753577777778],[-80.49984330555556,25.927295833333336],[-80.49941283333334,25.926861055555555],[-80.49931355555556,25.926666222222224],[-80.49916488888888,25.926066805555557],[-80.49914016666666,25.92586452777778],[-80.49914886111111,25.92531763888889],[-80.49924861111111,25.924898194444445],[-80.49956380555555,25.924388944444445],[-80.49997002777778,25.92400713888889],[-80.50066627777778,25.92352811111111],[-80.50238130555556,25.923356833333333],[-80.50292797222222,25.923506972222224],[-80.50381408333334,25.9239645],[-80.50397969444444,25.924084444444446],[-80.50428575,25.92473638888889],[-80.50431869444445,25.925006111111113]]},"properties":{"style":"solid","thickness":1}},{"type":"Feature","geometry":{"type":"LineString","coordinates":[[-80.49114391666667,25.92775472222222],[-80.49139080555555,25.929777583333333],[-80.49175444444444,25.930901555555558],[-80.49196941666666,25.93142611111111],[-80.49224252777778,25.931808361111113],[-80.49323613888889,25.932528194444444],[-80.49417216666667,25.93277602777778],[-80.49447044444445,25.93274625],[-80.49532416666666,25.932319805555558],[-80.49604566666667,25.93142877777778],[-80.49629455555555,25.930994416666667],[-80.49637783333334,25.930440111111114],[-80.49646158333333,25.929271472222222],[-80.49621461111111,25.92724861111111],[-80.49585097222223,25.926124666666666],[-80.49563597222222,25.925600111111113],[-80.49528830555556,25.925225305555557],[-80.49436930555555,25.924498055555556],[-80.49343333333333,25.924250222222224],[-80.49313508333333,25.92428],[-80.49228141666667,25.924706444444446],[-80.49148536111112,25.92560488888889],[-80.49131102777778,25.92603177777778],[-80.49122775000001,25.926586111111114],[-80.49114391666667,25.92775472222222]]},"properties":{"style":"solid","thickness":1}},{"type":"Feature","geometry":{"type":"LineString","coordinates":[[-80.55159425,25.867271333333335],[-80.54585558333333,25.867846583333336],[-80.54883138888889,25.858880000000003]]},"properties":{"style":"solid","thickness":1}},{"type":"Feature","geometry":{"type":"LineString","coordinates":[[-80.53708011111111,25.863333750000002],[-80.53732763888888,25.865356555555557],[-80.5376915,25.866480444444445],[-80.53790655555555,25.867004916666666],[-80.53817966666666,25.867387083333334],[-80.53917302777778,25.868106611111113],[-80.54010863888888,25.868354166666666],[-80.54040675,25.868324305555557],[-80.54125983333333,25.867897555555555],[-80.54198061111111,25.867006305555556],[-80.54222919444445,25.86657186111111],[-80.54231222222222,25.866017527777778],[-80.54239547222222,25.864848861111113],[-80.5421478611111,25.86282605555556],[-80.54178397222222,25.861702194444447],[-80.54156891666666,25.861177722222223],[-80.54122130555555,25.86080302777778],[-80.5403025,25.86007602777778],[-80.53936694444444,25.859828472222222],[-80.5390688611111,25.859858333333335],[-80.53821583333333,25.860285083333334],[-80.53742055555556,25.86118377777778],[-80.53724647222222,25.86161075],[-80.53716341666666,25.862165083333334],[-80.53708011111111,25.863333750000002]]},"properties":{"style":"solid","thickness":1}},{"type":"Feature","geometry":{"type":"LineString","coordinates":[[-80.54966627777777,25.851700083333334],[-80.54965780555555,25.852246944444445],[-80.54955005555556,25.852599027777778],[-80.54910275,25.853258166666667],[-80.54868866666666,25.853572694444445],[-80.54827455555555,25.853887222222223],[-80.54762041666666,25.854089305555558],[-80.54724780555556,25.85412666666667],[-80.54641158333334,25.854073972222224],[-80.5456831111111,25.853669222222223],[-80.54517822222222,25.853242055555558],[-80.54505416666666,25.852844944444445],[-80.54488908333333,25.851496416666667],[-80.54513763888889,25.851061972222222],[-80.54560147222222,25.850537694444444],[-80.54620608333333,25.849931055555555],[-80.54672772222222,25.849878777777775]]},"properties":{"style":"solid","thickness":1}},{"type":"Feature","geometry":{"type":"LineString","coordinates":[[-80.54620608333333,25.849931055555555],[-80.5452541111111,25.849548694444444],[-80.54492302777777,25.84930886111111],[-80.54449266666667,25.84887422222222],[-80.54439338888889,25.848679416666666],[-80.54424458333334,25.848080027777776],[-80.54421980555556,25.84787775],[-80.54422830555555,25.84733086111111],[-80.54432780555555,25.84691136111111],[-80.54464261111112,25.846402027777778],[-80.54504844444445,25.846020083333332],[-80.54574405555556,25.84554083333333],[-80.54745788888889,25.845369027777778],[-80.54800424999999,25.845519027777776],[-80.54888994444444,25.845976277777776],[-80.5490555,25.846096166666666],[-80.54936161111111,25.846748027777778],[-80.54939463888888,25.84701775]]},"properties":{"style":"solid","thickness":1}},{"type":"Feature","geometry":{"type":"LineString","coordinates":[[-80.5362295,25.84977044444444],[-80.536477,25.85179325],[-80.53684077777777,25.85291713888889],[-80.53705583333333,25.853441611111112],[-80.5373288888889,25.853823805555557],[-80.53832213888889,25.854543333333336],[-80.53925763888888,25.85479088888889],[-80.53955572222222,25.85476102777778],[-80.54040872222222,25.85433427777778],[-80.54112941666666,25.85344302777778],[-80.54137797222222,25.85300861111111],[-80.541461,25.85245425],[-80.54154425,25.851285583333336],[-80.54129669444444,25.849262777777778],[-80.5409328611111,25.848138916666667],[-80.54071780555556,25.847614416666666],[-80.54037022222222,25.84723972222222],[-80.53945155555556,25.846512722222222],[-80.53851611111111,25.846265166666665],[-80.53821805555556,25.846295027777778],[-80.53736511111111,25.84672175],[-80.53656991666666,25.84762047222222],[-80.5363958611111,25.848047416666667],[-80.53631280555555,25.848601777777777],[-80.5362295,25.84977044444444]]},"properties":{"style":"solid","thickness":1}},{"type":"Feature","geometry":{"type":"LineString","coordinates":[[-80.43997025,25.842994388888886],[-80.43423219444445,25.843565277777778],[-80.43721577777778,25.834600916666666]]},"properties":{"style":"solid","thickness":1}},{"type":"Feature","geometry":{"type":"LineString","coordinates":[[-80.42546269444445,25.839045694444444],[-80.42570827777779,25.84106872222222],[-80.42607102777778,25.84219288888889],[-80.42628555555557,25.842717527777776],[-80.42655822222223,25.843099916666667],[-80.42755072222222,25.84382022222222],[-80.42848591666667,25.844068472222222],[-80.42878400000001,25.844038833333332],[-80.42963730555556,25.84361275],[-80.43035877777778,25.842722027777775],[-80.43060772222222,25.842287777777777],[-80.43069125000001,25.8417335],[-80.43077558333334,25.84056488888889],[-80.43052991666667,25.838541888888887],[-80.43016713888889,25.83741772222222],[-80.42995261111112,25.836893083333333],[-80.42960541666667,25.83651811111111],[-80.42868747222222,25.835790416666665],[-80.42775233333334,25.835542166666666],[-80.42745427777778,25.835571805555553],[-80.42660102777778,25.835997888888887],[-80.42580505555556,25.83689597222222],[-80.42563063888889,25.837322805555555],[-80.42554708333334,25.83787711111111],[-80.42546269444445,25.839045694444444]]},"properties":{"style":"solid","thickness":1}},{"type":"Feature","geometry":{"type":"LineString","coordinates":[[-80.42879744444446,25.825066777777778],[-80.42904305555557,25.827089805555556],[-80.42940577777779,25.828213944444443],[-80.42962030555556,25.828738583333333],[-80.42989297222223,25.82912097222222],[-80.43088536111111,25.82984125],[-80.43182044444445,25.830089472222223],[-80.4321185,25.830059833333333],[-80.43297169444445,25.829633722222223],[-80.43369305555557,25.828743],[-80.43394194444444,25.82830875],[-80.43402544444444,25.827754444444444],[-80.43410975,25.826585833333333],[-80.43386405555556,25.82456283333333],[-80.43350130555557,25.823438694444445],[-80.43328675000001,25.822914055555554],[-80.43293961111111,25.822539083333332],[-80.43202175,25.821811416666666],[-80.43108672222223,25.821563166666667],[-80.43078869444444,25.821592805555554],[-80.42993555555556,25.822018916666668],[-80.42913972222223,25.822917027777777],[-80.42896530555556,25.823343861111113],[-80.42888177777779,25.823898166666666],[-80.42879744444446,25.825066777777778]]},"properties":{"style":"solid","thickness":1}},{"type":"Feature","geometry":{"type":"LineString","coordinates":[[-80.99011175,25.78589888888889],[-80.98899502777778,25.786014305555558],[-80.98794122222222,25.77765661111111]]},"properties":{"style":"solid","thickness":1}},{"type":"Feature","geometry":{"type":"LineString","coordinates":[[-80.97940725000001,25.781747499999998],[-80.97966205555555,25.78376952777778],[-80.98002980555556,25.78489227777778],[-80.98024663888889,25.78541611111111],[-80.98052094444445,25.785797444444444],[-80.98151625,25.786513972222224],[-80.98245211111112,25.786758694444448],[-80.98274991666666,25.786727916666667],[-80.98360080555555,25.786298611111114],[-80.98431777777778,25.785405194444447],[-80.98456458333334,25.784970027777778],[-80.9846455,25.78441541666667],[-80.98472441666667,25.783246527777777],[-80.98446952777778,25.7812245],[-80.98410175000001,25.78010175],[-80.9838848888889,25.779577944444444],[-80.9835361388889,25.779204305555556],[-80.98261533333334,25.77848008333333],[-80.98167952777779,25.778235388888888],[-80.98138175,25.77826613888889],[-80.98053091666667,25.778695444444445],[-80.97973950000001,25.779596527777777],[-80.9795671388889,25.780023999999997],[-80.97948619444445,25.78057861111111],[-80.97940725000001,25.781747499999998]]},"properties":{"style":"solid","thickness":1}},{"type":"Feature","geometry":{"type":"LineString","coordinates":[[-80.97121819444445,25.78259313888889],[-80.97147286111111,25.784615194444445],[-80.97184052777779,25.785737972222226],[-80.97205733333334,25.786261805555558],[-80.97233161111112,25.786643166666668],[-80.97332688888889,25.78735975],[-80.97426272222222,25.7876045],[-80.97456052777778,25.78757375],[-80.97541147222222,25.7871445],[-80.9761285,25.786251111111113],[-80.97637533333334,25.785815944444447],[-80.97645630555556,25.78526136111111],[-80.97653527777778,25.784092472222223],[-80.97628052777777,25.782070444444443],[-80.97591283333334,25.780947666666666],[-80.975696,25.780423833333334],[-80.97534727777779,25.780050166666665],[-80.9744265,25.779325916666664],[-80.97349072222222,25.779081166666664],[-80.97319294444445,25.779111888888888],[-80.97234205555556,25.779541138888888],[-80.97155058333334,25.780442194444444],[-80.97137819444444,25.780869666666664],[-80.97129722222222,25.78142425],[-80.97121819444445,25.78259313888889]]},"properties":{"style":"solid","thickness":1}},{"type":"Feature","geometry":{"type":"LineString","coordinates":[[-80.98214725,25.773136666666666],[-80.98557147222222,25.77278283333333],[-80.98600594444444,25.76905086111111],[-80.98537,25.769389694444442],[-80.98481697222222,25.769788249999998],[-80.98347708333334,25.76992672222222],[-80.98279016666667,25.76986113888889],[-80.98206925,25.769525944444442],[-80.98120597222223,25.768659222222222],[-80.98095516666667,25.767865805555555],[-80.98082777777778,25.766854777777777],[-80.98118097222222,25.766067222222222],[-80.98160858333334,25.765271972222223],[-80.98180641666667,25.765046694444443],[-80.98221055555555,25.764663527777778],[-80.98293791666667,25.764451833333332],[-80.98375669444445,25.764367222222223],[-80.98436916666667,25.764440472222223],[-80.9851475,25.764633166666666],[-80.98588536111112,25.76510313888889],[-80.98598527777777,25.76529763888889]]},"properties":{"style":"solid","thickness":1}},{"type":"Feature","geometry":{"type":"LineString","coordinates":[[-80.97277555555556,25.768778916666665],[-80.97303022222222,25.770800972222222],[-80.97339786111111,25.77192375],[-80.97361466666666,25.77244758333333],[-80.97388891666667,25.772828944444445],[-80.97488408333334,25.773545527777777],[-80.97581983333333,25.773790277777778],[-80.97611758333333,25.773759527777777],[-80.97696841666667,25.77333025],[-80.97768536111111,25.77243686111111],[-80.97793216666666,25.772001694444445],[-80.97801311111111,25.77144711111111],[-80.97809205555556,25.77027822222222],[-80.97783730555555,25.768256166666667],[-80.97746963888889,25.767133416666667],[-80.97725286111111,25.766609583333334],[-80.97690416666667,25.766235916666666],[-80.97598347222223,25.765511666666665],[-80.97504780555556,25.76526691666667],[-80.97475005555556,25.765297666666665],[-80.97389927777778,25.765726916666665],[-80.97310791666666,25.76662797222222],[-80.97293552777778,25.767055444444445],[-80.97285455555556,25.767610027777778],[-80.97277555555556,25.768778916666665]]},"properties":{"style":"solid","thickness":1}},{"type":"Feature","geometry":{"type":"LineString","coordinates":[[-80.80395475,25.888149833333333],[-80.79821638888889,25.888735],[-80.80117375,25.879763444444446]]},"properties":{"style":"solid","thickness":1}},{"type":"Feature","geometry":{"type":"LineString","coordinates":[[-80.78942997222222,25.884237416666664],[-80.78968180555556,25.886259777777777],[-80.79004808333333,25.887383],[-80.79026430555555,25.88790711111111],[-80.79053825,25.888288805555554],[-80.79153330555556,25.88900661111111],[-80.79246958333333,25.889252527777778],[-80.79276769444444,25.88922213888889],[-80.79362,25.888793944444444],[-80.794339,25.887901444444445],[-80.79458672222222,25.88746658333333],[-80.79466858333333,25.886912111111112],[-80.79474938888889,25.885743333333334],[-80.79449747222222,25.88372097222222],[-80.79413116666666,25.88259777777778],[-80.79391494444444,25.882073666666667],[-80.79356647222222,25.881699583333333],[-80.792646,25.880974194444445],[-80.79170977777778,25.880728277777777],[-80.79141169444445,25.88075863888889],[-80.79055944444444,25.881186833333334],[-80.78976591666667,25.882086916666665],[-80.78959272222222,25.882514166666667],[-80.78951083333334,25.88306863888889],[-80.78942997222222,25.884237416666664]]},"properties":{"style":"solid","thickness":1}},{"type":"Feature","geometry":{"type":"LineString","coordinates":[[-80.79777469444444,25.875060472222223],[-80.80120241666667,25.874710944444445],[-80.80164297222223,25.870979527777777],[-80.80100594444444,25.871317583333333],[-80.80045183333333,25.871715416666667],[-80.79911058333333,25.871852194444443],[-80.79842316666667,25.87178575],[-80.79770213888888,25.871449666666667],[-80.79683944444444,25.87058188888889],[-80.79658963888889,25.86978813888889],[-80.79646369444444,25.86877697222222],[-80.79681838888888,25.867989861111113],[-80.7972476111111,25.86719513888889],[-80.79744594444445,25.86697011111111],[-80.79785102777778,25.866587472222225],[-80.79857933333334,25.866376666666667],[-80.79939894444445,25.866293083333336],[-80.80001183333333,25.86636713888889],[-80.80079052777778,25.866560777777778],[-80.80152833333334,25.867031666666666],[-80.80162802777778,25.867226305555555]]},"properties":{"style":"solid","thickness":1}},{"type":"Feature","geometry":{"type":"LineString","coordinates":[[-80.78840155555555,25.870691],[-80.78865336111112,25.87271336111111],[-80.78901958333333,25.873836583333333],[-80.78923577777778,25.874360694444444],[-80.78950966666666,25.87474238888889],[-80.7905046111111,25.875460222222223],[-80.79144077777778,25.87570613888889],[-80.79173886111111,25.87567575],[-80.79259108333333,25.875247555555557],[-80.79330999999999,25.874355083333334],[-80.79355769444444,25.87392022222222],[-80.79363955555556,25.87336575],[-80.79372036111111,25.872196944444443],[-80.7934685,25.87017461111111],[-80.79310222222222,25.869051388888888],[-80.79288605555556,25.86852727777778],[-80.79253763888889,25.868153194444446],[-80.79161725,25.867427777777777],[-80.79068113888889,25.86718186111111],[-80.79038311111111,25.86721222222222],[-80.78953091666666,25.867640416666667],[-80.7887375,25.86854047222222],[-80.78856430555555,25.868967722222223],[-80.78848241666667,25.869522222222223],[-80.78840155555555,25.870691]]},"properties":{"style":"solid","thickness":1}},{"type":"Feature","geometry":{"type":"LineString","coordinates":[[-79.99607361111111,25.959471666666666],[-79.99495433333334,25.9595795],[-79.99396844444445,25.951214944444445]]},"properties":{"style":"solid","thickness":1}},{"type":"Feature","geometry":{"type":"LineString","coordinates":[[-79.9871938888889,25.960326833333333],[-79.98811936111112,25.959214416666665],[-79.9889035,25.958183805555556],[-79.9895463888889,25.957235027777777],[-79.9899305,25.956652277777778],[-79.99022411111112,25.955941777777777],[-79.99029386111111,25.955252833333333],[-79.99029694444445,25.954638555555555],[-79.99015386111111,25.953424333333334],[-79.9898743888889,25.952973694444445],[-79.98952825,25.952597694444442],[-79.98917413888888,25.95215425],[-79.98754366666667,25.95176547222222],[-79.98664827777777,25.951851694444443],[-79.98573391666666,25.95241725],[-79.98560055555555,25.952566555555556],[-79.98506719444444,25.953163666666665],[-79.98500847222222,25.95330575],[-79.98482125,25.954278888888886],[-79.98490069444445,25.954953444444445],[-79.98510555555556,25.955411277777777],[-79.98530244444444,25.95580163888889],[-79.98565655555555,25.95624511111111],[-79.98630911111111,25.956659833333333],[-79.98693783333333,25.956872194444443],[-79.9873188611111,25.956903722222222],[-79.98784119444444,25.956853444444445],[-79.98820633333334,25.956750055555556],[-79.98941125,25.956088277777777],[-79.99030180555556,25.955320305555556]]},"properties":{"style":"solid","thickness":1}},{"type":"Feature","geometry":{"type":"LineString","coordinates":[[-79.97673247222222,25.956080611111112],[-79.97697069444445,25.958104305555555],[-79.97732955555556,25.959229527777776],[-79.97754233333333,25.95975483333333],[-79.97781383333333,25.960138027777777],[-79.97880458333333,25.96086136111111],[-79.97973975000001,25.9611125],[-79.98003825,25.961083777777777],[-79.98089397222222,25.960660333333333],[-79.98161947222222,25.95977186111111],[-79.98187030555556,25.959338388888888],[-79.981956,25.95878436111111],[-79.98204480555556,25.957616055555555],[-79.9818065,25.955592361111112],[-79.98144761111111,25.954467138888887],[-79.98123483333333,25.95394186111111],[-79.98088869444445,25.953565833333332],[-79.97997261111111,25.952835333333333],[-79.9790375,25.95258422222222],[-79.97873905555555,25.952612944444443],[-79.97788336111111,25.95303636111111],[-79.97708325,25.953932],[-79.97690705555556,25.95435827777778],[-79.97682133333333,25.954912305555556],[-79.97673247222222,25.956080611111112]]},"properties":{"style":"solid","thickness":1}},{"type":"Feature","geometry":{"type":"LineString","coordinates":[[-79.99364233333334,25.94606375],[-79.99252316666667,25.946171555555555],[-79.99153755555555,25.937806972222223]]},"properties":{"style":"solid","thickness":1}},{"type":"Feature","geometry":{"type":"LineString","coordinates":[[-79.98782263888889,25.946624222222223],[-79.98670347222222,25.946732],[-79.98571827777778,25.938367361111112]]},"properties":{"style":"solid","thickness":1}},{"type":"Feature","geometry":{"type":"LineString","coordinates":[[-79.97713861111112,25.942399583333334],[-79.97737680555555,25.944423277777776],[-79.97773563888889,25.945548527777778],[-79.97794836111112,25.946073805555557],[-79.97821986111111,25.94645702777778],[-79.97921050000001,25.947180361111112],[-79.98014555555555,25.947431472222224],[-79.980444,25.947402750000002],[-79.98129963888888,25.946979305555555],[-79.98202505555555,25.946090833333333],[-79.98227583333333,25.94565736111111],[-79.98236152777778,25.945103333333332],[-79.98245030555556,25.943935027777776],[-79.98221202777778,25.941911333333334],[-79.98185316666667,25.940786111111112],[-79.98164041666666,25.940260805555557],[-79.98129433333334,25.939884805555558],[-79.98037836111111,25.939154305555554],[-79.97944336111111,25.938903166666666],[-79.97914491666667,25.938931888888888],[-79.97828933333334,25.939355333333335],[-79.97748933333334,25.940250972222223],[-79.97731313888889,25.94067725],[-79.97722744444445,25.941231277777778],[-79.97713861111112,25.942399583333334]]},"properties":{"style":"solid","thickness":1}},{"type":"Feature","geometry":{"type":"LineString","coordinates":[[-79.70557633333334,26.06720797222222],[-79.70445577777778,26.067313555555554],[-79.70348947222223,26.05894738888889]]},"properties":{"style":"solid","thickness":1}},{"type":"Feature","geometry":{"type":"LineString","coordinates":[[-79.69668661111112,26.06804536111111],[-79.69761563888889,26.066934833333335],[-79.698403,26.065905833333336],[-79.69904877777778,26.06495838888889],[-79.69943466666668,26.06437641666667],[-79.69973025,26.06366652777778],[-79.69980175,26.06297777777778],[-79.69980633333334,26.0623635],[-79.69966611111111,26.061149055555557],[-79.6993875,26.06069788888889],[-79.69904197222223,26.060321222222225],[-79.6986886388889,26.059877083333333],[-79.69705766666667,26.059485055555555],[-79.69616127777778,26.059569472222222],[-79.69524469444445,26.060133194444447],[-79.69511088888889,26.060282194444444],[-79.69457558333333,26.06087822222222],[-79.69451647222223,26.061020194444446],[-79.69432669444444,26.061992916666668],[-79.69440455555556,26.062667611111113],[-79.69460847222223,26.063125833333334],[-79.69480458333334,26.063516583333335],[-79.69515791666667,26.063960722222223],[-79.69581002777778,26.06437675],[-79.69643880555556,26.06459036111111],[-79.69682011111111,26.06462263888889],[-79.697343,26.06457341666667],[-79.69770872222223,26.06447075],[-79.69891633333334,26.06381138888889],[-79.69980955555556,26.063045250000002]]},"properties":{"style":"solid","thickness":1}},{"type":"Feature","geometry":{"type":"LineString","coordinates":[[-79.68622636111111,26.06377841666667],[-79.68645983333333,26.0658025],[-79.68681625,26.06692838888889],[-79.68702791666666,26.06745411111111],[-79.68729875000001,26.067837833333332],[-79.68828861111112,26.06856311111111],[-79.68922397222222,26.06881608333333],[-79.68952280555555,26.06878797222222],[-79.69038033333334,26.06836625],[-79.69110863888889,26.067479277777778],[-79.69136075,26.067046305555554],[-79.69144786111112,26.0664925],[-79.69153961111111,26.065324416666666],[-79.69130605555556,26.063300333333334],[-79.69094958333334,26.062174444444445],[-79.69073791666668,26.06164875],[-79.6903923888889,26.061272055555555],[-79.68947727777778,26.06053975],[-79.68854197222223,26.06028677777778],[-79.68824316666667,26.06031488888889],[-79.68738569444444,26.06073661111111],[-79.68658269444445,26.061630611111113],[-79.68640527777778,26.0620565],[-79.6863181388889,26.062610333333335],[-79.68622636111111,26.06377841666667]]},"properties":{"style":"solid","thickness":1}},{"type":"Feature","geometry":{"type":"LineString","coordinates":[[-79.70025891666667,26.050114750000002],[-79.69809283333333,26.05031877777778],[-79.69684783333334,26.049344805555556],[-79.69665172222223,26.04895405555556],[-79.69646341666667,26.04863077777778],[-79.69636997222223,26.047821138888892],[-79.69659863888889,26.04718577777778],[-79.69697669444444,26.046536333333336],[-79.69739369444444,26.04622425],[-79.69766908333334,26.045993694444444],[-79.69824322222223,26.045735],[-79.69958763888889,26.045608361111114],[-79.70020852777778,26.045754472222225],[-79.70069561111112,26.046049611111112],[-79.70112361111111,26.046486722222223],[-79.70141000000001,26.04700536111111],[-79.70153922222222,26.047470611111113],[-79.70161711111112,26.048145305555558],[-79.7015813888889,26.048489694444445],[-79.70140405555556,26.048915611111113],[-79.70112863888889,26.049146166666667],[-79.70025891666667,26.050114750000002],[-79.70099347222222,26.050591166666667],[-79.70142925,26.05109575],[-79.70161761111112,26.05141902777778],[-79.70174225000001,26.05249852777778],[-79.70146227777778,26.053343333333334],[-79.70126155555556,26.05356686111111],[-79.70062047222223,26.053900083333335],[-79.70019566666667,26.054144694444446],[-79.6992246388889,26.054236166666666],[-79.69852900000001,26.054097083333335],[-79.69747230555556,26.05344638888889],[-79.69728397222222,26.053123111111113],[-79.69714377777778,26.05190863888889],[-79.69728997222222,26.05121286111111],[-79.69735688888889,26.051138333333334],[-79.69769919444445,26.05083327777778],[-79.69809283333333,26.05031877777778]]},"properties":{"style":"solid","thickness":1}},{"type":"Feature","geometry":{"type":"LineString","coordinates":[[-79.68838422222223,26.049937083333337],[-79.68861772222223,26.05196116666667],[-79.6889741388889,26.053087083333335],[-79.68918577777778,26.05361277777778],[-79.68945658333334,26.0539965],[-79.69044633333334,26.05472177777778],[-79.69138161111111,26.054974722222223],[-79.6916803888889,26.054946611111113],[-79.69253780555556,26.054524861111112],[-79.69326602777778,26.053637861111113],[-79.69351808333333,26.05320491666667],[-79.69360519444444,26.05265111111111],[-79.69369691666667,26.051483],[-79.69346333333334,26.04945891666667],[-79.69310688888889,26.04833302777778],[-79.69289522222222,26.047807333333335],[-79.69254975,26.04743063888889],[-79.69163472222223,26.046698361111112],[-79.69069952777778,26.04644538888889],[-79.69040075000001,26.046473527777778],[-79.6895433888889,26.046895250000002],[-79.68874050000001,26.04778925],[-79.68856311111111,26.04821516666667],[-79.68847600000001,26.048769],[-79.68838422222223,26.049937083333337]]},"properties":{"style":"solid","thickness":1}},{"type":"Feature","geometry":{"type":"LineString","coordinates":[[-79.9214301388889,26.137247],[-79.92030911111111,26.137354249999998],[-79.91932708333334,26.128989555555556]]},"properties":{"style":"solid","thickness":1}},{"type":"Feature","geometry":{"type":"LineString","coordinates":[[-79.91253661111112,26.138097527777777],[-79.91346416666667,26.13698561111111],[-79.91425016666668,26.13595547222222],[-79.91489458333334,26.135007055555555],[-79.91527966666668,26.134424527777778],[-79.9155741388889,26.13371422222222],[-79.91564444444445,26.133025361111113],[-79.91564791666667,26.132411083333334],[-79.91550541666668,26.13119686111111],[-79.91522580555556,26.130746083333335],[-79.91487938888889,26.130369916666666],[-79.91452502777778,26.129926305555557],[-79.91289236111112,26.129536694444443],[-79.91199561111112,26.129622444444443],[-79.9110795,26.130187527777778],[-79.91094586111112,26.13033672222222],[-79.91041133333334,26.130933527777778],[-79.91035241666667,26.131075583333335],[-79.91016427777778,26.132048583333333],[-79.91024344444445,26.13272316666667],[-79.91044830555556,26.133181083333334],[-79.91064525,26.13357152777778],[-79.91099958333334,26.134015166666668],[-79.91165286111112,26.13443022222222],[-79.9122823888889,26.134642888888887],[-79.91266397222223,26.134674611111112],[-79.91318711111111,26.13462461111111],[-79.91355286111111,26.134521416666665],[-79.91476,26.133860277777778],[-79.91565236111111,26.133092805555556]]},"properties":{"style":"solid","thickness":1}},{"type":"Feature","geometry":{"type":"LineString","coordinates":[[-79.90206230555556,26.13384602777778],[-79.90229961111112,26.135869777777778],[-79.90265827777779,26.13699513888889],[-79.90287102777778,26.137520527777777],[-79.90314269444445,26.13790386111111],[-79.90413447222222,26.138627666666665],[-79.90507086111111,26.13887925],[-79.90536983333334,26.138850694444443],[-79.90622711111112,26.13842772222222],[-79.90695425000001,26.137539666666665],[-79.90720572222223,26.13710633333333],[-79.90729188888889,26.136552388888887],[-79.90738158333333,26.135384194444445],[-79.90714419444446,26.133360444444445],[-79.90678550000001,26.132235083333335],[-79.90657275000001,26.131709722222222],[-79.90622633333334,26.131333527777777],[-79.90530936111112,26.130602583333335],[-79.90437302777778,26.130351],[-79.90407408333334,26.130379555555557],[-79.90321686111112,26.130802527777778],[-79.902415,26.131697694444444],[-79.90223825000001,26.13212386111111],[-79.90215205555556,26.132677805555556],[-79.90206230555556,26.13384602777778]]},"properties":{"style":"solid","thickness":1}},{"type":"Feature","geometry":{"type":"LineString","coordinates":[[-79.92027411111111,26.123716861111113],[-79.91915322222222,26.123824083333332],[-79.91817136111112,26.115459361111114]]},"properties":{"style":"solid","thickness":1}},{"type":"Feature","geometry":{"type":"LineString","coordinates":[[-79.91466422222223,26.122275194444445],[-79.91465280555556,26.122822],[-79.91454294444445,26.123173583333333],[-79.91409108333333,26.123830722222223],[-79.9136743888889,26.124143444444446],[-79.91325769444445,26.12445613888889],[-79.91260097222222,26.124655361111113],[-79.91222733333333,26.124691083333335],[-79.91138950000001,26.124634750000002],[-79.91066155555556,26.12422686111111],[-79.91015780555556,26.123797500000002],[-79.91003558333334,26.123399916666667],[-79.90987733333334,26.12205075],[-79.91012875000001,26.121617416666666],[-79.91059644444445,26.121095222222223],[-79.9112056388889,26.12049125],[-79.91172872222222,26.12044125]]},"properties":{"style":"solid","thickness":1}},{"type":"Feature","geometry":{"type":"LineString","coordinates":[[-79.9112056388889,26.12049125],[-79.91025355555556,26.12010477777778],[-79.909923,26.119863527777778],[-79.90949400000001,26.11942702777778],[-79.90939552777779,26.119231805555557],[-79.90924958333333,26.118631805555555],[-79.90922586111111,26.118429444444445],[-79.90923727777778,26.11788263888889],[-79.90933925,26.117463611111113],[-79.90965747222222,26.116955666666666],[-79.91006625,26.11657552777778],[-79.91076600000001,26.116099333333334],[-79.91248461111111,26.11593502777778],[-79.9130313888889,26.116087361111113],[-79.91391666666667,26.116548444444447],[-79.91408194444445,26.116669055555555],[-79.91438525000001,26.117322194444444],[-79.91441691666667,26.11759202777778]]},"properties":{"style":"solid","thickness":1}},{"type":"Feature","geometry":{"type":"LineString","coordinates":[[-79.90120741666668,26.120287166666667],[-79.90144466666668,26.122310916666667],[-79.90180330555556,26.123436277777778],[-79.90201602777779,26.123961666666666],[-79.90228766666667,26.124345],[-79.90327930555556,26.125068833333334],[-79.90421561111111,26.125320444444444],[-79.90451452777778,26.125291861111112],[-79.90537172222223,26.12486888888889],[-79.90609877777779,26.123980833333334],[-79.90635022222223,26.123547527777777],[-79.90643638888889,26.122993583333333],[-79.90652608333333,26.12182536111111],[-79.90628875,26.11980161111111],[-79.90593008333335,26.11867625],[-79.90571736111112,26.11815086111111],[-79.905371,26.117774694444446],[-79.90445411111112,26.117043722222224],[-79.9035178888889,26.11679213888889],[-79.903219,26.116820694444446],[-79.90236186111112,26.117243666666667],[-79.90156008333334,26.118138833333333],[-79.90138336111112,26.118565],[-79.90129716666667,26.119118944444445],[-79.90120741666668,26.120287166666667]]},"properties":{"style":"solid","thickness":1}},{"type":"Feature","geometry":{"type":"LineString","coordinates":[[-80.29439686111111,25.79790280555556],[-80.29328525,25.79689652777778]]},"properties":{"style":"solid","thickness":1}},{"type":"Feature","geometry":{"type":"LineString","coordinates":[[-80.2942423611111,25.79828188888889],[-80.2928665,25.79703638888889]]},"properties":{"style":"solid","thickness":1}},{"type":"Feature","geometry":{"type":"LineString","coordinates":[[-80.29395572222222,25.79854138888889],[-80.29257986111111,25.797295861111113]]},"properties":{"style":"solid","thickness":1}},{"type":"Feature","geometry":{"type":"LineString","coordinates":[[-80.29353697222221,25.79868125],[-80.29242533333333,25.797674944444445]]},"properties":{"style":"solid","thickness":1}},{"type":"Feature","geometry":{"type":"LineString","coordinates":[[-80.29266583333333,25.79846352777778],[-80.29281088888888,25.798573166666667],[-80.29297522222222,25.798657555555558],[-80.29315358333334,25.798714055555557],[-80.29334019444444,25.798740833333333],[-80.29352911111111,25.798736972222223],[-80.29371422222222,25.798702666666667],[-80.29388958333332,25.798639],[-80.29404958333333,25.798548],[-80.29418905555555,25.798432583333334],[-80.29430352777777,25.798296500000003],[-80.29438930555555,25.798144083333334],[-80.2944436388889,25.79798027777778],[-80.29446480555555,25.797810305555558],[-80.29445208333333,25.797639638888892],[-80.29440591666666,25.79747377777778],[-80.29432777777778,25.79731802777778],[-80.29422016666666,25.797177416666667],[-80.29408655555555,25.797056472222224],[-80.29393125,25.796959083333334],[-80.29375919444445,25.796888333333335],[-80.29357597222221,25.79684652777778],[-80.29338747222222,25.796835027777778],[-80.29319969444444,25.796854194444446],[-80.29301872222221,25.79690338888889],[-80.2928503611111,25.79698102777778],[-80.29270002777777,25.79708463888889],[-80.29257255555555,25.797210916666668],[-80.29247202777778,25.797355722222225],[-80.29240169444444,25.797514500000002],[-80.29236377777778,25.79768205555556],[-80.29235952777778,25.797853055555557],[-80.2923891111111,25.798022000000003],[-80.2924515,25.798183472222224],[-80.29254475,25.798332222222225],[-80.29266583333333,25.79846352777778]]},"properties":{"style":"solid","thickness":1}},{"type":"Feature","geometry":{"type":"LineString","coordinates":[[-80.93277361111112,25.73335575],[-80.93165733333333,25.733470722222222],[-80.930608,25.725112499999998]]},"properties":{"style":"solid","thickness":1}},{"type":"Feature","geometry":{"type":"LineString","coordinates":[[-80.92207575,25.729200055555555],[-80.92232947222223,25.73122222222222],[-80.9226965,25.73234513888889],[-80.92291300000001,25.732869055555554],[-80.923187,25.733250499999997],[-80.92418155555556,25.733967444444446],[-80.9251168888889,25.73421252777778],[-80.92541455555556,25.73418188888889],[-80.92626530555556,25.73375288888889],[-80.92698238888889,25.73285975],[-80.92722930555556,25.732424666666667],[-80.92731044444444,25.73187011111111],[-80.9273898888889,25.73070122222222],[-80.92713608333334,25.728679055555553],[-80.92676900000001,25.727556166666666],[-80.9265525,25.727032249999997],[-80.92620408333333,25.72665847222222],[-80.925284,25.725933888888886],[-80.92434875000001,25.725688805555553],[-80.92405108333334,25.725719444444444],[-80.92320038888889,25.726148388888888],[-80.9224088888889,25.727049194444444],[-80.92223638888889,25.727476611111108],[-80.92215522222223,25.728031166666664],[-80.92207575,25.729200055555555]]},"properties":{"style":"solid","thickness":1}},{"type":"Feature","geometry":{"type":"LineString","coordinates":[[-80.91388980555556,25.73004247222222],[-80.91414341666668,25.732064638888886],[-80.91451036111111,25.733187583333333],[-80.91472683333333,25.73371152777778],[-80.91500080555556,25.734092972222225],[-80.91599530555555,25.734809972222223],[-80.9169306388889,25.735055111111112],[-80.91722830555555,25.73502447222222],[-80.91807908333334,25.734595555555558],[-80.91879625,25.733702444444447],[-80.91904319444446,25.73326736111111],[-80.91912438888889,25.732712805555554],[-80.91920388888889,25.731543944444443],[-80.91895022222222,25.72952175],[-80.91858322222222,25.728398833333333],[-80.91836675,25.727874916666664],[-80.91801836111111,25.72750111111111],[-80.91709833333334,25.72677647222222],[-80.91616308333334,25.72653133333333],[-80.91586541666668,25.72656197222222],[-80.91501469444445,25.72699088888889],[-80.9142231388889,25.727891638888888],[-80.91405058333333,25.728319027777776],[-80.9139693888889,25.728873583333332],[-80.91388980555556,25.73004247222222]]},"properties":{"style":"solid","thickness":1}},{"type":"Feature","geometry":{"type":"LineString","coordinates":[[-80.92988713888889,25.7201365],[-80.92415747222223,25.720726555555554],[-80.92710136111111,25.711752305555557]]},"properties":{"style":"solid","thickness":1}},{"type":"Feature","geometry":{"type":"LineString","coordinates":[[-80.91537877777779,25.71623633333333],[-80.91563236111112,25.718258527777778],[-80.91599930555556,25.719381444444444],[-80.91621575,25.719905388888886],[-80.91648969444445,25.72028686111111],[-80.91748408333333,25.72100383333333],[-80.91841930555556,25.72124897222222],[-80.91871694444445,25.721218333333333],[-80.91956761111112,25.72078938888889],[-80.92028469444445,25.719896277777774],[-80.92053161111112,25.719461194444442],[-80.92061277777778,25.71890663888889],[-80.92069225,25.717737749999998],[-80.92043861111111,25.71571558333333],[-80.9200716388889,25.714592666666665],[-80.91985519444445,25.714068722222223],[-80.91950683333334,25.713694916666665],[-80.9185868888889,25.712970305555555],[-80.91765175,25.712725166666665],[-80.91735411111111,25.712755805555556],[-80.9165035,25.71318472222222],[-80.91571202777779,25.7140855],[-80.91553952777778,25.714512888888887],[-80.91545833333333,25.71506747222222],[-80.91537877777779,25.71623633333333]]},"properties":{"style":"solid","thickness":1}}]}
