{"type":"FeatureCollection","features":[{"type":"Feature","geometry":{"type":"LineString","coordinates":[[-80.4766638888889,25.780013888888888],[-80.4766638888889,25.780013888888888],[-80.4755888888889,25.77219722222222],[-80.47394166666668,25.763966666666665],[-80.47209722222222,25.756616666666666],[-80.47003333333333,25.74888888888889],[-80.46819166666667,25.742472222222222],[-80.46541388888889,25.735097222222223],[-80.46181111111112,25.72768888888889],[-80.456,25.716974999999998],[-80.44884444444445,25.71812222222222],[-80.44214166666667,25.71881111111111],[-80.43346111111111,25.719519444444444],[-80.42648055555556,25.718988888888887],[-80.42107777777778,25.718338888888887],[-80.41552222222222,25.71711111111111],[-80.40756388888889,25.71521388888889],[-80.40190555555556,25.713377777777776],[-80.39378888888889,25.710058333333333],[-80.38010833333333,25.701108333333334],[-80.37097499999999,25.69308611111111],[-80.3648361111111,25.685525000000002],[-80.36064722222221,25.678297222222223],[-80.3578,25.671461111111114],[-80.2664861111111,25.671630555555556],[-80.25888888888889,25.619444444444444],[-80.59473888888888,25.581677777777777],[-80.75416666666666,25.46222222222222],[-80.8606611111111,25.616022222222224],[-80.875,25.6375],[-81.00648333333334,25.74886111111111],[-81.00521388888889,25.760483333333333],[-80.8906388888889,25.766527777777778],[-80.84547777777777,25.768533333333334],[-80.66029444444445,25.778005555555556],[-80.60920555555555,25.78029722222222],[-80.47712777777778,25.785675],[-80.4766638888889,25.780013888888888]]},"properties":{"style":"solid","thickness":1}},{"type":"Feature","geometry":{"type":"LineString","coordinates":[[-80.2664861111111,25.671630555555556],[-80.27820277777778,25.731091666666664],[-80.29137222222222,25.794558333333335],[-80.47712777777778,25.785675]]},"properties":{"style":"solid","thickness":1}},{"type":"Feature","geometry":{"type":"LineString","coordinates":[[-80.6609078888889,25.696429722222224],[-80.6610791388889,25.698458944444443],[-80.66140019444445,25.699593333333333],[-80.66159516666667,25.700124111111112],[-80.66185341666667,25.700514444444444],[-80.66281783333334,25.701264055555555],[-80.66374230555556,25.701540194444444],[-80.66404094444445,25.7015195],[-80.66490830555556,25.701119194444445],[-80.665661,25.700250583333332],[-80.66592536111112,25.69982402777778],[-80.66602900000001,25.699272555555556],[-80.66615586111112,25.69810713888889],[-80.66598450000001,25.69607788888889],[-80.66566344444445,25.694943527777777],[-80.66546844444446,25.69441275],[-80.66513555555557,25.694027583333334],[-80.66424583333334,25.693272805555555],[-80.66332141666668,25.692996694444446],[-80.66302280555556,25.69301738888889],[-80.66215550000001,25.693417666666665],[-80.66132816666668,25.694291444444445],[-80.66113844444445,25.694712805555557],[-80.66103480555556,25.695264277777778],[-80.6609078888889,25.696429722222224]]},"properties":{"style":"solid","thickness":1}},{"type":"Feature","geometry":{"type":"LineString","coordinates":[[-80.40452900000001,25.74620952777778],[-80.40525694444445,25.746840666666667],[-80.40541191666668,25.74689825],[-80.4063941388889,25.74696802777778],[-80.40720469444445,25.746777277777777],[-80.40763061111112,25.746476416666667],[-80.40805097222223,25.746107916666666],[-80.40837438888889,25.745473861111112],[-80.40824633333334,25.74391788888889],[-80.40774805555556,25.74333927777778],[-80.40742702777779,25.743088833333335],[-80.40627316666668,25.742758527777777],[-80.4049755,25.742505972222222],[-80.40404575000001,25.742160527777777],[-80.40371358333334,25.741774777777778],[-80.40348630555556,25.740837722222224],[-80.40356336111111,25.739948194444445],[-80.40389233333335,25.73938177777778],[-80.40424355555557,25.739085972222224],[-80.4045256388889,25.738862861111112],[-80.40488241666667,25.738634722222223],[-80.40568736111112,25.738376333333335],[-80.40613552777778,25.738346083333333],[-80.40659480555556,25.73845113888889],[-80.40721463888889,25.73868141666667],[-80.40761036111111,25.738926833333334],[-80.40817775000001,25.739432750000002]]},"properties":{"style":"solid","thickness":1}},{"type":"Feature","geometry":{"type":"LineString","coordinates":[[-80.38731227777778,25.747846194444445],[-80.38778269444445,25.748086611111113],[-80.38831672222223,25.748186694444446],[-80.39010952777778,25.748065944444445],[-80.39077072222223,25.747885333333333],[-80.39098927777779,25.747802583333335],[-80.39205977777779,25.747118222222223],[-80.39267650000001,25.746396416666666],[-80.39284500000001,25.745704805555558],[-80.39326786111111,25.744451833333333],[-80.39314002777779,25.742895833333336],[-80.39292950000001,25.74216175],[-80.3926553888889,25.741567972222224],[-80.39230102777779,25.740911583333336],[-80.39149294444445,25.74021775],[-80.39001816666668,25.739636861111112],[-80.38903044444446,25.739499305555558],[-80.38820880555556,25.739554666666667],[-80.38717972222223,25.739828055555556],[-80.38682291666667,25.74005616666667],[-80.38653522222224,25.740211583333334]]},"properties":{"style":"solid","thickness":1}},{"type":"Feature","geometry":{"type":"LineString","coordinates":[[-80.3837836388889,25.744206305555558],[-80.37915230555555,25.74451802777778]]},"properties":{"style":"solid","thickness":1}},{"type":"Feature","geometry":{"type":"LineString","coordinates":[[-80.36248036111111,25.74455052777778],[-80.36264658333333,25.74658011111111],[-80.36296486111111,25.74771513888889],[-80.3631586111111,25.748246333333334],[-80.36341597222221,25.748637194444445],[-80.36437888888888,25.749388805555558],[-80.36530302777777,25.749666833333336],[-80.36560183333333,25.74964675],[-80.36647055555555,25.74924825],[-80.36722574999999,25.748381194444445],[-80.36749130555555,25.747955222222224],[-80.36759636111111,25.747403944444446],[-80.36772622222222,25.74623877777778],[-80.36755991666666,25.744209222222224],[-80.36724158333332,25.743074166666666],[-80.36704783333333,25.742543],[-80.36671577777777,25.74215716666667],[-80.36582758333333,25.741400555555558],[-80.36490352777777,25.74112252777778],[-80.36460472222221,25.741142583333335],[-80.36373605555555,25.741541083333335],[-80.36290616666666,25.74241313888889],[-80.36271533333333,25.74283411111111],[-80.36261024999999,25.743385361111113],[-80.36248036111111,25.74455052777778]]},"properties":{"style":"solid","thickness":1}},{"type":"Feature","geometry":{"type":"LineString","coordinates":[[-80.67424705555555,25.69877072222222],[-80.67421811111112,25.699317027777777],[-80.6740973888889,25.699665583333335],[-80.67362622222223,25.70031061111111],[-80.6732011388889,25.70061225],[-80.67277605555556,25.700913888888888],[-80.67211555555556,25.70109575],[-80.67174225000001,25.701121666666666],[-80.67090958333334,25.70104333333333],[-80.6701976388889,25.700616444444442],[-80.66970969444445,25.700174],[-80.66960075,25.699773333333333],[-80.66948647222223,25.698420527777778],[-80.66975083333334,25.69799397222222],[-80.67023344444445,25.69748425],[-80.67085961111111,25.696896527777778],[-80.67138222222222,25.696860277777777]]},"properties":{"style":"solid","thickness":1}},{"type":"Feature","geometry":{"type":"LineString","coordinates":[[-80.67085961111111,25.696896527777778],[-80.66992375000001,25.696485166666665],[-80.66960227777778,25.696235305555557],[-80.669189,25.695787694444444],[-80.66909719444445,25.695589944444446],[-80.66897113888889,25.694986361111113],[-80.668954,25.694783444444443],[-80.66898294444445,25.69423713888889],[-80.66909797222223,25.693820944444443],[-80.66943125,25.693321555555556],[-80.66985061111112,25.692952305555554],[-80.67056286111112,25.69249466666667],[-80.6722798888889,25.692375583333334],[-80.67281961111111,25.69254227777778],[-80.67368652777779,25.693026416666665],[-80.67384725000001,25.693151361111113],[-80.67412838888889,25.693812222222224],[-80.67415125000001,25.694082777777776]]},"properties":{"style":"solid","thickness":1}},{"type":"Feature","geometry":{"type":"LineString","coordinates":[[-80.40051038888889,25.743011222222222],[-80.3962526388889,25.743298305555555]]},"properties":{"style":"solid","thickness":1}},{"type":"Feature","geometry":{"type":"LineString","coordinates":[[-80.39638436111112,25.747643111111113],[-80.40086636111111,25.74734091666667],[-80.40016,25.738749194444445]]},"properties":{"style":"solid","thickness":1}},{"type":"Feature","geometry":{"type":"LineString","coordinates":[[-80.37581899999999,25.74691911111111],[-80.37578869444444,25.747465333333334],[-80.37566702777777,25.74781366666667],[-80.37519405555555,25.748457694444447],[-80.37476802777778,25.748758444444444],[-80.37434202777777,25.749059194444445],[-80.37368077777776,25.749239722222224],[-80.37330727777777,25.749264833333335],[-80.37247447222222,25.749184805555558],[-80.37176333333332,25.748756444444446],[-80.37127627777777,25.748313],[-80.37116830555554,25.747912111111113],[-80.37105738888889,25.746559055555558],[-80.37132291666666,25.746133055555557],[-80.37180699999999,25.745624333333335],[-80.37243494444444,25.745037916666668],[-80.37295783333333,25.74500275]]},"properties":{"style":"solid","thickness":1}},{"type":"Feature","geometry":{"type":"LineString","coordinates":[[-80.37243494444444,25.745037916666668],[-80.37149972222221,25.744624611111114],[-80.37117875,25.744374083333334],[-80.37076641666665,25.74392563888889],[-80.37067508333332,25.743727694444445],[-80.3705505,25.743123861111112],[-80.3705338611111,25.74292088888889],[-80.37056419444444,25.74237463888889],[-80.37068030555555,25.741958694444445],[-80.37101497222221,25.74146],[-80.37143544444444,25.741091611111113],[-80.37214913888889,25.740635472222223],[-80.37386716666666,25.740519944444447],[-80.37440666666666,25.740687722222223],[-80.37527272222222,25.74117366666667],[-80.37543322222221,25.741298944444445],[-80.37571277777778,25.74196038888889],[-80.37573497222222,25.742231]]},"properties":{"style":"solid","thickness":1}}]}
