{"type":"FeatureCollection","features":[{"type":"Feature","geometry":{"type":"LineString","coordinates":[[-80.12065769444443,26.057223833333335],[-80.16325972222222,26.055272666666667]]},"properties":{"style":"solid","thickness":1}},{"type":"Feature","geometry":{"type":"LineString","coordinates":[[-80.15231572222223,26.050539333333333],[-80.16325972222222,26.055272666666667],[-80.15290297222222,26.060983944444445]]},"properties":{"style":"solid","thickness":1}},{"type":"Feature","geometry":{"type":"LineString","coordinates":[[-80.89027777777778,26.180555555555557],[-80.89787222222223,26.286819444444447],[-80.80614444444444,26.373036111111112],[-80.74764444444445,26.31320277777778]]},"properties":{"style":"solid","thickness":1}},{"type":"Feature","geometry":{"type":"LineString","coordinates":[[-80.74764444444445,26.31320277777778],[-80.89027777777778,26.180555555555557],[-80.96762222222222,26.10467777777778],[-80.97674444444445,26.02205],[-80.98528055555556,25.94472777777778],[-81.00071666666666,25.801558333333332],[-81.00521388888889,25.760483333333333]]},"properties":{"style":"solid","thickness":1}},{"type":"Feature","geometry":{"type":"LineString","coordinates":[[-80.74764444444445,26.31320277777778],[-80.63536388888889,26.197305555555555],[-80.52284444444444,26.073397222222223],[-80.52063333333334,26.043719444444445],[-80.48283333333333,26.04518888888889],[-80.1700388888889,26.043708333333335],[-80.14943333333333,26.04351666666667]]},"properties":{"style":"solid","thickness":1}},{"type":"Feature","geometry":{"type":"LineString","coordinates":[[-80.89027777777778,26.180555555555557],[-80.80729166666666,26.167983333333336],[-80.63536388888889,26.197305555555555]]},"properties":{"style":"solid","thickness":1}},{"type":"Feature","geometry":{"type":"LineString","coordinates":[[-80.1700388888889,26.043708333333335],[-80.17049722222222,26.072175],[-80.1504638888889,26.07207777777778],[-80.14943333333333,26.04351666666667],[-80.14580000000001,25.96321111111111]]},"properties":{"style":"solid","thickness":1}},{"type":"Feature","geometry":{"type":"LineString","coordinates":[[-81.00521388888889,25.760483333333333],[-80.8906388888889,25.766527777777778],[-80.84547777777777,25.768533333333334],[-80.66029444444445,25.778005555555556],[-80.60920555555555,25.78029722222222],[-80.47712777777778,25.785675]]},"properties":{"style":"solid","thickness":1}},{"type":"Feature","geometry":{"type":"LineString","coordinates":[[-80.66029444444445,25.778005555555556],[-80.66169444444445,25.80037777777778],[-80.66099444444446,25.827247222222223],[-80.65613333333334,25.855208333333334],[-80.64761111111112,25.888575],[-80.63891666666667,25.91171111111111],[-80.62798888888888,25.93307777777778],[-80.61340555555554,25.96234722222222],[-80.58867222222221,25.963416666666667],[-80.28958333333333,25.96318611111111],[-80.24617222222223,25.963224999999998],[-80.14580000000001,25.96321111111111]]},"properties":{"style":"solid","thickness":1}},{"type":"Feature","geometry":{"type":"LineString","coordinates":[[-80.28958333333333,25.96318611111111],[-80.29028333333333,25.912605555555555],[-80.2908,25.86773611111111],[-80.40888611111112,25.867516666666667],[-80.45936666666667,25.86724166666667],[-80.467525,25.85047777777778],[-80.47111111111111,25.83888333333333],[-80.47401388888889,25.827575],[-80.47660277777779,25.81185],[-80.47757777777778,25.796619444444445],[-80.47757777777778,25.796619444444445],[-80.47712777777778,25.785675]]},"properties":{"style":"solid","thickness":1}},{"type":"Feature","geometry":{"type":"LineString","coordinates":[[-80.79768997222222,26.21698411111111],[-80.78067472222222,26.218115555555553]]},"properties":{"style":"solid","thickness":1}},{"type":"Feature","geometry":{"type":"LineString","coordinates":[[-80.79677230555555,26.00055825],[-80.779788,26.001689416666668]]},"properties":{"style":"solid","thickness":1}},{"type":"Feature","geometry":{"type":"LineString","coordinates":[[-80.56857608333333,25.88086625],[-80.55160647222222,25.881970833333334]]},"properties":{"style":"solid","thickness":1}},{"type":"Feature","geometry":{"type":"LineString","coordinates":[[-80.83700758333333,26.300905944444445],[-80.83483894444444,26.301126888888888],[-80.83358199999999,26.300162722222222],[-80.83338175,26.29977352777778],[-80.83318991666667,26.299451750000003],[-80.8330885,26.29864291666667],[-80.83331158333333,26.298005833333335],[-80.83368419444444,26.297353500000003],[-80.83409905555555,26.297038194444447],[-80.83437280555555,26.296805527777778],[-80.83494569444444,26.29654236111111],[-80.83629169444444,26.296405250000003],[-80.83691524999999,26.2965465],[-80.83740619444444,26.296837777777778],[-80.83783925,26.2972715],[-80.83813122222222,26.297787861111114],[-80.83826516666666,26.298252055555558],[-80.83834969444445,26.298926083333335],[-80.83831719444444,26.299270722222225],[-80.83814358333333,26.299698000000003],[-80.83786983333333,26.29993066666667],[-80.83700758333333,26.300905944444445],[-80.83774822222222,26.301376611111113],[-80.83818975,26.301877722222223],[-80.83838158333333,26.3021995],[-80.8385168611111,26.303277916666666],[-80.83824438888888,26.304124861111113],[-80.83804541666666,26.304349916666666],[-80.83740616666667,26.304688111111112],[-80.83698283333332,26.304936027777778],[-80.83601066666667,26.305035055555557],[-80.83531225,26.304901416666667],[-80.83424711111111,26.30425902777778],[-80.83405527777778,26.30393725],[-80.83390316666666,26.302724],[-80.83404297222222,26.30202713888889],[-80.83410930555556,26.301952111111113],[-80.83444941666666,26.30164441666667],[-80.83483894444444,26.301126888888888]]},"properties":{"style":"solid","thickness":1}},{"type":"Feature","geometry":{"type":"LineString","coordinates":[[-80.82510644444444,26.30082102777778],[-80.82535983333332,26.302843111111113],[-80.82572777777777,26.303966111111112],[-80.82594491666666,26.30449011111111],[-80.82621994444445,26.304871694444444],[-80.82721872222221,26.305589166666667],[-80.82815838888888,26.305834805555556],[-80.82845752777777,26.305804333333334],[-80.82931266666667,26.305375944444446],[-80.83003391666666,26.30448336111111],[-80.83028233333333,26.304048472222224],[-80.83036430555555,26.303494027777777],[-80.83044502777777,26.302325333333336],[-80.83019152777777,26.300303250000002],[-80.82982355555555,26.299180250000003],[-80.82960641666666,26.29865625],[-80.8292566111111,26.298282305555556],[-80.82833266666667,26.297557222222224],[-80.82739305555555,26.297311583333336],[-80.82709394444444,26.297342055555557],[-80.82623883333333,26.29777041666667],[-80.82544283333333,26.29867063888889],[-80.82526919444445,26.29909788888889],[-80.82518719444444,26.299652333333334],[-80.82510644444444,26.30082102777778]]},"properties":{"style":"solid","thickness":1}},{"type":"Feature","geometry":{"type":"LineString","coordinates":[[-80.79482991666667,26.22382811111111],[-80.79266261111111,26.22404838888889],[-80.79140683333333,26.22308383333333],[-80.79120683333333,26.222694583333332],[-80.79101527777777,26.222372749999998],[-80.79091422222223,26.22156386111111],[-80.79113736111111,26.220926833333333],[-80.79150997222222,26.22027458333333],[-80.79192469444445,26.21995938888889],[-80.79219833333333,26.219726805555553],[-80.79277094444444,26.219463805555552],[-80.79411611111111,26.219327083333333],[-80.79473924999999,26.219468499999998],[-80.79522975,26.21975997222222],[-80.79566236111111,26.220193805555553],[-80.79595394444445,26.220710277777776],[-80.79608766666666,26.221174527777777],[-80.79617188888889,26.221848583333333],[-80.79613927777777,26.22219322222222],[-80.79596561111111,26.22262044444444],[-80.79569194444444,26.222853055555554],[-80.79482991666667,26.22382811111111],[-80.79556991666666,26.224298972222222],[-80.79601097222222,26.22480022222222],[-80.79620258333333,26.225122055555556],[-80.79633736111111,26.226200555555554],[-80.79606477777777,26.227047416666665],[-80.79586583333334,26.22727244444444],[-80.79522688888889,26.227610444444444],[-80.79480375,26.227858249999997],[-80.79383216666666,26.227957],[-80.79313425,26.227823166666663],[-80.79207002777778,26.227180444444443],[-80.79187844444444,26.226858583333332],[-80.79172686111112,26.225645277777776],[-80.79186683333333,26.224948416666663],[-80.79193316666667,26.224873416666664],[-80.79227313888889,26.224565833333333],[-80.79266261111111,26.22404838888889]]},"properties":{"style":"solid","thickness":1}},{"type":"Feature","geometry":{"type":"LineString","coordinates":[[-80.78293652777778,26.223739666666663],[-80.78318902777778,26.22576186111111],[-80.78355633333334,26.226885],[-80.78377313888889,26.22740908333333],[-80.7840478611111,26.227790749999997],[-80.78504572222222,26.228508527777777],[-80.78598466666666,26.228754444444444],[-80.78628363888889,26.228724083333333],[-80.78713838888889,26.228295944444444],[-80.78785947222222,26.227403527777778],[-80.78810791666666,26.226968694444444],[-80.78819002777777,26.226414277777778],[-80.78827111111111,26.225245583333333],[-80.78801852777778,26.22322336111111],[-80.78765119444444,26.222100249999997],[-80.78743436111111,26.221576166666665],[-80.78708491666667,26.221202111111108],[-80.78616183333334,26.22047675],[-80.78522294444444,26.220230833333332],[-80.784924,26.220261194444443],[-80.78406930555555,26.220689333333333],[-80.78327349999999,26.221589305555554],[-80.78309977777778,26.222016527777775],[-80.7830176388889,26.222570972222222],[-80.78293652777778,26.223739666666663]]},"properties":{"style":"solid","thickness":1}},{"type":"Feature","geometry":{"type":"LineString","coordinates":[[-80.78594083333333,26.20978427777778],[-80.78619333333333,26.211806499999998],[-80.78656061111111,26.212929638888887],[-80.78677741666667,26.213453694444443],[-80.78705211111111,26.213835361111112],[-80.78804988888889,26.21455313888889],[-80.78898872222221,26.214799027777776],[-80.7892876388889,26.214768666666664],[-80.79014230555555,26.2143405],[-80.79086327777777,26.213448055555556],[-80.79111166666667,26.21301325],[-80.79119377777778,26.212458805555556],[-80.79127480555556,26.21129008333333],[-80.79102219444444,26.20926788888889],[-80.79065488888888,26.208144777777775],[-80.79043808333333,26.207620694444444],[-80.79008866666666,26.20724663888889],[-80.78916566666666,26.206521305555555],[-80.78822688888889,26.206275388888887],[-80.787928,26.20630577777778],[-80.78707338888889,26.206733916666664],[-80.78627769444444,26.207633916666666],[-80.78610402777778,26.208061138888887],[-80.78602191666667,26.208615583333334],[-80.78594083333333,26.20978427777778]]},"properties":{"style":"solid","thickness":1}},{"type":"Feature","geometry":{"type":"LineString","coordinates":[[-80.79000038888888,26.005070694444445],[-80.79522219444445,26.004539],[-80.79165302777777,26.01166072222222],[-80.79061083333333,26.00330188888889]]},"properties":{"style":"solid","thickness":1}},{"type":"Feature","geometry":{"type":"LineString","coordinates":[[-80.78197094444444,26.007321416666667],[-80.78222294444444,26.00934375],[-80.78258955555556,26.010466944444445],[-80.78280594444445,26.010991055555557],[-80.78308016666666,26.01137275],[-80.78407619444444,26.012090583333332],[-80.78501344444444,26.012336527777776],[-80.78531183333334,26.012306166666665],[-80.78616505555556,26.01187802777778],[-80.7868848611111,26.010985583333333],[-80.78713283333333,26.01055075],[-80.78721483333334,26.009996277777777],[-80.78729577777777,26.00882752777778],[-80.78704372222222,26.006805222222223],[-80.78667708333333,26.005682027777777],[-80.78646066666667,26.00515791666667],[-80.78611186111111,26.004783833333335],[-80.78519047222223,26.004058416666666],[-80.78425330555555,26.003812472222222],[-80.78395491666666,26.003842833333334],[-80.78310175,26.004270972222223],[-80.78230736111111,26.00517097222222],[-80.78213397222223,26.005598222222222],[-80.78205197222222,26.006152694444445],[-80.78197094444444,26.007321416666667]]},"properties":{"style":"solid","thickness":1}},{"type":"Feature","geometry":{"type":"LineString","coordinates":[[-80.78504472222222,25.993357833333334],[-80.78529672222221,25.99538013888889],[-80.78566330555556,25.996503333333333],[-80.78587969444445,25.997027444444445],[-80.78615388888889,25.99740913888889],[-80.78714983333333,25.998126944444447],[-80.78808697222222,25.99837288888889],[-80.78838533333334,25.9983425],[-80.78923844444444,25.997914333333334],[-80.78995813888889,25.99702188888889],[-80.79020608333333,25.996587027777778],[-80.79028802777778,25.996032583333335],[-80.79036894444444,25.994863805555557],[-80.79011686111112,25.9928415],[-80.78975025,25.991718305555555],[-80.78953383333334,25.991194222222223],[-80.78918508333334,25.99082013888889],[-80.78826377777777,25.99009475],[-80.78732669444445,25.989848805555557],[-80.78702836111111,25.989879166666668],[-80.78617530555556,25.990307333333334],[-80.78538102777777,25.991207361111112],[-80.78520766666666,25.991634611111113],[-80.78512569444445,25.992189055555556],[-80.78504472222222,25.993357833333334]]},"properties":{"style":"solid","thickness":1}},{"type":"Feature","geometry":{"type":"LineString","coordinates":[[-80.56740830555555,25.889242305555555],[-80.56745794444444,25.88964686111111],[-80.56736674999999,25.890133805555553],[-80.567143,25.890770555555555],[-80.56689444444444,25.891205027777776],[-80.56648027777777,25.89151961111111],[-80.56590047222222,25.891714305555556],[-80.56478236111111,25.89182647222222],[-80.56394586111111,25.89177388888889],[-80.56354833333333,25.89160902777778],[-80.56296866666666,25.89118938888889],[-80.56277825,25.890867222222223],[-80.56256302777777,25.89034277777778],[-80.56243077777778,25.88926397222222],[-80.56253025,25.888844444444445],[-80.5630275,25.88736122222222],[-80.56380622222223,25.886327527777777],[-80.56506536111111,25.88490433333333],[-80.56657299999999,25.88304666666667],[-80.56187719444443,25.883517833333332]]},"properties":{"style":"solid","thickness":1}},{"type":"Feature","geometry":{"type":"LineString","coordinates":[[-80.55400008333334,25.887584055555553],[-80.55424794444444,25.889606833333332],[-80.55461202777778,25.89073063888889],[-80.55482722222222,25.89125511111111],[-80.55510041666666,25.89163725],[-80.55609411111111,25.892356666666664],[-80.55702994444444,25.89260408333333],[-80.5573281111111,25.892574194444443],[-80.55818130555555,25.89214736111111],[-80.55890208333334,25.89125602777778],[-80.55915066666667,25.890821555555554],[-80.55923361111111,25.890267194444444],[-80.55931675,25.889098527777776],[-80.55906877777778,25.887075777777778],[-80.55870466666667,25.885951944444443],[-80.55848947222222,25.8854275],[-80.55814174999999,25.88505286111111],[-80.55722266666666,25.88432597222222],[-80.55628688888889,25.884078527777778],[-80.55598872222222,25.884108444444443],[-80.55513558333332,25.88453525],[-80.55434027777777,25.885434055555557],[-80.55416622222222,25.88586102777778],[-80.55408324999999,25.88641538888889],[-80.55400008333334,25.887584055555553]]},"properties":{"style":"solid","thickness":1}},{"type":"Feature","geometry":{"type":"LineString","coordinates":[[-80.55687394444445,25.87364722222222],[-80.55712183333333,25.87567],[-80.55748588888889,25.876793805555558],[-80.55770108333333,25.877318250000002],[-80.55797425,25.87770038888889],[-80.55896783333333,25.87841977777778],[-80.55990355555555,25.878667194444446],[-80.56020169444444,25.878637305555557],[-80.56105477777777,25.878210444444445],[-80.56177544444444,25.877319083333333],[-80.562024,25.87688463888889],[-80.56210694444444,25.87633027777778],[-80.56219002777777,25.875161583333334],[-80.56194205555555,25.873138833333332],[-80.56157794444444,25.872015027777778],[-80.56136277777777,25.871490583333333],[-80.56101505555556,25.871115916666668],[-80.56009605555555,25.870389055555556],[-80.55916038888888,25.87014163888889],[-80.55886227777778,25.870171555555554],[-80.55800925,25.87059838888889],[-80.55721405555555,25.871497194444444],[-80.55704002777777,25.871924194444446],[-80.55695708333333,25.872478555555556],[-80.55687394444445,25.87364722222222]]},"properties":{"style":"solid","thickness":1}},{"type":"Feature","geometry":{"type":"LineString","coordinates":[[-80.10399808333332,26.058279194444445],[-80.10404619444444,26.05868388888889],[-80.10395297222222,26.059170527777777],[-80.10372644444443,26.059806527777777],[-80.10347586111111,26.060240194444447],[-80.10305988888888,26.060553444444444],[-80.10247849999999,26.060746305555558],[-80.10135836111111,26.060854916666667],[-80.10052088888888,26.060799694444444],[-80.10012344444443,26.060633555555555],[-80.09954458333333,26.060212083333333],[-80.09935516666667,26.059889333333334],[-80.09914166666667,26.05936422222222],[-80.09901341666666,26.058285027777778],[-80.09911466666667,26.05786586111111],[-80.09961838888889,26.05638425],[-80.10040222222221,26.055353083333333],[-80.10166866666665,26.053933944444445],[-80.10318566666666,26.05208113888889],[-80.09848138888889,26.05253738888889]]},"properties":{"style":"solid","thickness":1}},{"type":"Feature","geometry":{"type":"LineString","coordinates":[[-80.09127694444445,26.061832250000002],[-80.09471211111111,26.061499305555557],[-80.09517544444444,26.057770194444444],[-80.09453544444445,26.05810513888889],[-80.09397811111111,26.058500277777778],[-80.09263394444444,26.058630555555556],[-80.09194583333333,26.058560805555555],[-80.09122569444445,26.058221222222222],[-80.09036677777777,26.057349305555555],[-80.09012127777777,26.05655438888889],[-80.0900011111111,26.05554263888889],[-80.09036102777777,26.054757277777778],[-80.0907956111111,26.05396466666667],[-80.09099561111111,26.053740611111113],[-80.09140358333333,26.053359944444445],[-80.09213427777777,26.053152694444446],[-80.09295566666667,26.053073083333334],[-80.09356908333334,26.053150055555555],[-80.09434783333333,26.053347472222224],[-80.095084,26.053821944444444],[-80.09518272222222,26.05401702777778]]},"properties":{"style":"solid","thickness":1}}]}
