{"type":"FeatureCollection","features":[{"type":"Feature","geometry":{"type":"LineString","coordinates":[[-80.21717588888889,25.744623166666667],[-80.21717588888889,25.744623166666667],[-80.22434200000001,25.768844694444443]]},"properties":{"style":"solid","thickness":1}},{"type":"Feature","geometry":{"type":"LineString","coordinates":[[-80.23410063888889,25.754576305555556],[-80.23410063888889,25.754576305555556],[-80.20735263888889,25.761063916666668]]},"properties":{"style":"solid","thickness":1}},{"type":"Feature","geometry":{"type":"LineString","coordinates":[[-80.161263,25.736756444444445],[-80.161263,25.736756444444445],[-80.15409880555556,25.712534833333333]]},"properties":{"style":"solid","thickness":1}},{"type":"Feature","geometry":{"type":"LineString","coordinates":[[-80.14397141666667,25.728742583333332],[-80.14397141666667,25.728742583333332],[-80.17071216666668,25.722254916666664]]},"properties":{"style":"solid","thickness":1}},{"type":"Feature","geometry":{"type":"LineString","coordinates":[[-80.09738122222221,25.7050285],[-80.09738122222221,25.7050285],[-80.09021891666666,25.68080677777778]]},"properties":{"style":"solid","thickness":1}},{"type":"Feature","geometry":{"type":"LineString","coordinates":[[-80.07996883333333,25.695574583333332],[-80.07996883333333,25.695574583333332],[-80.10670219444444,25.689086888888887]]},"properties":{"style":"solid","thickness":1}},{"type":"Feature","geometry":{"type":"LineString","coordinates":[[-80.03244247222221,25.67055513888889],[-80.03244247222221,25.67055513888889],[-80.02528225,25.646333333333335]]},"properties":{"style":"solid","thickness":1}},{"type":"Feature","geometry":{"type":"LineString","coordinates":[[-80.01591075,25.66183947222222],[-80.01591075,25.66183947222222],[-80.04263655555556,25.655351749999998]]},"properties":{"style":"solid","thickness":1}},{"type":"Feature","geometry":{"type":"LineString","coordinates":[[-80.00572930555556,25.750368555555557],[-79.89387180555556,25.757188055555556]]},"properties":{"style":"solid","thickness":1}},{"type":"Feature","geometry":{"type":"LineString","coordinates":[[-80.00572930555556,25.750368555555557],[-80.0016206388889,25.695419555555556]]},"properties":{"style":"solid","thickness":1}},{"type":"Feature","geometry":{"type":"LineString","coordinates":[[-79.89387180555556,25.757188055555556],[-79.8898141388889,25.70223625]]},"properties":{"style":"solid","thickness":1}},{"type":"Feature","geometry":{"type":"LineString","coordinates":[[-80.0016206388889,25.695419555555556],[-79.8898141388889,25.70223625]]},"properties":{"style":"solid","thickness":1}},{"type":"Feature","geometry":{"type":"LineString","coordinates":[[-80.29397861111111,25.797054972222224],[-80.29397861111111,25.798522805555557]]},"properties":{"style":"solid","thickness":1}},{"type":"Feature","geometry":{"type":"LineString","coordinates":[[-80.29357325,25.796908194444445],[-80.29357325,25.798669583333336]]},"properties":{"style":"solid","thickness":1}},{"type":"Feature","geometry":{"type":"LineString","coordinates":[[-80.29316788888889,25.796908194444445],[-80.29316788888889,25.798669583333336]]},"properties":{"style":"solid","thickness":1}},{"type":"Feature","geometry":{"type":"LineString","coordinates":[[-80.29276252777778,25.797054972222224],[-80.29276252777778,25.798522805555557]]},"properties":{"style":"solid","thickness":1}},{"type":"Feature","geometry":{"type":"LineString","coordinates":[[-80.29235716666666,25.797788888888892],[-80.29236344444445,25.797892944444445],[-80.29238372222223,25.798001722222224],[-80.29241988888889,25.798113166666667],[-80.29247347222223,25.798224611111113],[-80.29254525,25.79833288888889],[-80.29263508333334,25.798434472222223],[-80.29274169444444,25.798525833333336],[-80.29286277777777,25.798603694444445],[-80.29299494444444,25.798665444444445],[-80.29313422222222,25.798709472222225],[-80.29327633333334,25.79873513888889],[-80.29341711111111,25.798742972222225],[-80.29355288888888,25.798734305555556],[-80.29368072222222,25.798711222222224],[-80.29379858333333,25.798676166666667],[-80.29390516666666,25.79863166666667],[-80.2940025,25.79857861111111],[-80.29409755555555,25.798512861111114],[-80.29418822222222,25.798433388888892],[-80.29427133333333,25.79834013888889],[-80.29434344444444,25.798233805555558],[-80.29440122222222,25.798115916666667],[-80.29444161111111,25.797988972222225],[-80.29446241666666,25.797856250000002],[-80.29446241666666,25.797721527777778],[-80.29444161111111,25.79758877777778],[-80.29440119444445,25.797461833333337],[-80.29434344444444,25.797343972222222],[-80.29427133333333,25.79723761111111],[-80.29418822222222,25.797144361111112],[-80.29409755555555,25.797064916666667],[-80.2940025,25.79699913888889],[-80.29390516666666,25.79694611111111],[-80.29379855555555,25.796901611111114],[-80.29368072222222,25.79686652777778],[-80.29355286111111,25.796843472222225],[-80.29341711111111,25.79683480555556],[-80.29327633333334,25.796842611111114],[-80.29313425,25.796868305555556],[-80.29299494444444,25.79691230555556],[-80.29286277777777,25.796974083333335],[-80.29274172222222,25.797051944444448],[-80.29263508333334,25.797143277777778],[-80.29254527777778,25.79724488888889],[-80.29247347222223,25.797353166666667],[-80.29241988888889,25.797464611111113],[-80.29238372222223,25.797576055555556],[-80.29236344444445,25.797684833333335],[-80.29235716666666,25.797788888888892]]},"properties":{"style":"solid","thickness":1}},{"type":"Feature","geometry":{"type":"LineString","coordinates":[[-79.99243788888889,25.703706166666667],[-79.99243997222223,25.70287258333333]]},"properties":{"style":"solid","thickness":1}},{"type":"Feature","geometry":{"type":"LineString","coordinates":[[-79.99220038888889,25.70380475],[-79.99220297222222,25.702773027777777]]},"properties":{"style":"solid","thickness":1}},{"type":"Feature","geometry":{"type":"LineString","coordinates":[[-79.99196313888889,25.703804277777778],[-79.99196572222222,25.70277252777778]]},"properties":{"style":"solid","thickness":1}},{"type":"Feature","geometry":{"type":"LineString","coordinates":[[-79.9917261388889,25.703704694444443],[-79.99172822222222,25.70287111111111]]},"properties":{"style":"solid","thickness":1}},{"type":"Feature","geometry":{"type":"LineString","coordinates":[[-79.99146622222223,25.703287361111112],[-79.99183661111111,25.703800944444442],[-79.992504,25.703697138888888],[-79.99266413888888,25.703101055555553],[-79.992124,25.702731],[-79.99153452777777,25.70303297222222],[-79.99146622222223,25.703287361111112]]},"properties":{"style":"solid","thickness":1}},{"type":"Feature","geometry":{"type":"LineString","coordinates":[[-79.99180211111111,25.746236333333336],[-79.99214361111112,25.746413583333336],[-79.99253219444445,25.74648886111111],[-79.99383916666667,25.746408722222224],[-79.99432188888889,25.74628002777778],[-79.99448158333334,25.746220694444446],[-79.99526525,25.74572675],[-79.9957185,25.745203500000002],[-79.99584497222223,25.744700277777778],[-79.99615980555555,25.74378916666667],[-79.99607497222222,25.742654805555556],[-79.9959255,25.742118972222222],[-79.99572897222222,25.74168513888889],[-79.99547427777777,25.741205305555557],[-79.99488916666667,25.740696166666666],[-79.99381766666667,25.740266416666667],[-79.99309869444444,25.740161861111112],[-79.99249969444445,25.740198583333335],[-79.9917483888889,25.74039327777778],[-79.99148716666667,25.740557944444447],[-79.99127672222222,25.74066991666667]]},"properties":{"style":"solid","thickness":1}},{"type":"Feature","geometry":{"type":"LineString","coordinates":[[-79.98948258333334,25.746675777777778],[-79.98901461111112,25.740412222222222],[-79.98634633333333,25.740575694444445]]},"properties":{"style":"solid","thickness":1}},{"type":"Feature","geometry":{"type":"LineString","coordinates":[[-79.9807148888889,25.747212805555556],[-79.9816951388889,25.747152805555558],[-79.98218155555556,25.747073472222223],[-79.98312866666667,25.746569555555556],[-79.98399183333333,25.745674444444447],[-79.98427069444445,25.74501327777778],[-79.9843751388889,25.74421416666667],[-79.98432727777778,25.743573],[-79.98417416666666,25.742987833333334],[-79.98385402777778,25.742363361111114],[-79.98319608333334,25.741610944444446],[-79.98295986111111,25.74137766666667],[-79.98250211111112,25.741108444444446],[-79.98155430555556,25.740869194444446],[-79.98041075,25.740939222222224],[-79.97987355555556,25.741071194444444],[-79.97934372222223,25.74130180555556],[-79.97902802777779,25.74146977777778],[-79.97851291666667,25.741897666666667],[-79.97806697222222,25.7425195],[-79.97793305555555,25.742924055555555],[-79.97782488888889,25.743673861111112],[-79.97791322222223,25.74485752777778],[-79.97849166666667,25.746011194444446],[-79.97884783333333,25.74638575],[-79.97925480555556,25.74670766666667],[-79.97965441666666,25.746930916666667],[-79.97976702777778,25.746973555555556],[-79.9807148888889,25.747212805555556]]},"properties":{"style":"solid","thickness":1}},{"type":"Feature","geometry":{"type":"LineString","coordinates":[[-79.97277063888889,25.747054861111113],[-79.97329755555556,25.747518083333333],[-79.9734101388889,25.74756075],[-79.97412547222223,25.747616083333334],[-79.97471713888889,25.747480777777778],[-79.97502916666667,25.74726352777778],[-79.97533752777778,25.746996916666667],[-79.97557669444444,25.746536388888888],[-79.97549208333334,25.74540202777778],[-79.97513222222223,25.744978166666666],[-79.97489969444445,25.744794194444445],[-79.97406075,25.74454825],[-79.97311661111111,25.744358305555558],[-79.97244105555556,25.74410236111111],[-79.97220116666666,25.74381975],[-79.97204075,25.743135944444447],[-79.97210186111111,25.74248811111111],[-79.97234472222222,25.74207691666667],[-79.97260227777778,25.741862972222222],[-79.97280908333333,25.741701694444444],[-79.97307030555555,25.741537083333334],[-79.97365827777777,25.741352472222225],[-79.97398502777779,25.741332472222222],[-79.97431911111111,25.74141113888889],[-79.97476947222222,25.74158175],[-79.97505647222222,25.74176238888889],[-79.97546708333334,25.74213361111111]]},"properties":{"style":"solid","thickness":1}},{"type":"Feature","geometry":{"type":"LineString","coordinates":[[-79.96677355555556,25.74806563888889],[-79.97009552777779,25.747862555555557],[-79.96962858333333,25.741598944444444],[-79.96625233333333,25.741805361111112]]},"properties":{"style":"solid","thickness":1}},{"type":"Feature","geometry":{"type":"LineString","coordinates":[[-79.96986022222222,25.744706083333334],[-79.96664725000001,25.74490252777778]]},"properties":{"style":"solid","thickness":1}},{"type":"Feature","geometry":{"type":"LineString","coordinates":[[-79.964183,25.741931833333336],[-79.96464966666667,25.748195472222225],[-79.9622535,25.74834186111111],[-79.96159263888889,25.748283166666667],[-79.96130933333333,25.748151833333335],[-79.96084794444445,25.747833194444446],[-79.96015402777778,25.747330611111114],[-79.95967061111111,25.746716055555556],[-79.95952497222223,25.746229500000002],[-79.95940377777778,25.744601944444444],[-79.9594796388889,25.744151416666668],[-79.95976230555556,25.74353961111111],[-79.96011780555556,25.743171083333333],[-79.96046594444445,25.742703916666667],[-79.96098477777778,25.742325416666667],[-79.96162725,25.74213752777778],[-79.96200475,25.742064916666667],[-79.964183,25.741931833333336]]},"properties":{"style":"solid","thickness":1}},{"type":"Feature","geometry":{"type":"LineString","coordinates":[[-79.95036441666667,25.745896916666666],[-79.94768272222223,25.742939250000003]]},"properties":{"style":"solid","thickness":1}},{"type":"Feature","geometry":{"type":"LineString","coordinates":[[-79.95209372222223,25.742670111111114],[-79.95255975,25.74893377777778],[-79.94983677777778,25.749099944444445],[-79.94961161111111,25.749014583333334],[-79.94910680555556,25.748847194444444],[-79.94857997222222,25.74838388888889],[-79.94832547222222,25.747903972222222],[-79.94828144444445,25.74731213888889],[-79.94846261111111,25.74680563888889],[-79.94891605555556,25.746282555555556],[-79.9493915,25.74605536111111],[-79.949602,25.745943444444446],[-79.9523248888889,25.74577727777778]]},"properties":{"style":"solid","thickness":1}},{"type":"Feature","geometry":{"type":"LineString","coordinates":[[-79.94591569444445,25.749339111111112],[-79.94554533333334,25.744357750000002],[-79.94547252777778,25.744114472222222],[-79.94505466666666,25.743644500000002],[-79.9447603888889,25.743365194444447],[-79.94431005555556,25.743194472222225],[-79.94370736111111,25.74318166666667],[-79.94283605555556,25.743234805555556],[-79.94234961111111,25.743314],[-79.94171444444444,25.743600444444446],[-79.9413588888889,25.743968916666667],[-79.94116305555556,25.74427811111111],[-79.94108713888889,25.74472863888889],[-79.94144997222223,25.74961136111111]]},"properties":{"style":"solid","thickness":1}},{"type":"Feature","geometry":{"type":"LineString","coordinates":[[-79.93869730555556,25.743487055555555],[-79.93916266666668,25.74975075],[-79.93254361111111,25.74386188888889],[-79.9330086388889,25.750125611111113]]},"properties":{"style":"solid","thickness":1}},{"type":"Feature","geometry":{"type":"LineString","coordinates":[[-79.93077577777778,25.750261555555557],[-79.92845927777778,25.744110555555558],[-79.92663675,25.750513472222224],[-79.92426602777778,25.744365722222224],[-79.92271558333334,25.75075202777778]]},"properties":{"style":"solid","thickness":1}},{"type":"Feature","geometry":{"type":"LineString","coordinates":[[-79.92001830555556,25.744624055555555],[-79.91748730555555,25.751069916666665],[-79.91419125,25.74497827777778]]},"properties":{"style":"solid","thickness":1}},{"type":"Feature","geometry":{"type":"LineString","coordinates":[[-79.91918794444445,25.746705833333333],[-79.91526686111112,25.74694416666667]]},"properties":{"style":"solid","thickness":1}},{"type":"Feature","geometry":{"type":"LineString","coordinates":[[-79.91236794444445,25.75138102777778],[-79.90973755555557,25.747626888888888],[-79.90773869444445,25.751662166666666]]},"properties":{"style":"solid","thickness":1}},{"type":"Feature","geometry":{"type":"LineString","coordinates":[[-79.90973755555557,25.747626888888888],[-79.90956591666668,25.745308805555556]]},"properties":{"style":"solid","thickness":1}},{"type":"Feature","geometry":{"type":"LineString","coordinates":[[-79.90240844444445,25.751341666666665],[-79.90293511111112,25.751805138888887],[-79.90304766666667,25.751847833333333],[-79.90376297222222,25.7519035],[-79.90435475000001,25.7517685],[-79.90466691666667,25.75155138888889],[-79.90497544444445,25.751284944444443],[-79.90521491666668,25.750824527777777],[-79.90513094444445,25.74969013888889],[-79.90477133333334,25.749266083333335],[-79.9045388888889,25.749082027777778],[-79.90370008333333,25.74883566666667],[-79.90275600000001,25.748645250000003],[-79.90208058333334,25.748389],[-79.90184083333334,25.74810627777778],[-79.90168083333334,25.74742238888889],[-79.90174233333335,25.74677461111111],[-79.90198541666668,25.7463635],[-79.90224313888889,25.746149694444444],[-79.90245002777779,25.74598852777778],[-79.90271136111112,25.74582402777778],[-79.90329947222223,25.745639722222222],[-79.90362622222223,25.74561988888889],[-79.90396027777778,25.745698694444446],[-79.90441055555556,25.745869527777778],[-79.90469744444445,25.74605027777778],[-79.90510786111112,25.746421722222223]]},"properties":{"style":"solid","thickness":1}},{"type":"Feature","geometry":{"type":"LineString","coordinates":[[-79.9837245,25.70377458333333],[-79.98104291666667,25.7008175]]},"properties":{"style":"solid","thickness":1}},{"type":"Feature","geometry":{"type":"LineString","coordinates":[[-79.98545230555555,25.70054736111111],[-79.98591994444445,25.706810972222222],[-79.98319797222223,25.70697775],[-79.98297283333333,25.706892444444442],[-79.98246816666666,25.706725194444445],[-79.98194138888888,25.706262],[-79.98168683333334,25.70578213888889],[-79.98164266666667,25.705190305555554],[-79.98182361111111,25.704683777777777],[-79.98227675,25.704160555555553],[-79.98275197222222,25.70393325],[-79.9829623611111,25.703821277777777],[-79.98568427777778,25.7036545]]},"properties":{"style":"solid","thickness":1}},{"type":"Feature","geometry":{"type":"LineString","coordinates":[[-79.97927830555555,25.70721783333333],[-79.97696016666667,25.701067527777777],[-79.97514086111111,25.70747111111111],[-79.9727685,25.701324083333333],[-79.97122119444445,25.707710972222223]]},"properties":{"style":"solid","thickness":1}},{"type":"Feature","geometry":{"type":"LineString","coordinates":[[-79.96893469444444,25.70785083333333],[-79.96630347222222,25.704097694444442],[-79.96430725,25.708133805555555]]},"properties":{"style":"solid","thickness":1}},{"type":"Feature","geometry":{"type":"LineString","coordinates":[[-79.96630347222222,25.704097694444442],[-79.96613080555557,25.701779638888887]]},"properties":{"style":"solid","thickness":1}},{"type":"Feature","geometry":{"type":"LineString","coordinates":[[-79.95678952777779,25.70705727777778],[-79.95676444444445,25.707455166666666],[-79.95667391666667,25.707708416666666],[-79.95632586111111,25.708175583333333],[-79.95601388888889,25.708392805555555],[-79.95570194444444,25.708610055555553],[-79.95521930555556,25.70873861111111],[-79.95494711111111,25.708755222222223],[-79.95434091666667,25.708693166666666],[-79.95382525000001,25.708377833333333],[-79.95347291666667,25.708052527777777],[-79.95339647222222,25.707759944444444],[-79.95332308333333,25.706773527777777],[-79.95351883333333,25.706464305555556],[-79.95387422222223,25.706095805555556],[-79.95433483333333,25.705671305555555],[-79.95471591666667,25.705648055555553]]},"properties":{"style":"solid","thickness":1}},{"type":"Feature","geometry":{"type":"LineString","coordinates":[[-79.95433483333333,25.705671305555555],[-79.95365586111112,25.70536597222222],[-79.95342344444445,25.70518197222222],[-79.95312555555556,25.70485336111111],[-79.95306011111111,25.70470872222222],[-79.95297266666667,25.70426813888889],[-79.9529616388889,25.704120194444442],[-79.95298675000001,25.703722305555555],[-79.95307361111111,25.703419722222222],[-79.95332011111111,25.70305786111111],[-79.95362838888889,25.702791333333334],[-79.95415077777778,25.702462166666667],[-79.95540286111111,25.702385694444445],[-79.95579491666668,25.70251038888889],[-79.9564231111111,25.70286836111111],[-79.95653933333334,25.70296036111111],[-79.95673933333333,25.703443583333332],[-79.95675402777778,25.70364086111111]]},"properties":{"style":"solid","thickness":1}},{"type":"Feature","geometry":{"type":"LineString","coordinates":[[-79.94708644444445,25.7052715],[-79.94719641666667,25.70675111111111],[-79.94742208333334,25.70757961111111],[-79.94756030555556,25.70796752777778],[-79.94774561111112,25.70825347222222],[-79.94844291666666,25.70880547222222],[-79.94911455555555,25.709012194444444],[-79.94933230555556,25.708998916666665],[-79.94996727777779,25.708712444444444],[-79.95052211111111,25.708084027777776],[-79.95071786111112,25.707774833333332],[-79.95079741666667,25.70737361111111],[-79.95089836111111,25.706525194444446],[-79.95078833333334,25.705045583333334],[-79.95056266666667,25.704217083333333],[-79.95042444444445,25.703829166666665],[-79.95018466666667,25.703546555555555],[-79.94954183333334,25.70299125],[-79.94887025,25.7027845],[-79.94865250000001,25.702797805555555],[-79.94801755555557,25.703084277777776],[-79.94740830555556,25.70371597222222],[-79.94726697222222,25.70402186111111],[-79.94718741666667,25.70442308333333],[-79.94708644444445,25.7052715]]},"properties":{"style":"solid","thickness":1}},{"type":"Feature","geometry":{"type":"LineString","coordinates":[[-79.93564913888889,25.709585583333332],[-79.93599041666667,25.709762972222222],[-79.93637886111111,25.709838388888887],[-79.93768544444445,25.709758777777775],[-79.93816811111111,25.70963025],[-79.93832777777779,25.70957097222222],[-79.93911144444445,25.709077333333333],[-79.93956477777778,25.70855425],[-79.93969147222222,25.708051083333334],[-79.94000661111112,25.707140083333332],[-79.93992233333334,25.706005694444443],[-79.93977316666667,25.705469805555555],[-79.9395768888889,25.70503586111111],[-79.9393225,25.704555944444444],[-79.93873780555556,25.704046583333334],[-79.93766683333334,25.703616444444442],[-79.9369481388889,25.70351161111111],[-79.93634930555555,25.70354811111111],[-79.93559813888889,25.7037425],[-79.93533691666667,25.703907055555554],[-79.93512650000001,25.704018972222222]]},"properties":{"style":"solid","thickness":1}},{"type":"Feature","geometry":{"type":"LineString","coordinates":[[-79.93333008333333,25.710024138888887],[-79.93286519444445,25.703760388888888],[-79.9301976388889,25.70392286111111]]},"properties":{"style":"solid","thickness":1}},{"type":"Feature","geometry":{"type":"LineString","coordinates":[[-79.92533394444445,25.709866972222223],[-79.9258605,25.71033036111111],[-79.92597305555556,25.710373055555554],[-79.92668811111112,25.71042861111111],[-79.92727966666668,25.7102935],[-79.92759169444444,25.710076333333333],[-79.92790005555555,25.70980986111111],[-79.92813933333333,25.70934938888889],[-79.92805519444445,25.708215],[-79.92769561111112,25.707791],[-79.92746319444444,25.707606972222223],[-79.9266246388889,25.70736075],[-79.92568086111112,25.7071705],[-79.92500561111112,25.706914333333334],[-79.92476591666667,25.706631638888886],[-79.92460583333335,25.705947777777777],[-79.92466716666667,25.70529997222222],[-79.92491011111112,25.70488883333333],[-79.92516766666667,25.704674999999998],[-79.92537447222223,25.704513777777777],[-79.92563569444445,25.70434925],[-79.92622355555557,25.704164833333333],[-79.92655019444445,25.704144944444444],[-79.9268841388889,25.704223694444444],[-79.92733430555556,25.704394472222223],[-79.9276211388889,25.704575194444445],[-79.92803147222223,25.704946555555555]]},"properties":{"style":"solid","thickness":1}},{"type":"Feature","geometry":{"type":"LineString","coordinates":[[-79.922195,25.70441],[-79.92265936111112,25.710673777777778],[-79.92026386111111,25.710819527777776],[-79.91960325000001,25.71076061111111],[-79.91932005555556,25.71062922222222],[-79.91885894444445,25.710310444444445],[-79.91816541666667,25.70980763888889],[-79.91768236111112,25.709192944444442],[-79.91753694444445,25.708706361111112],[-79.91741636111112,25.70707875],[-79.91749236111112,25.706628249999998],[-79.9177751388889,25.706016527777777],[-79.9181306388889,25.70564811111111],[-79.91847883333334,25.705181027777776],[-79.91899766666667,25.704802666666666],[-79.91963997222223,25.70461497222222],[-79.9200173888889,25.704542472222222],[-79.922195,25.70441]]},"properties":{"style":"solid","thickness":1}}]}
