{"type":"FeatureCollection","features":[{"type":"Feature","geometry":{"type":"LineString","coordinates":[[-80.43810302777779,25.842352972222223],[-80.40001791666667,25.81329925]]},"properties":{"style":"solid","thickness":1}},{"type":"Feature","geometry":{"type":"LineString","coordinates":[[-80.71964011111112,25.784963611111113],[-80.39969855555556,25.782957166666666]]},"properties":{"style":"solid","thickness":1}},{"type":"Feature","geometry":{"type":"LineString","coordinates":[[-80.39713330555556,25.777106777777778],[-80.43737677777779,25.742184277777778]]},"properties":{"style":"solid","thickness":1}},{"type":"Feature","geometry":{"type":"LineString","coordinates":[[-80.29397861111111,25.797054972222224],[-80.29397861111111,25.798522805555557]]},"properties":{"style":"solid","thickness":1}},{"type":"Feature","geometry":{"type":"LineString","coordinates":[[-80.29357325,25.796908194444445],[-80.29357325,25.798669583333336]]},"properties":{"style":"solid","thickness":1}},{"type":"Feature","geometry":{"type":"LineString","coordinates":[[-80.29316788888889,25.796908194444445],[-80.29316788888889,25.798669583333336]]},"properties":{"style":"solid","thickness":1}},{"type":"Feature","geometry":{"type":"LineString","coordinates":[[-80.29276252777778,25.797054972222224],[-80.29276252777778,25.798522805555557]]},"properties":{"style":"solid","thickness":1}},{"type":"Feature","geometry":{"type":"LineString","coordinates":[[-80.29235716666666,25.797788888888892],[-80.29236344444445,25.797892944444445],[-80.29238372222223,25.798001722222224],[-80.29241988888889,25.798113166666667],[-80.29247347222223,25.798224611111113],[-80.29254525,25.79833288888889],[-80.29263508333334,25.798434472222223],[-80.29274169444444,25.798525833333336],[-80.29286277777777,25.798603694444445],[-80.29299494444444,25.798665444444445],[-80.29313422222222,25.798709472222225],[-80.29327633333334,25.79873513888889],[-80.29341711111111,25.798742972222225],[-80.29355288888888,25.798734305555556],[-80.29368072222222,25.798711222222224],[-80.29379858333333,25.798676166666667],[-80.29390516666666,25.79863166666667],[-80.2940025,25.79857861111111],[-80.29409755555555,25.798512861111114],[-80.29418822222222,25.798433388888892],[-80.29427133333333,25.79834013888889],[-80.29434344444444,25.798233805555558],[-80.29440122222222,25.798115916666667],[-80.29444161111111,25.797988972222225],[-80.29446241666666,25.797856250000002],[-80.29446241666666,25.797721527777778],[-80.29444161111111,25.79758877777778],[-80.29440119444445,25.797461833333337],[-80.29434344444444,25.797343972222222],[-80.29427133333333,25.79723761111111],[-80.29418822222222,25.797144361111112],[-80.29409755555555,25.797064916666667],[-80.2940025,25.79699913888889],[-80.29390516666666,25.79694611111111],[-80.29379855555555,25.796901611111114],[-80.29368072222222,25.79686652777778],[-80.29355286111111,25.796843472222225],[-80.29341711111111,25.79683480555556],[-80.29327633333334,25.796842611111114],[-80.29313425,25.796868305555556],[-80.29299494444444,25.79691230555556],[-80.29286277777777,25.796974083333335],[-80.29274172222222,25.797051944444448],[-80.29263508333334,25.797143277777778],[-80.29254527777778,25.79724488888889],[-80.29247347222223,25.797353166666667],[-80.29241988888889,25.797464611111113],[-80.29238372222223,25.797576055555556],[-80.29236344444445,25.797684833333335],[-80.29235716666666,25.797788888888892]]},"properties":{"style":"solid","thickness":1}},{"type":"Feature","geometry":{"type":"LineString","coordinates":[[-80.48419702777778,25.852035722222222],[-80.48218872222222,25.848636166666665]]},"properties":{"style":"solid","thickness":1}},{"type":"Feature","geometry":{"type":"LineString","coordinates":[[-80.48690508333334,25.848331527777777],[-80.48744644444444,25.855192194444445],[-80.48440155555555,25.855388861111113],[-80.48348466666667,25.855176611111112],[-80.48262330555556,25.854146305555556],[-80.48257216666667,25.85349805555556],[-80.4832033888889,25.852371361111114],[-80.48413733333334,25.852039583333333],[-80.48718216666667,25.85184288888889]]},"properties":{"style":"solid","thickness":1}},{"type":"Feature","geometry":{"type":"LineString","coordinates":[[-80.48028194444444,25.855654861111113],[-80.47985172222222,25.85019875],[-80.47953625,25.849241777777777],[-80.47842755555556,25.84887897222222],[-80.47639772222223,25.84901],[-80.47535716666667,25.8495115],[-80.47507558333334,25.850507],[-80.47550558333333,25.85596313888889]]},"properties":{"style":"solid","thickness":1}},{"type":"Feature","geometry":{"type":"LineString","coordinates":[[-80.46860122222222,25.85591980555556],[-80.46983361111111,25.856329000000002],[-80.47120683333334,25.856240444444445],[-80.47242233333334,25.85567338888889],[-80.47289158333334,25.85477438888889],[-80.47286602777778,25.854450250000003],[-80.4722051388889,25.853678444444444],[-80.46861469444444,25.85228111111111],[-80.46795811111112,25.85156330555556],[-80.46796675,25.850911194444446],[-80.46843602777778,25.850012222222222],[-80.46941266666667,25.849460583333332],[-80.4708455,25.849368194444445],[-80.47151925,25.849541916666666],[-80.47252127777777,25.850074527777778]]},"properties":{"style":"solid","thickness":1}},{"type":"Feature","geometry":{"type":"LineString","coordinates":[[-80.46143661111111,25.856381555555558],[-80.46266897222222,25.85679080555556],[-80.46404219444445,25.856702333333335],[-80.46525775,25.856135333333334],[-80.46572702777777,25.855236361111114],[-80.46570152777778,25.854912222222225],[-80.46504066666667,25.85414038888889],[-80.46145030555556,25.85274288888889],[-80.46079375000001,25.852025055555558],[-80.46080244444445,25.851372944444446],[-80.46127175000001,25.850473972222222],[-80.46224841666667,25.84992238888889],[-80.46368127777778,25.849830055555554],[-80.464355,25.850003805555556],[-80.46535702777778,25.8505365]]},"properties":{"style":"solid","thickness":1}},{"type":"Feature","geometry":{"type":"LineString","coordinates":[[-80.45427191666667,25.856842972222225],[-80.45550427777778,25.85725230555556],[-80.45687752777778,25.85716386111111],[-80.45809308333334,25.856596944444444],[-80.45856244444445,25.855697972222224],[-80.45853694444445,25.85537386111111],[-80.45787613888889,25.854601972222223],[-80.45428583333333,25.853204305555558],[-80.45362933333334,25.852486416666668],[-80.45363805555556,25.851834333333336],[-80.45410741666667,25.85093538888889],[-80.45508413888889,25.850383833333336],[-80.456517,25.850291583333334],[-80.45719072222222,25.850465361111112],[-80.45819272222222,25.850998083333334]]},"properties":{"style":"solid","thickness":1}},{"type":"Feature","geometry":{"type":"LineString","coordinates":[[-80.38412508333334,25.81764672222222],[-80.38358980555556,25.81078563888889]]},"properties":{"style":"solid","thickness":1}},{"type":"Feature","geometry":{"type":"LineString","coordinates":[[-80.38048405555556,25.817879388888887],[-80.38378366666667,25.81327075]]},"properties":{"style":"solid","thickness":1}},{"type":"Feature","geometry":{"type":"LineString","coordinates":[[-80.38269952777777,25.814751666666666],[-80.37929247222222,25.811060222222224]]},"properties":{"style":"solid","thickness":1}},{"type":"Feature","geometry":{"type":"LineString","coordinates":[[-80.37407505555555,25.814922527777778],[-80.37207047222222,25.811521416666668]]},"properties":{"style":"solid","thickness":1}},{"type":"Feature","geometry":{"type":"LineString","coordinates":[[-80.37678566666666,25.81122036111111],[-80.37732055555554,25.81808147222222],[-80.37427638888889,25.81827586111111],[-80.37335999999999,25.81806288888889],[-80.37249986111111,25.817031944444444],[-80.37244933333332,25.81638363888889],[-80.37308138888888,25.815257416666668],[-80.3740153611111,25.814926333333332],[-80.37705941666665,25.814731944444446]]},"properties":{"style":"solid","thickness":1}},{"type":"Feature","geometry":{"type":"LineString","coordinates":[[-80.36800899999999,25.81867586111111],[-80.36741211111111,25.818713944444443],[-80.36636794444443,25.81840052777778],[-80.36532455555555,25.817326916666666],[-80.36498063888888,25.81599152777778],[-80.36488391666666,25.814748944444446],[-80.3650175,25.81338311111111],[-80.36594383333333,25.812183861111112],[-80.36687777777777,25.811852805555557],[-80.36747463888888,25.811814722222223],[-80.36839097222222,25.812027722222222],[-80.36949402777778,25.8130975],[-80.36983797222221,25.814432888888888],[-80.36993477777777,25.815675444444445],[-80.36980544444444,25.817095333333334],[-80.3688791111111,25.818294583333333],[-80.36800899999999,25.81867586111111]]},"properties":{"style":"solid","thickness":1}},{"type":"Feature","geometry":{"type":"LineString","coordinates":[[-80.35793569444444,25.817960916666667],[-80.35897899999999,25.819034555555554],[-80.3599508611111,25.819189777777776],[-80.36060744444444,25.819147916666665],[-80.361486,25.81887475],[-80.36241241666666,25.817675527777777],[-80.36253341666666,25.816147611111113],[-80.36247033333333,25.815337222222222],[-80.36242827777777,25.814796972222222],[-80.36233075,25.814314555555555],[-80.36208441666666,25.813461583333336],[-80.36098563888888,25.81244577777778],[-80.36007352777777,25.812286750000002],[-80.35953633333332,25.812321],[-80.35853847222222,25.81260177777778],[-80.3576078611111,25.813746972222223]]},"properties":{"style":"solid","thickness":1}},{"type":"Feature","geometry":{"type":"LineString","coordinates":[[-80.35119825,25.81925886111111],[-80.3524298611111,25.819669027777778],[-80.35380275,25.819581583333335],[-80.35501844444444,25.8190155],[-80.35548841666666,25.81811686111111],[-80.35546319444444,25.817792722222222],[-80.35480327777778,25.817020361111112],[-80.35121527777777,25.81562013888889],[-80.35055961111111,25.814901805555557],[-80.35056888888889,25.814249694444445],[-80.35103888888888,25.813351083333334],[-80.35201577777777,25.812800222222222],[-80.35344827777777,25.81270897222222],[-80.35412163888888,25.812883250000002],[-80.3551228611111,25.813416694444445]]},"properties":{"style":"solid","thickness":1}},{"type":"Feature","geometry":{"type":"LineString","coordinates":[[-80.71606402777778,25.795381666666668],[-80.71717,25.796448805555556],[-80.7181421111111,25.79660163888889],[-80.71885811111112,25.796554222222223],[-80.71961633333333,25.79628677777778],[-80.72053897222223,25.795085305555556],[-80.72065975,25.79361111111111],[-80.72056808333333,25.792476833333335],[-80.72013877777778,25.790876166666667],[-80.71915652777778,25.78985516666667],[-80.71824411111112,25.78969838888889],[-80.71758783333334,25.789741833333334],[-80.71665066666667,25.790021111111113],[-80.71572802777779,25.791222555555557],[-80.71583711111111,25.792572916666668],[-80.71714972222222,25.792486]]},"properties":{"style":"solid","thickness":1}},{"type":"Feature","geometry":{"type":"LineString","coordinates":[[-80.70894808333334,25.791942805555557],[-80.71270694444445,25.791694083333336]]},"properties":{"style":"solid","thickness":1}},{"type":"Feature","geometry":{"type":"LineString","coordinates":[[-80.71317272222223,25.790034138888892],[-80.71122075000001,25.797059805555556],[-80.70822063888889,25.790361861111112]]},"properties":{"style":"solid","thickness":1}},{"type":"Feature","geometry":{"type":"LineString","coordinates":[[-80.70367547222223,25.794246444444447],[-80.70338783333334,25.7906815]]},"properties":{"style":"solid","thickness":1}},{"type":"Feature","geometry":{"type":"LineString","coordinates":[[-80.70632802777779,25.797383500000002],[-80.70367547222223,25.794246444444447],[-80.70155461111112,25.79769913888889]]},"properties":{"style":"solid","thickness":1}},{"type":"Feature","geometry":{"type":"LineString","coordinates":[[-80.69904855555556,25.79786480555556],[-80.69409611111111,25.79819202777778]]},"properties":{"style":"solid","thickness":1}},{"type":"Feature","geometry":{"type":"LineString","coordinates":[[-80.6965425,25.79803038888889],[-80.69598944444445,25.79117052777778]]},"properties":{"style":"solid","thickness":1}},{"type":"Feature","geometry":{"type":"LineString","coordinates":[[-80.68839647222222,25.795201666666667],[-80.68638336111111,25.79180488888889]]},"properties":{"style":"solid","thickness":1}},{"type":"Feature","geometry":{"type":"LineString","coordinates":[[-80.69109691666667,25.791493694444448],[-80.69164969444445,25.798353583333334],[-80.68860658333334,25.798554527777778],[-80.68768980555556,25.798343527777778],[-80.68682711111111,25.797314444444446],[-80.68677488888889,25.79666625],[-80.6874038888889,25.795538694444446],[-80.68833680555556,25.795205583333335],[-80.69137983333334,25.795004666666667]]},"properties":{"style":"solid","thickness":1}},{"type":"Feature","geometry":{"type":"LineString","coordinates":[[-80.38094930555555,25.791228472222222],[-80.38041433333332,25.784367361111112]]},"properties":{"style":"solid","thickness":1}},{"type":"Feature","geometry":{"type":"LineString","coordinates":[[-80.37730908333333,25.79146105555556],[-80.38060808333333,25.786852472222225]]},"properties":{"style":"solid","thickness":1}},{"type":"Feature","geometry":{"type":"LineString","coordinates":[[-80.37952413888888,25.78833338888889],[-80.37611791666666,25.784641861111112]]},"properties":{"style":"solid","thickness":1}},{"type":"Feature","geometry":{"type":"LineString","coordinates":[[-80.36975202777776,25.791455000000003],[-80.37098341666666,25.791865027777778],[-80.37235597222221,25.79177738888889],[-80.37357127777777,25.791211166666667],[-80.37404102777776,25.790312472222222],[-80.37401575,25.789988305555557],[-80.37335586111111,25.789216055555556],[-80.36976849999999,25.78781627777778],[-80.3691128611111,25.787098],[-80.36912205555555,25.78644591666667],[-80.36959177777777,25.785547222222224],[-80.37056836111111,25.784996250000003],[-80.3720005,25.784904805555556],[-80.37267374999999,25.785079000000003],[-80.37367480555555,25.785612305555556]]},"properties":{"style":"solid","thickness":1}},{"type":"Feature","geometry":{"type":"LineString","coordinates":[[-80.3667201111111,25.78871663888889],[-80.36361702777778,25.788914611111114]]},"properties":{"style":"solid","thickness":1}},{"type":"Feature","geometry":{"type":"LineString","coordinates":[[-80.36262872222221,25.792398138888892],[-80.3669851111111,25.792120222222223],[-80.36645091666666,25.78525902777778],[-80.36179641666666,25.785555972222223]]},"properties":{"style":"solid","thickness":1}},{"type":"Feature","geometry":{"type":"LineString","coordinates":[[-80.35964816666666,25.785692972222225],[-80.36018197222222,25.79255416666667],[-80.35493394444444,25.785993472222223],[-80.35546747222222,25.792854694444447]]},"properties":{"style":"solid","thickness":1}},{"type":"Feature","geometry":{"type":"LineString","coordinates":[[-80.35087230555555,25.7931475],[-80.35027552777777,25.793185500000003],[-80.34923163888888,25.792871944444446],[-80.34818863888889,25.791798222222223],[-80.34784497222222,25.79046277777778],[-80.34774844444443,25.789220194444447],[-80.34788219444444,25.787854333333335],[-80.34880852777778,25.786655194444446],[-80.34974230555555,25.786324250000003],[-80.35033905555555,25.786286250000003],[-80.35125516666666,25.78649936111111],[-80.35235780555556,25.78756925],[-80.3527015,25.788904694444447],[-80.3527981111111,25.79014727777778],[-80.35266858333333,25.79156713888889],[-80.35174227777777,25.792766305555556],[-80.35087230555555,25.7931475]]},"properties":{"style":"solid","thickness":1}},{"type":"Feature","geometry":{"type":"LineString","coordinates":[[-80.48032225,25.744335250000002],[-80.48136600000001,25.745408027777778],[-80.48233741666667,25.745562444444445],[-80.48299355555555,25.74552002777778],[-80.48387127777778,25.74524611111111],[-80.48479591666667,25.74404611111111],[-80.48491527777777,25.742518083333334],[-80.48485141666667,25.74170775],[-80.48480883333333,25.74116752777778],[-80.48471088888888,25.74068516666667],[-80.48446383333334,25.73983238888889],[-80.48336469444445,25.7388175],[-80.48245297222222,25.73865925],[-80.48191616666666,25.738693944444446],[-80.48091919444444,25.738975555555555],[-80.47999030555556,25.740121527777777]]},"properties":{"style":"solid","thickness":1}},{"type":"Feature","geometry":{"type":"LineString","coordinates":[[-80.47583561111111,25.7459825],[-80.47523911111111,25.74602102777778],[-80.47419527777778,25.745708361111113],[-80.47315158333333,25.7446355],[-80.47280666666667,25.74330036111111],[-80.47270886111112,25.742057833333334],[-80.47284116666667,25.74069188888889],[-80.47376586111112,25.739491944444445],[-80.47469894444444,25.739160194444445],[-80.47529541666667,25.73912166666667],[-80.47621138888888,25.739334],[-80.47731469444444,25.740402972222224],[-80.47765966666667,25.74173811111111],[-80.4777575,25.74298063888889],[-80.47762952777778,25.74440061111111],[-80.47670483333333,25.745600583333335],[-80.47583561111111,25.7459825]]},"properties":{"style":"solid","thickness":1}},{"type":"Feature","geometry":{"type":"LineString","coordinates":[[-80.46843897222223,25.746460000000003],[-80.46784247222223,25.7464985],[-80.46679866666666,25.74618577777778],[-80.46575502777777,25.74511288888889],[-80.46541019444444,25.743777722222223],[-80.46531247222222,25.742535194444446],[-80.46544486111111,25.741169222222222],[-80.46636963888889,25.739969333333335],[-80.46730275,25.73963763888889],[-80.46789922222223,25.739599166666668],[-80.46881516666667,25.73981152777778],[-80.46991844444445,25.740880555555556],[-80.47026330555556,25.742215722222223],[-80.47036108333333,25.743458222222223],[-80.47023300000001,25.744878222222223],[-80.46930822222222,25.74607813888889],[-80.46843897222223,25.746460000000003]]},"properties":{"style":"solid","thickness":1}},{"type":"Feature","geometry":{"type":"LineString","coordinates":[[-80.46318972222222,25.746798666666667],[-80.45877555555556,25.74708327777778],[-80.46265025,25.73993777777778],[-80.45793808333333,25.740241611111113]]},"properties":{"style":"solid","thickness":1}},{"type":"Feature","geometry":{"type":"LineString","coordinates":[[-80.45338669444445,25.744118500000003],[-80.45310661111111,25.740553000000002]]},"properties":{"style":"solid","thickness":1}},{"type":"Feature","geometry":{"type":"LineString","coordinates":[[-80.45603161111111,25.74726013888889],[-80.45338669444445,25.744118500000003],[-80.4512595,25.747567611111112]]},"properties":{"style":"solid","thickness":1}},{"type":"Feature","geometry":{"type":"LineString","coordinates":[[-80.72295108333334,25.782438055555556],[-80.73431613888889,25.781684555555554],[-80.729355,25.790979083333333],[-80.72295108333334,25.782438055555556]]},"properties":{"style":"solid","thickness":1}},{"type":"Feature","geometry":{"type":"LineString","coordinates":[[-80.43924847222223,25.84515436111111],[-80.45062136111112,25.84442288888889],[-80.44563555555555,25.853707777777778],[-80.43924847222223,25.84515436111111]]},"properties":{"style":"solid","thickness":1}},{"type":"Feature","geometry":{"type":"LineString","coordinates":[[-80.40732100000001,25.852766972222224],[-80.41869480555556,25.852037972222224],[-80.41370622222223,25.86132177777778],[-80.40732100000001,25.852766972222224]]},"properties":{"style":"solid","thickness":1}},{"type":"Feature","geometry":{"type":"LineString","coordinates":[[-80.38704322222223,25.805324444444445],[-80.39841266666667,25.804597027777778],[-80.39342447222222,25.813880222222224],[-80.38704322222223,25.805324444444445]]},"properties":{"style":"solid","thickness":1}},{"type":"Feature","geometry":{"type":"LineString","coordinates":[[-80.38455283333334,25.78030211111111],[-80.39591991666667,25.779574888888888],[-80.39093258333334,25.788858027777778],[-80.38455283333334,25.78030211111111]]},"properties":{"style":"solid","thickness":1}},{"type":"Feature","geometry":{"type":"LineString","coordinates":[[-80.43812622222222,25.733815361111112],[-80.44948855555556,25.73308397222222],[-80.44450727777779,25.74236902777778],[-80.43812622222222,25.733815361111112]]},"properties":{"style":"solid","thickness":1}},{"type":"Feature","geometry":{"type":"LineString","coordinates":[[-80.40389169444445,25.870737777777777],[-80.40216083333334,25.863953305555558],[-80.40114483333333,25.87091361111111],[-80.39905583333334,25.86415202777778],[-80.39827852777779,25.87109702777778]]},"properties":{"style":"solid","thickness":1}},{"type":"Feature","geometry":{"type":"LineString","coordinates":[[-80.39100194444445,25.866296000000002],[-80.39476383333334,25.86605541666667]]},"properties":{"style":"solid","thickness":1}},{"type":"Feature","geometry":{"type":"LineString","coordinates":[[-80.39523430555556,25.864396527777778],[-80.39326247222223,25.87141788888889],[-80.39027822222224,25.864713444444448]]},"properties":{"style":"solid","thickness":1}},{"type":"Feature","geometry":{"type":"LineString","coordinates":[[-80.38836580555557,25.871730944444444],[-80.3856188888889,25.8719065],[-80.38456577777778,25.87148513888889],[-80.38381613888889,25.870338583333332],[-80.38339527777778,25.86879097222222],[-80.38360175000001,25.866823222222223],[-80.38416583333334,25.86559275],[-80.38508327777778,25.8650455],[-80.38783002777778,25.864869944444447],[-80.38836580555557,25.871730944444444]]},"properties":{"style":"solid","thickness":1}},{"type":"Feature","geometry":{"type":"LineString","coordinates":[[-80.38119991666666,25.87218877777778],[-80.38066455555555,25.865327750000002],[-80.37636524999999,25.86560227777778]]},"properties":{"style":"solid","thickness":1}},{"type":"Feature","geometry":{"type":"LineString","coordinates":[[-80.37412688888888,25.86921988888889],[-80.37102172222221,25.86941802777778]]},"properties":{"style":"solid","thickness":1}},{"type":"Feature","geometry":{"type":"LineString","coordinates":[[-80.37003297222222,25.872901527777778],[-80.37439227777777,25.87262338888889],[-80.37385730555555,25.865762361111113],[-80.36919969444443,25.86605952777778]]},"properties":{"style":"solid","thickness":1}},{"type":"Feature","geometry":{"type":"LineString","coordinates":[[-80.40228194444445,25.850154916666668],[-80.40281847222222,25.857015888888892],[-80.39756527777779,25.850456805555556],[-80.39810155555556,25.857317805555557]]},"properties":{"style":"solid","thickness":1}},{"type":"Feature","geometry":{"type":"LineString","coordinates":[[-80.39350402777778,25.857611916666666],[-80.39290694444445,25.857650111111113],[-80.39186236111112,25.85733686111111],[-80.39081841666668,25.856263444444444],[-80.39047411111112,25.854928111111114],[-80.39037705555556,25.853685583333334],[-80.39051041666667,25.852319722222223],[-80.39143680555556,25.851120305555558],[-80.39237097222222,25.850789111111112],[-80.39296802777778,25.85075091666667],[-80.39388469444445,25.850963750000002],[-80.39498833333334,25.852033333333335],[-80.39533269444445,25.85336863888889],[-80.39542977777778,25.854611194444445],[-80.39530069444446,25.856031083333335],[-80.39437430555556,25.8572305],[-80.39350402777778,25.857611916666666]]},"properties":{"style":"solid","thickness":1}},{"type":"Feature","geometry":{"type":"LineString","coordinates":[[-80.38824966666667,25.85794788888889],[-80.3832938611111,25.858264583333334]]},"properties":{"style":"solid","thickness":1}},{"type":"Feature","geometry":{"type":"LineString","coordinates":[[-80.38574191666667,25.858108166666668],[-80.38520636111112,25.85124713888889]]},"properties":{"style":"solid","thickness":1}},{"type":"Feature","geometry":{"type":"LineString","coordinates":[[-80.38058025,25.855017444444446],[-80.37747544444444,25.855215722222223]]},"properties":{"style":"solid","thickness":1}},{"type":"Feature","geometry":{"type":"LineString","coordinates":[[-80.376487,25.858699305555557],[-80.38084577777776,25.858420972222223],[-80.3803105,25.85155991666667],[-80.37565344444444,25.85185730555556]]},"properties":{"style":"solid","thickness":1}},{"type":"Feature","geometry":{"type":"LineString","coordinates":[[-80.37381991666666,25.85604630555556],[-80.37262575,25.856122527777778],[-80.37254152777777,25.855042027777777],[-80.37373566666666,25.854965833333335],[-80.37381991666666,25.85604630555556]]},"properties":{"style":"solid","thickness":1}},{"type":"Feature","geometry":{"type":"LineString","coordinates":[[-80.37358827777777,25.853074972222224],[-80.37239413888888,25.853151194444447],[-80.37230991666667,25.852070694444446],[-80.37350402777777,25.8519945],[-80.37358827777777,25.853074972222224]]},"properties":{"style":"solid","thickness":1}},{"type":"Feature","geometry":{"type":"LineString","coordinates":[[-80.36088080555555,25.856328611111113],[-80.35887591666666,25.852927361111114]]},"properties":{"style":"solid","thickness":1}},{"type":"Feature","geometry":{"type":"LineString","coordinates":[[-80.36359277777777,25.852626722222222],[-80.36412708333333,25.859487833333336],[-80.3610818611111,25.859681944444446],[-80.36016516666666,25.859468916666668],[-80.35930483333333,25.85843788888889],[-80.35925436111111,25.857789583333336],[-80.35988677777777,25.856663444444447],[-80.36082108333333,25.856332416666667],[-80.36386622222221,25.856138305555557]]},"properties":{"style":"solid","thickness":1}},{"type":"Feature","geometry":{"type":"LineString","coordinates":[[-80.35696183333333,25.859944472222224],[-80.35523377777777,25.853159416666667],[-80.35421513888889,25.860119416666667],[-80.35212899999999,25.85335713888889],[-80.35134902777777,25.860301916666668]]},"properties":{"style":"solid","thickness":1}},{"type":"Feature","geometry":{"type":"LineString","coordinates":[[-80.34619655555555,25.857318055555556],[-80.34591938888889,25.85375241666667]]},"properties":{"style":"solid","thickness":1}},{"type":"Feature","geometry":{"type":"LineString","coordinates":[[-80.34884116666666,25.860461583333336],[-80.34619655555555,25.857318055555556],[-80.34406424999999,25.860765555555556]]},"properties":{"style":"solid","thickness":1}},{"type":"Feature","geometry":{"type":"LineString","coordinates":[[-80.33534633333333,25.86131988888889],[-80.33134563888889,25.861574111111114],[-80.33152158333333,25.860748555555556],[-80.33189344444445,25.860127722222224],[-80.33244863888889,25.85954952777778],[-80.33360091666667,25.85893338888889],[-80.33270524999999,25.858990305555558],[-80.33172052777778,25.858672805555557],[-80.3310815,25.8581705],[-80.3307158611111,25.857325055555556],[-80.33064458333332,25.856406638888892],[-80.3308718611111,25.855469222222222],[-80.33148675,25.85488725],[-80.3323656111111,25.85461425],[-80.33338066666666,25.85454975],[-80.33429305555555,25.854708916666667],[-80.33487658333333,25.855269055555556]]},"properties":{"style":"solid","thickness":1}},{"type":"Feature","geometry":{"type":"LineString","coordinates":[[-80.32638949999999,25.86188886111111],[-80.32579236111111,25.86192677777778],[-80.32474791666667,25.86161305555556],[-80.32370455555555,25.86053916666667],[-80.32336097222222,25.859203694444446],[-80.32326463888889,25.857961083333336],[-80.32339875,25.856595305555558],[-80.32432583333333,25.85539630555556],[-80.32526025,25.85506552777778],[-80.32585733333333,25.85502763888889],[-80.32677391666667,25.85524088888889],[-80.327877,25.856310972222225],[-80.3282206111111,25.857646416666668],[-80.328317,25.858889],[-80.32818713888888,25.860308833333335],[-80.32726002777777,25.861507833333334],[-80.32638949999999,25.86188886111111]]},"properties":{"style":"solid","thickness":1}},{"type":"Feature","geometry":{"type":"LineString","coordinates":[[-80.31277494444444,25.86275266666667],[-80.31217780555555,25.86279052777778],[-80.31113338888889,25.862476694444446],[-80.31009011111111,25.861402722222223],[-80.30974669444444,25.860067194444447],[-80.3096505,25.858824611111114],[-80.30978474999999,25.857458833333336],[-80.310712,25.856259944444446],[-80.31164644444443,25.855929250000003],[-80.31224355555555,25.85589138888889],[-80.3131601111111,25.856104722222224],[-80.31426305555556,25.85717491666667],[-80.31460652777777,25.858510416666668],[-80.31470280555556,25.859753],[-80.31457275,25.861172805555558],[-80.31364552777778,25.862371722222225],[-80.31277494444444,25.86275266666667]]},"properties":{"style":"solid","thickness":1}},{"type":"Feature","geometry":{"type":"LineString","coordinates":[[-80.30698905555555,25.856224416666667],[-80.30752013888889,25.863085722222223],[-80.30227191666667,25.856523250000002],[-80.30280272222222,25.863384555555555]]},"properties":{"style":"solid","thickness":1}},{"type":"Feature","geometry":{"type":"LineString","coordinates":[[-80.30035444444444,25.86353961111111],[-80.29982377777777,25.856678277777778],[-80.29552458333333,25.856950416666667]]},"properties":{"style":"solid","thickness":1}},{"type":"Feature","geometry":{"type":"LineString","coordinates":[[-80.29090377777777,25.860825944444446],[-80.29062827777777,25.857260194444446]]},"properties":{"style":"solid","thickness":1}},{"type":"Feature","geometry":{"type":"LineString","coordinates":[[-80.293547,25.863970444444448],[-80.29090377777777,25.860825944444446],[-80.28876983333333,25.86427261111111]]},"properties":{"style":"solid","thickness":1}}]}
