{"type":"FeatureCollection","features":[{"type":"Feature","geometry":{"type":"LineString","coordinates":[[-80.2932391388889,25.79690666666667],[-80.29438566666667,25.797944583333337]]},"properties":{"style":"solid","thickness":1}},{"type":"Feature","geometry":{"type":"LineString","coordinates":[[-80.29283783333334,25.797062333333336],[-80.29421369444444,25.798307833333336]]},"properties":{"style":"solid","thickness":1}},{"type":"Feature","geometry":{"type":"LineString","coordinates":[[-80.29255119444444,25.797321833333335],[-80.29392705555556,25.798567333333335]]},"properties":{"style":"solid","thickness":1}},{"type":"Feature","geometry":{"type":"LineString","coordinates":[[-80.29237922222222,25.797685083333334],[-80.29352575,25.79872302777778]]},"properties":{"style":"solid","thickness":1}},{"type":"Feature","geometry":{"type":"LineString","coordinates":[[-80.29266583333333,25.79846352777778],[-80.29275158333333,25.798533083333336],[-80.2928508611111,25.79859702777778],[-80.2929635,25.79865266666667],[-80.29308844444444,25.798697166666667],[-80.29322377777778,25.798727805555558],[-80.29336666666667,25.79874213888889],[-80.29351341666667,25.798738472222222],[-80.29365983333334,25.79871602777778],[-80.29380155555555,25.798675111111113],[-80.29393441666666,25.798617055555557],[-80.29405494444444,25.798544250000003],[-80.29416058333334,25.798459694444446],[-80.29424983333332,25.79836666666667],[-80.29432222222222,25.798268500000002],[-80.29437816666666,25.79816827777778],[-80.29441874999999,25.798068555555556],[-80.29444616666666,25.797968750000003],[-80.294462,25.797861416666667],[-80.29446405555555,25.797747194444447],[-80.29444997222222,25.797628055555556],[-80.29441788888889,25.797506694444447],[-80.29436666666666,25.797386361111112],[-80.29429608333334,25.797270722222223],[-80.2942071111111,25.797163555555557],[-80.29410188888889,25.79706827777778],[-80.29398347222222,25.796987750000003],[-80.29385574999999,25.796923861111114],[-80.29372283333333,25.796877472222224],[-80.29358877777777,25.796848444444446],[-80.29345716666667,25.796835694444447],[-80.293331,25.79683755555556],[-80.29321241666666,25.79685188888889],[-80.29310216666667,25.796876694444446],[-80.29299202777777,25.796913472222222],[-80.29288130555555,25.796964111111112],[-80.2927728611111,25.797029611111114],[-80.29267011111111,25.79711041666667],[-80.29257666666666,25.797206055555556],[-80.29249625,25.797315166666667],[-80.29243213888888,25.797435444444446],[-80.29238691666666,25.797563722222225],[-80.29236213888889,25.797696277777778],[-80.29235808333333,25.797829111111113],[-80.29237394444445,25.797958444444447],[-80.29240775,25.798080972222223],[-80.29245691666667,25.798194083333335],[-80.2925183888889,25.79829602777778],[-80.29258899999999,25.798385916666668],[-80.29266583333333,25.79846352777778]]},"properties":{"style":"solid","thickness":1}},{"type":"Feature","geometry":{"type":"LineString","coordinates":[[-81.01824030555555,26.329660611111112],[-81.02843852777778,26.45126527777778],[-80.98376155555556,26.454297666666665],[-80.97418758333333,26.454945694444444],[-80.96626177777777,26.449704055555557],[-80.96038422222223,26.443360722222224],[-80.9600648888889,26.439530527777777],[-80.95846866666668,26.420379611111112],[-80.95929272222223,26.41743511111111],[-80.9618445,26.40955911111111],[-80.97167925000001,26.399264527777778],[-80.96056761111112,26.39423825],[-80.95501211111112,26.391724777777778],[-80.94929747222223,26.387295972222223],[-80.94539091666667,26.378893166666668],[-80.94332025,26.353996277777778],[-80.94595138888889,26.347078],[-80.95291297222222,26.340830083333334],[-80.95790786111111,26.336640694444444],[-80.96298216666666,26.333408666666667],[-81.01824030555555,26.329660611111112]]},"properties":{"style":"solid","thickness":1}},{"type":"Feature","geometry":{"type":"LineString","coordinates":[[-81.02377824999999,26.395729916666667],[-80.97167925000001,26.399264527777778]]},"properties":{"style":"solid","thickness":1}},{"type":"Feature","geometry":{"type":"LineString","coordinates":[[-80.81715716666666,26.59811472222222],[-80.80724125,26.477456277777776]]},"properties":{"style":"solid","thickness":1}},{"type":"Feature","geometry":{"type":"LineString","coordinates":[[-80.72661172222223,26.60410663888889],[-80.71678813888889,26.48344161111111]]},"properties":{"style":"solid","thickness":1}},{"type":"Feature","geometry":{"type":"LineString","coordinates":[[-80.81251133333333,26.541616555555557],[-80.72200916666667,26.54760541666667]]},"properties":{"style":"solid","thickness":1}},{"type":"Feature","geometry":{"type":"LineString","coordinates":[[-80.22207469444444,26.538853666666668],[-80.17775950000001,26.651626333333333],[-80.1195086111111,26.54521752777778]]},"properties":{"style":"solid","thickness":1}},{"type":"Feature","geometry":{"type":"LineString","coordinates":[[-80.2075435,26.575277083333333],[-80.13850633333334,26.579560305555557]]},"properties":{"style":"solid","thickness":1}},{"type":"Feature","geometry":{"type":"LineString","coordinates":[[-79.47177016666667,26.22412588888889],[-79.3995156388889,26.22825547222222],[-79.39891230555556,26.219630166666665],[-79.47068738888889,26.102946444444445],[-79.47061983333333,26.101988083333335],[-79.38676305555556,26.10678288888889]]},"properties":{"style":"solid","thickness":1}},{"type":"Feature","geometry":{"type":"LineString","coordinates":[[-79.4182108888889,25.95737652777778],[-79.42842394444445,25.96641461111111],[-79.43061161111112,25.967251583333333],[-79.44452941666667,25.968378305555554],[-79.45605744444445,25.965791944444444],[-79.46214911111112,25.961592749999998],[-79.46817283333334,25.956434916666666],[-79.47286591666666,25.94750425],[-79.47131347222222,25.925461055555555],[-79.46434736111111,25.917201444444444],[-79.45983861111111,25.913611638888888],[-79.44353847222223,25.908774444444443],[-79.42518736111111,25.905015277777775],[-79.41206883333334,25.8999925],[-79.40742838888889,25.894484249999998],[-79.40437205555556,25.881187305555557],[-79.40562080555556,25.868606555555555],[-79.41038197222223,25.860636194444446],[-79.41541050000001,25.85649938888889],[-79.41944647222223,25.853381527777778],[-79.42454144444444,25.850202833333334],[-79.43599127777779,25.846659444444445],[-79.44234636111112,25.84629461111111],[-79.44883594444445,25.847846388888886],[-79.45757877777778,25.851192833333336],[-79.46314438888889,25.854721750000003],[-79.47109866666666,25.86196202777778]]},"properties":{"style":"solid","thickness":1}},{"type":"Feature","geometry":{"type":"LineString","coordinates":[[-79.35760922222222,25.851136055555557],[-79.27805705555555,25.977832916666664]]},"properties":{"style":"solid","thickness":1}},{"type":"Feature","geometry":{"type":"LineString","coordinates":[[-79.1922256388889,25.921056916666668],[-79.14044327777779,25.863317416666668]]},"properties":{"style":"solid","thickness":1}},{"type":"Feature","geometry":{"type":"LineString","coordinates":[[-79.22625486111112,25.858542944444444],[-79.23457961111112,25.98027061111111],[-79.18155625,25.98322586111111],[-79.17718400000001,25.98154447222222],[-79.16737941666668,25.97824011111111],[-79.15718547222222,25.96918408333333],[-79.15229458333334,25.959833944444444],[-79.1515153888889,25.948331916666667],[-79.15510658333334,25.938512],[-79.16399722222222,25.92839811111111],[-79.17327688888889,25.92403463888889],[-79.17738650000001,25.92188213888889],[-79.2303826388889,25.918927944444444]]},"properties":{"style":"solid","thickness":1}},{"type":"Feature","geometry":{"type":"LineString","coordinates":[[-80.18241988888889,25.202075583333333],[-80.17318727777779,25.08038336111111],[-80.12163069444443,25.083615305555554]]},"properties":{"style":"solid","thickness":1}},{"type":"Feature","geometry":{"type":"LineString","coordinates":[[-79.5916851111111,25.58614233333333],[-79.58301966666666,25.464422777777777]]},"properties":{"style":"solid","thickness":1}},{"type":"Feature","geometry":{"type":"LineString","coordinates":[[-79.51869438888889,25.589439249999998],[-79.58731627777777,25.524803638888887],[-79.50911413888889,25.468736083333333]]},"properties":{"style":"solid","thickness":1}},{"type":"Feature","geometry":{"type":"LineString","coordinates":[[-79.81099044444444,25.297486472222225],[-79.81562680555555,25.30298238888889],[-79.82553508333334,25.308160055555557],[-79.83200094444445,25.30969477777778],[-79.85013452777777,25.311486000000002],[-79.85646033333333,25.311102944444446],[-79.86897116666665,25.308419361111113],[-79.87930252777777,25.304904472222223],[-79.88134052777777,25.303818055555556],[-79.88836755555556,25.298577944444446],[-79.89532341666667,25.292379194444447],[-79.90677180555556,25.2753175],[-79.91091088888889,25.259663194444446],[-79.90935658333333,25.23858013888889],[-79.90640191666667,25.22720875],[-79.90155255555555,25.218840666666665],[-79.89466755555556,25.211559055555554],[-79.88890719444446,25.205171333333332],[-79.87984672222221,25.19705888888889],[-79.871139,25.193737583333334],[-79.86243177777777,25.19041577777778],[-79.8549186111111,25.188946305555557],[-79.83596008333333,25.190094555555557],[-79.82556730555555,25.192648166666668],[-79.81742052777777,25.196990583333335],[-79.80828963888888,25.202354444444445],[-79.80231822222223,25.207527305555555],[-79.79262030555556,25.21966222222222],[-79.78692605555555,25.228667944444442],[-79.78523675,25.234544916666668],[-79.78635138888889,25.24987888888889],[-79.83061019444445,25.24721088888889]]},"properties":{"style":"solid","thickness":1}},{"type":"Feature","geometry":{"type":"LineString","coordinates":[[-80.64687277777779,25.035843472222226],[-80.62078741666666,25.15986675],[-80.56695566666666,25.041105611111114],[-80.53973522222222,25.165183805555554],[-80.49123816666666,25.046050833333336]]},"properties":{"style":"solid","thickness":1}},{"type":"Feature","geometry":{"type":"LineString","coordinates":[[-79.61296483333332,25.75531825],[-79.60604702777778,25.658521138888887],[-79.60464741666667,25.653791194444445],[-79.59656186111111,25.64464113888889],[-79.59086527777777,25.639200444444445],[-79.58213397222222,25.635861944444443],[-79.57043588888888,25.635583555555556],[-79.55351952777778,25.636571],[-79.54407191666667,25.638084],[-79.53172347222223,25.64361461111111],[-79.5247965,25.650753888888886],[-79.52097338888889,25.65675019444444],[-79.51946822222222,25.66549886111111],[-79.52618080555555,25.760382361111112]]},"properties":{"style":"solid","thickness":1}},{"type":"Feature","geometry":{"type":"LineString","coordinates":[[-79.58083441666666,26.344140277777775],[-79.49692080555556,26.471187583333332]]},"properties":{"style":"solid","thickness":1}},{"type":"Feature","geometry":{"type":"LineString","coordinates":[[-79.58635630555555,26.466023666666665],[-79.48404561111111,26.349729666666665]]},"properties":{"style":"solid","thickness":1}},{"type":"Feature","geometry":{"type":"LineString","coordinates":[[-79.44362588888889,26.35204461111111],[-79.36381933333332,26.47876986111111]]},"properties":{"style":"solid","thickness":1}},{"type":"Feature","geometry":{"type":"LineString","coordinates":[[-79.32015874999999,26.48123025],[-79.27554997222222,26.361549194444446],[-79.23922272222222,26.48575616666667],[-79.19363105555556,26.36611061111111],[-79.16254158333334,26.490002222222223]]},"properties":{"style":"solid","thickness":1}},{"type":"Feature","geometry":{"type":"LineString","coordinates":[[-81.15030002777779,25.748341777777778],[-81.09848099999999,25.675830083333334],[-81.06041975,25.75453513888889]]},"properties":{"style":"solid","thickness":1}},{"type":"Feature","geometry":{"type":"LineString","coordinates":[[-81.09848099999999,25.675830083333334],[-81.09470638888888,25.6308215]]},"properties":{"style":"solid","thickness":1}},{"type":"Feature","geometry":{"type":"LineString","coordinates":[[-80.6365325,26.624287055555556],[-80.57579463888888,26.628235888888888]]},"properties":{"style":"solid","thickness":1}},{"type":"Feature","geometry":{"type":"LineString","coordinates":[[-80.57751619444444,26.68973638888889],[-80.64148416666667,26.685578194444446],[-80.63166344444444,26.56395227777778]]},"properties":{"style":"solid","thickness":1}},{"type":"Feature","geometry":{"type":"LineString","coordinates":[[-80.46284591666667,26.56515336111111],[-80.47249155555556,26.686791194444446],[-80.42557708333334,26.68978866666667],[-80.41263072222223,26.688687944444446],[-80.40707291666668,26.68615375],[-80.39801497222223,26.679991416666667],[-80.38439222222223,26.670267972222224],[-80.37488541666666,26.658357305555555],[-80.3720015,26.64891425],[-80.3695211111111,26.617305916666666],[-80.37097602777777,26.608550305555557],[-80.37646702777778,26.59665086111111],[-80.38339844444445,26.589472694444442],[-80.39017841666667,26.5803785],[-80.40030369444445,26.57299638888889],[-80.41285983333334,26.569309166666667],[-80.42024052777778,26.567876138888888],[-80.46284591666667,26.56515336111111]]},"properties":{"style":"solid","thickness":1}}]}
