{"type":"FeatureCollection","features":[{"type":"Feature","geometry":{"type":"LineString","coordinates":[[-80.41828936111112,25.829826416666666],[-80.40132552777779,25.830913527777778]]},"properties":{"style":"solid","thickness":1}},{"type":"Feature","geometry":{"type":"LineString","coordinates":[[-80.7290716388889,25.874586],[-80.71210452777778,25.875709194444443]]},"properties":{"style":"solid","thickness":1}},{"type":"Feature","geometry":{"type":"LineString","coordinates":[[-80.290803,25.867764],[-80.290803,25.867764],[-80.40888600000001,25.867517]]},"properties":{"style":"solid","thickness":1}},{"type":"Feature","geometry":{"type":"LineString","coordinates":[[-80.40888600000001,25.867517],[-80.40888600000001,25.867517],[-80.459367,25.867242]]},"properties":{"style":"solid","thickness":1}},{"type":"Feature","geometry":{"type":"LineString","coordinates":[[-80.459367,25.867242],[-80.459367,25.867242],[-80.467525,25.850478000000003]]},"properties":{"style":"solid","thickness":1}},{"type":"Feature","geometry":{"type":"LineString","coordinates":[[-80.467525,25.850478000000003],[-80.467525,25.850478000000003],[-80.47111100000001,25.838883]]},"properties":{"style":"solid","thickness":1}},{"type":"Feature","geometry":{"type":"LineString","coordinates":[[-80.47111100000001,25.838883],[-80.47111100000001,25.838883],[-80.474014,25.827575]]},"properties":{"style":"solid","thickness":1}},{"type":"Feature","geometry":{"type":"LineString","coordinates":[[-80.474014,25.827575],[-80.474014,25.827575],[-80.476603,25.81185]]},"properties":{"style":"solid","thickness":1}},{"type":"Feature","geometry":{"type":"LineString","coordinates":[[-80.476603,25.81185],[-80.476603,25.81185],[-80.47757800000001,25.796619000000003]]},"properties":{"style":"solid","thickness":1}},{"type":"Feature","geometry":{"type":"LineString","coordinates":[[-80.47757800000001,25.796619000000003],[-80.47757800000001,25.796619000000003],[-80.47712800000001,25.785675]]},"properties":{"style":"solid","thickness":1}},{"type":"Feature","geometry":{"type":"LineString","coordinates":[[-80.290803,25.867764],[-80.290803,25.867764],[-80.29121544444445,25.794721194444445]]},"properties":{"style":"solid","thickness":1}},{"type":"Feature","geometry":{"type":"LineString","coordinates":[[-80.29121544444445,25.795083972222223],[-80.29121544444445,25.795083972222223],[-80.47712800000001,25.785675]]},"properties":{"style":"solid","thickness":1}},{"type":"Feature","geometry":{"type":"LineString","coordinates":[[-80.47712800000001,25.785675],[-80.47712800000001,25.785675],[-80.66088838888889,25.778034027777778]]},"properties":{"style":"solid","thickness":1}},{"type":"Feature","geometry":{"type":"LineString","coordinates":[[-80.66022358333333,25.778015888888888],[-80.66022358333333,25.778015888888888],[-81.00592319444445,25.76065761111111]]},"properties":{"style":"solid","thickness":1}},{"type":"Feature","geometry":{"type":"LineString","coordinates":[[-81.005593,25.761250166666667],[-81.005593,25.761250166666667],[-80.98494630555555,25.94521211111111]]},"properties":{"style":"solid","thickness":1}},{"type":"Feature","geometry":{"type":"LineString","coordinates":[[-80.98467816666667,25.94521211111111],[-80.98467816666667,25.94521211111111],[-80.58890530555556,25.963077166666665]]},"properties":{"style":"solid","thickness":1}},{"type":"Feature","geometry":{"type":"LineString","coordinates":[[-80.58970972222222,25.963077166666665],[-80.58970972222222,25.963077166666665],[-80.29019866666667,25.963559999999998]]},"properties":{"style":"solid","thickness":1}},{"type":"Feature","geometry":{"type":"LineString","coordinates":[[-80.29046680555555,25.963559999999998],[-80.29046680555555,25.963559999999998],[-80.290803,25.867764]]},"properties":{"style":"solid","thickness":1}},{"type":"Feature","geometry":{"type":"LineString","coordinates":[[-80.2932391388889,25.79690666666667],[-80.29438566666667,25.797944583333337]]},"properties":{"style":"solid","thickness":1}},{"type":"Feature","geometry":{"type":"LineString","coordinates":[[-80.29283783333334,25.797062333333336],[-80.29421369444444,25.798307833333336]]},"properties":{"style":"solid","thickness":1}},{"type":"Feature","geometry":{"type":"LineString","coordinates":[[-80.29255119444444,25.797321833333335],[-80.29392705555556,25.798567333333335]]},"properties":{"style":"solid","thickness":1}},{"type":"Feature","geometry":{"type":"LineString","coordinates":[[-80.29237922222222,25.797685083333334],[-80.29352575,25.79872302777778]]},"properties":{"style":"solid","thickness":1}},{"type":"Feature","geometry":{"type":"LineString","coordinates":[[-80.29266583333333,25.79846352777778],[-80.29275158333333,25.798533083333336],[-80.2928508611111,25.79859702777778],[-80.2929635,25.79865266666667],[-80.29308844444444,25.798697166666667],[-80.29322377777778,25.798727805555558],[-80.29336666666667,25.79874213888889],[-80.29351341666667,25.798738472222222],[-80.29365983333334,25.79871602777778],[-80.29380155555555,25.798675111111113],[-80.29393441666666,25.798617055555557],[-80.29405494444444,25.798544250000003],[-80.29416058333334,25.798459694444446],[-80.29424983333332,25.79836666666667],[-80.29432222222222,25.798268500000002],[-80.29437816666666,25.79816827777778],[-80.29441874999999,25.798068555555556],[-80.29444616666666,25.797968750000003],[-80.294462,25.797861416666667],[-80.29446405555555,25.797747194444447],[-80.29444997222222,25.797628055555556],[-80.29441788888889,25.797506694444447],[-80.29436666666666,25.797386361111112],[-80.29429608333334,25.797270722222223],[-80.2942071111111,25.797163555555557],[-80.29410188888889,25.79706827777778],[-80.29398347222222,25.796987750000003],[-80.29385574999999,25.796923861111114],[-80.29372283333333,25.796877472222224],[-80.29358877777777,25.796848444444446],[-80.29345716666667,25.796835694444447],[-80.293331,25.79683755555556],[-80.29321241666666,25.79685188888889],[-80.29310216666667,25.796876694444446],[-80.29299202777777,25.796913472222222],[-80.29288130555555,25.796964111111112],[-80.2927728611111,25.797029611111114],[-80.29267011111111,25.79711041666667],[-80.29257666666666,25.797206055555556],[-80.29249625,25.797315166666667],[-80.29243213888888,25.797435444444446],[-80.29238691666666,25.797563722222225],[-80.29236213888889,25.797696277777778],[-80.29235808333333,25.797829111111113],[-80.29237394444445,25.797958444444447],[-80.29240775,25.798080972222223],[-80.29245691666667,25.798194083333335],[-80.2925183888889,25.79829602777778],[-80.29258899999999,25.798385916666668],[-80.29266583333333,25.79846352777778]]},"properties":{"style":"solid","thickness":1}},{"type":"Feature","geometry":{"type":"LineString","coordinates":[[-80.41692069444444,25.838493305555556],[-80.41691163888889,25.839040194444443],[-80.4168035,25.839392166666666],[-80.41635550000001,25.840050916666666],[-80.41594111111111,25.840365055555555],[-80.41552672222222,25.84067922222222],[-80.4148723888889,25.84088072222222],[-80.41449980555556,25.840917722222223],[-80.41366372222222,25.840864277777776],[-80.41293577777779,25.84045886111111],[-80.41243141666668,25.840031222222223],[-80.41230783333334,25.839634027777777],[-80.41214425000001,25.838285305555555],[-80.41239325000001,25.83785111111111],[-80.4128576388889,25.837327249999998],[-80.41346286111111,25.836721166666667],[-80.41398447222223,25.836669333333333]]},"properties":{"style":"solid","thickness":1}},{"type":"Feature","geometry":{"type":"LineString","coordinates":[[-80.41346286111111,25.836721166666667],[-80.41251138888889,25.836337944444445],[-80.41218061111111,25.836097805555553],[-80.41175077777778,25.835662749999997],[-80.41165172222223,25.83546786111111],[-80.41150361111112,25.834868333333333],[-80.41147908333333,25.834666027777775],[-80.41148816666667,25.834119166666664],[-80.41158813888889,25.833699749999997],[-80.41190347222222,25.833190694444443],[-80.41230966666667,25.83280911111111],[-80.41300575000001,25.8323305],[-80.41471958333334,25.83216025],[-80.41526572222223,25.83231072222222],[-80.41615080555556,25.832768777777776],[-80.41631619444445,25.83288883333333],[-80.41662155555557,25.83354097222222],[-80.41665427777778,25.83381072222222]]},"properties":{"style":"solid","thickness":1}},{"type":"Feature","geometry":{"type":"LineString","coordinates":[[-80.40348752777778,25.836551472222222],[-80.40373272222223,25.838574527777777],[-80.40409525000001,25.83969872222222],[-80.40430969444445,25.840223416666664],[-80.40458227777778,25.84060583333333],[-80.4055746388889,25.841326305555555],[-80.40650975000001,25.841574694444443],[-80.40680783333335,25.84154511111111],[-80.40766122222223,25.84111913888889],[-80.40838280555556,25.840228527777775],[-80.40863183333335,25.839794333333334],[-80.40871547222223,25.839240055555553],[-80.40880002777779,25.838071444444445],[-80.40855472222223,25.836048388888887],[-80.40819216666667,25.834924194444444],[-80.40797772222223,25.834399527777776],[-80.40763061111112,25.834024499999998],[-80.40671283333334,25.833296666666666],[-80.40577777777779,25.833048277777777],[-80.40547969444445,25.83307786111111],[-80.4046263888889,25.833503805555555],[-80.40383027777779,25.834401805555554],[-80.40365577777779,25.83482861111111],[-80.40357211111112,25.83538286111111],[-80.40348752777778,25.836551472222222]]},"properties":{"style":"solid","thickness":1}},{"type":"Feature","geometry":{"type":"LineString","coordinates":[[-80.40660125000001,25.822595222222223],[-80.40684647222223,25.824618277777777],[-80.40720897222222,25.82574247222222],[-80.4074233888889,25.826267166666668],[-80.40769597222223,25.82664958333333],[-80.40868822222222,25.82737],[-80.40962325000001,25.82761838888889],[-80.40992130555556,25.827588805555557],[-80.41077455555556,25.827162805555556],[-80.41149605555556,25.826272194444446],[-80.41174502777778,25.82583797222222],[-80.41182863888889,25.825283694444444],[-80.41191313888889,25.824115083333332],[-80.41166783333334,25.822092055555554],[-80.41130530555556,25.82096786111111],[-80.41109086111112,25.820443166666667],[-80.41074377777778,25.820068166666665],[-80.40982608333334,25.819340333333333],[-80.40889113888889,25.81909197222222],[-80.40859311111112,25.819121555555554],[-80.4077398888889,25.81954752777778],[-80.40694388888889,25.82044552777778],[-80.40676941666668,25.820872333333334],[-80.40668580555555,25.82142661111111],[-80.40660125000001,25.822595222222223]]},"properties":{"style":"solid","thickness":1}},{"type":"Feature","geometry":{"type":"LineString","coordinates":[[-80.72772502777778,25.88325563888889],[-80.72771738888889,25.883802499999998],[-80.72761013888889,25.88415472222222],[-80.72716369444444,25.884814388888888],[-80.72674997222222,25.885129416666665],[-80.72633622222223,25.885444444444445],[-80.72568219444445,25.88564733333333],[-80.72530955555555,25.88568513888889],[-80.72447305555556,25.88563347222222],[-80.72374380555556,25.88522961111111],[-80.72323813888889,25.884803055555555],[-80.72311344444445,25.88440611111111],[-80.72294630555555,25.883057805555556],[-80.72319427777778,25.882623055555555],[-80.72365747222223,25.882098222222222],[-80.72426133333333,25.88149086111111],[-80.724783,25.881437944444446]]},"properties":{"style":"solid","thickness":1}},{"type":"Feature","geometry":{"type":"LineString","coordinates":[[-80.72426133333333,25.88149086111111],[-80.72330852777777,25.881109666666667],[-80.722977,25.88087025],[-80.72254588888889,25.88043613888889],[-80.72244627777778,25.880241444444444],[-80.72229655555556,25.87964225],[-80.7222715,25.87944002777778],[-80.72227916666667,25.878893138888888],[-80.72237808333334,25.878473500000002],[-80.72269219444445,25.877963805555556],[-80.72309755555555,25.877581361111112],[-80.7237926388889,25.87710127777778],[-80.72550663888889,25.87692738888889],[-80.72605336111111,25.877076694444444],[-80.72694,25.87753286111111],[-80.72710575,25.877652555555557],[-80.72741291666667,25.878304027777776],[-80.72744633333333,25.878573694444444]]},"properties":{"style":"solid","thickness":1}},{"type":"Feature","geometry":{"type":"LineString","coordinates":[[-80.71428194444445,25.881342416666666],[-80.7145325,25.883364916666665],[-80.71489808333334,25.884488305555553],[-80.71511397222223,25.88501252777778],[-80.71538766666667,25.88539436111111],[-80.71638225000001,25.886112694444446],[-80.71731836111111,25.886359083333332],[-80.71761647222222,25.88632886111111],[-80.71846902777779,25.88590111111111],[-80.71918858333333,25.88500897222222],[-80.71943655555556,25.88457425],[-80.71951877777778,25.884019805555557],[-80.71960030555556,25.882851055555555],[-80.71934966666667,25.880828583333333],[-80.71898408333334,25.879705166666668],[-80.71876819444445,25.879180944444446],[-80.71841997222222,25.878806694444446],[-80.71749997222223,25.878080805555555],[-80.71656391666667,25.877834416666666],[-80.71626583333334,25.87786463888889],[-80.71541330555556,25.87829238888889],[-80.71461925,25.879192055555556],[-80.71444577777778,25.87961922222222],[-80.71436355555556,25.880173666666668],[-80.71428194444445,25.881342416666666]]},"properties":{"style":"solid","thickness":1}},{"type":"Feature","geometry":{"type":"LineString","coordinates":[[-80.72662911111111,25.86971627777778],[-80.72662144444445,25.870263166666668],[-80.72651422222222,25.87061536111111],[-80.72606780555556,25.871275055555557],[-80.72565411111111,25.871590083333334],[-80.72524044444445,25.87190511111111],[-80.72458647222223,25.872107972222224],[-80.7242138888889,25.872145777777778],[-80.72337747222223,25.87209411111111],[-80.72264830555555,25.87169025],[-80.72214269444444,25.871263666666668],[-80.72201802777778,25.87086675],[-80.72185094444444,25.86951841666667],[-80.7220988611111,25.869083694444445],[-80.722562,25.86855886111111],[-80.72316580555555,25.8679515],[-80.72368741666666,25.867898583333332]]},"properties":{"style":"solid","thickness":1}},{"type":"Feature","geometry":{"type":"LineString","coordinates":[[-80.72316580555555,25.8679515],[-80.72221311111112,25.867570277777777],[-80.72188163888889,25.86733086111111],[-80.72145055555556,25.866896750000002],[-80.72135097222223,25.866702055555557],[-80.72120127777778,25.866102861111113],[-80.72117622222223,25.865900611111112],[-80.72118388888889,25.865353722222224],[-80.72128280555556,25.86493411111111],[-80.7215968888889,25.86442441666667],[-80.72200219444444,25.864041972222225],[-80.72269722222222,25.863561888888892],[-80.72441102777778,25.863388],[-80.72495769444444,25.863537333333333],[-80.72584419444445,25.863993500000003],[-80.72600994444444,25.864113194444446],[-80.72631705555555,25.86476466666667],[-80.7263505,25.865034333333334]]},"properties":{"style":"solid","thickness":1}},{"type":"Feature","geometry":{"type":"LineString","coordinates":[[-80.71318755555556,25.867802944444446],[-80.71343808333333,25.869825444444444],[-80.71380358333333,25.870948861111113],[-80.71401944444445,25.871473083333335],[-80.71429311111112,25.871854944444443],[-80.71528755555556,25.87257327777778],[-80.71622355555556,25.87281966666667],[-80.71652163888889,25.872789444444447],[-80.71737411111111,25.872361694444447],[-80.71809361111112,25.871469555555556],[-80.71834155555555,25.871034833333333],[-80.71842377777779,25.87048038888889],[-80.71850530555555,25.869311638888888],[-80.71825472222223,25.867289166666666],[-80.71788916666667,25.86616575],[-80.71767330555556,25.86564152777778],[-80.7173251388889,25.865267250000002],[-80.71640525000001,25.86454138888889],[-80.71546930555556,25.864294972222222],[-80.71517125,25.864325194444447],[-80.71431880555556,25.864752944444447],[-80.71352483333334,25.865652583333336],[-80.7133513888889,25.86607975],[-80.71326916666666,25.866634194444448],[-80.71318755555556,25.867802944444446]]},"properties":{"style":"solid","thickness":1}}]}
