{"type":"FeatureCollection","features":[{"type":"Feature","geometry":{"type":"LineString","coordinates":[[-80.78190077777778,26.219335166666664],[-80.76488502777778,26.220464749999998]]},"properties":{"style":"solid","thickness":1}},{"type":"Feature","geometry":{"type":"LineString","coordinates":[[-80.80238436111111,26.091703166666665],[-80.7853871111111,26.092835055555554]]},"properties":{"style":"solid","thickness":1}},{"type":"Feature","geometry":{"type":"LineString","coordinates":[[-80.83496697222222,25.904548305555554],[-80.81799672222222,25.90568383333333]]},"properties":{"style":"solid","thickness":1}},{"type":"Feature","geometry":{"type":"LineString","coordinates":[[-80.56640972222222,25.874923388888888],[-80.54944091666667,25.876027722222222]]},"properties":{"style":"solid","thickness":1}},{"type":"Feature","geometry":{"type":"LineString","coordinates":[[-80.40296786111112,26.015615027777777],[-80.38597747222222,26.01670036111111]]},"properties":{"style":"solid","thickness":1}},{"type":"Feature","geometry":{"type":"LineString","coordinates":[[-80.66029400000001,25.778005999999998],[-80.66029400000001,25.778005999999998],[-80.66169400000001,25.800378000000002]]},"properties":{"style":"solid","thickness":1}},{"type":"Feature","geometry":{"type":"LineString","coordinates":[[-80.66169400000001,25.800378000000002],[-80.66169400000001,25.800378000000002],[-80.660994,25.827247]]},"properties":{"style":"solid","thickness":1}},{"type":"Feature","geometry":{"type":"LineString","coordinates":[[-80.660994,25.827247],[-80.660994,25.827247],[-80.65613300000001,25.855208]]},"properties":{"style":"solid","thickness":1}},{"type":"Feature","geometry":{"type":"LineString","coordinates":[[-80.65613300000001,25.855208],[-80.65613300000001,25.855208],[-80.64761100000001,25.888575]]},"properties":{"style":"solid","thickness":1}},{"type":"Feature","geometry":{"type":"LineString","coordinates":[[-80.64761100000001,25.888575],[-80.64761100000001,25.888575],[-80.638917,25.911710999999997]]},"properties":{"style":"solid","thickness":1}},{"type":"Feature","geometry":{"type":"LineString","coordinates":[[-80.638917,25.911710999999997],[-80.638917,25.911710999999997],[-80.627989,25.933078000000002]]},"properties":{"style":"solid","thickness":1}},{"type":"Feature","geometry":{"type":"LineString","coordinates":[[-80.627989,25.933078000000002],[-80.627989,25.933078000000002],[-80.613406,25.962346999999998]]},"properties":{"style":"solid","thickness":1}},{"type":"Feature","geometry":{"type":"LineString","coordinates":[[-80.613406,25.962346999999998],[-80.613406,25.962346999999998],[-80.588678,25.963425]]},"properties":{"style":"solid","thickness":1}},{"type":"Feature","geometry":{"type":"LineString","coordinates":[[-80.588678,25.963425],[-80.588678,25.963425],[-80.289583,25.963186]]},"properties":{"style":"solid","thickness":1}},{"type":"Feature","geometry":{"type":"LineString","coordinates":[[-80.29084866666666,25.868395972222224],[-80.29084866666666,25.868395972222224],[-80.4581673888889,25.867509805555557]]},"properties":{"style":"solid","thickness":1}},{"type":"Feature","geometry":{"type":"LineString","coordinates":[[-80.4581673888889,25.867509805555557],[-80.4581673888889,25.867509805555557],[-80.46702544444445,25.850229833333334]]},"properties":{"style":"solid","thickness":1}},{"type":"Feature","geometry":{"type":"LineString","coordinates":[[-80.46702544444445,25.850229833333334],[-80.46702544444445,25.850229833333334],[-80.47391505555555,25.82896213888889]]},"properties":{"style":"solid","thickness":1}},{"type":"Feature","geometry":{"type":"LineString","coordinates":[[-80.47391505555555,25.82896213888889],[-80.47391505555555,25.82896213888889],[-80.47637561111111,25.812125222222225]]},"properties":{"style":"solid","thickness":1}},{"type":"Feature","geometry":{"type":"LineString","coordinates":[[-80.47637561111111,25.812125222222225],[-80.47637561111111,25.812125222222225],[-80.47831113888888,25.785985194444446]]},"properties":{"style":"solid","thickness":1}},{"type":"Feature","geometry":{"type":"LineString","coordinates":[[-80.588678,25.963425],[-80.588678,25.963425],[-80.667798,26.037013]]},"properties":{"style":"solid","thickness":1}},{"type":"Feature","geometry":{"type":"LineString","coordinates":[[-80.667798,26.037013],[-80.667798,26.037013],[-80.976744,26.022050999999998]]},"properties":{"style":"solid","thickness":1}},{"type":"Feature","geometry":{"type":"LineString","coordinates":[[-80.976744,26.022050999999998],[-80.976744,26.022050999999998],[-80.96799741666666,26.103669722222225]]},"properties":{"style":"solid","thickness":1}},{"type":"Feature","geometry":{"type":"LineString","coordinates":[[-80.96799741666666,26.103669722222225],[-80.96799741666666,26.103669722222225],[-80.89027800000001,26.180556000000003]]},"properties":{"style":"solid","thickness":1}},{"type":"Feature","geometry":{"type":"LineString","coordinates":[[-80.89027800000001,26.180556000000003],[-80.89027800000001,26.180556000000003],[-80.807292,26.167983]]},"properties":{"style":"solid","thickness":1}},{"type":"Feature","geometry":{"type":"LineString","coordinates":[[-80.807292,26.167983],[-80.807292,26.167983],[-80.63536400000001,26.197306]]},"properties":{"style":"solid","thickness":1}},{"type":"Feature","geometry":{"type":"LineString","coordinates":[[-80.63536400000001,26.197306],[-80.63536400000001,26.197306],[-80.52284399999999,26.073397]]},"properties":{"style":"solid","thickness":1}},{"type":"Feature","geometry":{"type":"LineString","coordinates":[[-80.52284399999999,26.073397],[-80.52284399999999,26.073397],[-80.667798,26.037013]]},"properties":{"style":"solid","thickness":1}},{"type":"Feature","geometry":{"type":"LineString","coordinates":[[-80.89027800000001,26.180556000000003],[-80.89027800000001,26.180556000000003],[-80.747644,26.313203]]},"properties":{"style":"solid","thickness":1}},{"type":"Feature","geometry":{"type":"LineString","coordinates":[[-80.747644,26.313203],[-80.747644,26.313203],[-80.80559983333333,26.373503444444445]]},"properties":{"style":"solid","thickness":1}},{"type":"Feature","geometry":{"type":"LineString","coordinates":[[-80.80559983333333,26.373503444444445],[-80.80559983333333,26.373503444444445],[-80.89713300000001,26.2871035]]},"properties":{"style":"solid","thickness":1}},{"type":"Feature","geometry":{"type":"LineString","coordinates":[[-80.89027800000001,26.180556000000003],[-80.89027800000001,26.180556000000003],[-80.89811725000001,26.286660416666667]]},"properties":{"style":"solid","thickness":1}},{"type":"Feature","geometry":{"type":"LineString","coordinates":[[-80.747644,26.313203],[-80.747644,26.313203],[-80.63536400000001,26.197306]]},"properties":{"style":"solid","thickness":1}},{"type":"Feature","geometry":{"type":"LineString","coordinates":[[-80.52284399999999,26.073397],[-80.52284399999999,26.073397],[-80.15059619444445,26.071768194444445]]},"properties":{"style":"solid","thickness":1}},{"type":"Feature","geometry":{"type":"LineString","coordinates":[[-80.15059619444445,26.071768194444445],[-80.15059619444445,26.071768194444445],[-80.14567505555556,25.962771305555556]]},"properties":{"style":"solid","thickness":1}},{"type":"Feature","geometry":{"type":"LineString","coordinates":[[-80.14567505555556,25.962771305555556],[-80.14567505555556,25.962771305555556],[-80.289583,25.963186]]},"properties":{"style":"solid","thickness":1}},{"type":"Feature","geometry":{"type":"LineString","coordinates":[[-80.289583,25.963186],[-80.289583,25.963186],[-80.29134077777778,25.868395972222224]]},"properties":{"style":"solid","thickness":1}},{"type":"Feature","geometry":{"type":"LineString","coordinates":[[-80.976744,26.022050999999998],[-80.976744,26.022050999999998],[-81.0042553611111,25.760810888888887]]},"properties":{"style":"solid","thickness":1}},{"type":"Feature","geometry":{"type":"LineString","coordinates":[[-81.0042553611111,25.760810888888887],[-80.47831113888888,25.785985194444446]]},"properties":{"style":"solid","thickness":1}},{"type":"Feature","geometry":{"type":"LineString","coordinates":[[-80.2932391388889,25.79690666666667],[-80.29438566666667,25.797944583333337]]},"properties":{"style":"solid","thickness":1}},{"type":"Feature","geometry":{"type":"LineString","coordinates":[[-80.29283783333334,25.797062333333336],[-80.29421369444444,25.798307833333336]]},"properties":{"style":"solid","thickness":1}},{"type":"Feature","geometry":{"type":"LineString","coordinates":[[-80.29255119444444,25.797321833333335],[-80.29392705555556,25.798567333333335]]},"properties":{"style":"solid","thickness":1}},{"type":"Feature","geometry":{"type":"LineString","coordinates":[[-80.29237922222222,25.797685083333334],[-80.29352575,25.79872302777778]]},"properties":{"style":"solid","thickness":1}},{"type":"Feature","geometry":{"type":"LineString","coordinates":[[-80.29266583333333,25.79846352777778],[-80.29275158333333,25.798533083333336],[-80.2928508611111,25.79859702777778],[-80.2929635,25.79865266666667],[-80.29308844444444,25.798697166666667],[-80.29322377777778,25.798727805555558],[-80.29336666666667,25.79874213888889],[-80.29351341666667,25.798738472222222],[-80.29365983333334,25.79871602777778],[-80.29380155555555,25.798675111111113],[-80.29393441666666,25.798617055555557],[-80.29405494444444,25.798544250000003],[-80.29416058333334,25.798459694444446],[-80.29424983333332,25.79836666666667],[-80.29432222222222,25.798268500000002],[-80.29437816666666,25.79816827777778],[-80.29441874999999,25.798068555555556],[-80.29444616666666,25.797968750000003],[-80.294462,25.797861416666667],[-80.29446405555555,25.797747194444447],[-80.29444997222222,25.797628055555556],[-80.29441788888889,25.797506694444447],[-80.29436666666666,25.797386361111112],[-80.29429608333334,25.797270722222223],[-80.2942071111111,25.797163555555557],[-80.29410188888889,25.79706827777778],[-80.29398347222222,25.796987750000003],[-80.29385574999999,25.796923861111114],[-80.29372283333333,25.796877472222224],[-80.29358877777777,25.796848444444446],[-80.29345716666667,25.796835694444447],[-80.293331,25.79683755555556],[-80.29321241666666,25.79685188888889],[-80.29310216666667,25.796876694444446],[-80.29299202777777,25.796913472222222],[-80.29288130555555,25.796964111111112],[-80.2927728611111,25.797029611111114],[-80.29267011111111,25.79711041666667],[-80.29257666666666,25.797206055555556],[-80.29249625,25.797315166666667],[-80.29243213888888,25.797435444444446],[-80.29238691666666,25.797563722222225],[-80.29236213888889,25.797696277777778],[-80.29235808333333,25.797829111111113],[-80.29237394444445,25.797958444444447],[-80.29240775,25.798080972222223],[-80.29245691666667,25.798194083333335],[-80.2925183888889,25.79829602777778],[-80.29258899999999,25.798385916666668],[-80.29266583333333,25.79846352777778]]},"properties":{"style":"solid","thickness":1}},{"type":"Feature","geometry":{"type":"LineString","coordinates":[[-80.83512061111111,26.294966666666667],[-80.83295208333332,26.295187583333334],[-80.83169522222222,26.29422338888889],[-80.83149497222222,26.293834222222223],[-80.83130316666666,26.29351241666667],[-80.83120177777778,26.292703583333335],[-80.83142483333333,26.2920665],[-80.83179744444445,26.291414194444446],[-80.83221230555556,26.291098861111113],[-80.83248605555555,26.290866194444448],[-80.83305888888889,26.290603055555557],[-80.83440483333332,26.290465944444446],[-80.8350283611111,26.290607194444448],[-80.83551927777778,26.2908985],[-80.83595230555555,26.29133225],[-80.83624425,26.291848611111114],[-80.83637816666666,26.292312805555557],[-80.83646269444444,26.292986833333334],[-80.83643019444445,26.293331444444448],[-80.83625658333332,26.293758722222226],[-80.83598283333333,26.293991416666668],[-80.83512061111111,26.294966666666667],[-80.83586122222222,26.295437333333336],[-80.83630272222221,26.295938472222225],[-80.83649452777777,26.296260222222223],[-80.83662977777777,26.29733866666667],[-80.83635730555555,26.298185583333336],[-80.83615833333333,26.29841066666667],[-80.83551913888888,26.298748833333335],[-80.83509580555555,26.29899675],[-80.83412366666666,26.29909577777778],[-80.83342530555555,26.29896213888889],[-80.83236022222222,26.298319722222224],[-80.83216841666666,26.297997944444447],[-80.83201630555556,26.296784694444447],[-80.83215613888889,26.29608780555556],[-80.83222247222221,26.296012805555556],[-80.83256255555555,26.29570511111111],[-80.83295208333332,26.295187583333334]]},"properties":{"style":"solid","thickness":1}},{"type":"Feature","geometry":{"type":"LineString","coordinates":[[-80.82322005555555,26.294881583333336],[-80.82347341666666,26.296903694444445],[-80.82384130555555,26.298026694444445],[-80.82405844444445,26.298550694444447],[-80.82433344444443,26.29893227777778],[-80.82533216666667,26.29964975],[-80.82627177777778,26.29989541666667],[-80.82657088888888,26.299864972222224],[-80.82742602777778,26.299436583333335],[-80.82814722222221,26.298544000000003],[-80.82839566666667,26.298109111111113],[-80.82847763888888,26.297554666666667],[-80.8285583611111,26.296385972222225],[-80.82830491666667,26.294363888888892],[-80.82793697222222,26.293240888888892],[-80.8277198611111,26.29271688888889],[-80.82737005555555,26.29234291666667],[-80.82644616666666,26.291617833333333],[-80.82550663888888,26.29137216666667],[-80.82520752777778,26.29140263888889],[-80.82435247222222,26.291831000000002],[-80.8235565,26.292731194444446],[-80.82338283333333,26.293158444444447],[-80.82330083333333,26.29371288888889],[-80.82322005555555,26.294881583333336]]},"properties":{"style":"solid","thickness":1}},{"type":"Feature","geometry":{"type":"LineString","coordinates":[[-80.77903975,26.226178833333332],[-80.77687236111112,26.226398916666664],[-80.77561669444444,26.225434194444443],[-80.77541675,26.22504494444444],[-80.77522522222222,26.22472308333333],[-80.77512427777778,26.223914194444443],[-80.7753475,26.223277166666666],[-80.77572022222222,26.22262497222222],[-80.77613497222222,26.222309805555554],[-80.77640866666667,26.222077249999998],[-80.77698130555555,26.22181433333333],[-80.77832652777778,26.22167772222222],[-80.77894966666666,26.22181925],[-80.77944013888889,26.22211075],[-80.77987272222222,26.222544638888888],[-80.78016422222223,26.223061138888887],[-80.78029786111111,26.223525388888888],[-80.78038202777778,26.22419947222222],[-80.7803493611111,26.22454408333333],[-80.78017563888889,26.224971305555552],[-80.77990194444445,26.22520388888889],[-80.77903975,26.226178833333332],[-80.77977969444444,26.226649777777777],[-80.78022072222223,26.22715111111111],[-80.78041227777777,26.227472944444443],[-80.78054691666667,26.22855147222222],[-80.78027419444444,26.229398305555552],[-80.78007522222222,26.229623277777776],[-80.77943622222222,26.229961222222222],[-80.77901302777778,26.230208972222222],[-80.77804141666667,26.23030763888889],[-80.77734352777777,26.230173722222222],[-80.77627936111111,26.22953088888889],[-80.77608780555555,26.229209027777777],[-80.7759363888889,26.22799569444444],[-80.77607647222221,26.22729886111111],[-80.77614277777778,26.22722386111111],[-80.77648283333333,26.226916277777775],[-80.77687236111112,26.226398916666664]]},"properties":{"style":"solid","thickness":1}},{"type":"Feature","geometry":{"type":"LineString","coordinates":[[-80.76714613888889,26.226089111111108],[-80.7673983611111,26.22811133333333],[-80.76776552777778,26.229234527777777],[-80.76798225,26.22975863888889],[-80.76825694444445,26.23014033333333],[-80.76925472222221,26.230858194444444],[-80.77019366666667,26.23110422222222],[-80.77049263888888,26.231073888888886],[-80.77134747222222,26.23064583333333],[-80.77206869444444,26.229753499999998],[-80.77231719444444,26.22931872222222],[-80.77239938888889,26.228764277777778],[-80.7724806111111,26.22759561111111],[-80.77222827777777,26.22557336111111],[-80.77186111111111,26.224450194444444],[-80.77164436111111,26.22392611111111],[-80.77129494444445,26.223551999999998],[-80.77037194444445,26.222826555555553],[-80.76943305555555,26.222580527777776],[-80.76913411111111,26.22261086111111],[-80.76827933333334,26.223038916666663],[-80.76748338888889,26.223938805555555],[-80.76730961111112,26.224366],[-80.76722741666667,26.224920416666667],[-80.76714613888889,26.226089111111108]]},"properties":{"style":"solid","thickness":1}},{"type":"Feature","geometry":{"type":"LineString","coordinates":[[-80.77015233333333,26.212134055555556],[-80.77040458333333,26.214156305555555],[-80.77077172222222,26.21527947222222],[-80.77098847222221,26.215803555555556],[-80.77126311111111,26.21618525],[-80.77226080555556,26.21690313888889],[-80.77319963888888,26.21714913888889],[-80.77349858333334,26.217118777777777],[-80.77435330555555,26.21669072222222],[-80.77507441666667,26.215798361111112],[-80.7753228611111,26.215363583333332],[-80.77540502777778,26.21480913888889],[-80.77548622222223,26.213640444444444],[-80.77523388888889,26.21161822222222],[-80.77486672222223,26.210495055555555],[-80.77464997222222,26.209970972222223],[-80.77430061111112,26.20959686111111],[-80.77337769444445,26.208871416666668],[-80.77243891666667,26.208625416666667],[-80.77214002777778,26.20865575],[-80.77128533333334,26.209083805555554],[-80.7704895,26.209983722222223],[-80.77031577777778,26.210410944444444],[-80.77023358333334,26.21096536111111],[-80.77015233333333,26.212134055555556]]},"properties":{"style":"solid","thickness":1}},{"type":"Feature","geometry":{"type":"LineString","coordinates":[[-80.79681380555556,26.10285125],[-80.80024808333333,26.102501694444445],[-80.80068944444444,26.09877047222222],[-80.80005122222222,26.0991085],[-80.79949605555555,26.09950633333333],[-80.79815222222221,26.09964311111111],[-80.79746349999999,26.099576694444444],[-80.7967411111111,26.09924061111111],[-80.79587672222222,26.09837288888889],[-80.79562644444444,26.097579166666666],[-80.79550025,26.096568055555554],[-80.79585561111111,26.095780972222222],[-80.79628563888889,26.094986305555555],[-80.79648436111111,26.094761277777778],[-80.79689019444444,26.094378638888887],[-80.79761991666666,26.09416786111111],[-80.79844108333333,26.094084277777778],[-80.79905513888889,26.094158305555553],[-80.79983533333333,26.094351944444444],[-80.80057455555556,26.094822805555555],[-80.80067444444444,26.095017416666664]]},"properties":{"style":"solid","thickness":1}},{"type":"Feature","geometry":{"type":"LineString","coordinates":[[-80.78742272222222,26.098482055555554],[-80.787675,26.100504305555557],[-80.78804194444444,26.101627472222223],[-80.78825855555556,26.102151555555558],[-80.788533,26.10253325],[-80.78952983333333,26.103251],[-80.79046780555555,26.103496916666668],[-80.79076644444444,26.103466555555556],[-80.79162027777778,26.103038361111114],[-80.79234058333333,26.102145916666668],[-80.79258875,26.101711083333335],[-80.79267075,26.10115661111111],[-80.79275172222222,26.099987888888887],[-80.79249933333332,26.097965638888887],[-80.79213236111111,26.09684247222222],[-80.79191575,26.09631838888889],[-80.79156666666667,26.095944333333332],[-80.79064452777777,26.09521897222222],[-80.78970663888889,26.094973055555556],[-80.789408,26.095003444444444],[-80.78855422222222,26.09543161111111],[-80.78775927777778,26.096331638888888],[-80.78758575,26.09675886111111],[-80.78750372222223,26.097313333333332],[-80.78742272222222,26.098482055555554]]},"properties":{"style":"solid","thickness":1}},{"type":"Feature","geometry":{"type":"LineString","coordinates":[[-80.79064738888889,26.084503416666667],[-80.79089969444445,26.086525666666667],[-80.79126663888889,26.087648833333333],[-80.79148322222223,26.088172916666664],[-80.79175763888888,26.088554583333334],[-80.79275438888888,26.089272333333334],[-80.79369224999999,26.08951822222222],[-80.79399083333332,26.089487833333333],[-80.79484458333333,26.089059638888887],[-80.79556477777777,26.088167166666665],[-80.79581288888889,26.08773233333333],[-80.79589488888888,26.08717786111111],[-80.79597580555556,26.086009138888887],[-80.79572338888889,26.083986888888887],[-80.79535644444444,26.08286372222222],[-80.79513983333334,26.082339666666666],[-80.79479077777778,26.081965583333332],[-80.79386875,26.08124025],[-80.79293094444444,26.08099436111111],[-80.7926323611111,26.08102475],[-80.79177866666666,26.081452916666667],[-80.79098386111112,26.08235297222222],[-80.79081036111111,26.082780222222222],[-80.7907283611111,26.083334666666666],[-80.79064738888889,26.084503416666667]]},"properties":{"style":"solid","thickness":1}},{"type":"Feature","geometry":{"type":"LineString","coordinates":[[-80.82820191666666,25.909062555555554],[-80.83341936111111,25.908529527777777],[-80.82985530555555,25.915652305555554],[-80.82881133333333,25.90729358333333]]},"properties":{"style":"solid","thickness":1}},{"type":"Feature","geometry":{"type":"LineString","coordinates":[[-80.82017966666666,25.911315388888887],[-80.82043208333333,25.913337694444444],[-80.82079875,25.914460805555553],[-80.82101513888888,25.914984861111108],[-80.82128924999999,25.915366499999998],[-80.82228472222222,25.91608408333333],[-80.82322127777778,25.916329805555556],[-80.82351941666666,25.91629936111111],[-80.82437183333333,25.915871],[-80.82509075,25.91497836111111],[-80.82533841666667,25.914543444444444],[-80.82542013888889,25.913988944444444],[-80.82550066666666,25.912820166666666],[-80.82524816666667,25.910797888888887],[-80.82488149999999,25.909674749999997],[-80.82466508333333,25.909150694444442],[-80.82431644444443,25.908776694444445],[-80.82339558333332,25.9080515],[-80.82245908333333,25.907805777777778],[-80.82216094444443,25.907836222222222],[-80.82130858333333,25.90826458333333],[-80.82051513888888,25.90916483333333],[-80.820342,25.90959211111111],[-80.82026024999999,25.91014661111111],[-80.82017966666666,25.911315388888887]]},"properties":{"style":"solid","thickness":1}},{"type":"Feature","geometry":{"type":"LineString","coordinates":[[-80.82324658333333,25.89735075],[-80.82349902777777,25.899373055555554],[-80.82386566666666,25.900496166666667],[-80.82408205555555,25.901020222222222],[-80.82435613888889,25.90140186111111],[-80.8253515,25.902119416666665],[-80.82628794444445,25.902365138888886],[-80.82658608333332,25.902334666666665],[-80.8274383611111,25.901906277777776],[-80.82815719444444,25.90101361111111],[-80.82840480555555,25.90057872222222],[-80.82848652777777,25.90002422222222],[-80.82856699999999,25.898855416666667],[-80.82831447222222,25.896833138888887],[-80.82794780555555,25.895710027777778],[-80.82773141666667,25.895185972222222],[-80.82738280555556,25.89481197222222],[-80.82646202777778,25.894086805555556],[-80.82552563888889,25.89384108333333],[-80.82522752777777,25.893871527777776],[-80.82437530555555,25.894299916666665],[-80.82358197222221,25.895200166666665],[-80.8234088611111,25.895627472222223],[-80.82332713888889,25.896181972222223],[-80.82324658333333,25.89735075]]},"properties":{"style":"solid","thickness":1}},{"type":"Feature","geometry":{"type":"LineString","coordinates":[[-80.56524183333333,25.883299444444447],[-80.56529144444444,25.883703999999998],[-80.56520025,25.884190944444445],[-80.56497652777777,25.884827694444443],[-80.56472797222222,25.885262138888887],[-80.56431380555556,25.885576722222222],[-80.56373405555556,25.885771416666667],[-80.56261597222222,25.88588358333333],[-80.5617795,25.885830972222223],[-80.56138202777778,25.885666083333334],[-80.56080238888889,25.885246444444444],[-80.56061197222222,25.884924277777777],[-80.56039677777777,25.884399833333333],[-80.56026452777778,25.883321000000002],[-80.56036402777778,25.8829015],[-80.56086127777778,25.88141827777778],[-80.56163997222222,25.880384583333335],[-80.56289908333333,25.878961416666666],[-80.56440669444444,25.87710377777778],[-80.55971111111111,25.87757486111111]]},"properties":{"style":"solid","thickness":1}},{"type":"Feature","geometry":{"type":"LineString","coordinates":[[-80.55183430555556,25.881640972222222],[-80.5520821111111,25.88366375],[-80.55244616666667,25.88478758333333],[-80.55266133333333,25.885312055555556],[-80.55293452777778,25.885694194444444],[-80.55392813888889,25.88641361111111],[-80.55486391666666,25.886661055555557],[-80.55516208333333,25.886631166666668],[-80.55601522222221,25.886204361111112],[-80.556736,25.885313027777777],[-80.55698455555556,25.884878555555556],[-80.55706752777778,25.884324222222222],[-80.55715066666666,25.883155555555557],[-80.55690277777778,25.88113277777778],[-80.55653869444444,25.880008944444445],[-80.55632352777778,25.8794845],[-80.55597580555555,25.879109833333334],[-80.55505677777778,25.878382944444446],[-80.55412105555556,25.8781355],[-80.55382291666666,25.87816538888889],[-80.55296980555555,25.878592194444444],[-80.55217452777778,25.87949097222222],[-80.55200047222222,25.879917972222223],[-80.5519175,25.880472305555557],[-80.55183430555556,25.881640972222222]]},"properties":{"style":"solid","thickness":1}},{"type":"Feature","geometry":{"type":"LineString","coordinates":[[-80.55470827777778,25.867704166666666],[-80.55495611111111,25.869726944444444],[-80.55532013888889,25.87085077777778],[-80.55553530555555,25.871375222222223],[-80.55580847222222,25.87175736111111],[-80.55680197222222,25.872476777777777],[-80.55773763888888,25.872724222222224],[-80.55803577777777,25.872694305555555],[-80.55888883333333,25.872267472222223],[-80.55960947222222,25.87137611111111],[-80.55985802777778,25.870941666666667],[-80.55994097222222,25.870387305555557],[-80.56002405555556,25.86921863888889],[-80.55977613888889,25.86719586111111],[-80.55941208333333,25.866072055555556],[-80.55919691666666,25.865547583333335],[-80.55884922222222,25.865172944444446],[-80.55793030555556,25.864446055555558],[-80.55699469444444,25.86419863888889],[-80.55669658333333,25.86422852777778],[-80.55584358333333,25.86465536111111],[-80.55504841666666,25.86555416666667],[-80.55487438888889,25.86598113888889],[-80.55479141666666,25.8665355],[-80.55470827777778,25.867704166666666]]},"properties":{"style":"solid","thickness":1}},{"type":"Feature","geometry":{"type":"LineString","coordinates":[[-80.39618008333333,26.02010922222222],[-80.40140436111112,26.019591638888887],[-80.39781116666667,26.026703777777776],[-80.39679647222223,26.018342055555554]]},"properties":{"style":"solid","thickness":1}},{"type":"Feature","geometry":{"type":"LineString","coordinates":[[-80.38814211111112,26.022338305555554],[-80.38838747222223,26.02436133333333],[-80.38875041666667,26.02548552777778],[-80.38896511111112,26.026010222222222],[-80.38923808333334,26.026392666666666],[-80.39023188888889,26.027113194444443],[-80.39116844444445,26.027361666666664],[-80.391467,26.02733211111111],[-80.39232175000001,26.02690625],[-80.39304458333334,26.02601575],[-80.39329405555556,26.02558158333333],[-80.39337786111112,26.025027333333334],[-80.39346269444445,26.023858805555555],[-80.39321727777778,26.021835805555554],[-80.39285430555556,26.02071161111111],[-80.39263958333333,26.020186916666667],[-80.39229197222222,26.01981188888889],[-80.39137286111112,26.019083972222223],[-80.3904363888889,26.018835499999998],[-80.39013783333334,26.018865055555555],[-80.3892831388889,26.01929088888889],[-80.38848569444446,26.020188777777776],[-80.38831086111112,26.020615527777778],[-80.388227,26.021169777777775],[-80.38814211111112,26.022338305555554]]},"properties":{"style":"solid","thickness":1}},{"type":"Feature","geometry":{"type":"LineString","coordinates":[[-80.39126244444445,26.008382916666665],[-80.39150780555556,26.010405916666667],[-80.39187072222222,26.01153011111111],[-80.39208541666667,26.012054805555554],[-80.3923583888889,26.01243725],[-80.39335208333334,26.01315775],[-80.39428852777779,26.013406222222223],[-80.39458705555556,26.01337663888889],[-80.39544169444446,26.012950777777778],[-80.39616441666668,26.01206025],[-80.39641383333334,26.011626083333333],[-80.39649763888889,26.011071833333332],[-80.39658244444445,26.009903277777777],[-80.39633697222223,26.00788027777778],[-80.39597402777778,26.006756083333332],[-80.39575933333334,26.006231416666665],[-80.39541175000001,26.00585636111111],[-80.39449272222222,26.0051285],[-80.39355633333334,26.004880027777777],[-80.39325783333334,26.004909583333333],[-80.39240325,26.005335444444444],[-80.39160591666668,26.006233333333334],[-80.39143111111112,26.00666011111111],[-80.39134727777778,26.00721436111111],[-80.39126244444445,26.008382916666665]]},"properties":{"style":"solid","thickness":1}}]}
