{"type":"FeatureCollection","features":[{"type":"Feature","geometry":{"type":"LineString","coordinates":[[-80.2932391388889,25.79690666666667],[-80.29438566666667,25.797944583333337]]},"properties":{"style":"solid","thickness":1}},{"type":"Feature","geometry":{"type":"LineString","coordinates":[[-80.29283783333334,25.797062333333336],[-80.29421369444444,25.798307833333336]]},"properties":{"style":"solid","thickness":1}},{"type":"Feature","geometry":{"type":"LineString","coordinates":[[-80.29255119444444,25.797321833333335],[-80.29392705555556,25.798567333333335]]},"properties":{"style":"solid","thickness":1}},{"type":"Feature","geometry":{"type":"LineString","coordinates":[[-80.29237922222222,25.797685083333334],[-80.29352575,25.79872302777778]]},"properties":{"style":"solid","thickness":1}},{"type":"Feature","geometry":{"type":"LineString","coordinates":[[-80.29266583333333,25.79846352777778],[-80.29275158333333,25.798533083333336],[-80.2928508611111,25.79859702777778],[-80.2929635,25.79865266666667],[-80.29308844444444,25.798697166666667],[-80.29322377777778,25.798727805555558],[-80.29336666666667,25.79874213888889],[-80.29351341666667,25.798738472222222],[-80.29365983333334,25.79871602777778],[-80.29380155555555,25.798675111111113],[-80.29393441666666,25.798617055555557],[-80.29405494444444,25.798544250000003],[-80.29416058333334,25.798459694444446],[-80.29424983333332,25.79836666666667],[-80.29432222222222,25.798268500000002],[-80.29437816666666,25.79816827777778],[-80.29441874999999,25.798068555555556],[-80.29444616666666,25.797968750000003],[-80.294462,25.797861416666667],[-80.29446405555555,25.797747194444447],[-80.29444997222222,25.797628055555556],[-80.29441788888889,25.797506694444447],[-80.29436666666666,25.797386361111112],[-80.29429608333334,25.797270722222223],[-80.2942071111111,25.797163555555557],[-80.29410188888889,25.79706827777778],[-80.29398347222222,25.796987750000003],[-80.29385574999999,25.796923861111114],[-80.29372283333333,25.796877472222224],[-80.29358877777777,25.796848444444446],[-80.29345716666667,25.796835694444447],[-80.293331,25.79683755555556],[-80.29321241666666,25.79685188888889],[-80.29310216666667,25.796876694444446],[-80.29299202777777,25.796913472222222],[-80.29288130555555,25.796964111111112],[-80.2927728611111,25.797029611111114],[-80.29267011111111,25.79711041666667],[-80.29257666666666,25.797206055555556],[-80.29249625,25.797315166666667],[-80.29243213888888,25.797435444444446],[-80.29238691666666,25.797563722222225],[-80.29236213888889,25.797696277777778],[-80.29235808333333,25.797829111111113],[-80.29237394444445,25.797958444444447],[-80.29240775,25.798080972222223],[-80.29245691666667,25.798194083333335],[-80.2925183888889,25.79829602777778],[-80.29258899999999,25.798385916666668],[-80.29266583333333,25.79846352777778]]},"properties":{"style":"solid","thickness":1}},{"type":"Feature","geometry":{"type":"LineString","coordinates":[[-80.8606611111111,25.616022222222224],[-80.81503888888889,25.71838611111111],[-80.81503888888889,25.71838611111111],[-80.7662888888889,25.743597222222224],[-80.66029444444445,25.778005555555556]]},"properties":{"style":"solid","thickness":1}},{"type":"Feature","geometry":{"type":"LineString","coordinates":[[-80.27820277777778,25.731091666666664],[-80.2162,25.72509722222222],[-80.21491388888889,25.671958333333336],[-80.2664861111111,25.671630555555556]]},"properties":{"style":"solid","thickness":1}},{"type":"Feature","geometry":{"type":"LineString","coordinates":[[-80.29137222222222,25.794558333333335],[-80.27820277777778,25.731091666666664],[-80.2664861111111,25.671630555555556],[-80.25888888888889,25.619444444444444]]},"properties":{"style":"solid","thickness":1}},{"type":"Feature","geometry":{"type":"LineString","coordinates":[[-80.00569166666666,25.694741666666665],[-80.06172222222222,25.55196666666667],[-80.04366666666667,25.54494166666667]]},"properties":{"style":"solid","thickness":1}},{"type":"Feature","geometry":{"type":"LineString","coordinates":[[-80.75416666666666,25.46222222222222],[-80.59473888888888,25.581677777777777],[-80.25888888888889,25.619444444444444],[-80.06172222222222,25.55196666666667]]},"properties":{"style":"solid","thickness":1}},{"type":"Feature","geometry":{"type":"LineString","coordinates":[[-80.66029444444445,25.778005555555556],[-80.60920555555555,25.78029722222222],[-80.59473888888888,25.581677777777777]]},"properties":{"style":"solid","thickness":1}},{"type":"Feature","geometry":{"type":"LineString","coordinates":[[-80.75416666666666,25.46222222222222],[-80.8606611111111,25.616022222222224],[-80.875,25.6375],[-80.8906388888889,25.766527777777778],[-80.84547777777777,25.768533333333334],[-80.66029444444445,25.778005555555556]]},"properties":{"style":"solid","thickness":1}},{"type":"Feature","geometry":{"type":"LineString","coordinates":[[-80.60920555555555,25.78029722222222],[-80.47712777777778,25.785675],[-80.29137222222222,25.794558333333335],[-80.10533055555555,25.802658333333333]]},"properties":{"style":"solid","thickness":1}},{"type":"Feature","geometry":{"type":"LineString","coordinates":[[-80.10533055555555,25.802658333333333],[-80.10482499999999,25.790372222222224],[-80.10574166666666,25.77778611111111],[-80.00569166666666,25.694741666666665],[-79.71588333333334,25.45623611111111]]},"properties":{"style":"solid","thickness":1}},{"type":"Feature","geometry":{"type":"LineString","coordinates":[[-79.71588333333334,25.45623611111111],[-79.83776388888889,25.376],[-80.04366666666667,25.54494166666667]]},"properties":{"style":"solid","thickness":1}},{"type":"Feature","geometry":{"type":"LineString","coordinates":[[-80.46262155555556,25.687630555555558],[-80.46784769444444,25.687275500000002],[-80.46399688888889,25.694272055555555],[-80.46330288888889,25.68588352777778]]},"properties":{"style":"solid","thickness":1}},{"type":"Feature","geometry":{"type":"LineString","coordinates":[[-80.45452636111112,25.68960872222222],[-80.45469411111111,25.691638222222224],[-80.45501316666667,25.692773055555556],[-80.45520722222223,25.693304138888887],[-80.45546477777778,25.693694833333332],[-80.45642786111111,25.694445805555556],[-80.45735180555556,25.69472325],[-80.45765044444445,25.694702972222224],[-80.45851844444445,25.694303916666666],[-80.45927261111112,25.69343636111111],[-80.45953769444445,25.693010194444444],[-80.45964227777777,25.69245886111111],[-80.4597711388889,25.69129361111111],[-80.45960330555556,25.68926411111111],[-80.45928422222222,25.68812927777778],[-80.45909016666667,25.687598222222224],[-80.45875794444444,25.68721261111111],[-80.45786958333333,25.686456555555555],[-80.45694569444444,25.68617913888889],[-80.45664705555556,25.686199388888888],[-80.45577911111111,25.686598472222222],[-80.45495030555556,25.687471055555555],[-80.45475986111111,25.687892166666668],[-80.45465527777777,25.6884435],[-80.45452636111112,25.68960872222222]]},"properties":{"style":"solid","thickness":1}},{"type":"Feature","geometry":{"type":"LineString","coordinates":[[-80.45148002777778,25.69090388888889],[-80.44685094444445,25.691217833333333]]},"properties":{"style":"solid","thickness":1}},{"type":"Feature","geometry":{"type":"LineString","coordinates":[[-80.44323452777778,25.69561277777778],[-80.44211455555556,25.695688666666666],[-80.44142205555556,25.687300055555557]]},"properties":{"style":"solid","thickness":1}},{"type":"Feature","geometry":{"type":"LineString","coordinates":[[-80.432725,25.691086527777777],[-80.43289238888889,25.693116055555556],[-80.43321122222223,25.694250944444445],[-80.43340519444445,25.694782027777777],[-80.43366269444445,25.695172777777778],[-80.43462563888889,25.69592391666667],[-80.43554952777778,25.69620147222222],[-80.43584819444445,25.69618125],[-80.43671627777778,25.695782305555557],[-80.43747061111111,25.694914861111112],[-80.43773577777777,25.69448875],[-80.43784044444445,25.693937416666667],[-80.43796955555555,25.692772194444444],[-80.43780208333334,25.690742694444445],[-80.43748319444445,25.689607805555557],[-80.43728922222222,25.68907672222222],[-80.43695708333334,25.688691055555555],[-80.43606883333334,25.68793486111111],[-80.43514497222223,25.687657305555557],[-80.43484633333334,25.68767752777778],[-80.43397830555556,25.688076444444444],[-80.43314933333333,25.688948916666668],[-80.43295883333334,25.68937],[-80.4328541388889,25.689921305555554],[-80.432725,25.691086527777777]]},"properties":{"style":"solid","thickness":1}},{"type":"Feature","geometry":{"type":"LineString","coordinates":[[-80.42451200000001,25.691642416666667],[-80.42467925000001,25.693671944444446],[-80.42499802777779,25.694806833333335],[-80.42519197222222,25.695337944444443],[-80.42544941666667,25.695728694444444],[-80.42641233333333,25.696479888888888],[-80.42733622222222,25.6967575],[-80.42763488888889,25.69673727777778],[-80.428503,25.69633838888889],[-80.4292573888889,25.695471],[-80.42952258333334,25.69504488888889],[-80.42962730555556,25.694493583333333],[-80.42975647222222,25.69332836111111],[-80.4295891388889,25.691298833333335],[-80.42927033333333,25.690163944444446],[-80.42907638888889,25.689632833333334],[-80.42874427777778,25.689247138888888],[-80.42785605555557,25.688490916666666],[-80.42693225000001,25.688213305555557],[-80.42663361111111,25.6882335],[-80.42576552777778,25.688632388888887],[-80.4249365,25.689504833333334],[-80.42474594444445,25.68992588888889],[-80.42464122222222,25.690477194444444],[-80.42451200000001,25.691642416666667]]},"properties":{"style":"solid","thickness":1}},{"type":"Feature","geometry":{"type":"LineString","coordinates":[[-80.85893175,25.737875055555556],[-80.86415883333333,25.737505722222224],[-80.86032980555555,25.74451263888889],[-80.85960755555556,25.73612622222222]]},"properties":{"style":"solid","thickness":1}},{"type":"Feature","geometry":{"type":"LineString","coordinates":[[-80.85083991666666,25.739875333333334],[-80.85101449999999,25.741904333333334],[-80.85133747222221,25.743038277777778],[-80.85153338888888,25.743568777777778],[-80.85179233333332,25.743958777777777],[-80.85275830555555,25.74470711111111],[-80.85368352777778,25.744982],[-80.85398225,25.744960916666667],[-80.85484927777777,25.7445595],[-80.85560083333333,25.74368988888889],[-80.8558646111111,25.743263000000002],[-80.85596738888889,25.74271138888889],[-80.85609244444444,25.741545833333333],[-80.85591774999999,25.739516861111113],[-80.85559477777777,25.73838291666667],[-80.85539883333333,25.73785241666667],[-80.85506522222222,25.737467694444444],[-80.85417397222221,25.736714111111112],[-80.85324880555555,25.736439222222224],[-80.8529501111111,25.736460305555557],[-80.85208313888889,25.736861722222223],[-80.85125688888888,25.737736555555557],[-80.85106780555554,25.73815816666667],[-80.85096499999999,25.73870977777778],[-80.85083991666666,25.739875333333334]]},"properties":{"style":"solid","thickness":1}},{"type":"Feature","geometry":{"type":"LineString","coordinates":[[-80.84779666666667,25.741178805555556],[-80.84316677777777,25.74150541666667]]},"properties":{"style":"solid","thickness":1}},{"type":"Feature","geometry":{"type":"LineString","coordinates":[[-80.83956355555556,25.74591013888889],[-80.8384433611111,25.74598911111111],[-80.83772263888888,25.737602583333334]]},"properties":{"style":"solid","thickness":1}},{"type":"Feature","geometry":{"type":"LineString","coordinates":[[-80.83373858333333,25.74632066666667],[-80.83261838888889,25.746399611111112],[-80.83189805555556,25.738013055555555]]},"properties":{"style":"solid","thickness":1}},{"type":"Feature","geometry":{"type":"LineString","coordinates":[[-80.82320986111111,25.74182288888889],[-80.82338399999999,25.743851916666667],[-80.82370669444444,25.744985916666668],[-80.8239025,25.745516472222224],[-80.82416136111111,25.7459065],[-80.82512719444443,25.746655027777777],[-80.82605236111111,25.746930083333336],[-80.82635108333334,25.746909055555555],[-80.82721822222221,25.746507805555556],[-80.82797002777778,25.745638333333336],[-80.82823388888889,25.7452115],[-80.82833677777778,25.744659916666667],[-80.82846211111111,25.74349436111111],[-80.82828788888888,25.74146536111111],[-80.82796516666666,25.740331361111114],[-80.82776936111111,25.739800805555557],[-80.82743580555555,25.73941602777778],[-80.82654472222222,25.738662277777777],[-80.82561958333334,25.738387194444446],[-80.82532088888888,25.738408222222223],[-80.82445380555555,25.738809500000002],[-80.82362736111111,25.739684194444447],[-80.82343816666666,25.74010575],[-80.82333525,25.740657333333335],[-80.82320986111111,25.74182288888889]]},"properties":{"style":"solid","thickness":1}},{"type":"Feature","geometry":{"type":"LineString","coordinates":[[-80.12572913888889,25.64330086111111],[-80.12356441666665,25.64344277777778],[-80.12235836111111,25.642433583333332],[-80.12217669444443,25.642037388888888],[-80.12200038888888,25.64170888888889],[-80.12193563888889,25.640896916666666],[-80.12218563888888,25.640268388888888],[-80.12258491666665,25.639630083333333],[-80.12301116666666,25.639330055555554],[-80.12329355555555,25.639107499999998],[-80.1238745,25.63886536111111],[-80.12521808333332,25.638777277777777],[-80.12583141666666,25.638941111111112],[-80.12630627777777,25.639250055555554],[-80.12671730555554,25.639699194444443],[-80.12698444444443,25.640225805555556],[-80.12709688888889,25.640694555555555],[-80.12715088888888,25.641371166666666],[-80.12710324999999,25.64171438888889],[-80.12691172222222,25.642135055555556],[-80.12662933333333,25.64235761111111],[-80.12572913888889,25.64330086111111],[-80.12644416666666,25.64379811111111],[-80.12686058333333,25.644314916666666],[-80.12703688888888,25.644643444444444],[-80.12712330555554,25.645726027777776],[-80.12681488888889,25.646562444444445],[-80.12660713888889,25.64678013888889],[-80.12595691666667,25.647094833333334],[-80.12552522222222,25.647327194444443],[-80.12455477777777,25.647390805555556],[-80.12386674999999,25.64723186111111],[-80.12283694444444,25.646551194444445],[-80.12266066666666,25.646222666666667],[-80.1225635,25.64500475],[-80.12273344444444,25.644313444444442],[-80.12280269444443,25.644240888888888],[-80.12315433333333,25.643945777777777],[-80.12356441666665,25.64344277777778]]},"properties":{"style":"solid","thickness":1}},{"type":"Feature","geometry":{"type":"LineString","coordinates":[[-80.11390722222221,25.642783277777777],[-80.11406902777777,25.64481313888889],[-80.11438463888888,25.64594875],[-80.11457708333333,25.646480277777776],[-80.11483341666666,25.646871583333333],[-80.11579391666666,25.64762486111111],[-80.11671666666666,25.647904472222223],[-80.11701527777777,25.647884916666666],[-80.11788408333332,25.647487916666666],[-80.11864047222221,25.646622166666667],[-80.11890666666666,25.64619663888889],[-80.11901280555554,25.645645555555554],[-80.11914499999999,25.64448061111111],[-80.1189831111111,25.64245075],[-80.11866744444444,25.641315166666665],[-80.11847499999999,25.640783638888887],[-80.11814405555555,25.640397222222223],[-80.11725822222222,25.639639083333332],[-80.11633552777778,25.639359444444445],[-80.11603694444445,25.639378999999998],[-80.11516819444444,25.639776],[-80.11433719444445,25.640646611111112],[-80.1141456111111,25.64106725],[-80.11403947222222,25.641618333333334],[-80.11390722222221,25.642783277777777]]},"properties":{"style":"solid","thickness":1}},{"type":"Feature","geometry":{"type":"LineString","coordinates":[[-80.1108583611111,25.644071166666667],[-80.10623022222222,25.644374083333332]]},"properties":{"style":"solid","thickness":1}},{"type":"Feature","geometry":{"type":"LineString","coordinates":[[-80.10260252777778,25.64876038888889],[-80.10148277777778,25.64883361111111],[-80.10081488888888,25.640443388888887]]},"properties":{"style":"solid","thickness":1}},{"type":"Feature","geometry":{"type":"LineString","coordinates":[[-80.09677980555556,25.64914113888889],[-80.09566005555556,25.649214333333333],[-80.09499258333332,25.64082408333333]]},"properties":{"style":"solid","thickness":1}},{"type":"Feature","geometry":{"type":"LineString","coordinates":[[-80.08628783333333,25.6445895],[-80.08644916666667,25.646619388888887],[-80.08676452777777,25.647755055555557],[-80.0869568611111,25.64828661111111],[-80.08721308333332,25.64867797222222],[-80.08817344444444,25.649431416666665],[-80.08909616666666,25.649711222222223],[-80.08939475,25.649691722222222],[-80.09026366666666,25.64929488888889],[-80.09102025,25.648429277777776],[-80.09128658333333,25.648003805555554],[-80.09139283333333,25.647452722222223],[-80.09152530555555,25.646287833333332],[-80.09136388888888,25.644257916666668],[-80.09104847222221,25.643122277777778],[-80.09085613888888,25.64259072222222],[-80.09052527777777,25.64220425],[-80.08963961111111,25.641445944444445],[-80.08871694444444,25.641166138888888],[-80.08841836111111,25.64118563888889],[-80.0875495,25.641582444444445],[-80.08671830555555,25.642452916666667],[-80.08652661111111,25.642873527777777],[-80.08642036111111,25.64342458333333],[-80.08628783333333,25.6445895]]},"properties":{"style":"solid","thickness":1}},{"type":"Feature","geometry":{"type":"LineString","coordinates":[[-80.73691022222222,25.632863083333334],[-80.74213313888889,25.632498138888888],[-80.73830025,25.639502],[-80.73758722222222,25.63111477777778]]},"properties":{"style":"solid","thickness":1}},{"type":"Feature","geometry":{"type":"LineString","coordinates":[[-80.72882333333334,25.63485661111111],[-80.72899569444445,25.636885805555554],[-80.72931722222222,25.638020027777777],[-80.72951241666667,25.63855072222222],[-80.72977075,25.638940944444442],[-80.73073511111112,25.63969011111111],[-80.73165925,25.639965805555555],[-80.73195772222222,25.639944944444444],[-80.73282441666667,25.63954425],[-80.73357622222223,25.63867525],[-80.73384022222223,25.638248583333333],[-80.73394347222222,25.637697055555556],[-80.73406958333334,25.636531555555557],[-80.73389713888889,25.634502388888887],[-80.73357558333333,25.633368138888887],[-80.73338038888889,25.632837444444444],[-80.73304744444445,25.632452472222223],[-80.73215772222223,25.631698111111113],[-80.7312336388889,25.631422416666666],[-80.73093519444444,25.63144325],[-80.73006855555556,25.631843972222224],[-80.72924213888889,25.63271813888889],[-80.72905277777778,25.633139583333335],[-80.7289495,25.63369113888889],[-80.72882333333334,25.63485661111111]]},"properties":{"style":"solid","thickness":1}},{"type":"Feature","geometry":{"type":"LineString","coordinates":[[-80.72578138888889,25.636157555555556],[-80.72115516666666,25.63648027777778]]},"properties":{"style":"solid","thickness":1}},{"type":"Feature","geometry":{"type":"LineString","coordinates":[[-80.71755055555556,25.640882083333334],[-80.71643127777779,25.64096011111111],[-80.71571972222222,25.632572777777778]]},"properties":{"style":"solid","thickness":1}},{"type":"Feature","geometry":{"type":"LineString","coordinates":[[-80.69867825,25.636957583333334],[-80.69885008333334,25.638986805555554],[-80.69917133333334,25.64012111111111],[-80.69936641666668,25.64065186111111],[-80.69962463888889,25.641042111111112],[-80.70058886111111,25.64179147222222],[-80.70151294444445,25.64206736111111],[-80.70181144444444,25.642046583333332],[-80.70267822222222,25.641646027777778],[-80.70343027777778,25.640777222222223],[-80.70369436111112,25.640350583333333],[-80.70379775,25.639799083333333],[-80.70392419444445,25.63863361111111],[-80.70375225000001,25.636604388888887],[-80.70343097222222,25.63547008333333],[-80.7032358888889,25.634939361111112],[-80.70290302777778,25.634554305555554],[-80.7020135,25.633799749999998],[-80.70108944444445,25.633523888888888],[-80.70079100000001,25.633544666666666],[-80.69992425000001,25.633945194444443],[-80.69909758333334,25.634819194444443],[-80.69890811111111,25.63524061111111],[-80.69880472222222,25.635792111111112],[-80.69867825,25.636957583333334]]},"properties":{"style":"solid","thickness":1}},{"type":"Feature","geometry":{"type":"LineString","coordinates":[[-79.91246136111111,25.51098961111111],[-79.91029877777778,25.511128416666665],[-79.90909583333334,25.510117444444443],[-79.90891505555557,25.509721],[-79.90873955555556,25.509392194444445],[-79.90867627777779,25.50858016666667],[-79.90892711111111,25.507951972222223],[-79.90932708333334,25.507314222222224],[-79.90975338888889,25.507014833333333],[-79.91003586111111,25.506792694444446],[-79.91061658333334,25.506551388888887],[-79.91195883333334,25.50646525],[-79.91257122222223,25.50662997222222],[-79.91304500000001,25.506939583333335],[-79.91345477777779,25.507389361111112],[-79.91372069444445,25.50791636111111],[-79.91383219444445,25.508385277777776],[-79.91388494444445,25.509061972222224],[-79.91383675,25.50940511111111],[-79.91364469444446,25.5098255],[-79.91336222222223,25.510047666666665],[-79.91246136111111,25.51098961111111],[-79.91317472222222,25.51148788888889],[-79.91358977777779,25.512005333333335],[-79.91376530555556,25.512334111111112],[-79.91384972222222,25.513416833333334],[-79.91354013888889,25.514252805555557],[-79.91333225000001,25.514470194444446],[-79.91268219444446,25.514783944444446],[-79.91225055555556,25.515015694444443],[-79.91128111111112,25.515077916666666],[-79.91059411111112,25.51491797222222],[-79.90956663888889,25.514235805555554],[-79.90939111111112,25.513907],[-79.90929619444445,25.512688944444445],[-79.90946719444445,25.51199788888889],[-79.9095365,25.511925416666667],[-79.90988825000001,25.511630805555555],[-79.91029877777778,25.511128416666665]]},"properties":{"style":"solid","thickness":1}},{"type":"Feature","geometry":{"type":"LineString","coordinates":[[-79.90065341666667,25.510454888888887],[-79.90081147222223,25.512485],[-79.90112475000001,25.513621083333334],[-79.90131605555555,25.51415288888889],[-79.9015713888889,25.514544555555556],[-79.9025295,25.51529925],[-79.90345075,25.515580222222223],[-79.90374905555556,25.515561083333335],[-79.90461761111112,25.515165361111112],[-79.90537466666667,25.514300694444444],[-79.90564133333334,25.513875527777778],[-79.90574833333334,25.513324611111113],[-79.90588244444444,25.51215983333333],[-79.90572430555557,25.51012972222222],[-79.905411,25.508993666666665],[-79.90521966666667,25.508461861111112],[-79.90488977777778,25.508074944444445],[-79.90400627777778,25.5073155],[-79.90308508333334,25.507034555555556],[-79.90278680555556,25.507053666666668],[-79.90191830555555,25.50744938888889],[-79.90108669444444,25.508318833333334],[-79.90089458333334,25.508739194444445],[-79.90078758333334,25.50929013888889],[-79.90065341666667,25.510454888888887]]},"properties":{"style":"solid","thickness":1}},{"type":"Feature","geometry":{"type":"LineString","coordinates":[[-79.89760566666668,25.51173836111111],[-79.8929821388889,25.51203458333333]]},"properties":{"style":"solid","thickness":1}},{"type":"Feature","geometry":{"type":"LineString","coordinates":[[-79.88935072222223,25.516415666666667],[-79.88823205555556,25.516487277777777],[-79.88757969444445,25.508096]]},"properties":{"style":"solid","thickness":1}},{"type":"Feature","geometry":{"type":"LineString","coordinates":[[-79.88047611111111,25.51698358333333],[-79.88144133333333,25.51590172222222],[-79.88226263888889,25.514897083333334],[-79.88294002777778,25.51396961111111],[-79.88334541666667,25.51339961111111],[-79.88366569444445,25.512699055555554],[-79.88376225,25.512012777777777],[-79.8837895,25.51139897222222],[-79.88369483333334,25.51018088888889],[-79.88343433333334,25.5097215],[-79.88310447222221,25.509334555555554],[-79.88276938888889,25.508879944444445],[-79.88116133333332,25.50843875],[-79.88026647222222,25.508496],[-79.87933383333332,25.509031694444445],[-79.87919519444443,25.509176583333332],[-79.87864066666666,25.509756111111113],[-79.8785766111111,25.50989622222222],[-79.87835188888889,25.51086272222222],[-79.87840444444444,25.511539444444445],[-79.87859038888888,25.512003611111112],[-79.87877108333333,25.512400083333333],[-79.87910616666666,25.512854722222222],[-79.87973955555555,25.51329025],[-79.88035716666666,25.513522777777776],[-79.88073530555555,25.513566611111113],[-79.88125733333332,25.51353322222222],[-79.88162494444444,25.513441694444445],[-79.88285063888888,25.512819194444443],[-79.8837675,25.512080444444443]]},"properties":{"style":"solid","thickness":1}},{"type":"Feature","geometry":{"type":"LineString","coordinates":[[-79.87022758333333,25.512402166666668],[-79.87038513888888,25.514432333333332],[-79.87069813888888,25.51556847222222],[-79.87088930555555,25.516100305555554],[-79.87114452777777,25.516492055555556],[-79.87210247222221,25.517246916666664],[-79.87302366666665,25.517528083333332],[-79.87332197222221,25.517509027777777],[-79.87419063888888,25.51711347222222],[-79.87494794444444,25.516248972222222],[-79.87521472222221,25.515823861111112],[-79.87532183333333,25.515272944444444],[-79.87545625,25.514108222222223],[-79.87529863888888,25.512078055555556],[-79.8749856111111,25.510941944444443],[-79.87479441666666,25.51041011111111],[-79.87446461111111,25.51002313888889],[-79.87358127777777,25.50926352777778],[-79.87266013888888,25.508982361111112],[-79.8723618611111,25.509001416666667],[-79.87149325,25.509396972222223],[-79.87066138888888,25.51026622222222],[-79.87046919444444,25.510686555555555],[-79.87036205555555,25.511237472222223],[-79.87022758333333,25.512402166666668]]},"properties":{"style":"solid","thickness":1}},{"type":"Feature","geometry":{"type":"LineString","coordinates":[[-80.26143316666666,25.70488836111111],[-80.26239647222222,25.703804027777778],[-80.2632158888889,25.70279725],[-80.2638913888889,25.701868083333334],[-80.26429561111111,25.701297027777777],[-80.26461419444445,25.70059563888889],[-80.26470875,25.699909138888888],[-80.26473408333334,25.69929527777778],[-80.26463544444445,25.698077444444444],[-80.26437305555555,25.69761875],[-80.26404147222222,25.697232666666668],[-80.26370441666667,25.696778944444446],[-80.26209244444445,25.696341944444445],[-80.26119636111112,25.6964015],[-80.26026394444445,25.69693963888889],[-80.26012555555556,25.69708486111111],[-80.259572,25.697665833333332],[-80.25950827777778,25.69780611111111],[-80.25928627777778,25.69877313888889],[-80.25934102777778,25.699449722222223],[-80.25952872222223,25.699913388888888],[-80.25971094444445,25.70030938888889],[-80.260048,25.700763138888888],[-80.26068375,25.701197027777777],[-80.26130308333333,25.701427944444443],[-80.26168194444445,25.70147077777778],[-80.26220469444445,25.701436027777778],[-80.26257258333334,25.701343555555553],[-80.26379825,25.700717916666665],[-80.26471422222222,25.699976805555554]]},"properties":{"style":"solid","thickness":1}},{"type":"Feature","geometry":{"type":"LineString","coordinates":[[-80.25115408333333,25.700333666666666],[-80.25131827777778,25.702363388888887],[-80.25163536111111,25.703498666666665],[-80.2518285,25.704030027777776],[-80.25208538888889,25.704421083333333],[-80.25304722222222,25.705173444444444],[-80.25397075,25.70545222222222],[-80.25426947222222,25.705432388888887],[-80.25513822222223,25.705034555555557],[-80.255894,25.70416811111111],[-80.25615983333333,25.703742333333334],[-80.25626538888889,25.703191166666667],[-80.25639633333333,25.70202611111111],[-80.25623205555556,25.699996388888888],[-80.25591494444444,25.69886111111111],[-80.25572177777778,25.69832977777778],[-80.25539022222222,25.697943694444444],[-80.2545031111111,25.69718636111111],[-80.25357966666667,25.69690761111111],[-80.25328097222223,25.696927444444444],[-80.25241225,25.69732525],[-80.25158183333333,25.698196638888888],[-80.25139063888889,25.698617444444444],[-80.25128508333333,25.69916863888889],[-80.25115408333333,25.700333666666666]]},"properties":{"style":"solid","thickness":1}},{"type":"Feature","geometry":{"type":"LineString","coordinates":[[-80.24810522222222,25.701624416666665],[-80.24347522222223,25.701931694444443]]},"properties":{"style":"solid","thickness":1}},{"type":"Feature","geometry":{"type":"LineString","coordinates":[[-80.23985077777778,25.70632133333333],[-80.23873058333334,25.70639561111111],[-80.23805280555555,25.698006083333333]]},"properties":{"style":"solid","thickness":1}},{"type":"Feature","geometry":{"type":"LineString","coordinates":[[-80.23402569444444,25.706707527777777],[-80.2329055,25.706781777777778],[-80.23222811111111,25.69839222222222]]},"properties":{"style":"solid","thickness":1}},{"type":"Feature","geometry":{"type":"LineString","coordinates":[[-80.2235235,25.70216575],[-80.22368722222222,25.7041955],[-80.22400405555555,25.70533083333333],[-80.22419705555556,25.705862222222223],[-80.22445386111112,25.706253333333333],[-80.22541552777778,25.707005888888887],[-80.226339,25.707284833333333],[-80.22663772222222,25.707265027777776],[-80.22750661111111,25.706867388888888],[-80.22826258333333,25.706001083333334],[-80.22852852777778,25.70557536111111],[-80.22863422222223,25.705024194444444],[-80.22876541666668,25.703859166666668],[-80.22860161111112,25.701829444444442],[-80.22828475,25.70069408333333],[-80.22809172222222,25.70016272222222],[-80.22776025,25.699776555555555],[-80.22687327777778,25.699019083333333],[-80.22594988888889,25.69874013888889],[-80.22565116666667,25.698759916666667],[-80.22478236111111,25.699157555555555],[-80.22395172222222,25.700028805555554],[-80.22376044444445,25.70044958333333],[-80.22365475000001,25.701000722222222],[-80.2235235,25.70216575]]},"properties":{"style":"solid","thickness":1}},{"type":"Feature","geometry":{"type":"LineString","coordinates":[[-80.71201158333334,25.639295],[-80.71198286111111,25.639841305555557],[-80.71186230555556,25.640189916666667],[-80.71139158333334,25.640835055555556],[-80.71096680555556,25.641136833333334],[-80.71054202777778,25.641438583333333],[-80.70988191666667,25.641620638888888],[-80.70950883333333,25.64164663888889],[-80.70867652777778,25.64156852777778],[-80.70796480555556,25.641141833333332],[-80.70747694444445,25.640699527777777],[-80.70736794444444,25.64029888888889],[-80.70725327777778,25.638946083333334],[-80.70751733333334,25.63851947222222],[-80.70799952777779,25.638009611111112],[-80.70862522222222,25.637421694444445],[-80.70914755555556,25.637385305555554]]},"properties":{"style":"solid","thickness":1}},{"type":"Feature","geometry":{"type":"LineString","coordinates":[[-80.70862522222222,25.637421694444445],[-80.70768966666667,25.637010583333332],[-80.70736827777777,25.636760805555554],[-80.70695505555555,25.636313333333334],[-80.70686325,25.636115583333332],[-80.70673702777778,25.63551202777778],[-80.70671983333334,25.63530911111111],[-80.70674858333334,25.634762805555557],[-80.70686341666666,25.634346555555556],[-80.70719636111112,25.633847083333333],[-80.7076153888889,25.633477694444444],[-80.70832713888889,25.63301988888889],[-80.71004327777779,25.632900333333335],[-80.71058280555556,25.63306686111111],[-80.71144944444444,25.633550805555554],[-80.71161013888889,25.633675666666665],[-80.71189133333334,25.634336472222223],[-80.71191427777778,25.634607027777776]]},"properties":{"style":"solid","thickness":1}}]}
