{"type":"FeatureCollection","features":[{"type":"Feature","geometry":{"type":"LineString","coordinates":[[-80.01960644444445,25.957557555555553],[-80.01197566666667,25.966219166666665],[-80.00499486111111,25.975318055555555],[-79.99869477777779,25.98481438888889],[-79.99310311111111,25.99466663888889],[-79.98824455555555,26.004831638888888],[-79.98414055555556,26.015264833333333],[-79.98080933333334,26.025920555555555],[-79.97826563888889,26.036752055555556],[-79.97652088888888,26.047711916666668],[-79.97558294444444,26.058752000000002],[-79.97545613888889,26.069823944444444],[-79.97614125,26.080879166666666],[-79.9776355,26.09186911111111],[-79.97993252777778,26.102745583333334],[-79.98302252777778,26.113460777777778],[-79.98689208333333,26.123967694444445],[-79.99152441666666,26.134220111111112],[-79.99689938888889,26.14417302777778],[-80.00299352777778,26.153782666666665],[-80.00978022222222,26.163006777777778],[-80.01722980555556,26.171804805555556],[-80.01781769444445,26.172450083333334]]},"properties":{"style":"solid","thickness":1}},{"type":"Feature","geometry":{"type":"LineString","coordinates":[[-79.83947080555555,25.98579813888889],[-79.83546752777778,26.000207333333332],[-79.83225527777778,26.014777388888888],[-79.82984216666667,26.029472888888886],[-79.82823430555555,26.044258000000003],[-79.82743599999999,26.059096722222222],[-79.82744941666667,26.073952916666666],[-79.82827488888888,26.08879036111111],[-79.82991069444444,26.103572833333335],[-79.8323531111111,26.118264333333332],[-79.8355965,26.132828972222224],[-79.83793877777778,26.141544055555556]]},"properties":{"style":"solid","thickness":1}},{"type":"Feature","geometry":{"type":"LineString","coordinates":[[-80.00045025,26.165555638888886],[-80.0157038888889,26.15607211111111]]},"properties":{"style":"solid","thickness":1}},{"type":"Feature","geometry":{"type":"LineString","coordinates":[[-80.0021556388889,25.964213833333332],[-80.01722366666667,25.973905694444444]]},"properties":{"style":"solid","thickness":1}},{"type":"Feature","geometry":{"type":"LineString","coordinates":[[-79.9846676388889,26.064769972222223],[-79.96616,26.064638805555557]]},"properties":{"style":"solid","thickness":1}},{"type":"Feature","geometry":{"type":"LineString","coordinates":[[-79.83660805555554,26.063654944444444],[-79.81810091666667,26.063505]]},"properties":{"style":"solid","thickness":1}},{"type":"Feature","geometry":{"type":"LineString","coordinates":[[-80.0249575,26.167125861111113],[-80.01067727777777,26.177773944444446]]},"properties":{"style":"solid","thickness":1}},{"type":"Feature","geometry":{"type":"LineString","coordinates":[[-80.02664463888888,25.962977972222223],[-80.0125688611111,25.952136833333334]]},"properties":{"style":"solid","thickness":1}},{"type":"Feature","geometry":{"type":"LineString","coordinates":[[-79.84102966666666,26.11448975],[-79.82276691666667,26.117245166666667]]},"properties":{"style":"solid","thickness":1}},{"type":"Feature","geometry":{"type":"LineString","coordinates":[[-79.84690408333333,26.13945247222222],[-79.82897316666666,26.143635083333333]]},"properties":{"style":"solid","thickness":1}},{"type":"Feature","geometry":{"type":"LineString","coordinates":[[-79.84202658333332,26.0128985],[-79.82383725,26.009848916666666]]},"properties":{"style":"solid","thickness":1}},{"type":"Feature","geometry":{"type":"LineString","coordinates":[[-79.84838216666667,25.988032694444446],[-79.83055974999999,25.983563055555557]]},"properties":{"style":"solid","thickness":1}},{"type":"Feature","geometry":{"type":"LineString","coordinates":[[-80.16039783333333,26.07889813888889],[-80.15849477777779,26.074652805555555],[-80.15736555555556,26.07018777777778],[-80.15703894444445,26.06561727777778],[-80.15752322222222,26.061058194444445],[-80.15880588888889,26.05662713888889],[-80.16058325,26.052899611111112]]},"properties":{"style":"solid","thickness":1}},{"type":"Feature","geometry":{"type":"LineString","coordinates":[[-80.16039783333333,26.07889813888889],[-80.1623606388889,26.074673722222222],[-80.16355275000001,26.070220777777777],[-80.16394377777779,26.06565313888889],[-80.16352386111112,26.061087611111112],[-80.16230375,26.056640861111113],[-80.16058325,26.052899611111112]]},"properties":{"style":"solid","thickness":1}},{"type":"Feature","geometry":{"type":"LineString","coordinates":[[-79.80336580555556,26.062571194444445],[-79.7995025,26.06280211111111],[-79.79736322222222,26.060996361111112],[-79.79704394444444,26.060290333333334],[-79.79673344444444,26.05970463888889],[-79.79662772222223,26.058260750000002],[-79.79708127777778,26.05714602777778],[-79.79780124999999,26.05601536111111],[-79.79856525,26.055486333333334],[-79.79907166666666,26.0550935],[-79.80011088888888,26.05466886111111],[-79.80250863888888,26.054525527777777],[-79.80360077777777,26.05482277777778],[-79.80444411111111,26.05537661111111],[-79.80517188888889,26.056179055555557],[-79.80564208333332,26.057117722222223],[-79.80583702777777,26.057952],[-79.80592522222221,26.059155222222223],[-79.8058361111111,26.059764805555556],[-79.80548938888889,26.06051063888889],[-79.804983,26.060903472222222],[-79.80336580555556,26.062571194444445],[-79.80463533333334,26.06346211111111],[-79.80537197222222,26.06438486111111],[-79.80568252777778,26.064970527777778],[-79.80582363888888,26.066895666666667],[-79.8052633611111,26.06837936111111],[-79.80489016666667,26.06876425],[-79.80372641666666,26.06931722222222],[-79.8029535,26.069725972222223],[-79.80122158333333,26.06982947222222],[-79.79999608333333,26.069540166666666],[-79.79816722222222,26.06832011111111],[-79.79785669444445,26.067734416666667],[-79.79769808333333,26.06556861111111],[-79.79800961111111,26.0643415],[-79.79813402777778,26.06421322222222],[-79.79876488888888,26.06369213888889],[-79.7995025,26.06280211111111]]},"properties":{"style":"solid","thickness":1}},{"type":"Feature","geometry":{"type":"LineString","coordinates":[[-79.78092705555555,26.070436694444446],[-79.78176161111111,26.070870333333332],[-79.78271180555555,26.07105536111111],[-79.78590927777778,26.07086463888889],[-79.78709072222222,26.07055247222222],[-79.7874816111111,26.070408277777776],[-79.78940077777777,26.069206138888887],[-79.79051177777778,26.067931333333334],[-79.79082338888888,26.06670425],[-79.79159744444445,26.06448275],[-79.79139491666666,26.061715333333336],[-79.79103161111111,26.060407694444446],[-79.79055272222222,26.05934863888889],[-79.78993183333333,26.058177222222223],[-79.78850286111111,26.056933194444444],[-79.78588383333333,26.055881],[-79.78412569444444,26.055623333333333],[-79.78266036111111,26.05571075],[-79.78082177777777,26.056182944444444],[-79.78018211111112,26.05658361111111],[-79.77966686111111,26.05685602777778]]},"properties":{"style":"solid","thickness":1}},{"type":"Feature","geometry":{"type":"LineString","coordinates":[[-80.00552202777777,25.932214972222223],[-80.00579244444444,25.93582438888889],[-80.00634486111112,25.93784527777778],[-80.00668311111112,25.9387915],[-80.00713641666667,25.93948891666667],[-80.00884141666667,25.94083486111111],[-80.01048333333334,25.94133861111111],[-80.0110156111111,25.94130597222222],[-80.01256733333334,25.940606555555554],[-80.01392283333334,25.939073055555557],[-80.01440097222222,25.938318555555554],[-80.01459491666667,25.937339722222223],[-80.01484072222222,25.935269916666666],[-80.01457005555555,25.9316605],[-80.0140175,25.92963963888889],[-80.01367922222222,25.928693444444445],[-80.01309288888889,25.928004194444444],[-80.01152105555556,25.92665013888889],[-80.00987933333333,25.92614641666667],[-80.00934711111111,25.926179027777778],[-80.00779555555556,25.926878416666668],[-80.00630708333334,25.92842002777778],[-80.005962,25.92916636111111],[-80.00576797222222,25.93014516666667],[-80.00552202777777,25.932214972222223]]},"properties":{"style":"solid","thickness":1}},{"type":"Feature","geometry":{"type":"LineString","coordinates":[[-79.99963422222223,25.92677388888889],[-79.99345930555556,25.94250166666667],[-79.98539736111111,25.92764463888889]]},"properties":{"style":"solid","thickness":1}},{"type":"Feature","geometry":{"type":"LineString","coordinates":[[-79.99760844444445,25.93185338888889],[-79.9880281111111,25.932439333333335]]},"properties":{"style":"solid","thickness":1}},{"type":"Feature","geometry":{"type":"LineString","coordinates":[[-79.98251011111111,25.95780197222222],[-79.98277986111111,25.961411416666667],[-79.98333202777778,25.963432388888886],[-79.98367016666667,25.96437863888889],[-79.98412341666666,25.96507613888889],[-79.98582852777778,25.96642236111111],[-79.98747069444444,25.966926333333333],[-79.98800311111111,25.966893805555554],[-79.98955530555556,25.966194638888886],[-79.99091136111112,25.964661361111112],[-79.99138975,25.963906944444442],[-79.99158394444444,25.962928138888888],[-79.99183019444445,25.960858388888887],[-79.99156016666667,25.957248944444444],[-79.99100788888889,25.95522802777778],[-79.99066972222222,25.954281777777776],[-79.99008338888889,25.953592416666666],[-79.9885115,25.952238138888887],[-79.98686952777778,25.951734166666665],[-79.98633719444445,25.951766694444444],[-79.98478516666667,25.95246583333333],[-79.98329605555556,25.954007166666667],[-79.98295075,25.954753444444442],[-79.98275652777778,25.95573222222222],[-79.98251011111111,25.95780197222222]]},"properties":{"style":"solid","thickness":1}},{"type":"Feature","geometry":{"type":"LineString","coordinates":[[-79.97648902777777,25.95236813888889],[-79.97763027777778,25.967648166666667],[-79.97204002777778,25.967989277777775],[-79.97084211111111,25.968062333333332],[-79.96985652777778,25.967397277777778],[-79.96912816666666,25.966595638888887],[-79.96909225,25.966114388888887],[-79.96891269444444,25.963708083333334],[-79.96901883333334,25.963338999999998],[-79.96934630555556,25.96235213888889],[-79.97058747222222,25.961067805555555],[-79.96920263888889,25.960427083333332],[-79.96851025000001,25.96010672222222],[-79.96779988888889,25.95954572222222],[-79.96731983333333,25.95848722222222],[-79.96708644444445,25.955358999999998],[-79.96742288888889,25.954492444444444],[-79.96830063888889,25.95371375],[-79.9689301388889,25.953191888888888],[-79.96956863888889,25.95279036111111],[-79.97648902777777,25.95236813888889]]},"properties":{"style":"solid","thickness":1}},{"type":"Feature","geometry":{"type":"LineString","coordinates":[[-79.97710905555556,25.960669888888887],[-79.97058747222222,25.961067805555555]]},"properties":{"style":"solid","thickness":1}},{"type":"Feature","geometry":{"type":"LineString","coordinates":[[-79.94228244444444,26.06414363888889],[-79.94255119444445,26.067753083333333],[-79.94310316666667,26.069774166666665],[-79.94344127777778,26.070720472222224],[-79.94389469444445,26.071418083333334],[-79.94560086111112,26.07276475],[-79.94724433333333,26.073269166666666],[-79.94777722222223,26.073236805555556],[-79.94933102777779,26.072538055555555],[-79.95068883333333,26.071005222222222],[-79.95116788888889,26.070250944444446],[-79.95136258333334,26.06927222222222],[-79.95160977777778,26.067202583333334],[-79.95134075,26.063593166666667],[-79.95078869444444,26.061572138888888],[-79.95045052777778,26.060625805555556],[-79.94986391666667,26.059936333333333],[-79.94829108333333,26.058581611111112],[-79.94664780555556,26.058077194444444],[-79.946115,26.058109583333334],[-79.94456136111111,26.05880827777778],[-79.9430703888889,26.06034916666667],[-79.94272452777778,26.061095333333334],[-79.94252977777778,26.06207402777778],[-79.94228244444444,26.06414363888889]]},"properties":{"style":"solid","thickness":1}},{"type":"Feature","geometry":{"type":"LineString","coordinates":[[-79.92628372222222,26.07393711111111],[-79.92711883333334,26.074369916666665],[-79.92806927777778,26.074554],[-79.9312666388889,26.07436008333333],[-79.93244775000001,26.07404672222222],[-79.93283847222223,26.073902166666667],[-79.93475625,26.072698083333332],[-79.93586569444444,26.071422166666668],[-79.93617583333334,26.07019475],[-79.93694719444444,26.0679725],[-79.93674127777778,26.06520525],[-79.93637638888889,26.06389797222222],[-79.93589616666667,26.06283938888889],[-79.93527383333334,26.061668583333333],[-79.93384330555556,26.060425944444447],[-79.9312228888889,26.059376361111113],[-79.92946436111112,26.059120444444446],[-79.92799908333333,26.059209333333335],[-79.92616102777778,26.059683361111112],[-79.92552180555556,26.06008466666667],[-79.92500686111111,26.06035761111111]]},"properties":{"style":"solid","thickness":1}},{"type":"Feature","geometry":{"type":"LineString","coordinates":[[-79.97921644444445,26.16784002777778],[-79.97948652777778,26.171449305555555],[-79.98003958333334,26.173470194444445],[-79.98037830555556,26.174416416666666],[-79.98083233333334,26.175113916666668],[-79.98254038888889,26.176460111111112],[-79.98418544444445,26.17696411111111],[-79.98471880555556,26.17693161111111],[-79.98627375,26.1762325],[-79.98763227777778,26.174699333333333],[-79.98811152777778,26.173944972222223],[-79.98830611111111,26.17296622222222],[-79.98855286111112,26.170896583333334],[-79.9882825,26.167287305555558],[-79.98772933333333,26.165266444444445],[-79.98739061111111,26.16432022222222],[-79.98680325,26.163630916666666],[-79.98522863888888,26.162276638888887],[-79.98358377777778,26.161772638888888],[-79.9830505,26.161805138888887],[-79.98149572222222,26.16250422222222],[-79.98000391666667,26.164045444444444],[-79.97965797222223,26.164791666666666],[-79.97946336111112,26.165770388888888],[-79.97921644444445,26.16784002777778]]},"properties":{"style":"solid","thickness":1}},{"type":"Feature","geometry":{"type":"LineString","coordinates":[[-79.97318491666667,26.16240625],[-79.97432761111111,26.177685611111112],[-79.96846080555555,26.17804275],[-79.96684277777779,26.177899500000002],[-79.96614911111111,26.17757911111111],[-79.9650195,26.176801833333336],[-79.96332061111111,26.17557575],[-79.96213711111112,26.174076583333335],[-79.96178058333334,26.172889694444446],[-79.96148405555556,26.168919444444445],[-79.96166983333333,26.167820444444445],[-79.96236197222223,26.166328055555553],[-79.96323233333334,26.165429138888886],[-79.96408472222222,26.164289555555555],[-79.965355,26.163366277777776],[-79.96692788888889,26.162907999999998],[-79.96785213888889,26.162730888888888],[-79.97318491666667,26.16240625]]},"properties":{"style":"solid","thickness":1}},{"type":"Feature","geometry":{"type":"LineString","coordinates":[[-79.814833,26.1521105],[-79.81096677777778,26.152341666666665],[-79.80882575,26.15053611111111],[-79.80850613888889,26.149830138888888],[-79.8081953611111,26.14924447222222],[-79.80808941666666,26.14780063888889],[-79.80854322222221,26.14668588888889],[-79.80926363888888,26.145555194444444],[-79.81002816666667,26.14502611111111],[-79.81053491666667,26.14463325],[-79.81157488888888,26.144208527777778],[-79.81397444444444,26.144065055555554],[-79.81506741666666,26.14436222222222],[-79.81591144444444,26.144915972222222],[-79.81663986111111,26.14571833333333],[-79.81711047222223,26.146656944444445],[-79.81730566666667,26.147491194444445],[-79.81739402777778,26.148694388888888],[-79.81730491666666,26.14930397222222],[-79.81695797222221,26.150049805555554],[-79.81645122222221,26.150442666666667],[-79.814833,26.1521105],[-79.81610352777777,26.153001277777776],[-79.81684083333333,26.153923944444443],[-79.81715166666666,26.154509583333333],[-79.81729305555555,26.156434694444442],[-79.8167325,26.157918416666664],[-79.81635902777778,26.158303277777776],[-79.81519447222222,26.158856333333333],[-79.81442102777777,26.159265138888887],[-79.81268777777777,26.159368777777775],[-79.81146136111111,26.159079555555554],[-79.809631,26.157859666666667],[-79.80932019444444,26.157273999999997],[-79.80916125,26.155108249999998],[-79.80947291666666,26.153881138888888],[-79.80959741666666,26.15375286111111],[-79.81022869444445,26.15323172222222],[-79.81096677777778,26.152341666666665]]},"properties":{"style":"solid","thickness":1}},{"type":"Feature","geometry":{"type":"LineString","coordinates":[[-79.79536411111111,26.160524388888888],[-79.80349708333333,26.16003886111111],[-79.80237655555555,26.14475825],[-79.79411130555556,26.145251666666667]]},"properties":{"style":"solid","thickness":1}},{"type":"Feature","geometry":{"type":"LineString","coordinates":[[-79.80293238888889,26.152338388888886],[-79.79506655555555,26.152808]]},"properties":{"style":"solid","thickness":1}},{"type":"Feature","geometry":{"type":"LineString","coordinates":[[-79.80716997222223,26.117199222222222],[-79.80330488888889,26.11743022222222],[-79.80116458333333,26.11562452777778],[-79.8008451111111,26.114918527777778],[-79.80053447222222,26.114332833333336],[-79.80042866666666,26.112888972222223],[-79.80088238888888,26.11177425],[-79.80160263888888,26.110643583333335],[-79.802367,26.110114527777778],[-79.80287361111111,26.109721722222222],[-79.80391333333333,26.109297055555558],[-79.80631216666666,26.109153666666668],[-79.80740480555555,26.10945088888889],[-79.80824855555555,26.110004694444445],[-79.80897669444444,26.110807083333334],[-79.80944713888888,26.11174575],[-79.80964219444444,26.112580027777778],[-79.80973047222221,26.113783222222224],[-79.80964133333333,26.114392805555557],[-79.80929447222222,26.11513863888889],[-79.80878783333333,26.115531472222223],[-79.80716997222223,26.117199222222222],[-79.80844008333332,26.118090083333335],[-79.80917711111111,26.119012805555556],[-79.80948780555555,26.119598444444446],[-79.80962905555555,26.121523583333335],[-79.80906855555556,26.123007277777777],[-79.80869519444444,26.12339213888889],[-79.80753091666666,26.12394513888889],[-79.80675766666667,26.12435388888889],[-79.80502494444444,26.124457444444445],[-79.80379888888889,26.124168166666667],[-79.8019691388889,26.122948166666667],[-79.80165847222221,26.12236247222222],[-79.80149972222222,26.12019672222222],[-79.8018113611111,26.118969611111112],[-79.80193583333333,26.118841333333332],[-79.80256694444444,26.11832025],[-79.80330488888889,26.11743022222222]]},"properties":{"style":"solid","thickness":1}},{"type":"Feature","geometry":{"type":"LineString","coordinates":[[-79.79471763888888,26.10984627777778],[-79.79583691666666,26.125127083333332],[-79.78997222222222,26.125477055555557],[-79.78835513888889,26.125331805555557],[-79.78766227777777,26.125010583333335],[-79.78653433333334,26.124231944444446],[-79.78483805555555,26.12300377777778],[-79.78365733333334,26.121503166666667],[-79.78330275,26.120315833333333],[-79.78301230555556,26.116345222222222],[-79.78319966666666,26.11524641666667],[-79.78389372222222,26.11375488888889],[-79.78476502777778,26.112857],[-79.78561872222222,26.111718472222222],[-79.78688983333333,26.110796750000002],[-79.78846269444445,26.11034038888889],[-79.78938680555555,26.110164416666667],[-79.79471763888888,26.10984627777778]]},"properties":{"style":"solid","thickness":1}},{"type":"Feature","geometry":{"type":"LineString","coordinates":[[-79.81180366666666,26.00613552777778],[-79.80794219444444,26.00636666666667],[-79.80580380555556,26.004561],[-79.80548458333332,26.003855],[-79.80517422222222,26.003269305555555],[-79.80506841666666,26.001825416666666],[-79.80552169444444,26.00071063888889],[-79.80624122222223,25.999579944444445],[-79.80700483333334,25.999050833333335],[-79.80751097222222,25.998658000000002],[-79.80854966666666,25.99823327777778],[-79.81094627777777,25.998089805555555],[-79.81203791666667,25.998387],[-79.81288091666666,25.99894077777778],[-79.81360838888888,25.99974316666667],[-79.81407844444445,26.000681833333335],[-79.8142733611111,26.001516111111112],[-79.81436161111111,26.002719333333335],[-79.81427258333333,26.003328944444444],[-79.81392608333333,26.004074805555554],[-79.81341994444445,26.004467666666667],[-79.81180366666666,26.00613552777778],[-79.81307263888888,26.007026333333332],[-79.81380899999999,26.007949055555557],[-79.81411944444444,26.008534722222223],[-79.81426063888888,26.01045988888889],[-79.81370075,26.011943638888887],[-79.81332775,26.01232852777778],[-79.81216458333333,26.012881583333332],[-79.81139208333333,26.01329038888889],[-79.80966097222222,26.013394],[-79.80843605555555,26.013104777777777],[-79.80660794444444,26.011884805555557],[-79.80629755555556,26.01129911111111],[-79.80613883333334,26.009133305555554],[-79.80645013888889,26.007906166666668],[-79.80657447222222,26.007777861111112],[-79.80720497222222,26.00725675],[-79.80794219444444,26.00636666666667]]},"properties":{"style":"solid","thickness":1}},{"type":"Feature","geometry":{"type":"LineString","coordinates":[[-79.7993626111111,25.998782861111113],[-79.80048155555555,26.014064],[-79.79488866666667,26.014398305555556],[-79.79369019444444,26.014469916666666],[-79.79270522222222,26.013803666666668],[-79.79197777777777,26.013001166666665],[-79.79194255555555,26.012519861111112],[-79.7917665,26.01011338888889],[-79.79187325,26.009744444444443],[-79.79220230555555,26.008758],[-79.79344586111111,26.007475194444446],[-79.79206147222222,26.006832805555554],[-79.79136927777778,26.00651161111111],[-79.7906595,26.00594975],[-79.79018083333334,26.004890694444445],[-79.78995202777777,26.00176225],[-79.7902898611111,26.00089611111111],[-79.7911691111111,26.0001185],[-79.79179963888889,25.999597444444447],[-79.79243897222221,25.999196694444446],[-79.7993626111111,25.998782861111113]]},"properties":{"style":"solid","thickness":1}},{"type":"Feature","geometry":{"type":"LineString","coordinates":[[-79.7999705,26.007085222222223],[-79.79344586111111,26.007475194444446]]},"properties":{"style":"solid","thickness":1}},{"type":"Feature","geometry":{"type":"LineString","coordinates":[[-79.81703380555555,25.973940499999998],[-79.81317338888888,25.974171805555553],[-79.8110355,25.972366194444444],[-79.8107163611111,25.971660194444443],[-79.81040602777777,25.971074527777777],[-79.81030019444444,25.969630638888887],[-79.81075327777778,25.96851583333333],[-79.81147258333333,25.967385083333333],[-79.81223594444444,25.966855944444443],[-79.81274194444444,25.966463083333334],[-79.81378033333333,25.966038305555553],[-79.81617630555556,25.96589475],[-79.81726763888888,25.966191916666666],[-79.81811044444444,25.966745666666665],[-79.81883777777777,25.967548027777777],[-79.81930772222222,25.968486666666664],[-79.81950263888889,25.96932097222222],[-79.81959091666667,25.970524194444444],[-79.81950194444444,25.971133805555553],[-79.81915555555555,25.971879694444443],[-79.81864958333333,25.972272583333332],[-79.81703380555555,25.973940499999998],[-79.8183025,25.974831277777778],[-79.81903869444444,25.975753972222222],[-79.81934908333334,25.976339638888888],[-79.81949033333333,25.978264805555554],[-79.81893066666666,25.979748583333333],[-79.81855777777777,25.980133499999997],[-79.81739494444444,25.98068661111111],[-79.81662269444445,25.981095444444442],[-79.81489205555555,25.981199138888886],[-79.81366744444445,25.980909916666665],[-79.81183977777778,25.979690027777774],[-79.81152941666666,25.97910436111111],[-79.81137066666666,25.976938527777776],[-79.81168180555555,25.97571136111111],[-79.81180611111111,25.975583055555553],[-79.81243641666667,25.975061916666665],[-79.81317338888888,25.974171805555553]]},"properties":{"style":"solid","thickness":1}},{"type":"Feature","geometry":{"type":"LineString","coordinates":[[-79.80472888888889,25.966580305555556],[-79.79852622222222,25.982299527777776],[-79.790486,25.967432]]},"properties":{"style":"solid","thickness":1}},{"type":"Feature","geometry":{"type":"LineString","coordinates":[[-79.80269413888888,25.971656999999997],[-79.79310975,25.97223011111111]]},"properties":{"style":"solid","thickness":1}},{"type":"Feature","geometry":{"type":"LineString","coordinates":[[-79.99623297222222,26.191997694444446],[-79.9965036388889,26.195606944444446],[-79.99705711111112,26.19762775],[-79.997396,26.198573916666668],[-79.99785022222223,26.199271361111112],[-79.99955886111111,26.200617333333334],[-80.00120430555556,26.201121166666667],[-80.00173775,26.201088583333334],[-80.00329294444444,26.200389305555554],[-80.00465152777778,26.198856],[-80.00513077777778,26.198101583333333],[-80.00532522222223,26.197122833333335],[-80.00557175,26.195053138888888],[-80.00530083333334,26.191443916666667],[-80.00474725,26.189423138888888],[-80.00440830555556,26.188476972222222],[-80.00382075,26.18778772222222],[-80.0022456111111,26.18643363888889],[-80.00060036111111,26.185929833333333],[-80.00006697222223,26.18596238888889],[-79.99851197222222,26.18666163888889],[-79.99702008333334,26.188203027777778],[-79.99667416666666,26.188949305555557],[-79.99647966666667,26.189928055555555],[-79.99623297222222,26.191997694444446]]},"properties":{"style":"solid","thickness":1}},{"type":"Feature","geometry":{"type":"LineString","coordinates":[[-79.98320941666667,26.202339805555553],[-79.99134455555556,26.201843805555555],[-79.99019947222223,26.18656463888889],[-79.981932,26.18706872222222]]},"properties":{"style":"solid","thickness":1}},{"type":"Feature","geometry":{"type":"LineString","coordinates":[[-79.99076747222222,26.194144083333335],[-79.98289955555556,26.194623805555555]]},"properties":{"style":"solid","thickness":1}},{"type":"Feature","geometry":{"type":"LineString","coordinates":[[-80.20879197222223,26.085519194444444],[-80.20263636111112,26.101255305555558],[-80.19453761111112,26.086410277777777]]},"properties":{"style":"solid","thickness":1}},{"type":"Feature","geometry":{"type":"LineString","coordinates":[[-80.2067723888889,26.090601416666665],[-80.19718025,26.091201055555555]]},"properties":{"style":"solid","thickness":1}},{"type":"Feature","geometry":{"type":"LineString","coordinates":[[-80.18894236111112,26.086759666666666],[-80.19011213888889,26.102037666666668],[-80.18424966666667,26.102403527777778],[-80.18263238888889,26.102262666666668],[-80.18193861111112,26.101943305555558],[-80.18080827777779,26.101167694444445],[-80.17910822222223,26.099944083333334],[-80.17792275000001,26.098446638888888],[-80.17756430555556,26.097260249999998],[-80.17726075,26.09329036111111],[-80.17744441666667,26.092191055555553],[-80.1781333888889,26.09069761111111],[-80.17900155555556,26.08979736111111],[-80.17985133333333,26.0886565],[-80.18111913888889,26.08773133333333],[-80.18269019444445,26.08727069444444],[-80.18361355555555,26.08709222222222],[-80.18894236111112,26.086759666666666]]},"properties":{"style":"solid","thickness":1}},{"type":"Feature","geometry":{"type":"LineString","coordinates":[[-80.1713571388889,26.08785636111111],[-80.17252463888889,26.103134500000003]]},"properties":{"style":"solid","thickness":1}}]}
