{
"type": "FeatureCollection",
"name": "MIA-R-W",
"crs": { "type": "name", "properties": { "name": "urn:ogc:def:crs:OGC:1.3:CRS84" } },
"features": [
{ "type": "Feature", "properties": { "minAlt": 60, "maxAlt": 110 }, "geometry": { "type": "Polygon", "coordinates": [ [ [ -80.807291944444444, 26.167982777777773 ], [ -80.667797777777764, 26.037012777777775 ], [ -80.976616111111099, 26.022085833333335 ], [ -80.968021111111085, 26.103726944444439 ], [ -80.889956111111118, 26.180373611111108 ], [ -80.807291944444444, 26.167982777777773 ] ] ] } },
{ "type": "Feature", "properties": { "minAlt": 60, "maxAlt": 70 }, "geometry": { "type": "Polygon", "coordinates": [ [ [ -80.154207777777771, 26.19825 ], [ -80.635177777777784, 26.197597222222221 ], [ -80.807291944444444, 26.167982777777773 ], [ -80.773936976170404, 26.136679402163796 ], [ -80.66779777777775, 26.037012777777782 ], [ -80.52255944444444, 26.073668333333327 ], [ -80.150463888888893, 26.072077777777775 ], [ -80.154207777777771, 26.19825 ] ] ] } },
{ "type": "Feature", "properties": { "minAlt": 40, "maxAlt": 70 }, "geometry": { "type": "Polygon", "coordinates": [ [ [ -79.831718888888886, 26.223530833333331 ], [ -80.099025, 26.219122777777773 ], [ -80.098572499999989, 26.198053055555551 ], [ -80.154207777777771, 26.19825 ], [ -80.150463888888893, 26.072077777777775 ], [ -80.15046388889408, 26.072077777777793 ], [ -80.150463888888893, 26.072077777777775 ], [ -79.834016944444443, 26.069971944444443 ], [ -79.831718888888886, 26.223530833333331 ] ] ] } },
{ "type": "Feature", "properties": { "minAlt": 70, "maxAlt": 70 }, "geometry": { "type": "Polygon", "coordinates": [ [ [ -79.865668888888862, 26.383443888888884 ], [ -79.970441944444445, 26.383541944444442 ], [ -79.952406944444434, 26.424615 ], [ -79.847435555555535, 26.424751111111114 ], [ -79.865668888888862, 26.383443888888884 ] ] ] } },
{ "type": "Feature", "properties": { "minAlt": 50, "maxAlt": 80 }, "geometry": { "type": "Polygon", "coordinates": [ [ [ -79.7, 26.383332777777774 ], [ -79.78738083333333, 26.325077777777771 ], [ -80.098877777777773, 26.317160833333332 ], [ -80.098777499999983, 26.38310388888889 ], [ -79.7, 26.383332777777774 ] ] ] } },
{ "type": "Feature", "properties": { "minAlt": 40, "maxAlt": 80 }, "geometry": { "type": "Polygon", "coordinates": [ [ [ -79.7, 26.383332777777774 ], [ -79.78738083333333, 26.325077777777771 ], [ -80.098877777777773, 26.317160833333332 ], [ -80.099025, 26.219122777777773 ], [ -79.831718888888886, 26.223530833333331 ], [ -79.834016944444443, 26.069971944444443 ], [ -79.55, 26.066666944444442 ], [ -79.617221944444438, 26.211110833333333 ], [ -79.7, 26.383332777777774 ] ] ] } },
{ "type": "Feature", "properties": { "minAlt": 40, "maxAlt": 40 }, "geometry": { "type": "Polygon", "coordinates": [ [ [ -79.5458361111111, 26.211027222222221 ], [ -79.617221944444438, 26.211110833333329 ], [ -79.582978888888888, 26.137560833333332 ], [ -79.503032777777761, 26.076495833333329 ], [ -79.5458361111111, 26.211027222222221 ] ] ] } },
{ "type": "Feature", "properties": { "minAlt": 40, "maxAlt": 80 }, "geometry": { "type": "Polygon", "coordinates": [ [ [ -79.582978888888888, 26.137560833333332 ], [ -79.55, 26.066666944444442 ], [ -79.498315, 26.06091 ], [ -79.503032777777761, 26.076495833333329 ], [ -79.582978888888888, 26.137560833333332 ] ] ] } }
]
}
