{
"type": "FeatureCollection",
"name": "MIA-L-EE",
"crs": { "type": "name", "properties": { "name": "urn:ogc:def:crs:OGC:1.3:CRS84" } },
"features": [
{ "type": "Feature", "properties": { "minAlt": 0, "maxAlt": 50 }, "geometry": { "type": "Polygon", "coordinates": [ [ [ -80.150463888888893, 26.072077777777775 ], [ -80.133643888888898, 26.07198277777778 ], [ -80.134691944444455, 26.153232777777774 ], [ -80.15286694444444, 26.153196944444439 ], [ -80.150463888888893, 26.072077777777775 ] ] ] } },
{ "type": "Feature", "properties": { "minAlt": 0, "maxAlt": 50 }, "geometry": { "type": "Polygon", "coordinates": [ [ [ -79.964577777777777, 26.07089194444444 ], [ -79.95855, 26.152230833333327 ], [ -79.964577777777777, 26.07089194444444 ], [ -80.133643888888898, 26.07198277777778 ], [ -80.134691944444455, 26.153232777777774 ], [ -79.95855, 26.152230833333327 ], [ -79.964577777777777, 26.07089194444444 ] ] ] } },
{ "type": "Feature", "properties": { "minAlt": 40, "maxAlt": 50 }, "geometry": { "type": "Polygon", "coordinates": [ [ [ -79.900963888888896, 26.222681944444439 ], [ -79.928335833333335, 26.19761 ], [ -79.952352777777776, 26.174116944444442 ], [ -79.95855, 26.152230833333327 ], [ -80.134691944444455, 26.153232777777774 ], [ -80.15286694444444, 26.153196944444439 ], [ -80.134691944444455, 26.153232777777774 ], [ -80.152866944444426, 26.153196944444439 ], [ -80.152375260157299, 26.136603899314117 ], [ -80.152378088798713, 26.136604966243802 ], [ -80.154207777777771, 26.19825 ], [ -80.099055833333324, 26.198491944444442 ], [ -80.099023381988047, 26.219122806853964 ], [ -80.099025, 26.219122777777773 ], [ -79.900963888888896, 26.222681944444439 ] ] ] } },
{ "type": "Feature", "properties": { "minAlt": 40, "maxAlt": 50 }, "geometry": { "type": "Polygon", "coordinates": [ [ [ -79.78738083333333, 26.325077777777771 ], [ -79.900963888888896, 26.222681944444439 ], [ -80.099023381988047, 26.219122806853964 ], [ -80.098869093822827, 26.317161054050544 ], [ -80.098877777777773, 26.317160833333332 ], [ -79.78738083333333, 26.325077777777771 ] ] ] } },
{ "type": "Feature", "properties": { "minAlt": 90, "maxAlt": 100 }, "geometry": { "type": "Polygon", "coordinates": [ [ [ -79.78738083333333, 26.325077777777771 ], [ -79.900963888888896, 26.222681944444439 ], [ -80.099023381988047, 26.219122806853964 ], [ -80.099025, 26.219122777777773 ], [ -80.099023381988047, 26.219122806853964 ], [ -80.098869093822827, 26.317161054050541 ], [ -79.78738083333333, 26.325077777777771 ] ] ] } },
{ "type": "Feature", "properties": { "minAlt": 40, "maxAlt": 100 }, "geometry": { "type": "Polygon", "coordinates": [ [ [ -80.099055833333324, 26.198491944444442 ], [ -80.154207777777771, 26.19825 ], [ -80.346252777777764, 26.198030833333327 ], [ -80.379712777777755, 26.316017777777777 ], [ -80.098877777777773, 26.317160833333332 ], [ -80.099055833333324, 26.198491944444442 ] ] ] } },
{ "type": "Feature", "properties": { "minAlt": 50, "maxAlt": 50 }, "geometry": { "type": "Polygon", "coordinates": [ [ [ -79.78738083333333, 26.325077777777771 ], [ -80.098869093822813, 26.317161054050541 ], [ -80.098877777777773, 26.317160833333332 ], [ -80.098713888888881, 26.383518888888887 ], [ -79.7, 26.383332777777774 ], [ -79.78738083333333, 26.325077777777771 ] ] ] } },
{ "type": "Feature", "properties": { "minAlt": 90, "maxAlt": 100 }, "geometry": { "type": "Polygon", "coordinates": [ [ [ -79.7, 26.383332777777774 ], [ -79.78738083333333, 26.325077777777771 ], [ -80.098869093822827, 26.317161054050541 ], [ -80.098877777777773, 26.317160833333332 ], [ -80.098713888888881, 26.383518888888887 ], [ -79.7, 26.383332777777774 ] ] ] } },
{ "type": "Feature", "properties": { "minAlt": 50, "maxAlt": 100 }, "geometry": { "type": "Polygon", "coordinates": [ [ [ -80.098713888888881, 26.383518888888883 ], [ -80.098877777777773, 26.317160833333332 ], [ -80.379712777777755, 26.316017777777777 ], [ -80.348253059949116, 26.205087612609677 ], [ -80.346252777777764, 26.198030833333327 ], [ -80.63536388888889, 26.197305833333338 ], [ -80.747643888888874, 26.313202777777775 ], [ -80.67194388888889, 26.383332777777774 ], [ -80.098713888888881, 26.383518888888883 ] ] ] } },
{ "type": "Feature", "properties": { "minAlt": 80, "maxAlt": 130 }, "geometry": { "type": "Polygon", "coordinates": [ [ [ -80.18071194444444, 26.383371944444441 ], [ -80.671943888873585, 26.383332777777774 ], [ -80.67194388888889, 26.383332777777774 ], [ -80.747643888888874, 26.313202777777768 ], [ -80.806143888888855, 26.373035833333319 ], [ -80.65643472222223, 26.513290833333329 ], [ -80.273180833333328, 26.513290833333329 ], [ -80.18071194444444, 26.383371944444441 ] ] ] } },
{ "type": "Feature", "properties": { "minAlt": 90, "maxAlt": 130 }, "geometry": { "type": "Polygon", "coordinates": [ [ [ -80.806143888888869, 26.373035833333326 ], [ -80.897219166666673, 26.287803888888892 ], [ -80.890277777777769, 26.180555833333333 ], [ -80.747643888888874, 26.313202777777768 ], [ -80.806143888888869, 26.373035833333326 ] ] ] } },
{ "type": "Feature", "properties": { "minAlt": 90, "maxAlt": 100 }, "geometry": { "type": "Polygon", "coordinates": [ [ [ -80.63536388888889, 26.197305833333338 ], [ -80.806894722222225, 26.167936111111104 ], [ -80.890277777777754, 26.180555833333347 ], [ -80.747643888888874, 26.313202777777768 ], [ -80.63536388888889, 26.197305833333338 ] ] ] } },
{ "type": "Feature", "properties": { "minAlt": 0, "maxAlt": 40 }, "geometry": { "type": "Polygon", "coordinates": [ [ [ -79.782852777777777, 26.069402777777778 ], [ -79.787335833333316, 26.12005 ], [ -79.895638888888897, 26.07041388888889 ], [ -79.782852777777777, 26.069402777777778 ] ] ] } },
{ "type": "Feature", "properties": { "minAlt": 0, "maxAlt": 160 }, "geometry": { "type": "Polygon", "coordinates": [ [ [ -79.895638888888897, 26.07041388888889 ], [ -79.787335833333316, 26.12005 ], [ -79.8118, 26.197977777777776 ], [ -79.928335833333335, 26.19761 ], [ -79.952352777777776, 26.174116944444442 ], [ -79.95855, 26.152230833333327 ], [ -79.964577777777777, 26.07089194444444 ], [ -79.895638888888897, 26.07041388888889 ] ] ] } },
{ "type": "Feature", "properties": { "minAlt": 40, "maxAlt": 160 }, "geometry": { "type": "Polygon", "coordinates": [ [ [ -79.7, 26.383332777777774 ], [ -79.610146944444423, 26.195912777777774 ], [ -79.787335833333316, 26.12005 ], [ -79.8118, 26.197977777777776 ], [ -79.928335833333335, 26.19761 ], [ -79.900963888888896, 26.222681944444439 ], [ -79.78738083333333, 26.325077777777771 ], [ -79.7, 26.383332777777774 ] ] ] } },
{ "type": "Feature", "properties": { "minAlt": 40, "maxAlt": 40 }, "geometry": { "type": "Polygon", "coordinates": [ [ [ -79.782852777777777, 26.069402777777778 ], [ -79.787335833333316, 26.12005 ], [ -79.610146944444423, 26.195912777777774 ], [ -79.610146944445006, 26.195912777779011 ], [ -79.617221944444438, 26.211110833333329 ], [ -79.54528944444445, 26.210872777777773 ], [ -79.498408055555544, 26.06153888888889 ], [ -79.549196388888873, 26.066335555555558 ], [ -79.782852777777777, 26.069402777777778 ] ] ] } }
]
}
