{
"type": "FeatureCollection",
"name": "MIA-S-E",
"crs": { "type": "name", "properties": { "name": "urn:ogc:def:crs:OGC:1.3:CRS84" } },
"features": [
{ "type": "Feature", "properties": { "minAlt": 40, "maxAlt": 110 }, "geometry": { "type": "Polygon", "coordinates": [ [ [ -80.860661111111099, 25.616022222222224 ], [ -80.815038888888893, 25.718386111111105 ], [ -80.815038888888893, 25.718386111111105 ], [ -80.766288888888894, 25.74359722222222 ], [ -80.660294444444446, 25.778005555555552 ], [ -80.845477777777759, 25.76853333333333 ], [ -80.890638888888901, 25.766527777777775 ], [ -80.875, 25.6375 ], [ -80.860661111111099, 25.616022222222224 ] ] ] } },
{ "type": "Feature", "properties": { "minAlt": 40, "maxAlt": 130 }, "geometry": { "type": "Polygon", "coordinates": [ [ [ -80.609205555555548, 25.780297222222217 ], [ -80.59473888888887, 25.581677777777774 ], [ -80.754166666666649, 25.46222222222222 ], [ -80.860661111111099, 25.616022222222224 ], [ -80.815038888888893, 25.718386111111101 ], [ -80.815038888888893, 25.718386111111101 ], [ -80.766288888888894, 25.74359722222222 ], [ -80.660294444444446, 25.778005555555552 ], [ -80.609205555555548, 25.780297222222217 ] ] ] } },
{ "type": "Feature", "properties": { "minAlt": 40, "maxAlt": 100 }, "geometry": { "type": "Polygon", "coordinates": [ [ [ -80.609205555555548, 25.780297222222217 ], [ -80.477127777777781, 25.785675 ], [ -80.291372222222208, 25.794558333333331 ], [ -80.278202777777764, 25.731091666666664 ], [ -80.266486111111107, 25.671630555555556 ], [ -80.258888888888876, 25.619444444444436 ], [ -80.59473888888887, 25.581677777777774 ], [ -80.609205555555548, 25.780297222222217 ] ] ] } },
{ "type": "Feature", "properties": { "minAlt": 60, "maxAlt": 110 }, "geometry": { "type": "Polygon", "coordinates": [ [ [ -80.278202777777764, 25.731091666666664 ], [ -80.266486111111107, 25.671630555555556 ], [ -80.214913888888887, 25.671958333333333 ], [ -80.2162, 25.725097222222221 ], [ -80.278202777777764, 25.731091666666664 ] ] ] } },
{ "type": "Feature", "properties": { "minAlt": 80, "maxAlt": 110 }, "geometry": { "type": "Polygon", "coordinates": [ [ [ -80.291372222222208, 25.794558333333331 ], [ -80.278202777777764, 25.731091666666664 ], [ -80.2162, 25.725097222222221 ], [ -80.214913888888887, 25.671958333333333 ], [ -80.266486111111107, 25.671630555555556 ], [ -80.258888888888876, 25.619444444444436 ], [ -80.061722222222215, 25.551966666666665 ], [ -80.005691666666664, 25.694741666666662 ], [ -80.105741666666646, 25.777786111111105 ], [ -80.104825, 25.790372222222224 ], [ -80.105330555555554, 25.802658333333333 ], [ -80.291372222222208, 25.794558333333331 ] ] ] } },
{ "type": "Feature", "properties": { "minAlt": 80, "maxAlt": 160 }, "geometry": { "type": "Polygon", "coordinates": [ [ [ -80.061722222222215, 25.551966666666665 ], [ -80.043666666666667, 25.544941666666674 ], [ -79.837763888888887, 25.376 ], [ -79.715883333333338, 25.45623611111111 ], [ -80.005691666666664, 25.694741666666662 ], [ -80.061722222222215, 25.551966666666665 ] ] ] } }
]
}
