{
"type": "FeatureCollection",
"name": "MIA-FROGZ-W",
"crs": { "type": "name", "properties": { "name": "urn:ogc:def:crs:OGC:1.3:CRS84" } },
"features": [
{ "type": "Feature", "properties": { "minAlt": 80, "maxAlt": 160 }, "geometry": { "type": "Polygon", "coordinates": [ [ [ -80.9843075, 25.945585833333332 ], [ -80.999133888888892, 25.816246944444444 ], [ -80.902711944444434, 25.82284388888889 ], [ -80.890637777777769, 25.766526944444443 ], [ -80.902711944444434, 25.82284388888889 ], [ -80.999133888888892, 25.816246944444444 ], [ -80.9843075, 25.945585833333332 ], [ -80.613405833333317, 25.962346944444441 ], [ -80.627988888888865, 25.933077777777779 ], [ -80.638916944444446, 25.911710833333327 ], [ -80.647610833333331, 25.888575 ], [ -80.656132777777785, 25.855207777777778 ], [ -80.660993888888896, 25.827246944444443 ], [ -80.661693888888877, 25.800377777777779 ], [ -80.660293888888887, 25.778005833333332 ], [ -80.890637777777769, 25.766526944444443 ], [ -80.902711944444434, 25.82284388888889 ], [ -80.999133888888892, 25.816246944444444 ], [ -80.9843075, 25.945585833333332 ] ] ] } },
{ "type": "Feature", "properties": { "minAlt": 80, "maxAlt": 160 }, "geometry": { "type": "Polygon", "coordinates": [ [ [ -80.613405833333317, 25.962346944444437 ], [ -80.627988888888865, 25.933077777777779 ], [ -80.638916944444446, 25.911710833333327 ], [ -80.647610833333331, 25.888575 ], [ -80.656132777777785, 25.855207777777778 ], [ -80.660993888888896, 25.827246944444443 ], [ -80.661693888888877, 25.800377777777779 ], [ -80.660293888888887, 25.778005833333332 ], [ -80.2897525, 25.794314444444446 ], [ -80.2905025, 25.913170555555549 ], [ -80.52527111111111, 25.901690277777778 ], [ -80.58902611111111, 25.963144166666662 ], [ -80.613405833333317, 25.962346944444437 ] ] ] } },
{ "type": "Feature", "properties": { "minAlt": 90, "maxAlt": 160 }, "geometry": { "type": "Polygon", "coordinates": [ [ [ -80.902711944444434, 25.82284388888889 ], [ -80.999133888888892, 25.816246944444444 ], [ -80.902711944444434, 25.82284388888889 ], [ -80.890637777777769, 25.766526944444443 ], [ -80.875217499999977, 25.638089444444439 ], [ -81.006766388888892, 25.74936 ], [ -80.999133888888892, 25.816246944444444 ], [ -80.902711944444434, 25.82284388888889 ] ] ] } }
]
}
