{
"type": "FeatureCollection",
"name": "MIA-Q-EW",
"crs": { "type": "name", "properties": { "name": "urn:ogc:def:crs:OGC:1.3:CRS84" } },
"features": [
{ "type": "Feature", "properties": { "minAlt": 0, "maxAlt": 80 }, "geometry": { "type": "Polygon", "coordinates": [ [ [ -80.63536388888889, 26.197305833333338 ], [ -80.807291944444444, 26.167982777777773 ], [ -80.890277777777769, 26.180555833333333 ], [ -80.747643888888874, 26.313202777777775 ], [ -80.63536388888889, 26.197305833333338 ] ] ] } },
{ "type": "Feature", "properties": { "minAlt": 80, "maxAlt": 80 }, "geometry": { "type": "Polygon", "coordinates": [ [ [ -80.890277777777769, 26.180555833333333 ], [ -80.747643888888874, 26.313202777777775 ], [ -80.805599722222226, 26.373503333333332 ], [ -80.897132777777784, 26.287103333333331 ], [ -80.890277777777769, 26.180555833333333 ] ] ] } },
{ "type": "Feature", "properties": { "minAlt": 0, "maxAlt": 50 }, "geometry": { "type": "Polygon", "coordinates": [ [ [ -80.976743888888876, 26.022050833333331 ], [ -80.967997222222209, 26.103669722222225 ], [ -80.890277777777769, 26.180555833333333 ], [ -80.856827465786139, 26.175487991322875 ], [ -80.807291944444444, 26.167982777777773 ], [ -80.63536388888889, 26.197305833333338 ], [ -80.522843888888872, 26.073396944444443 ], [ -80.667797777777764, 26.037012777777775 ], [ -80.976743888888876, 26.022050833333331 ] ] ] } },
{ "type": "Feature", "properties": { "minAlt": 0, "maxAlt": 40 }, "geometry": { "type": "Polygon", "coordinates": [ [ [ -80.145675, 25.962771111111106 ], [ -80.289582777777781, 25.963185833333331 ], [ -80.588677777777761, 25.963425 ], [ -80.613405833333317, 25.962346944444441 ], [ -80.984891245154259, 25.944746237561795 ], [ -80.985280833333334, 25.944727777777778 ], [ -80.984891245154259, 25.944746237561795 ], [ -80.976743888888876, 26.022050833333331 ], [ -80.667797777777764, 26.037012777777775 ], [ -80.522843888888872, 26.073396944444443 ], [ -80.150596111111113, 26.071768055555555 ], [ -80.145675, 25.962771111111106 ] ] ] } },
{ "type": "Feature", "properties": { "minAlt": 0, "maxAlt": 20 }, "geometry": { "type": "Polygon", "coordinates": [ [ [ -80.291340555555536, 25.868395833333334 ], [ -80.458167222222215, 25.86750972222222 ], [ -80.467025277777779, 25.850229722222224 ], [ -80.473915, 25.828961944444444 ], [ -80.476375555555563, 25.812125 ], [ -80.478343888888887, 25.785983611111106 ], [ -80.660293888888887, 25.778005833333332 ], [ -80.661693888888877, 25.800377777777779 ], [ -80.660993888888896, 25.827246944444443 ], [ -80.656132777777785, 25.855207777777778 ], [ -80.647610833333331, 25.888575 ], [ -80.638916944444446, 25.911710833333327 ], [ -80.627988888888865, 25.933077777777779 ], [ -80.613405833333303, 25.962346944444437 ], [ -80.289582777777781, 25.963185833333331 ], [ -80.291340555555536, 25.868395833333334 ] ] ] } },
{ "type": "Feature", "properties": { "minAlt": 0, "maxAlt": 20 }, "geometry": { "type": "Polygon", "coordinates": [ [ [ -80.660293888888887, 25.778005833333332 ], [ -80.661693888888877, 25.800377777777779 ], [ -80.660993888888896, 25.827246944444443 ], [ -80.656132777777785, 25.855207777777778 ], [ -80.647610833333331, 25.888575 ], [ -80.638916944444446, 25.911710833333327 ], [ -80.627988888888865, 25.933077777777779 ], [ -80.613405833333317, 25.962346944444437 ], [ -80.984891245154259, 25.944746237561795 ], [ -81.004255277777773, 25.760810833333334 ], [ -80.660293888888887, 25.778005833333332 ] ] ] } }
]
}
