{
"type": "FeatureCollection",
"name": "MIA-F-W",
"crs": { "type": "name", "properties": { "name": "urn:ogc:def:crs:OGC:1.3:CRS84" } },
"features": [
{ "type": "Feature", "properties": { "minAlt": 0, "maxAlt": 30 }, "geometry": { "type": "Polygon", "coordinates": [ [ [ -80.152866666666668, 26.153197222222214 ], [ -80.151718231769891, 26.114432286870141 ], [ -80.151624027697807, 26.111251897226332 ], [ -80.15153080198877, 26.108104452556709 ], [ -80.150463888888893, 26.072077777777775 ], [ -80.133644444444457, 26.071983333333328 ], [ -80.134691666666669, 26.153233333333329 ], [ -80.152866666666668, 26.153197222222214 ] ] ] } },
{ "type": "Feature", "properties": { "minAlt": 0, "maxAlt": 30 }, "geometry": { "type": "Polygon", "coordinates": [ [ [ -80.133644444444457, 26.071983333333328 ], [ -80.134691666666669, 26.153233333333329 ], [ -79.95855, 26.152230555555555 ], [ -79.952352777777776, 26.174116666666663 ], [ -79.928336111111122, 26.197611111111108 ], [ -79.832255555555548, 26.197919444444441 ], [ -79.8118, 26.197977777777776 ], [ -79.787336111111088, 26.12005 ], [ -79.782852777777777, 26.069402777777778 ], [ -80.133644444444457, 26.071983333333328 ] ] ] } }
]
}
