{
"type": "FeatureCollection",
"name": "MIA-V-E",
"crs": { "type": "name", "properties": { "name": "urn:ogc:def:crs:OGC:1.3:CRS84" } },
"features": [
{ "type": "Feature", "properties": { "minAlt": 0, "maxAlt": 30 }, "geometry": { "type": "Polygon", "coordinates": [ [ [ -80.29080277777777, 25.86776388888887 ], [ -80.459366944444454, 25.867241944444444 ], [ -80.467525, 25.850477777777765 ], [ -80.471110833333341, 25.838882777777776 ], [ -80.474013888888891, 25.827575 ], [ -80.476602777777757, 25.81185 ], [ -80.477577777777753, 25.796618888888883 ], [ -80.477127777777781, 25.785675 ], [ -80.291215277777781, 25.795083888888879 ], [ -80.29080277777777, 25.86776388888887 ] ] ] } },
{ "type": "Feature", "properties": { "minAlt": 30, "maxAlt": 30 }, "geometry": { "type": "Polygon", "coordinates": [ [ [ -80.477127777777781, 25.785675 ], [ -80.477577777777753, 25.796618888888883 ], [ -80.476602777777757, 25.81185 ], [ -80.474013888888891, 25.827575 ], [ -80.471110833333341, 25.838882777777776 ], [ -80.467525, 25.850477777777762 ], [ -80.459366944444454, 25.867241944444444 ], [ -80.29080277777777, 25.86776388888887 ], [ -80.290466668184138, 25.963559567674828 ], [ -80.290198611111094, 25.96356 ], [ -80.290466668184138, 25.963559567674828 ], [ -80.58970972222221, 25.963076944444445 ], [ -80.984946111111114, 25.945211944444441 ], [ -81.005592777777778, 25.76125 ], [ -80.477127777777781, 25.785675 ] ] ] } }
]
}
