{
"type": "FeatureCollection",
"name": "MIA-V-W",
"crs": { "type": "name", "properties": { "name": "urn:ogc:def:crs:OGC:1.3:CRS84" } },
"features": [
{ "type": "Feature", "properties": { "minAlt": 30, "maxAlt": 30 }, "geometry": { "type": "Polygon", "coordinates": [ [ [ -80.289583333333297, 25.963186111111106 ], [ -79.972366666666673, 25.963347222222215 ], [ -79.956911111111097, 25.939827777777779 ], [ -79.940416666666664, 25.904975 ], [ -79.931152777777754, 25.876466666666666 ], [ -79.922141666666647, 25.841491666666666 ], [ -79.918283333333306, 25.812588888888882 ], [ -80.105330555555554, 25.802658333333333 ], [ -80.105802777777768, 25.809527777777777 ], [ -80.107066666666654, 25.819497222222221 ], [ -80.1099, 25.832711111111102 ], [ -80.113016666666667, 25.843130555555554 ], [ -80.118152777777766, 25.856536111111105 ], [ -80.123552777777775, 25.867572222222218 ], [ -80.29080277777777, 25.867763888888874 ], [ -80.289583333333297, 25.963186111111106 ] ] ] } },
{ "type": "Feature", "properties": { "minAlt": 0, "maxAlt": 30 }, "geometry": { "type": "Polygon", "coordinates": [ [ [ -80.29080277777777, 25.86776388888887 ], [ -80.123552777777775, 25.867572222222218 ], [ -80.118152777777766, 25.856536111111105 ], [ -80.113016666666667, 25.843130555555554 ], [ -80.1099, 25.832711111111102 ], [ -80.107066666666654, 25.819497222222221 ], [ -80.105802777777768, 25.809527777777777 ], [ -80.105330555555554, 25.802658333333333 ], [ -80.291372222222208, 25.794558333333331 ], [ -80.29080277777777, 25.86776388888887 ] ] ] } }
]
}
