{
"type": "FeatureCollection",
"name": "WSC-25",
"crs": { "type": "name", "properties": { "name": "urn:ogc:def:crs:OGC:1.3:CRS84" } },
"features": [
{ "type": "Feature", "properties": { "minAlt": 240, "maxAlt": 999 }, "geometry": { "type": "Polygon", "coordinates": [ [ [ -81.073283, 25.798469 ], [ -81.020208, 26.305478 ], [ -81.0875, 26.370833333300027 ], [ -81.408333333299993, 26.65 ], [ -81.579166666700019, 26.804166666699984 ], [ -81.791666666699882, 26.983333333299925 ], [ -82.009166666699912, 27.531111111100074 ], [ -82.206944444399937, 28.03 ], [ -82.383333, 27.95 ], [ -82.358611, 27.858889 ], [ -82.25, 27.416667 ], [ -82.333333, 27.245833 ], [ -82.733333, 27.183333 ], [ -82.919444, 27.008611 ], [ -83.101389, 27.039444 ], [ -83.06, 26.581389 ], [ -82.978814, 25.717619 ], [ -82.801111111099999, 25.723888888899978 ], [ -82.499722222200035, 25.73361111110006 ], [ -82.308333333299856, 25.78333333330005 ], [ -81.416666666699939, 25.78333333330005 ], [ -81.073283, 25.798469 ] ] ] } },
{ "type": "Feature", "properties": { "minAlt": 280, "maxAlt": 999 }, "geometry": { "type": "Polygon", "coordinates": [ [ [ -82.383333, 27.95 ], [ -82.358611, 27.858889 ], [ -82.25, 27.416667 ], [ -82.333333, 27.245833 ], [ -82.733333, 27.183333 ], [ -82.919444, 27.008611 ], [ -83.101389, 27.039444 ], [ -83.139761, 27.442639 ], [ -83.171389, 27.776111 ], [ -82.941667, 27.95 ], [ -82.6575, 27.95 ], [ -82.383333, 27.95 ] ] ] } }
]
}
