{
"type": "FeatureCollection",
"name": "WSC-06",
"crs": { "type": "name", "properties": { "name": "urn:ogc:def:crs:OGC:1.3:CRS84" } },
"features": [
{ "type": "Feature", "properties": { "minAlt": 0, "maxAlt": 999 }, "geometry": { "type": "Polygon", "coordinates": [ [ [ -81.499999999999886, 24.000000000000284 ], [ -81.316666666699916, 24.000000000000284 ], [ -81.12235, 24.0 ], [ -81.057778, 24.0 ], [ -80.968333, 24.0 ], [ -79.9828, 24.001269 ], [ -80.169125, 24.681006 ], [ -80.568308, 24.649825 ], [ -80.7081, 24.631878 ], [ -80.841081, 24.581578 ], [ -80.863403, 24.565683 ], [ -80.926475, 24.522281 ], [ -80.933347, 24.510247 ], [ -80.962217, 24.487994 ], [ -81.089781, 24.456442 ], [ -81.25, 24.416667 ], [ -81.276389, 24.252778 ], [ -81.758889, 24.252778 ], [ -81.892403, 24.209875 ], [ -82.1, 24.5 ], [ -82.1, 24.675 ], [ -81.999722, 24.717222 ], [ -82.0, 24.966667 ], [ -82.308333333299743, 25.783333333300277 ], [ -82.499722, 25.733611 ], [ -82.801111, 25.723889 ], [ -82.978814, 25.717619 ], [ -83.633333333299788, 25.6916666667002 ], [ -84.283333333299936, 25.666944444400258 ], [ -84.416666666699882, 25.61694444440019 ], [ -84.999722222200035, 25.033611111100299 ], [ -84.999722222200035, 24.000000000000284 ], [ -84.669444444399858, 24.000000000000284 ], [ -84.340277777799713, 24.000000000000284 ], [ -83.499999999999886, 24.000000000000284 ], [ -83.1472222221999, 24.000000000000284 ], [ -82.980555555600006, 24.000000000000284 ], [ -82.567222222199746, 23.998611111100217 ], [ -82.400555555600022, 23.998611111100217 ], [ -81.499999999999886, 24.000000000000284 ] ] ] } },
{ "type": "Feature", "properties": { "minAlt": 240, "maxAlt": 999 }, "geometry": { "type": "Polygon", "coordinates": [ [ [ -82.307553, 25.781322 ], [ -82.0, 24.966667 ], [ -81.999722, 24.717222 ], [ -82.1, 24.675 ], [ -82.1, 24.5 ], [ -81.892403, 24.209875 ], [ -81.758889, 24.252778 ], [ -81.276389, 24.252778 ], [ -81.25, 24.416667 ], [ -81.089781, 24.456442 ], [ -81.081347, 24.573422 ], [ -81.044083, 24.873433 ], [ -80.763175, 25.424403 ], [ -80.742575, 25.446867 ], [ -80.342656, 25.78335 ], [ -80.382406, 25.913689 ], [ -80.433442, 26.077869 ], [ -80.823889, 26.116667 ], [ -80.890278, 26.180556 ], [ -81.020208, 26.305478 ], [ -81.073283, 25.798469 ], [ -81.416667, 25.783333 ], [ -81.494283, 25.783528 ], [ -82.305614, 25.783356 ] ] ] } },
{ "type": "Feature", "properties": { "minAlt": 110, "maxAlt": 999 }, "geometry": { "type": "Polygon", "coordinates": [ [ [ -80.742575, 25.446867 ], [ -80.763175, 25.424403 ], [ -81.044083, 24.873433 ], [ -81.081347, 24.573422 ], [ -81.089781, 24.456442 ], [ -80.962217, 24.487994 ], [ -80.933347, 24.510247 ], [ -80.926475, 24.522281 ], [ -80.863403, 24.565683 ], [ -80.841081, 24.581578 ], [ -80.7081, 24.631878 ], [ -80.568308, 24.649825 ], [ -80.169125, 24.681006 ], [ -80.273881, 25.091267 ], [ -80.306053, 25.217139 ], [ -80.466667, 25.166667 ], [ -80.644444, 25.330278 ], [ -80.683333, 25.368333 ], [ -80.742575, 25.446867 ] ] ] } },
{ "type": "Feature", "properties": { "minAlt": 170, "maxAlt": 999 }, "geometry": { "type": "Polygon", "coordinates": [ [ [ -80.342656, 25.78335 ], [ -80.742575, 25.446867 ], [ -80.683333, 25.368333 ], [ -80.644444, 25.330278 ], [ -80.466667, 25.166667 ], [ -80.306053, 25.217139 ], [ -80.241667, 25.458333 ], [ -80.266667, 25.541667 ], [ -80.342656, 25.78335 ] ] ] } },
{ "type": "Feature", "properties": { "minAlt": 170, "maxAlt": 999 }, "geometry": { "type": "Polygon", "coordinates": [ [ [ -82.1, 24.675 ], [ -82.616389, 24.458889 ], [ -82.383333, 24.05 ], [ -81.892403, 24.209875 ], [ -82.1, 24.5 ], [ -82.1, 24.675 ] ] ] } }
]
}
