{
"type": "FeatureCollection",
"name": "TPA-E-N",
"crs": { "type": "name", "properties": { "name": "urn:ogc:def:crs:OGC:1.3:CRS84" } },
"features": [
{ "type": "Feature", "properties": { "minAlt": 90, "maxAlt": 120 }, "geometry": { "type": "Polygon", "coordinates": [ [ [ -82.041668055555547, 28.633270555555555 ], [ -82.154591111111117, 28.652133333333332 ], [ -82.365277777777763, 28.686944444444443 ], [ -82.496613611111115, 28.707553055555543 ], [ -82.376726944444442, 28.319644166666663 ], [ -81.956522777777778, 28.328528611111111 ], [ -81.96888888888887, 28.375 ], [ -81.956943888888887, 28.563888888888894 ], [ -82.041668055555547, 28.633270555555555 ] ] ] } },
{ "type": "Feature", "properties": { "minAlt": 70, "maxAlt": 100 }, "geometry": { "type": "Polygon", "coordinates": [ [ [ -82.09583777777776, 28.325583055555555 ], [ -82.376726944444442, 28.319644166666663 ], [ -82.532101944444435, 28.071383888888882 ], [ -82.536143888888873, 27.970782777777767 ], [ -82.496840833333337, 28.055284444444446 ], [ -82.487746944444439, 28.06992 ], [ -82.385043866626802, 28.068728384462933 ], [ -82.387097777777782, 28.003330833333333 ], [ -82.09583777777776, 28.325583055555555 ] ] ] } },
{ "type": "Feature", "properties": { "minAlt": 50, "maxAlt": 80 }, "geometry": { "type": "Polygon", "coordinates": [ [ [ -82.385043866626802, 28.068728384462933 ], [ -82.487746944444439, 28.06992 ], [ -82.496840833333337, 28.055284444444439 ], [ -82.536143888888859, 27.970782777777767 ], [ -82.388332777777791, 27.967325 ], [ -82.385043866626802, 28.068728384462933 ] ] ] } },
{ "type": "Feature", "properties": { "minAlt": 60, "maxAlt": 70 }, "geometry": { "type": "Polygon", "coordinates": [ [ [ -82.536143888888859, 27.970782777777767 ], [ -82.502573333333316, 27.906698333333331 ], [ -82.388747289283401, 27.904327755995894 ], [ -82.388332777777791, 27.967325 ], [ -82.536143888888859, 27.970782777777767 ] ] ] } }
]
}
