{
"type": "FeatureCollection",
"name": "TPA-S-S",
"crs": { "type": "name", "properties": { "name": "urn:ogc:def:crs:OGC:1.3:CRS84" } },
"features": [
{ "type": "Feature", "properties": { "minAlt": 0, "maxAlt": 40 }, "geometry": { "type": "Polygon", "coordinates": [ [ [ -83.107244666666659, 27.500384777777779 ], [ -82.733596027777764, 27.641308416666664 ], [ -82.697604750000011, 27.679781833333333 ], [ -82.657723583333308, 27.668906333333339 ], [ -82.638090638888897, 27.665056638888888 ], [ -82.625548361111086, 27.662383 ], [ -82.607829138888889, 27.659286833333326 ], [ -82.588774583333318, 27.656824861111119 ], [ -82.534398777777753, 27.654599444444443 ], [ -82.514626027777766, 27.655532916666665 ], [ -82.459613333333337, 27.66307333333333 ], [ -82.442081555555546, 27.667088611111105 ], [ -82.388360138888899, 27.684662555555562 ], [ -82.370676194444442, 27.69235625 ], [ -82.355955305555554, 27.699612638888894 ], [ -82.352026916666645, 27.70165075 ], [ -82.162375, 27.584363888888884 ], [ -82.108055555555538, 27.152552777777768 ], [ -82.108055353920335, 27.152551171626563 ], [ -82.10805583684126, 27.152550869582161 ], [ -82.122575, 27.143469444444445 ], [ -82.189143619636255, 27.083911346172187 ], [ -82.264633333333336, 27.016333333333332 ], [ -82.350833, 27.000278 ], [ -82.445833, 26.988333 ], [ -82.543333, 26.984444 ], [ -82.645556, 26.988889 ], [ -82.733333, 27.183333 ], [ -83.107244666666659, 27.500384777777779 ] ] ] } },
{ "type": "Feature", "properties": { "minAlt": 40, "maxAlt": 40 }, "geometry": { "type": "Polygon", "coordinates": [ [ [ -82.26463280555555, 27.016332055555555 ], [ -82.122575, 27.143469444444445 ], [ -82.108055353920321, 27.152551171626563 ], [ -82.101110722222217, 27.09722263888888 ], [ -82.088333, 27.071389 ], [ -82.161944, 27.044722 ], [ -82.253889, 27.018333 ], [ -82.26463280555555, 27.016332055555555 ] ] ] } },
{ "type": "Feature", "properties": { "minAlt": 30, "maxAlt": 40 }, "geometry": { "type": "Polygon", "coordinates": [ [ [ -82.655345, 27.725088 ], [ -82.6553455212469, 27.725075691420464 ], [ -82.657723583333308, 27.668906333333339 ], [ -82.697604750000011, 27.679781833333333 ], [ -82.655345, 27.725088 ] ] ] } },
{ "type": "Feature", "properties": { "minAlt": 30, "maxAlt": 30 }, "geometry": { "type": "Polygon", "coordinates": [ [ [ -82.6553455212469, 27.725075691420464 ], [ -82.649748444444441, 27.731003611111113 ], [ -82.641622357958866, 27.750814546233649 ], [ -82.626951446000859, 27.74773737320702 ], [ -82.611202161488492, 27.659876224885128 ], [ -82.657723583333308, 27.668906333333339 ], [ -82.6553455212469, 27.725075691420464 ] ] ] } },
{ "type": "Feature", "properties": { "minAlt": 26, "maxAlt": 30 }, "geometry": { "type": "Polygon", "coordinates": [ [ [ -82.611202161488492, 27.659876224885128 ], [ -82.607829138888889, 27.659286833333326 ], [ -82.588774583333318, 27.656824861111119 ], [ -82.534398777777767, 27.654599444444443 ], [ -82.514626027777766, 27.655532916666665 ], [ -82.459613333333337, 27.66307333333333 ], [ -82.442081555555546, 27.667088611111105 ], [ -82.410043205423037, 27.677569691089374 ], [ -82.388360138888899, 27.684662555555562 ], [ -82.379518166666671, 27.688509470544211 ], [ -82.370676194444442, 27.69235625 ], [ -82.365520415519526, 27.694925886424993 ], [ -82.352766165671625, 27.701282335255303 ], [ -82.35203515599396, 27.701665056857152 ], [ -82.389012972222233, 27.765854833333332 ], [ -82.39808861111112, 27.763698527777777 ], [ -82.449645972222214, 27.751861027777771 ], [ -82.468520777777755, 27.746491694444448 ], [ -82.513874361111107, 27.738627888888885 ], [ -82.533633055555555, 27.737298722222224 ], [ -82.575890583333305, 27.73859933333333 ], [ -82.595499611111094, 27.741140166666653 ], [ -82.626951446000859, 27.74773737320702 ], [ -82.611202161488492, 27.659876224885128 ] ] ] } }
]
}
