{
"type": "FeatureCollection",
"name": "TPA-W-N",
"crs": { "type": "name", "properties": { "name": "urn:ogc:def:crs:OGC:1.3:CRS84" } },
"features": [
{ "type": "Feature", "properties": { "minAlt": 90, "maxAlt": 120 }, "geometry": { "type": "Polygon", "coordinates": [ [ [ -82.868350555555537, 28.56302361111111 ], [ -82.859654722222203, 28.321674166666664 ], [ -82.851723055555553, 28.311311388888889 ], [ -82.786751944444433, 28.242737777777776 ], [ -82.798960833333311, 28.230012777777773 ], [ -82.811166944444423, 28.217286388888873 ], [ -82.84804, 28.178816944444442 ], [ -82.859985833333297, 28.166345833333331 ], [ -82.889504166666654, 28.128443888888889 ], [ -82.90018944444445, 28.114715555555556 ], [ -83.085317222222216, 28.305450555555556 ], [ -82.868350555555537, 28.56302361111111 ] ] ] } },
{ "type": "Feature", "properties": { "minAlt": 50, "maxAlt": 120 }, "geometry": { "type": "Polygon", "coordinates": [ [ [ -83.085317222222216, 28.305450555555556 ], [ -83.20833277777777, 28.158332777777776 ], [ -83.189142428242747, 27.959740819367887 ], [ -83.179992777777784, 27.864926388888897 ], [ -83.179992777777784, 27.864926388888897 ], [ -83.179942506826947, 27.864407666900977 ], [ -83.179922222222217, 27.864408333333333 ], [ -83.179922222222203, 27.864408333333333 ], [ -82.92933027777778, 27.862023888888885 ], [ -82.893945, 27.861796944444436 ], [ -82.769718888888875, 27.977760833333331 ], [ -82.90018944444445, 28.114715555555556 ], [ -83.085317222222216, 28.305450555555556 ] ] ] } },
{ "type": "Feature", "properties": { "minAlt": 70, "maxAlt": 100 }, "geometry": { "type": "Polygon", "coordinates": [ [ [ -82.90018944444445, 28.114715555555556 ], [ -82.889504166666654, 28.128443888888889 ], [ -82.859985833333297, 28.166345833333331 ], [ -82.84804, 28.178816944444435 ], [ -82.811166944444423, 28.217286388888873 ], [ -82.786751944444418, 28.242737777777776 ], [ -82.641675, 28.075453888888887 ], [ -82.645024195429627, 27.973499157933723 ], [ -82.769718888888875, 27.977760833333331 ], [ -82.90018944444445, 28.114715555555556 ] ] ] } },
{ "type": "Feature", "properties": { "minAlt": 50, "maxAlt": 80 }, "geometry": { "type": "Polygon", "coordinates": [ [ [ -82.641675, 28.075453888888887 ], [ -82.535567777777771, 27.987928888888892 ], [ -82.536143888888873, 27.970782777777767 ], [ -82.645024195429627, 27.973499157933723 ], [ -82.641675, 28.075453888888887 ] ] ] } },
{ "type": "Feature", "properties": { "minAlt": 70, "maxAlt": 100 }, "geometry": { "type": "Polygon", "coordinates": [ [ [ -82.535567777777771, 27.987928888888892 ], [ -82.641675, 28.075453888888887 ], [ -82.532865354664096, 28.071429845754 ], [ -82.535567777777771, 27.987928888888892 ] ] ] } },
{ "type": "Feature", "properties": { "minAlt": 60, "maxAlt": 80 }, "geometry": { "type": "Polygon", "coordinates": [ [ [ -82.645024195429627, 27.973499157933723 ], [ -82.655345, 27.725087777777777 ], [ -82.536143888888873, 27.970782777777767 ], [ -82.645024195429627, 27.973499157933723 ] ] ] } }
]
}
