{
"type": "FeatureCollection",
"name": "TPA-W-S",
"crs": { "type": "name", "properties": { "name": "urn:ogc:def:crs:OGC:1.3:CRS84" } },
"features": [
{ "type": "Feature", "properties": { "minAlt": 50, "maxAlt": 120 }, "geometry": { "type": "Polygon", "coordinates": [ [ [ -83.085317222222216, 28.305450555555556 ], [ -83.20833277777777, 28.158332777777776 ], [ -83.179922222222217, 27.864408333333333 ], [ -82.893945, 27.861796944444436 ], [ -82.769718888888875, 27.977760833333331 ], [ -82.859985833333312, 28.166345833333331 ], [ -83.003676388888891, 28.307494444444441 ], [ -83.085317222222216, 28.305450555555556 ] ] ] } },
{ "type": "Feature", "properties": { "minAlt": 70, "maxAlt": 120 }, "geometry": { "type": "Polygon", "coordinates": [ [ [ -83.085317222222216, 28.305450555555556 ], [ -83.003676388888891, 28.307494444444441 ], [ -82.859985833333297, 28.166345833333331 ], [ -82.786751944444433, 28.242737777777776 ], [ -82.851723055555553, 28.311311388888893 ], [ -82.859654722222203, 28.321674166666664 ], [ -82.868234722222212, 28.563160555555555 ], [ -83.085317222222216, 28.305450555555556 ] ] ] } },
{ "type": "Feature", "properties": { "minAlt": 50, "maxAlt": 90 }, "geometry": { "type": "Polygon", "coordinates": [ [ [ -82.851723055555553, 28.311311388888893 ], [ -82.635201388888888, 28.315983611111104 ], [ -82.644416878931409, 27.973575780828977 ], [ -82.769718888888875, 27.977760833333331 ], [ -82.859985833333297, 28.166345833333331 ], [ -82.786751944444418, 28.242737777777776 ], [ -82.851723055555553, 28.311311388888893 ] ] ] } },
{ "type": "Feature", "properties": { "minAlt": 50, "maxAlt": 80 }, "geometry": { "type": "Polygon", "coordinates": [ [ [ -82.641675, 28.075452777777777 ], [ -82.535475277777763, 27.990679166666659 ], [ -82.536084166666654, 27.970831111111103 ], [ -82.644416878931409, 27.973575780828977 ], [ -82.641675, 28.075452777777777 ] ] ] } },
{ "type": "Feature", "properties": { "minAlt": 60, "maxAlt": 80 }, "geometry": { "type": "Polygon", "coordinates": [ [ [ -82.535475277777749, 27.990679166666659 ], [ -82.641675, 28.075453888888887 ], [ -82.635201388888873, 28.315983611111101 ], [ -82.524419444444433, 28.318545 ], [ -82.535475277777749, 27.990679166666659 ] ] ] } }
]
}
