{
"type": "FeatureCollection",
"name": "EVG-68",
"crs": { "type": "name", "properties": { "name": "urn:ogc:def:crs:OGC:1.3:CRS84" } },
"features": [
{ "type": "Feature", "properties": { "minAlt": 360, "maxAlt": 999 }, "geometry": { "type": "Polygon", "coordinates": [ [ [ -81.594722222199891, 28.556111111099995 ], [ -81.734166666699991, 28.864166666699987 ], [ -81.786111111099956, 28.58972222220001 ], [ -81.862222222199989, 28.185000000000116 ], [ -81.911944444399978, 28.1625 ], [ -82.206944444399937, 28.03 ], [ -82.009166666699912, 27.531111111100074 ], [ -81.791666666699882, 26.983333333299925 ], [ -81.579166666700019, 26.804166666699984 ], [ -81.408333333299993, 26.65 ], [ -81.0875, 26.370833 ], [ -81.020208, 26.305478 ], [ -80.890278, 26.180556 ], [ -80.823889, 26.116667 ], [ -80.433442, 26.077869 ], [ -80.564444, 26.3425 ], [ -80.665803, 26.544331 ], [ -80.6831, 26.590631 ], [ -80.795575, 26.883928 ], [ -80.834517, 26.963664 ], [ -81.5, 28.34638888889998 ], [ -81.594722222199891, 28.556111111099995 ] ] ] } },
{ "type": "Feature", "properties": { "minAlt": 360, "maxAlt": 999 }, "geometry": { "type": "Polygon", "coordinates": [ [ [ -81.5, 28.345833 ], [ -80.834517, 26.963664 ], [ -80.795575, 26.883928 ], [ -80.6831, 26.590631 ], [ -80.665803, 26.544331 ], [ -80.564444, 26.3425 ], [ -80.433442, 26.077869 ], [ -80.054167, 26.216667 ], [ -80.15, 26.383333 ], [ -80.161425, 26.452064 ], [ -80.181978, 26.569092 ], [ -80.194122, 26.61565 ], [ -80.204389, 26.655 ], [ -80.213, 26.688133 ], [ -80.233414, 26.740928 ], [ -80.321783, 26.963928 ], [ -80.38875, 27.132903 ], [ -80.508333, 27.416667 ], [ -80.763611, 28.118889 ], [ -80.986111, 28.727778 ], [ -81.5, 28.346389 ] ] ] } }
]
}
