{
"type": "FeatureCollection",
"name": "EVG-47",
"crs": { "type": "name", "properties": { "name": "urn:ogc:def:crs:OGC:1.3:CRS84" } },
"features": [
{ "type": "Feature", "properties": { "minAlt": 170, "maxAlt": 230 }, "geometry": { "type": "Polygon", "coordinates": [ [ [ -80.433442, 26.077869 ], [ -80.564389, 26.342594 ], [ -80.6125, 26.383333 ], [ -80.671944, 26.383333 ], [ -80.890278, 26.180556 ], [ -80.823888888899944, 26.116666666700098 ], [ -80.823888888899944, 26.075 ], [ -80.8239, 25.963022 ], [ -80.410544, 26.007494 ], [ -80.382406, 25.913689 ], [ -80.271428, 25.925764 ], [ -80.196303, 26.032294 ], [ -80.433442, 26.077869 ] ] ] } },
{ "type": "Feature", "properties": { "minAlt": 0, "maxAlt": 70 }, "geometry": { "type": "Polygon", "coordinates": [ [ [ -80.890278, 26.180556 ], [ -80.671944, 26.383333 ], [ -80.6125, 26.383333 ], [ -80.6557, 26.513783 ], [ -80.806142, 26.373033 ], [ -80.897869, 26.286817 ], [ -80.890278, 26.180556 ] ] ] } },
{ "type": "Feature", "properties": { "minAlt": 0, "maxAlt": 230 }, "geometry": { "type": "Polygon", "coordinates": [ [ [ -80.6557, 26.513783 ], [ -80.806142, 26.373033 ], [ -80.897869, 26.286817 ], [ -80.890278, 26.180556 ], [ -81.020208, 26.305478 ], [ -81.0875, 26.370833 ], [ -81.316667, 26.9 ], [ -81.366944, 26.923611 ], [ -81.283333, 27.066667 ], [ -81.083056, 27.250278 ], [ -81.099722, 27.279444 ], [ -81.0, 27.35 ], [ -80.834517, 26.963664 ], [ -80.795575, 26.883928 ], [ -80.6831, 26.590631 ], [ -80.665803, 26.544331 ], [ -80.6557, 26.513783 ] ] ] } },
{ "type": "Feature", "properties": { "minAlt": 110, "maxAlt": 230 }, "geometry": { "type": "Polygon", "coordinates": [ [ [ -81.425, 26.946667 ], [ -81.515167, 26.862803 ], [ -81.523742, 26.754331 ], [ -81.408333, 26.65 ], [ -81.0875, 26.370833 ], [ -81.316667, 26.9 ], [ -81.366944, 26.923611 ], [ -81.283333, 27.066667 ], [ -81.425, 26.946667 ] ] ] } },
{ "type": "Feature", "properties": { "minAlt": 110, "maxAlt": 170 }, "geometry": { "type": "Polygon", "coordinates": [ [ [ -81.523742, 26.754331 ], [ -81.542056, 26.65785 ], [ -81.513842, 26.622053 ], [ -81.408333, 26.65 ], [ -81.523742, 26.754331 ] ] ] } }
]
}
