{
"type": "FeatureCollection",
"name": "tpa805sgp",
"features": [
{ "type": "Feature", "properties": { "style": "solid", "thickness": 1 }, "geometry": { "type": "LineString", "coordinates": [ [ -82.521223194444445, 27.986027333333336 ], [ -82.521223194444445, 27.987861555555558 ] ] } },
{ "type": "Feature", "properties": { "style": "solid", "thickness": 1 }, "geometry": { "type": "LineString", "coordinates": [ [ -82.520706611111109, 27.985843888888891 ], [ -82.520706638888882, 27.988045 ] ] } },
{ "type": "Feature", "properties": { "style": "solid", "thickness": 1 }, "geometry": { "type": "LineString", "coordinates": [ [ -82.52019005555556, 27.985843888888891 ], [ -82.52019005555556, 27.988045 ] ] } },
{ "type": "Feature", "properties": { "style": "solid", "thickness": 1 }, "geometry": { "type": "LineString", "coordinates": [ [ -82.519673472222223, 27.986027305555556 ], [ -82.519673472222223, 27.987861555555558 ] ] } },
{ "type": "Feature", "properties": { "style": "solid", "thickness": 1 }, "geometry": { "type": "LineString", "coordinates": [ [ -82.519156888888887, 27.986944444444447 ], [ -82.519164916666668, 27.987074472222222 ], [ -82.51919075, 27.98721038888889 ], [ -82.519236861111111, 27.987349666666667 ], [ -82.519305138888882, 27.987488916666667 ], [ -82.519396611111105, 27.987624222222223 ], [ -82.519511083333327, 27.987751194444446 ], [ -82.519646944444446, 27.987865333333335 ], [ -82.519801222222227, 27.987962638888892 ], [ -82.519969666666668, 27.988039833333335 ], [ -82.520147166666661, 27.988094833333335 ], [ -82.52032825, 27.988126916666669 ], [ -82.520507638888887, 27.988136694444446 ], [ -82.520680666666664, 27.988125861111111 ], [ -82.520843583333331, 27.98809702777778 ], [ -82.52099375, 27.988053222222224 ], [ -82.521129583333334, 27.987997583333335 ], [ -82.521253638888894, 27.987931305555556 ], [ -82.52137477777778, 27.98784913888889 ], [ -82.52149030555556, 27.987749833333336 ], [ -82.521596222222215, 27.987633305555555 ], [ -82.521688111111104, 27.987500416666666 ], [ -82.521761722222223, 27.987353111111112 ], [ -82.521813222222221, 27.9871945 ], [ -82.52183975, 27.987028611111111 ], [ -82.521839722222225, 27.98686025 ], [ -82.521813222222221, 27.986694388888889 ], [ -82.521761722222223, 27.986535777777778 ], [ -82.521688111111104, 27.986388472222224 ], [ -82.521596194444442, 27.986255555555555 ], [ -82.52149030555556, 27.986139027777778 ], [ -82.52137475, 27.98603975 ], [ -82.521253611111106, 27.985957555555558 ], [ -82.521129583333334, 27.985891305555558 ], [ -82.52099375, 27.985835666666667 ], [ -82.520843583333331, 27.985791861111114 ], [ -82.520680666666664, 27.985763027777779 ], [ -82.520507638888887, 27.985752194444444 ], [ -82.52032825, 27.985761972222225 ], [ -82.520147166666661, 27.985794055555555 ], [ -82.519969666666668, 27.985849055555555 ], [ -82.519801222222227, 27.98592625 ], [ -82.519646944444446, 27.986023527777778 ], [ -82.519511083333327, 27.986137694444444 ], [ -82.519396611111105, 27.98626463888889 ], [ -82.519305138888882, 27.986399944444447 ], [ -82.519236861111111, 27.986539222222223 ], [ -82.51919075, 27.986678472222223 ], [ -82.519164916666668, 27.986814388888888 ], [ -82.519156888888887, 27.986944444444447 ] ] } },
{ "type": "Feature", "properties": { "style": "solid", "thickness": 1 }, "geometry": { "type": "LineString", "coordinates": [ [ -82.728451583333339, 27.628082444444445 ], [ -82.71183527777778, 27.626818777777778 ], [ -82.695169416666673, 27.626285138888889 ], [ -82.678494277777787, 27.626482833333334 ], [ -82.661850222222228, 27.627411388888888 ], [ -82.645277444444446, 27.629068527777779 ], [ -82.628816027777773, 27.631450277777777 ], [ -82.612505805555543, 27.634550833333332 ], [ -82.596386222222222, 27.63836275 ], [ -82.580496305555556, 27.642876805555556 ], [ -82.564874527777775, 27.648082027777779 ], [ -82.555590638888887, 27.651553305555556 ] ] } },
{ "type": "Feature", "properties": { "style": "solid", "thickness": 1 }, "geometry": { "type": "LineString", "coordinates": [ [ -82.788986277777781, 27.784271305555556 ], [ -82.778139, 27.778842416666667 ], [ -82.766912416666671, 27.77406325 ], [ -82.755355638888886, 27.769954638888887 ], [ -82.743519166666673, 27.766534583333332 ], [ -82.731454777777785, 27.763818 ], [ -82.719215138888885, 27.761816777777778 ], [ -82.70685375, 27.76053961111111 ], [ -82.694424611111117, 27.75999213888889 ], [ -82.681981972222232, 27.760176722222223 ], [ -82.66958019444445, 27.761092555555557 ], [ -82.657273472222229, 27.762735638888888 ], [ -82.64511552777779, 27.765098805555557 ], [ -82.633159472222218, 27.76817172222222 ], [ -82.621457611111111, 27.771940972222222 ], [ -82.610061027777775, 27.776390083333332 ], [ -82.59901958333333, 27.781499638888889 ], [ -82.588381611111103, 27.78724725 ], [ -82.578193638888891, 27.793607833333336 ], [ -82.568500277777773, 27.800553611111113 ], [ -82.559344, 27.808054166666668 ], [ -82.550765, 27.816076694444444 ], [ -82.550142361111114, 27.816702055555556 ] ] } },
{ "type": "Feature", "properties": { "style": "solid", "thickness": 1 }, "geometry": { "type": "LineString", "coordinates": [ [ -82.778774472222224, 27.769761583333331 ], [ -82.770458027777778, 27.78474825 ] ] } },
{ "type": "Feature", "properties": { "style": "solid", "thickness": 1 }, "geometry": { "type": "LineString", "coordinates": [ [ -82.55502225, 27.800143083333335 ], [ -82.567991305555552, 27.81223963888889 ] ] } },
{ "type": "Feature", "properties": { "style": "solid", "thickness": 1 }, "geometry": { "type": "LineString", "coordinates": [ [ -82.638881777777783, 27.621450111111113 ], [ -82.641709833333337, 27.637972333333334 ] ] } },
{ "type": "Feature", "properties": { "style": "solid", "thickness": 1 }, "geometry": { "type": "LineString", "coordinates": [ [ -82.661530083333332, 27.753625333333332 ], [ -82.664365, 27.770146777777775 ] ] } },
{ "type": "Feature", "properties": { "style": "solid", "thickness": 1 }, "geometry": { "type": "LineString", "coordinates": [ [ -82.5571955, 27.822225138888889 ], [ -82.543089916666659, 27.811178583333334 ] ] } },
{ "type": "Feature", "properties": { "style": "solid", "thickness": 1 }, "geometry": { "type": "LineString", "coordinates": [ [ -82.784109916666665, 27.791414194444446 ], [ -82.793862, 27.77712825 ] ] } },
{ "type": "Feature", "properties": { "style": "solid", "thickness": 1 }, "geometry": { "type": "LineString", "coordinates": [ [ -82.586079055555544, 27.650008555555555 ], [ -82.580080222222222, 27.63417225 ] ] } },
{ "type": "Feature", "properties": { "style": "solid", "thickness": 1 }, "geometry": { "type": "LineString", "coordinates": [ [ -82.55935225, 27.659209194444443 ], [ -82.55182958333333, 27.643897305555555 ] ] } },
{ "type": "Feature", "properties": { "style": "solid", "thickness": 1 }, "geometry": { "type": "LineString", "coordinates": [ [ -82.727423361111107, 27.636388666666665 ], [ -82.72947963888889, 27.619776222222221 ] ] } },
{ "type": "Feature", "properties": { "style": "solid", "thickness": 1 }, "geometry": { "type": "LineString", "coordinates": [ [ -82.698836722222225, 27.634698444444442 ], [ -82.699264027777787, 27.617989666666666 ] ] } },
{ "type": "Feature", "properties": { "style": "solid", "thickness": 1 }, "geometry": { "type": "LineString", "coordinates": [ [ -82.705803222222229, 27.92512852777778 ], [ -82.70138925, 27.927494138888889 ], [ -82.696607, 27.929204361111111 ], [ -82.691578805555565, 27.93021541666667 ], [ -82.686433444444447, 27.930501444444445 ], [ -82.681302527777788, 27.930055111111113 ], [ -82.676874583333344, 27.929056611111111 ] ] } },
{ "type": "Feature", "properties": { "style": "solid", "thickness": 1 }, "geometry": { "type": "LineString", "coordinates": [ [ -82.705803222222229, 27.92512852777778 ], [ -82.700793277777777, 27.924044027777779 ], [ -82.695652833333341, 27.923682388888889 ], [ -82.690513194444449, 27.924052805555558 ], [ -82.685505611111111, 27.925145888888888 ], [ -82.680758027777784, 27.92693363888889 ], [ -82.676874583333344, 27.929056611111111 ] ] } },
{ "type": "Feature", "properties": { "style": "solid", "thickness": 1 }, "geometry": { "type": "LineString", "coordinates": [ [ -82.64430188888889, 27.606738194444446 ], [ -82.640382638888894, 27.60692391666667 ], [ -82.638240472222222, 27.605093638888889 ], [ -82.637927055555565, 27.604384083333336 ], [ -82.637620861111117, 27.603794916666669 ], [ -82.637534638888894, 27.602350194444448 ], [ -82.638010555555567, 27.601241027777778 ], [ -82.638756722222226, 27.600119083333336 ], [ -82.63953880555556, 27.599599111111111 ], [ -82.640057805555557, 27.599212305555554 ], [ -82.641117333333341, 27.598799916666664 ], [ -82.643549805555566, 27.598684611111111 ], [ -82.644652472222234, 27.598994555555553 ], [ -82.64549925, 27.599558083333331 ], [ -82.646225277777788, 27.600368777777778 ], [ -82.646688250000011, 27.601312722222225 ], [ -82.646873750000012, 27.602149055555557 ], [ -82.646945694444454, 27.603353 ], [ -82.646846527777782, 27.603961361111111 ], [ -82.64648425, 27.604702944444448 ], [ -82.64596525, 27.605089777777778 ], [ -82.64430188888889, 27.606738194444446 ], [ -82.64557575, 27.607643666666668 ], [ -82.646309027777789, 27.608574777777779 ], [ -82.646615305555557, 27.609163916666667 ], [ -82.646730416666671, 27.611090222222224 ], [ -82.646140972222227, 27.612566972222222 ], [ -82.645757111111124, 27.612947388888891 ], [ -82.64456947222223, 27.61348663888889 ], [ -82.6437801388889, 27.61388625 ], [ -82.642023111111115, 27.61396952777778 ], [ -82.640785138888901, 27.613665972222222 ], [ -82.638949083333344, 27.612424861111112 ], [ -82.638642833333336, 27.611835694444444 ], [ -82.6385135, 27.609668611111111 ], [ -82.638847083333346, 27.608445472222222 ], [ -82.638975055555562, 27.608318666666669 ], [ -82.639622055555563, 27.607805083333336 ], [ -82.640382638888894, 27.60692391666667 ] ] } },
{ "type": "Feature", "properties": { "style": "solid", "thickness": 1 }, "geometry": { "type": "LineString", "coordinates": [ [ -82.6214435, 27.6143395 ], [ -82.622283111111102, 27.61478275 ], [ -82.623243527777774, 27.614978861111112 ], [ -82.62648733333333, 27.614825555555559 ], [ -82.627689388888882, 27.61452725 ], [ -82.628087694444432, 27.614387694444446 ], [ -82.630050444444436, 27.61320825 ], [ -82.631195055555551, 27.611946777777778 ], [ -82.631528749999987, 27.610723638888889 ], [ -82.632345583333333, 27.608511805555558 ], [ -82.632180472222217, 27.605742722222224 ], [ -82.631831222222218, 27.604431166666668 ], [ -82.631361194444438, 27.603366805555556 ], [ -82.630748861111101, 27.602188444444447 ], [ -82.62931852777777, 27.60092802777778 ], [ -82.626679138888889, 27.5998455 ], [ -82.624900805555555, 27.599567388888886 ], [ -82.623414305555542, 27.599637638888886 ], [ -82.621543861111107, 27.600088222222222 ], [ -82.620889638888883, 27.600481333333335 ], [ -82.620363416666663, 27.60074763888889 ] ] } },
{ "type": "Feature", "properties": { "style": "solid", "thickness": 1 }, "geometry": { "type": "LineString", "coordinates": [ [ -82.78034225, 27.748761972222223 ], [ -82.780562777777774, 27.752373472222221 ], [ -82.781093694444436, 27.754400361111109 ], [ -82.78142316666667, 27.755350361111113 ], [ -82.78187325, 27.756053027777778 ], [ -82.783585361111108, 27.757419138888888 ], [ -82.785246, 27.757942527777779 ], [ -82.785787305555559, 27.757916333333334 ], [ -82.787374388888892, 27.757235888888889 ], [ -82.788774611111108, 27.755719277777779 ], [ -82.78927175, 27.754970777777778 ], [ -82.7894835, 27.753994611111111 ], [ -82.789764305555551, 27.751928472222222 ], [ -82.789543472222221, 27.748316972222224 ], [ -82.789012416666665, 27.746290111111112 ], [ -82.788682916666659, 27.745340138888889 ], [ -82.788097527777779, 27.744644027777777 ], [ -82.786520861111114, 27.743271444444446 ], [ -82.78486041666666, 27.742748055555555 ], [ -82.784319194444436, 27.742774222222224 ], [ -82.782732305555555, 27.743454666666668 ], [ -82.781196861111113, 27.74497775 ], [ -82.780835027777783, 27.745719666666666 ], [ -82.780623222222218, 27.746695833333334 ], [ -82.78034225, 27.748761972222223 ] ] } },
{ "type": "Feature", "properties": { "style": "solid", "thickness": 1 }, "geometry": { "type": "LineString", "coordinates": [ [ -82.790066638888888, 27.809327055555556 ], [ -82.790287611111111, 27.8129385 ], [ -82.790819027777772, 27.814965333333333 ], [ -82.79114875, 27.815915305555556 ], [ -82.791599138888884, 27.816617916666669 ], [ -82.793312333333333, 27.81798388888889 ], [ -82.794973972222223, 27.818507166666667 ], [ -82.795515555555554, 27.818480944444445 ], [ -82.797103472222219, 27.817800361111111 ], [ -82.798504305555554, 27.816283666666667 ], [ -82.799001638888882, 27.81553513888889 ], [ -82.79921341666666, 27.814558972222223 ], [ -82.799494194444449, 27.812492833333334 ], [ -82.799272916666666, 27.808881388888889 ], [ -82.798741388888885, 27.806854583333333 ], [ -82.798411611111106, 27.80590463888889 ], [ -82.797825861111107, 27.805208583333336 ], [ -82.796248194444445, 27.80383611111111 ], [ -82.794586777777781, 27.803312861111113 ], [ -82.79404525, 27.803339083333334 ], [ -82.792457555555558, 27.804019611111112 ], [ -82.79092138888889, 27.805542805555557 ], [ -82.790559416666667, 27.80628475 ], [ -82.790347583333329, 27.807260916666667 ], [ -82.790066638888888, 27.809327055555556 ] ] } },
{ "type": "Feature", "properties": { "style": "solid", "thickness": 1 }, "geometry": { "type": "LineString", "coordinates": [ [ -82.676433416666669, 27.957473138888886 ], [ -82.6772758888889, 27.957916027777777 ], [ -82.678239444444444, 27.95811172222222 ], [ -82.681493333333336, 27.957957138888887 ], [ -82.682699, 27.957658361111111 ], [ -82.6830985, 27.957518638888889 ], [ -82.685066805555564, 27.9563385 ], [ -82.686214361111112, 27.955076638888887 ], [ -82.686548472222228, 27.953853444444444 ], [ -82.68736675000001, 27.951641388888888 ], [ -82.687199722222232, 27.948872527777777 ], [ -82.68684869444445, 27.947561194444443 ], [ -82.686376666666675, 27.946497083333334 ], [ -82.685761805555558, 27.945319027777778 ], [ -82.684326333333331, 27.94405925 ], [ -82.681678138888898, 27.94297786111111 ], [ -82.679894083333338, 27.942700472222221 ], [ -82.678402944444443, 27.942771305555556 ], [ -82.676526861111114, 27.943222611111111 ], [ -82.675870805555562, 27.943615972222222 ], [ -82.675343055555558, 27.943882472222221 ] ] } },
{ "type": "Feature", "properties": { "style": "solid", "thickness": 1 }, "geometry": { "type": "LineString", "coordinates": [ [ -82.67064702777779, 27.958472166666667 ], [ -82.665118055555567, 27.943401805555556 ], [ -82.660342944444452, 27.958960666666666 ], [ -82.65467980555556, 27.943896305555555 ], [ -82.650581111111123, 27.95942275 ] ] } },
{ "type": "Feature", "properties": { "style": "solid", "thickness": 1 }, "geometry": { "type": "LineString", "coordinates": [ [ -82.661242361111121, 27.736085805555557 ], [ -82.661458916666675, 27.7396975 ], [ -82.661987583333342, 27.741724861111113 ], [ -82.662315972222231, 27.742675138888888 ], [ -82.66276525, 27.743378194444446 ], [ -82.664475694444448, 27.74474577777778 ], [ -82.666135583333343, 27.745270611111113 ], [ -82.666676861111114, 27.745244888888891 ], [ -82.6682645, 27.74456577777778 ], [ -82.669666194444446, 27.743050361111113 ], [ -82.670164083333333, 27.742302305555558 ], [ -82.670376861111123, 27.741326333333333 ], [ -82.670659888888892, 27.739260388888891 ], [ -82.670443027777779, 27.735648694444446 ], [ -82.669914222222232, 27.733621361111112 ], [ -82.669585805555556, 27.732671111111109 ], [ -82.669001222222221, 27.7319745 ], [ -82.66742625, 27.730600555555554 ], [ -82.665766555555564, 27.73007575 ], [ -82.665225361111112, 27.730101444444443 ], [ -82.663637916666673, 27.730780527777775 ], [ -82.662100972222234, 27.732302305555553 ], [ -82.661738388888892, 27.733043916666666 ], [ -82.661525527777783, 27.734019888888891 ], [ -82.661242361111121, 27.736085805555557 ] ] } },
{ "type": "Feature", "properties": { "style": "solid", "thickness": 1 }, "geometry": { "type": "LineString", "coordinates": [ [ -82.644854833333341, 27.745676222222222 ], [ -82.645695555555562, 27.746119333333333 ], [ -82.646657194444458, 27.746315277777779 ], [ -82.649904805555565, 27.746161416666666 ], [ -82.65110825, 27.745862916666667 ], [ -82.651507, 27.745723277777778 ], [ -82.653471861111115, 27.744543555555556 ], [ -82.654617555555561, 27.743281888888891 ], [ -82.65495138888889, 27.74205875 ], [ -82.655768722222234, 27.739846777777778 ], [ -82.655602833333333, 27.737077805555558 ], [ -82.655252888888896, 27.735766333333334 ], [ -82.654782055555557, 27.734702083333335 ], [ -82.654168722222224, 27.733523833333333 ], [ -82.65273641666667, 27.732263694444441 ], [ -82.65009363888889, 27.731181638888888 ], [ -82.648313138888895, 27.730903805555553 ], [ -82.646824833333341, 27.730974333333332 ], [ -82.64495225, 27.731425222222221 ], [ -82.644297361111114, 27.731818416666666 ], [ -82.643770555555562, 27.732084833333332 ] ] } },
{ "type": "Feature", "properties": { "style": "solid", "thickness": 1 }, "geometry": { "type": "LineString", "coordinates": [ [ -82.742664861111109, 27.651693972222219 ], [ -82.738744166666663, 27.6518825 ], [ -82.7365995, 27.65005375 ], [ -82.736285333333328, 27.649344416666665 ], [ -82.735978472222229, 27.648755472222224 ], [ -82.735890944444449, 27.647310805555556 ], [ -82.73636605555555, 27.646201333333334 ], [ -82.737111527777785, 27.645078861111109 ], [ -82.737893444444452, 27.644558333333332 ], [ -82.738412305555556, 27.644171166666666 ], [ -82.739471916666673, 27.643758027777778 ], [ -82.74190525, 27.643641 ], [ -82.743008638888895, 27.643950166666666 ], [ -82.74385627777778, 27.644513083333333 ], [ -82.744583333333338, 27.645323277777777 ], [ -82.745047333333332, 27.646266861111112 ], [ -82.745233666666664, 27.647103055555554 ], [ -82.745306694444452, 27.648306944444442 ], [ -82.745208027777778, 27.648915361111111 ], [ -82.744846305555555, 27.649657222222221 ], [ -82.744327444444451, 27.650044388888887 ], [ -82.742664861111109, 27.651693972222219 ], [ -82.743940027777782, 27.652598555555553 ], [ -82.744674472222229, 27.653529111111109 ], [ -82.744981388888888, 27.654118055555553 ], [ -82.74509825, 27.65604425 ], [ -82.744509916666672, 27.657521416666665 ], [ -82.744126222222221, 27.657902083333333 ], [ -82.742938611111114, 27.658442166666664 ], [ -82.742149277777784, 27.658842333333332 ], [ -82.740391638888894, 27.658926861111109 ], [ -82.739152888888896, 27.658624194444442 ], [ -82.737314972222222, 27.657384416666666 ], [ -82.737008083333336, 27.656795472222221 ], [ -82.73687675, 27.6546285 ], [ -82.737209388888886, 27.653405111111109 ], [ -82.737337277777783, 27.65327825 ], [ -82.73798408333333, 27.652764194444444 ], [ -82.738744166666663, 27.6518825 ] ] } },
{ "type": "Feature", "properties": { "style": "solid", "thickness": 1 }, "geometry": { "type": "LineString", "coordinates": [ [ -82.706949333333341, 27.600453666666667 ], [ -82.703030416666664, 27.600641166666669 ], [ -82.700887333333341, 27.598811861111109 ], [ -82.700573555555565, 27.598102444444443 ], [ -82.700267027777784, 27.597513416666665 ], [ -82.70018, 27.596068722222221 ], [ -82.70065525, 27.594959361111108 ], [ -82.70140075, 27.593837083333334 ], [ -82.702182472222219, 27.59331675 ], [ -82.702701222222231, 27.59292972222222 ], [ -82.703760472222228, 27.592516833333331 ], [ -82.706192722222227, 27.592400444444444 ], [ -82.7072955, 27.592709888888887 ], [ -82.708142555555554, 27.593273027777776 ], [ -82.708869, 27.594083416666667 ], [ -82.709332472222229, 27.595027111111111 ], [ -82.709518444444441, 27.595863388888887 ], [ -82.709591055555563, 27.597067277777775 ], [ -82.70949225, 27.597675694444444 ], [ -82.709130416666667, 27.598417444444443 ], [ -82.708611694444443, 27.5988045 ], [ -82.706949333333341, 27.600453666666667 ], [ -82.708223638888896, 27.601358583333333 ], [ -82.708957416666664, 27.602289361111112 ], [ -82.709264, 27.602878361111113 ], [ -82.709380194444449, 27.604804611111113 ], [ -82.708791638888897, 27.606281638888891 ], [ -82.708408, 27.606662222222223 ], [ -82.70722075, 27.607202 ], [ -82.706431694444447, 27.607601972222223 ], [ -82.704674805555555, 27.607686027777778 ], [ -82.70343675, 27.607383027777779 ], [ -82.701600083333332, 27.60614277777778 ], [ -82.701293527777779, 27.60555375 ], [ -82.701162972222221, 27.603386722222222 ], [ -82.70149583333334, 27.602163416666667 ], [ -82.701623722222223, 27.602036555555557 ], [ -82.702270388888891, 27.601522694444444 ], [ -82.703030416666664, 27.600641166666669 ] ] } },
{ "type": "Feature", "properties": { "style": "solid", "thickness": 1 }, "geometry": { "type": "LineString", "coordinates": [ [ -82.580399194444439, 27.618874444444444 ], [ -82.576479388888885, 27.619058388888888 ], [ -82.574338055555558, 27.617227111111113 ], [ -82.574025055555552, 27.616517416666667 ], [ -82.57371913888889, 27.615928111111113 ], [ -82.573633777777772, 27.614483333333336 ], [ -82.57411036111111, 27.613374416666669 ], [ -82.574857277777781, 27.612252805555556 ], [ -82.57563975, 27.611733194444447 ], [ -82.576159027777777, 27.61134663888889 ], [ -82.577218916666666, 27.610934722222222 ], [ -82.579651694444436, 27.610820555555556 ], [ -82.580754305555558, 27.611131 ], [ -82.581600861111113, 27.611694916666668 ], [ -82.5823265, 27.612505944444447 ], [ -82.582788972222218, 27.613450083333333 ], [ -82.58297402777778, 27.614286527777779 ], [ -82.583045277777771, 27.615490472222223 ], [ -82.58294572222222, 27.616098805555556 ], [ -82.582583, 27.616840222222223 ], [ -82.582063722222216, 27.617226805555557 ], [ -82.580399194444439, 27.618874444444444 ], [ -82.581672666666663, 27.619780527777777 ], [ -82.5824055, 27.620711972222221 ], [ -82.582711444444442, 27.62130125 ], [ -82.582825472222225, 27.623227583333335 ], [ -82.582235111111103, 27.624704083333334 ], [ -82.581850972222213, 27.625084305555557 ], [ -82.580662916666668, 27.625623 ], [ -82.579873222222218, 27.62602225 ], [ -82.578115972222221, 27.626104722222223 ], [ -82.576878055555554, 27.62580061111111 ], [ -82.5750425, 27.624558666666665 ], [ -82.574736583333333, 27.623969361111111 ], [ -82.574608472222224, 27.621802194444445 ], [ -82.574942805555551, 27.620579222222222 ], [ -82.575070861111101, 27.620452472222222 ], [ -82.575718222222221, 27.619939194444445 ], [ -82.576479388888885, 27.619058388888888 ] ] } },
{ "type": "Feature", "properties": { "style": "solid", "thickness": 1 }, "geometry": { "type": "LineString", "coordinates": [ [ -82.567893138888891, 27.611371944444446 ], [ -82.568796027777779, 27.626662416666669 ], [ -82.562848305555548, 27.626940944444446 ], [ -82.561212, 27.626776055555556 ], [ -82.560514805555556, 27.6264465 ], [ -82.559383722222222, 27.625654305555557 ], [ -82.557683527777769, 27.624405805555558 ], [ -82.556509888888883, 27.622891194444446 ], [ -82.556168583333331, 27.621699861111111 ], [ -82.555934416666659, 27.617726722222223 ], [ -82.556140888888891, 27.6166305 ], [ -82.556866722222225, 27.615147805555559 ], [ -82.55776316666666, 27.61426077777778 ], [ -82.558645388888891, 27.613132916666668 ], [ -82.559947305555553, 27.612226916666668 ], [ -82.561547888888882, 27.611789805555556 ], [ -82.562486888888884, 27.61162513888889 ], [ -82.567893138888891, 27.611371944444446 ] ] } },
{ "type": "Feature", "properties": { "style": "solid", "thickness": 1 }, "geometry": { "type": "LineString", "coordinates": [ [ -82.57138175, 27.674705888888891 ], [ -82.567459944444437, 27.674889555555556 ], [ -82.565317666666658, 27.673058166666667 ], [ -82.565004555555547, 27.672348444444445 ], [ -82.564698555555552, 27.671759138888891 ], [ -82.56461325, 27.670314361111114 ], [ -82.565090166666664, 27.669205472222224 ], [ -82.565837555555547, 27.668083944444447 ], [ -82.566620472222226, 27.667564361111111 ], [ -82.567140027777768, 27.667177861111114 ], [ -82.5682005, 27.666766 ], [ -82.57063452777777, 27.666652 ], [ -82.571737694444437, 27.6669625 ], [ -82.572584611111111, 27.667526472222224 ], [ -82.573310555555551, 27.668337555555556 ], [ -82.573773194444442, 27.669281722222223 ], [ -82.57395825, 27.670118138888888 ], [ -82.574029444444434, 27.671322111111113 ], [ -82.573929805555551, 27.671930444444445 ], [ -82.573566833333331, 27.672671833333336 ], [ -82.57304725, 27.673058361111114 ], [ -82.57138175, 27.674705888888891 ], [ -82.572655805555556, 27.675612027777778 ], [ -82.573388916666659, 27.6765435 ], [ -82.573695, 27.677132805555555 ], [ -82.573808888888891, 27.679059138888888 ], [ -82.573218111111103, 27.680535583333334 ], [ -82.57283375, 27.680915805555557 ], [ -82.57164505555555, 27.681454416666668 ], [ -82.570854944444434, 27.681853611111112 ], [ -82.569096777777773, 27.681935944444447 ], [ -82.56785825, 27.68163175 ], [ -82.566021861111111, 27.680389694444447 ], [ -82.565715833333329, 27.679800388888889 ], [ -82.565587861111112, 27.67763325 ], [ -82.565922444444439, 27.67641027777778 ], [ -82.566050583333336, 27.676283555555557 ], [ -82.566698333333335, 27.675770333333336 ], [ -82.567459944444437, 27.674889555555556 ] ] } },
{ "type": "Feature", "properties": { "style": "solid", "thickness": 1 }, "geometry": { "type": "LineString", "coordinates": [ [ -82.55180955555555, 27.778745666666666 ], [ -82.552022611111113, 27.782357527777776 ], [ -82.552549444444438, 27.784385305555556 ], [ -82.552877027777768, 27.785335833333335 ], [ -82.55332575, 27.78603925 ], [ -82.5550355, 27.787408166666669 ], [ -82.556695527777777, 27.787934277777779 ], [ -82.557237027777774, 27.787909 ], [ -82.558825972222223, 27.787231166666668 ], [ -82.56022975, 27.785716861111112 ], [ -82.560728555555556, 27.784969194444447 ], [ -82.56094238888889, 27.783993388888891 ], [ -82.561227611111107, 27.781927694444445 ], [ -82.56101425, 27.778315861111111 ], [ -82.56048725, 27.776288111111111 ], [ -82.560159666666664, 27.775337611111109 ], [ -82.559575555555554, 27.774640527777777 ], [ -82.558001333333337, 27.773265333333331 ], [ -82.5563415, 27.772739222222221 ], [ -82.555800083333324, 27.7727645 ], [ -82.554211333333328, 27.773442333333332 ], [ -82.552672277777774, 27.774962888888886 ], [ -82.552308805555555, 27.775704194444444 ], [ -82.552094916666661, 27.77668 ], [ -82.55180955555555, 27.778745666666666 ] ] } },
{ "type": "Feature", "properties": { "style": "solid", "thickness": 1 }, "geometry": { "type": "LineString", "coordinates": [ [ -82.545783694444438, 27.773231833333334 ], [ -82.54668483333333, 27.788522083333334 ], [ -82.540728277777774, 27.788799666666669 ], [ -82.539089583333336, 27.788634527777781 ], [ -82.538391444444443, 27.788304861111111 ], [ -82.537258833333325, 27.7875125 ], [ -82.535556388888892, 27.78626375 ], [ -82.534381333333329, 27.784749 ], [ -82.53403975, 27.78355763888889 ], [ -82.533806055555559, 27.779584583333332 ], [ -82.534013027777775, 27.778488416666665 ], [ -82.534740222222226, 27.77700586111111 ], [ -82.535638194444445, 27.776118972222221 ], [ -82.536521944444445, 27.774991305555556 ], [ -82.53782594444445, 27.774085527777778 ], [ -82.539429, 27.773648694444443 ], [ -82.540369416666664, 27.773484166666666 ], [ -82.545783694444438, 27.773231833333334 ] ] } },
{ "type": "Feature", "properties": { "style": "solid", "thickness": 1 }, "geometry": { "type": "LineString", "coordinates": [ [ -82.563265222222213, 27.836902916666666 ], [ -82.56347875, 27.84051472222222 ], [ -82.564006111111112, 27.842542444444444 ], [ -82.564333944444442, 27.843492944444442 ], [ -82.564783, 27.844196305555556 ], [ -82.566493777777779, 27.845565055555554 ], [ -82.56815475, 27.846091055555554 ], [ -82.568696527777774, 27.846065722222221 ], [ -82.57028625, 27.84538775 ], [ -82.571690611111109, 27.843873361111111 ], [ -82.572189611111114, 27.843125666666666 ], [ -82.57240347222222, 27.84214983333333 ], [ -82.572688611111104, 27.840084138888887 ], [ -82.57247475, 27.83647236111111 ], [ -82.571947277777781, 27.834444666666666 ], [ -82.571619416666664, 27.833494194444445 ], [ -82.571034916666662, 27.832797194444446 ], [ -82.569459694444447, 27.83142213888889 ], [ -82.567798944444434, 27.830896166666665 ], [ -82.56725725, 27.8309215 ], [ -82.565667722222216, 27.831599444444443 ], [ -82.564128, 27.833120111111111 ], [ -82.563764416666658, 27.833861444444445 ], [ -82.5635505, 27.83483725 ], [ -82.563265222222213, 27.836902916666666 ] ] } },
{ "type": "Feature", "properties": { "style": "solid", "thickness": 1 }, "geometry": { "type": "LineString", "coordinates": [ [ -82.774306583333328, 27.743258083333334 ], [ -82.775239361111105, 27.758546833333334 ], [ -82.769555694444449, 27.758821166666667 ], [ -82.76833775, 27.758879916666668 ], [ -82.767346444444442, 27.758203305555554 ], [ -82.76661847222222, 27.75739325 ], [ -82.766589111111116, 27.756911722222224 ], [ -82.76644238888889, 27.754504027777777 ], [ -82.766555722222222, 27.754136361111112 ], [ -82.766903, 27.753153694444446 ], [ -82.768182805555554, 27.751884583333332 ], [ -82.766785611111104, 27.751227555555555 ], [ -82.766087027777772, 27.750899027777777 ], [ -82.765373777777782, 27.75032975 ], [ -82.764901805555553, 27.749265861111112 ], [ -82.764711138888885, 27.746135861111114 ], [ -82.76506575, 27.745273583333333 ], [ -82.765968888888892, 27.744505611111112 ], [ -82.766616111111105, 27.743991444444447 ], [ -82.767270638888888, 27.743597666666666 ], [ -82.774306583333328, 27.743258083333334 ] ] } },
{ "type": "Feature", "properties": { "style": "solid", "thickness": 1 }, "geometry": { "type": "LineString", "coordinates": [ [ -82.774813333333327, 27.751564583333334 ], [ -82.768182805555554, 27.751884583333332 ] ] } },
{ "type": "Feature", "properties": { "style": "solid", "thickness": 1 }, "geometry": { "type": "LineString", "coordinates": [ [ -82.784162527777781, 27.803817111111112 ], [ -82.777650222222221, 27.81946538888889 ], [ -82.769676722222215, 27.8045165 ] ] } },
{ "type": "Feature", "properties": { "style": "solid", "thickness": 1 }, "geometry": { "type": "LineString", "coordinates": [ [ -82.782027277777772, 27.808870555555558 ], [ -82.77227938888889, 27.809341194444446 ] ] } },
{ "type": "Feature", "properties": { "style": "solid", "thickness": 1 }, "geometry": { "type": "LineString", "coordinates": [ [ -82.644886666666679, 27.95969197222222 ], [ -82.635124694444457, 27.960152972222222 ] ] } },
{ "type": "Feature", "properties": { "style": "solid", "thickness": 1 }, "geometry": { "type": "LineString", "coordinates": [ [ -82.640141277777786, 27.959916138888889 ], [ -82.639225611111115, 27.944627 ] ] } },
{ "type": "Feature", "properties": { "style": "solid", "thickness": 1 }, "geometry": { "type": "LineString", "coordinates": [ [ -82.730279222222222, 27.644199694444445 ], [ -82.723768638888885, 27.659845805555555 ], [ -82.715814111111115, 27.644893416666665 ] ] } },
{ "type": "Feature", "properties": { "style": "solid", "thickness": 1 }, "geometry": { "type": "LineString", "coordinates": [ [ -82.728144583333332, 27.649252416666666 ], [ -82.718410611111111, 27.64971925 ] ] } },
{ "type": "Feature", "properties": { "style": "solid", "thickness": 1 }, "geometry": { "type": "LineString", "coordinates": [ [ -82.694436777777781, 27.592962583333332 ], [ -82.695357111111122, 27.608252222222223 ], [ -82.689681, 27.608523277777778 ], [ -82.688464694444448, 27.608581333333333 ], [ -82.687475222222233, 27.607904111111111 ], [ -82.68674883333334, 27.607093638888891 ], [ -82.686719888888888, 27.606612055555559 ], [ -82.686575111111111, 27.604204222222222 ], [ -82.686688555555563, 27.603836611111113 ], [ -82.687036055555566, 27.60285413888889 ], [ -82.688315055555563, 27.60158575 ], [ -82.68692025, 27.60092788888889 ], [ -82.686222861111119, 27.600598944444446 ], [ -82.685511, 27.600029222222222 ], [ -82.685040472222227, 27.598965027777776 ], [ -82.684852361111112, 27.595834861111111 ], [ -82.685207083333339, 27.594972777777777 ], [ -82.686109583333334, 27.594205305555555 ], [ -82.686756277777775, 27.5936915 ], [ -82.687410194444453, 27.593298083333334 ], [ -82.694436777777781, 27.592962583333332 ] ] } },
{ "type": "Feature", "properties": { "style": "solid", "thickness": 1 }, "geometry": { "type": "LineString", "coordinates": [ [ -82.694936777777784, 27.601269555555557 ], [ -82.688315055555563, 27.60158575 ] ] } },
{ "type": "Feature", "properties": { "style": "solid", "thickness": 1 }, "geometry": { "type": "LineString", "coordinates": [ [ -82.551522111111112, 27.682878555555558 ], [ -82.559772055555555, 27.682493027777777 ], [ -82.558869972222226, 27.667202638888892 ], [ -82.550485944444446, 27.667594416666667 ] ] } },
{ "type": "Feature", "properties": { "style": "solid", "thickness": 1 }, "geometry": { "type": "LineString", "coordinates": [ [ -82.559317444444446, 27.67478763888889 ], [ -82.551338555555546, 27.6751605 ] ] } },
{ "type": "Feature", "properties": { "style": "solid", "thickness": 1 }, "geometry": { "type": "LineString", "coordinates": [ [ -82.5498765, 27.847065083333334 ], [ -82.558138805555558, 27.846679666666667 ], [ -82.557235583333338, 27.831389666666666 ], [ -82.548839, 27.831781333333332 ] ] } },
{ "type": "Feature", "properties": { "style": "solid", "thickness": 1 }, "geometry": { "type": "LineString", "coordinates": [ [ -82.557683611111102, 27.838974472222223 ], [ -82.54969275, 27.83934725 ] ] } }
]
}
