{
"type": "FeatureCollection",
"name": "tpa155sgp",
"features": [
{ "type": "Feature", "properties": { "style": "solid", "thickness": 1 }, "geometry": { "type": "LineString", "coordinates": [ [ -82.599686416666657, 27.760420555555555 ], [ -82.611139527777766, 27.747173472222222 ] ] } },
{ "type": "Feature", "properties": { "style": "solid", "thickness": 1 }, "geometry": { "type": "LineString", "coordinates": [ [ -82.622589888888882, 27.733925444444445 ], [ -82.681472388888892, 27.6657325 ] ] } },
{ "type": "Feature", "properties": { "style": "solid", "thickness": 1 }, "geometry": { "type": "LineString", "coordinates": [ [ -82.43314211111111, 27.9303365 ], [ -82.418225916666671, 27.940524166666666 ] ] } },
{ "type": "Feature", "properties": { "style": "solid", "thickness": 1 }, "geometry": { "type": "LineString", "coordinates": [ [ -82.403306916666679, 27.950710194444444 ], [ -82.361773083333333, 27.979049 ] ] } },
{ "type": "Feature", "properties": { "style": "solid", "thickness": 1 }, "geometry": { "type": "LineString", "coordinates": [ [ -82.521223194444445, 27.986027333333336 ], [ -82.521223194444445, 27.987861555555558 ] ] } },
{ "type": "Feature", "properties": { "style": "solid", "thickness": 1 }, "geometry": { "type": "LineString", "coordinates": [ [ -82.520706611111109, 27.985843888888891 ], [ -82.520706638888882, 27.988045 ] ] } },
{ "type": "Feature", "properties": { "style": "solid", "thickness": 1 }, "geometry": { "type": "LineString", "coordinates": [ [ -82.52019005555556, 27.985843888888891 ], [ -82.52019005555556, 27.988045 ] ] } },
{ "type": "Feature", "properties": { "style": "solid", "thickness": 1 }, "geometry": { "type": "LineString", "coordinates": [ [ -82.519673472222223, 27.986027305555556 ], [ -82.519673472222223, 27.987861555555558 ] ] } },
{ "type": "Feature", "properties": { "style": "solid", "thickness": 1 }, "geometry": { "type": "LineString", "coordinates": [ [ -82.519156888888887, 27.986944444444447 ], [ -82.519164916666668, 27.987074472222222 ], [ -82.51919075, 27.98721038888889 ], [ -82.519236861111111, 27.987349666666667 ], [ -82.519305138888882, 27.987488916666667 ], [ -82.519396611111105, 27.987624222222223 ], [ -82.519511083333327, 27.987751194444446 ], [ -82.519646944444446, 27.987865333333335 ], [ -82.519801222222227, 27.987962638888892 ], [ -82.519969666666668, 27.988039833333335 ], [ -82.520147166666661, 27.988094833333335 ], [ -82.52032825, 27.988126916666669 ], [ -82.520507638888887, 27.988136694444446 ], [ -82.520680666666664, 27.988125861111111 ], [ -82.520843583333331, 27.98809702777778 ], [ -82.52099375, 27.988053222222224 ], [ -82.521129583333334, 27.987997583333335 ], [ -82.521253638888894, 27.987931305555556 ], [ -82.52137477777778, 27.98784913888889 ], [ -82.52149030555556, 27.987749833333336 ], [ -82.521596222222215, 27.987633305555555 ], [ -82.521688111111104, 27.987500416666666 ], [ -82.521761722222223, 27.987353111111112 ], [ -82.521813222222221, 27.9871945 ], [ -82.52183975, 27.987028611111111 ], [ -82.521839722222225, 27.98686025 ], [ -82.521813222222221, 27.986694388888889 ], [ -82.521761722222223, 27.986535777777778 ], [ -82.521688111111104, 27.986388472222224 ], [ -82.521596194444442, 27.986255555555555 ], [ -82.52149030555556, 27.986139027777778 ], [ -82.52137475, 27.98603975 ], [ -82.521253611111106, 27.985957555555558 ], [ -82.521129583333334, 27.985891305555558 ], [ -82.52099375, 27.985835666666667 ], [ -82.520843583333331, 27.985791861111114 ], [ -82.520680666666664, 27.985763027777779 ], [ -82.520507638888887, 27.985752194444444 ], [ -82.52032825, 27.985761972222225 ], [ -82.520147166666661, 27.985794055555555 ], [ -82.519969666666668, 27.985849055555555 ], [ -82.519801222222227, 27.98592625 ], [ -82.519646944444446, 27.986023527777778 ], [ -82.519511083333327, 27.986137694444444 ], [ -82.519396611111105, 27.98626463888889 ], [ -82.519305138888882, 27.986399944444447 ], [ -82.519236861111111, 27.986539222222223 ], [ -82.51919075, 27.986678472222223 ], [ -82.519164916666668, 27.986814388888888 ], [ -82.519156888888887, 27.986944444444447 ] ] } },
{ "type": "Feature", "properties": { "style": "solid", "thickness": 1 }, "geometry": { "type": "LineString", "coordinates": [ [ -82.569675222222216, 27.765907472222221 ], [ -82.573779833333333, 27.765715333333333 ], [ -82.57333, 27.758113722222223 ], [ -82.569158416666667, 27.758309 ] ] } },
{ "type": "Feature", "properties": { "style": "solid", "thickness": 1 }, "geometry": { "type": "LineString", "coordinates": [ [ -82.573553138888883, 27.76188461111111 ], [ -82.56958325, 27.762070444444443 ] ] } },
{ "type": "Feature", "properties": { "style": "solid", "thickness": 1 }, "geometry": { "type": "LineString", "coordinates": [ [ -82.566601611111111, 27.758428638888891 ], [ -82.564763138888893, 27.76613725 ], [ -82.561488, 27.758667722222221 ], [ -82.559581888888886, 27.766379444444443 ], [ -82.5566435, 27.758894083333335 ] ] } },
{ "type": "Feature", "properties": { "style": "solid", "thickness": 1 }, "geometry": { "type": "LineString", "coordinates": [ [ -82.553884833333328, 27.759022888888889 ], [ -82.550632361111113, 27.766797277777776 ], [ -82.546685305555556, 27.759358805555557 ] ] } },
{ "type": "Feature", "properties": { "style": "solid", "thickness": 1 }, "geometry": { "type": "LineString", "coordinates": [ [ -82.552818444444441, 27.761533527777779 ], [ -82.547973805555557, 27.761759555555557 ] ] } },
{ "type": "Feature", "properties": { "style": "solid", "thickness": 1 }, "geometry": { "type": "LineString", "coordinates": [ [ -82.540493055555558, 27.766489722222222 ], [ -82.541133888888893, 27.767060083333334 ], [ -82.541272, 27.767113666666667 ], [ -82.54215383333333, 27.76719261111111 ], [ -82.54288697222222, 27.767038416666665 ], [ -82.543276611111111, 27.766780166666667 ], [ -82.543662722222223, 27.766462083333334 ], [ -82.543967444444448, 27.765907694444444 ], [ -82.543886333333333, 27.764531 ], [ -82.543450888888884, 27.76401113888889 ], [ -82.543167611111116, 27.76378425 ], [ -82.54213713888889, 27.76347213888889 ], [ -82.540975638888881, 27.763226166666666 ], [ -82.540147027777778, 27.762904638888887 ], [ -82.53985675, 27.762558055555555 ], [ -82.539672833333327, 27.761726333333332 ], [ -82.539761611111103, 27.760941944444443 ], [ -82.540069861111107, 27.760447416666668 ], [ -82.540392194444436, 27.760192333333332 ], [ -82.54065077777777, 27.760000222222221 ], [ -82.540976611111105, 27.759804972222224 ], [ -82.541706194444444, 27.759590916666667 ], [ -82.542109916666661, 27.759572111111112 ], [ -82.542520666666661, 27.759673 ], [ -82.543073055555553, 27.759887333333332 ], [ -82.543423583333336, 27.760111083333335 ], [ -82.54392277777778, 27.760567972222223 ] ] } },
{ "type": "Feature", "properties": { "style": "solid", "thickness": 1 }, "geometry": { "type": "LineString", "coordinates": [ [ -82.533069611111117, 27.767615611111111 ], [ -82.537174333333326, 27.767424555555554 ], [ -82.536727055555559, 27.759822833333335 ], [ -82.532555305555562, 27.760017 ] ] } },
{ "type": "Feature", "properties": { "style": "solid", "thickness": 1 }, "geometry": { "type": "LineString", "coordinates": [ [ -82.53694891666666, 27.763593777777778 ], [ -82.532978916666664, 27.763778555555554 ] ] } },
{ "type": "Feature", "properties": { "style": "solid", "thickness": 1 }, "geometry": { "type": "LineString", "coordinates": [ [ -82.51364380555556, 27.904746361111108 ], [ -82.511799111111117, 27.912454166666667 ], [ -82.50852319444445, 27.9049835 ], [ -82.50661075, 27.912694333333331 ], [ -82.503672055555555, 27.905207972222222 ] ] } },
{ "type": "Feature", "properties": { "style": "solid", "thickness": 1 }, "geometry": { "type": "LineString", "coordinates": [ [ -82.49650347222223, 27.913161666666664 ], [ -82.497716333333329, 27.91310561111111 ], [ -82.498319277777782, 27.91301775 ], [ -82.499500583333329, 27.91242297222222 ], [ -82.500586472222224, 27.911352472222219 ], [ -82.500945166666668, 27.910555666666664 ], [ -82.501091194444442, 27.909588611111111 ], [ -82.50104561111111, 27.9088105 ], [ -82.500868777777782, 27.908098444444445 ], [ -82.500486277777782, 27.907335888888888 ], [ -82.499689027777777, 27.906412444444442 ], [ -82.499401972222216, 27.906125638888888 ], [ -82.498841916666663, 27.905791416666666 ], [ -82.497675472222227, 27.905485222222222 ], [ -82.496260555555551, 27.905550583333333 ], [ -82.495593777777785, 27.905701416666666 ], [ -82.494934027777774, 27.905971972222222 ], [ -82.494540277777773, 27.906170222222222 ], [ -82.4938945, 27.906680194444444 ], [ -82.493330138888894, 27.90742647222222 ], [ -82.493156027777772, 27.907914666666667 ], [ -82.493006416666674, 27.908821833333331 ], [ -82.493090472222221, 27.910258388888888 ], [ -82.493780972222226, 27.911666916666665 ], [ -82.494213277777774, 27.912127111111111 ], [ -82.494709472222226, 27.912524305555554 ], [ -82.495198666666667, 27.912801805555553 ], [ -82.495336944444446, 27.912855444444443 ], [ -82.49650347222223, 27.913161666666664 ] ] } },
{ "type": "Feature", "properties": { "style": "solid", "thickness": 1 }, "geometry": { "type": "LineString", "coordinates": [ [ -82.490061805555555, 27.905836833333332 ], [ -82.490506444444449, 27.913438583333331 ], [ -82.487676361111113, 27.913569194444442 ], [ -82.48706991666667, 27.913597166666666 ], [ -82.48657725, 27.913259777777775 ], [ -82.486215833333333, 27.91285633333333 ], [ -82.48620183333334, 27.912616916666664 ], [ -82.486131861111119, 27.911419777777777 ], [ -82.48618875, 27.911237111111109 ], [ -82.486362916666664, 27.910748916666666 ], [ -82.487001722222217, 27.910119277777778 ], [ -82.486306916666663, 27.909791222222221 ], [ -82.48595952777778, 27.909627194444443 ], [ -82.485605138888886, 27.909343444444442 ], [ -82.4853715, 27.908814055555553 ], [ -82.485280555555562, 27.907257805555552 ], [ -82.485458222222221, 27.906829472222221 ], [ -82.485908861111113, 27.906448583333333 ], [ -82.486231777777775, 27.90619361111111 ], [ -82.486558166666669, 27.9059985 ], [ -82.490061805555555, 27.905836833333332 ] ] } },
{ "type": "Feature", "properties": { "style": "solid", "thickness": 1 }, "geometry": { "type": "LineString", "coordinates": [ [ -82.490303361111117, 27.909966916666665 ], [ -82.487001722222217, 27.910119277777778 ] ] } },
{ "type": "Feature", "properties": { "style": "solid", "thickness": 1 }, "geometry": { "type": "LineString", "coordinates": [ [ -82.482824805555552, 27.913792944444442 ], [ -82.482471638888896, 27.907747416666666 ], [ -82.482386777777776, 27.90745125 ], [ -82.481880138888897, 27.906874416666664 ], [ -82.481522277777785, 27.906530805555555 ], [ -82.480969277777774, 27.90631622222222 ], [ -82.480224611111112, 27.906290527777777 ], [ -82.479146555555559, 27.906340222222219 ], [ -82.478543638888894, 27.906428 ], [ -82.477752583333341, 27.906764555555554 ], [ -82.477305388888894, 27.907205277777777 ], [ -82.477056833333336, 27.907576833333334 ], [ -82.4769535, 27.90812175 ], [ -82.477299388888895, 27.914047555555555 ] ] } },
{ "type": "Feature", "properties": { "style": "solid", "thickness": 1 }, "geometry": { "type": "LineString", "coordinates": [ [ -82.470358888888896, 27.914367055555555 ], [ -82.474469277777786, 27.91417786111111 ], [ -82.474025777777783, 27.906576055555554 ], [ -82.469848305555558, 27.906768333333332 ] ] } },
{ "type": "Feature", "properties": { "style": "solid", "thickness": 1 }, "geometry": { "type": "LineString", "coordinates": [ [ -82.474245777777782, 27.910347055555555 ], [ -82.470270305555559, 27.910530027777778 ] ] } },
{ "type": "Feature", "properties": { "style": "solid", "thickness": 1 }, "geometry": { "type": "LineString", "coordinates": [ [ -82.582978861111101, 27.773668166666667 ], [ -82.583063527777767, 27.774502222222221 ], [ -82.583314305555547, 27.775309416666666 ], [ -82.583723083333325, 27.776063833333332 ], [ -82.584276722222214, 27.776741166666667 ], [ -82.584957472222214, 27.77731972222222 ], [ -82.585743444444446, 27.777780833333331 ], [ -82.586609333333328, 27.778109722222222 ], [ -82.5875273611111, 27.778295805555555 ], [ -82.588468, 27.778333083333333 ], [ -82.589400972222222, 27.77822036111111 ], [ -82.590296333333328, 27.777961305555554 ], [ -82.591125305555551, 27.777564194444444 ], [ -82.591861222222221, 27.777041805555555 ], [ -82.59248041666666, 27.776410944444443 ], [ -82.59296302777777, 27.775691888888886 ], [ -82.593293527777774, 27.77490772222222 ], [ -82.593461277777777, 27.774083694444442 ], [ -82.593460916666658, 27.77324625 ], [ -82.593292444444444, 27.772422305555555 ], [ -82.592961277777775, 27.771638388888888 ], [ -82.592478083333333, 27.770919638888888 ], [ -82.59185838888888, 27.770289194444445 ], [ -82.591122083333332, 27.769767305555554 ], [ -82.590292861111109, 27.76937072222222 ], [ -82.589397361111111, 27.769112222222223 ], [ -82.588464361111107, 27.769000111111112 ], [ -82.587523833333336, 27.769037972222222 ], [ -82.586606027777776, 27.769224583333333 ], [ -82.58574044444444, 27.769553972222223 ], [ -82.5849548611111, 27.770015555555556 ], [ -82.584274583333325, 27.770594472222221 ], [ -82.583721416666663, 27.771272138888889 ], [ -82.583313166666656, 27.77202675 ], [ -82.583062972222223, 27.772834083333333 ], [ -82.582978861111101, 27.773668166666667 ] ] } },
{ "type": "Feature", "properties": { "style": "solid", "thickness": 1 }, "geometry": { "type": "LineString", "coordinates": [ [ -82.576080027777778, 27.77423625 ], [ -82.578397861111114, 27.773845055555554 ], [ -82.580594499999989, 27.773079611111111 ], [ -82.582594222222212, 27.77196625 ], [ -82.584328194444439, 27.770543388888889 ], [ -82.585736638888889, 27.76885997222222 ], [ -82.586771083333332, 27.766974055555554 ], [ -82.587395916666665, 27.764950583333334 ], [ -82.587589638888886, 27.76285925 ] ] } },
{ "type": "Feature", "properties": { "style": "solid", "thickness": 1 }, "geometry": { "type": "LineString", "coordinates": [ [ -82.587589638888886, 27.76285925 ], [ -82.588029611111111, 27.764920861111111 ], [ -82.588890277777779, 27.766874638888886 ], [ -82.590142055555546, 27.768653277777776 ], [ -82.591741805555557, 27.7701955 ], [ -82.593634444444433, 27.771448222222222 ], [ -82.59575475, 27.77236825 ], [ -82.598029722222222, 27.772923888888887 ], [ -82.600380944444439, 27.773096 ] ] } },
{ "type": "Feature", "properties": { "style": "solid", "thickness": 1 }, "geometry": { "type": "LineString", "coordinates": [ [ -82.588871583333329, 27.784474055555556 ], [ -82.58906530555555, 27.78238272222222 ], [ -82.589690194444444, 27.78035925 ], [ -82.590724666666659, 27.778473305555554 ], [ -82.592133138888883, 27.776789833333332 ], [ -82.593867055555549, 27.775366833333333 ], [ -82.595866694444439, 27.774253305555554 ], [ -82.598063194444435, 27.773487555555555 ], [ -82.600380944444439, 27.773096 ] ] } },
{ "type": "Feature", "properties": { "style": "solid", "thickness": 1 }, "geometry": { "type": "LineString", "coordinates": [ [ -82.588871583333329, 27.784474055555556 ], [ -82.588431527777772, 27.782412472222223 ], [ -82.58757072222221, 27.780458694444444 ], [ -82.58631886111111, 27.778680027777778 ], [ -82.584719083333326, 27.777137722222221 ], [ -82.582826444444436, 27.775884888888889 ], [ -82.580706166666658, 27.774964666666666 ], [ -82.57843125, 27.77440875 ], [ -82.576080027777778, 27.77423625 ] ] } },
{ "type": "Feature", "properties": { "style": "solid", "thickness": 1 }, "geometry": { "type": "LineString", "coordinates": [ [ -82.679434222222227, 27.662019055555554 ], [ -82.679519527777785, 27.662853055555555 ], [ -82.67977075, 27.663660083333333 ], [ -82.680179777777781, 27.66441422222222 ], [ -82.680733444444442, 27.665091194444443 ], [ -82.681414027777777, 27.665669277777777 ], [ -82.682199583333343, 27.666129861111109 ], [ -82.683064888888893, 27.666458138888888 ], [ -82.683982138888894, 27.666643583333332 ], [ -82.684921833333334, 27.666680194444446 ], [ -82.68585377777778, 27.666566861111111 ], [ -82.686748, 27.666307166666666 ], [ -82.687575777777781, 27.665909472222221 ], [ -82.688310472222227, 27.665386555555553 ], [ -82.6889285, 27.664755277777775 ], [ -82.68941, 27.66403586111111 ], [ -82.689739444444442, 27.663251444444445 ], [ -82.68990633333334, 27.662427277777777 ], [ -82.689905222222222, 27.661589833333331 ], [ -82.68973619444445, 27.660766 ], [ -82.689404694444448, 27.659982277777775 ], [ -82.688921361111113, 27.659263861111111 ], [ -82.688301722222221, 27.658633833333333 ], [ -82.687565722222232, 27.658112444444441 ], [ -82.686736972222221, 27.657716444444443 ], [ -82.685842166666674, 27.657458555555554 ], [ -82.684910027777775, 27.657347083333331 ], [ -82.6839705, 27.65738561111111 ], [ -82.683053777777786, 27.65757286111111 ], [ -82.682189361111114, 27.657902861111111 ], [ -82.681405, 27.658365 ], [ -82.680725916666674, 27.658944388888887 ], [ -82.680173916666675, 27.659622444444445 ], [ -82.67976675, 27.660377361111109 ], [ -82.6795175, 27.661184888888886 ], [ -82.679434222222227, 27.662019055555554 ] ] } },
{ "type": "Feature", "properties": { "style": "solid", "thickness": 1 }, "geometry": { "type": "LineString", "coordinates": [ [ -82.672542888888898, 27.662591944444443 ], [ -82.674858027777788, 27.662199111111111 ], [ -82.67705175, 27.661432111111111 ], [ -82.67904847222222, 27.660317361111108 ], [ -82.680779416666667, 27.65889325 ], [ -82.682184972222231, 27.657208861111108 ], [ -82.683216722222227, 27.655322194444445 ], [ -82.683839138888899, 27.65329825 ], [ -82.684030805555565, 27.65120675 ] ] } },
{ "type": "Feature", "properties": { "style": "solid", "thickness": 1 }, "geometry": { "type": "LineString", "coordinates": [ [ -82.684030805555565, 27.65120675 ], [ -82.684472138888893, 27.65326808333333 ], [ -82.685333666666665, 27.655221277777777 ], [ -82.686585722222219, 27.656999083333332 ], [ -82.688185194444443, 27.65854025 ], [ -82.690077, 27.659791666666667 ], [ -82.69219594444445, 27.660710222222221 ], [ -82.694469083333331, 27.661264277777775 ], [ -82.696818083333341, 27.661434777777778 ] ] } },
{ "type": "Feature", "properties": { "style": "solid", "thickness": 1 }, "geometry": { "type": "LineString", "coordinates": [ [ -82.685330416666673, 27.672821 ], [ -82.685522111111112, 27.6707295 ], [ -82.686144583333331, 27.668705555555558 ], [ -82.687176361111113, 27.666818861111111 ], [ -82.688581888888891, 27.665134388888887 ], [ -82.690312805555564, 27.663710166666664 ], [ -82.692309416666674, 27.662595222222222 ], [ -82.694503027777785, 27.66182797222222 ], [ -82.696818083333341, 27.661434777777778 ] ] } },
{ "type": "Feature", "properties": { "style": "solid", "thickness": 1 }, "geometry": { "type": "LineString", "coordinates": [ [ -82.685330416666673, 27.672821 ], [ -82.684889, 27.670759666666669 ], [ -82.68402736111112, 27.668806472222222 ], [ -82.682775222222233, 27.667028666666667 ], [ -82.681175694444448, 27.665487444444445 ], [ -82.679283888888889, 27.664235916666666 ], [ -82.677164972222229, 27.663317138888889 ], [ -82.674891888888894, 27.662762805555555 ], [ -82.672542888888898, 27.662591944444443 ] ] } },
{ "type": "Feature", "properties": { "style": "solid", "thickness": 1 }, "geometry": { "type": "LineString", "coordinates": [ [ -82.672357888888897, 27.64849275 ], [ -82.670528666666669, 27.656202888888888 ], [ -82.66724963888889, 27.648735777777777 ], [ -82.665352833333344, 27.656449027777775 ], [ -82.662410222222235, 27.648965805555555 ] ] } },
{ "type": "Feature", "properties": { "style": "solid", "thickness": 1 }, "geometry": { "type": "LineString", "coordinates": [ [ -82.659587222222228, 27.649099916666668 ], [ -82.660042555555563, 27.656701361111111 ] ] } },
{ "type": "Feature", "properties": { "style": "solid", "thickness": 1 }, "geometry": { "type": "LineString", "coordinates": [ [ -82.656547138888897, 27.656867333333331 ], [ -82.656092055555561, 27.649265888888888 ], [ -82.65279852777779, 27.649422194444444 ] ] } },
{ "type": "Feature", "properties": { "style": "solid", "thickness": 1 }, "geometry": { "type": "LineString", "coordinates": [ [ -82.650042722222224, 27.649552916666668 ], [ -82.650497388888894, 27.657154388888888 ], [ -82.642447388888897, 27.649912944444445 ], [ -82.642901555555568, 27.657514444444445 ] ] } },
{ "type": "Feature", "properties": { "style": "solid", "thickness": 1 }, "geometry": { "type": "LineString", "coordinates": [ [ -82.636045083333343, 27.657839083333332 ], [ -82.64014552777779, 27.657644972222222 ], [ -82.639691555555558, 27.650043472222222 ], [ -82.63552416666667, 27.65024075 ] ] } },
{ "type": "Feature", "properties": { "style": "solid", "thickness": 1 }, "geometry": { "type": "LineString", "coordinates": [ [ -82.639916750000012, 27.653814305555553 ], [ -82.6359508888889, 27.654002027777775 ] ] } },
{ "type": "Feature", "properties": { "style": "solid", "thickness": 1 }, "geometry": { "type": "LineString", "coordinates": [ [ -82.442796833333333, 27.920143416666669 ], [ -82.442880555555561, 27.920977527777779 ], [ -82.443130611111116, 27.921784944444447 ], [ -82.443538972222228, 27.92253975 ], [ -82.444092500000011, 27.92321763888889 ], [ -82.444773416666663, 27.923796861111111 ], [ -82.445559833333334, 27.92425875 ], [ -82.446426472222228, 27.9245885 ], [ -82.447345472222224, 27.9247755 ], [ -82.448287305555553, 27.92481375 ], [ -82.449221694444446, 27.924702 ], [ -82.450118611111108, 27.924443833333335 ], [ -82.450949194444448, 27.924047583333333 ], [ -82.45168675, 27.923525972222222 ], [ -82.45230761111111, 27.92289575 ], [ -82.452791777777776, 27.922177194444444 ], [ -82.45312372222223, 27.921393388888891 ], [ -82.45329275, 27.920569527777779 ], [ -82.453293472222228, 27.919732111111113 ], [ -82.453125833333331, 27.918908027777778 ], [ -82.452795222222221, 27.91812377777778 ], [ -82.452312305555552, 27.917404583333333 ], [ -82.45169258333334, 27.9167735 ], [ -82.450955944444445, 27.916250888888886 ], [ -82.450126138888891, 27.915853472222221 ], [ -82.44922975, 27.915594083333332 ], [ -82.448295638888894, 27.915481027777776 ], [ -82.447353833333338, 27.915517916666666 ], [ -82.446434555555555, 27.915703611111109 ], [ -82.44556738888889, 27.916032111111111 ], [ -82.444780166666675, 27.916492888888886 ], [ -82.444098222222223, 27.917071083333333 ], [ -82.443543444444444, 27.917748166666669 ], [ -82.443133694444455, 27.918502361111113 ], [ -82.442882111111118, 27.919309416666668 ], [ -82.442796833333333, 27.920143416666669 ] ] } },
{ "type": "Feature", "properties": { "style": "solid", "thickness": 1 }, "geometry": { "type": "LineString", "coordinates": [ [ -82.435888027777779, 27.920704472222223 ], [ -82.438209472222226, 27.920315638888891 ], [ -82.440410027777787, 27.919552444444445 ], [ -82.44241386111112, 27.918441138888891 ], [ -82.44415197222223, 27.917020055555557 ], [ -82.44556447222223, 27.915338138888888 ], [ -82.446602722222224, 27.913453305555553 ], [ -82.447231, 27.911430527777778 ], [ -82.447427638888897, 27.909339444444441 ] ] } },
{ "type": "Feature", "properties": { "style": "solid", "thickness": 1 }, "geometry": { "type": "LineString", "coordinates": [ [ -82.447427638888897, 27.909339444444441 ], [ -82.447865555555566, 27.911401444444444 ], [ -82.44872488888889, 27.913356027777777 ], [ -82.449976055555553, 27.915135888888887 ], [ -82.45157597222223, 27.916679722222224 ], [ -82.453469527777784, 27.917934305555558 ], [ -82.4555915, 27.918856472222224 ], [ -82.457868805555563, 27.919414388888889 ], [ -82.460222944444453, 27.919588888888889 ] ] } },
{ "type": "Feature", "properties": { "style": "solid", "thickness": 1 }, "geometry": { "type": "LineString", "coordinates": [ [ -82.448683583333334, 27.930954972222224 ], [ -82.44888025, 27.928863888888891 ], [ -82.449508555555553, 27.926841111111113 ], [ -82.450546861111107, 27.92495625 ], [ -82.451959361111108, 27.923274277777779 ], [ -82.453697416666671, 27.921853083333335 ], [ -82.455701166666671, 27.920741583333335 ], [ -82.457901611111112, 27.919978111111114 ], [ -82.460222944444453, 27.919588888888889 ] ] } },
{ "type": "Feature", "properties": { "style": "solid", "thickness": 1 }, "geometry": { "type": "LineString", "coordinates": [ [ -82.448683583333334, 27.930954972222224 ], [ -82.448245583333332, 27.928893 ], [ -82.447386138888888, 27.926938388888889 ], [ -82.446134861111119, 27.925158527777779 ], [ -82.444534916666669, 27.923614638888889 ], [ -82.442641361111114, 27.922359916666668 ], [ -82.440519416666675, 27.921437555555556 ], [ -82.438242166666669, 27.920879361111112 ], [ -82.435888027777779, 27.920704472222223 ] ] } },
{ "type": "Feature", "properties": { "style": "solid", "thickness": 1 }, "geometry": { "type": "LineString", "coordinates": [ [ -82.352241083333325, 27.981953833333332 ], [ -82.352324166666662, 27.982788 ], [ -82.352573694444445, 27.983595583333333 ], [ -82.352981638888878, 27.984350638888891 ], [ -82.353534916666661, 27.985028888888891 ], [ -82.35421575, 27.985608527777778 ], [ -82.355002222222211, 27.986070944444446 ], [ -82.355869083333332, 27.98640127777778 ], [ -82.356788444444433, 27.986588861111112 ], [ -82.357730777777775, 27.986627722222224 ], [ -82.358665805555546, 27.986516583333334 ], [ -82.35956341666666, 27.986259027777777 ], [ -82.360394805555543, 27.985863305555558 ], [ -82.361133222222222, 27.985342194444446 ], [ -82.361754944444442, 27.984712388888891 ], [ -82.362239972222213, 27.983994166666669 ], [ -82.362572777777771, 27.983210583333332 ], [ -82.362742583333329, 27.98238686111111 ], [ -82.362744, 27.981549444444443 ], [ -82.362576944444442, 27.98072525 ], [ -82.362246805555543, 27.979940805555554 ], [ -82.36176422222222, 27.979221277777775 ], [ -82.361144666666661, 27.978589833333331 ], [ -82.360408055555553, 27.97806672222222 ], [ -82.359578083333332, 27.977668777777776 ], [ -82.358681416666656, 27.977408805555555 ], [ -82.357746888888883, 27.977295138888888 ], [ -82.3568045, 27.977331416666665 ], [ -82.355884555555548, 27.9775165 ], [ -82.355016611111111, 27.977844416666667 ], [ -82.354228583333324, 27.978304666666666 ], [ -82.35354575, 27.978882416666664 ], [ -82.352990111111112, 27.979559138888888 ], [ -82.3525795, 27.980313055555555 ], [ -82.352327111111109, 27.981119916666664 ], [ -82.352241083333325, 27.981953833333332 ] ] } },
{ "type": "Feature", "properties": { "style": "solid", "thickness": 1 }, "geometry": { "type": "LineString", "coordinates": [ [ -82.345327916666662, 27.982510388888887 ], [ -82.347651, 27.982123083333331 ], [ -82.349853416666662, 27.981361305555552 ], [ -82.35185930555555, 27.980251361111108 ], [ -82.353599583333335, 27.978831416666665 ], [ -82.355014277777769, 27.977150444444444 ], [ -82.356054694444438, 27.97526633333333 ], [ -82.356685, 27.973244 ], [ -82.3568835, 27.971153055555554 ] ] } },
{ "type": "Feature", "properties": { "style": "solid", "thickness": 1 }, "geometry": { "type": "LineString", "coordinates": [ [ -82.3568835, 27.971153055555554 ], [ -82.357319944444441, 27.973215333333332 ], [ -82.358178138888888, 27.975170444444444 ], [ -82.359428527777766, 27.976951111111109 ], [ -82.361028055555551, 27.97849597222222 ], [ -82.362921638888878, 27.979751777777775 ], [ -82.365044055555543, 27.980675305555554 ], [ -82.367322166666654, 27.981234722222222 ], [ -82.369677527777768, 27.981410777777775 ] ] } },
{ "type": "Feature", "properties": { "style": "solid", "thickness": 1 }, "geometry": { "type": "LineString", "coordinates": [ [ -82.358122166666661, 27.992769111111112 ], [ -82.358320666666657, 27.990678194444445 ], [ -82.358951027777778, 27.988655861111113 ], [ -82.359991472222219, 27.986771722222223 ], [ -82.361406194444442, 27.985090694444445 ], [ -82.363146416666666, 27.983670638888889 ], [ -82.365152222222221, 27.982560472222222 ], [ -82.367354527777778, 27.981798444444443 ], [ -82.369677527777768, 27.981410777777775 ] ] } },
{ "type": "Feature", "properties": { "style": "solid", "thickness": 1 }, "geometry": { "type": "LineString", "coordinates": [ [ -82.358122166666661, 27.992769111111112 ], [ -82.357685611111108, 27.990706888888891 ], [ -82.356827333333328, 27.98875175 ], [ -82.35557683333333, 27.986971083333334 ], [ -82.35397725, 27.985426166666667 ], [ -82.352083694444445, 27.984170222222222 ], [ -82.349961305555553, 27.9832465 ], [ -82.347683249999989, 27.982686777777776 ], [ -82.345327916666662, 27.982510388888887 ] ] } },
{ "type": "Feature", "properties": { "style": "solid", "thickness": 1 }, "geometry": { "type": "LineString", "coordinates": [ [ -82.41547475, 28.000943722222221 ], [ -82.4166886388889, 28.000888388888889 ], [ -82.417292138888897, 28.000800861111109 ], [ -82.418474833333335, 28.000206805555557 ], [ -82.419562388888892, 27.999136944444444 ], [ -82.419921972222227, 27.998340361111111 ], [ -82.420068833333332, 27.997373416666669 ], [ -82.420023777777786, 27.996595277777779 ], [ -82.419847333333337, 27.995883138888889 ], [ -82.419465111111123, 27.995120388888889 ], [ -82.418667916666678, 27.9941965 ], [ -82.418380833333345, 27.9939095 ], [ -82.417820583333338, 27.993574972222223 ], [ -82.416653444444449, 27.993268083333334 ], [ -82.415237305555564, 27.993332638888891 ], [ -82.414569888888892, 27.993483083333334 ], [ -82.413909416666669, 27.993753222222225 ], [ -82.413515194444443, 27.99395125 ], [ -82.412868527777789, 27.994460805555555 ], [ -82.412303138888888, 27.99520675 ], [ -82.412128527777782, 27.995694833333335 ], [ -82.411978138888898, 27.996601916666666 ], [ -82.412061194444448, 27.998038472222223 ], [ -82.412751194444454, 27.999447416666669 ], [ -82.4131835, 27.999907833333335 ], [ -82.41367980555556, 28.000305333333333 ], [ -82.414169194444455, 28.000583111111112 ], [ -82.41430752777778, 28.000636805555555 ], [ -82.41547475, 28.000943722222221 ] ] } },
{ "type": "Feature", "properties": { "style": "solid", "thickness": 1 }, "geometry": { "type": "LineString", "coordinates": [ [ -82.409068055555565, 28.001235527777776 ], [ -82.404482194444455, 28.00144425 ], [ -82.404451083333342, 28.000905527777778 ], [ -82.409104277777786, 27.99367202777778 ], [ -82.409100805555568, 27.993612166666669 ], [ -82.4037735, 27.993854611111111 ] ] } },
{ "type": "Feature", "properties": { "style": "solid", "thickness": 1 }, "geometry": { "type": "LineString", "coordinates": [ [ -82.396861527777787, 28.001790722222221 ], [ -82.398075444444444, 28.001735555555555 ], [ -82.398678944444455, 28.001648111111113 ], [ -82.399861777777787, 28.001054222222223 ], [ -82.40094950000001, 27.99998452777778 ], [ -82.401309222222224, 27.999187972222224 ], [ -82.40145625000001, 27.998221055555558 ], [ -82.401411361111116, 27.997442916666667 ], [ -82.401235027777787, 27.99673075 ], [ -82.400852916666679, 27.995967944444445 ], [ -82.400055861111113, 27.995043944444447 ], [ -82.399768861111113, 27.994756916666667 ], [ -82.399208638888894, 27.99442227777778 ], [ -82.398041527777778, 27.99411525 ], [ -82.396625388888893, 27.994179611111111 ], [ -82.395957944444447, 27.994329972222221 ], [ -82.395297416666679, 27.994600027777778 ], [ -82.394903138888893, 27.994798 ], [ -82.394256388888891, 27.995307472222223 ], [ -82.393690888888898, 27.996053333333336 ], [ -82.393516194444445, 27.99654138888889 ], [ -82.393365638888895, 27.997448444444444 ], [ -82.393448444444445, 27.998885027777778 ], [ -82.394138194444452, 28.000294055555557 ], [ -82.394570444444454, 28.000754527777779 ], [ -82.395066694444452, 28.001152083333334 ], [ -82.395556027777786, 28.001429944444446 ], [ -82.395694333333338, 28.001483666666665 ], [ -82.396861527777787, 28.001790722222221 ] ] } },
{ "type": "Feature", "properties": { "style": "solid", "thickness": 1 }, "geometry": { "type": "LineString", "coordinates": [ [ -82.390421361111123, 27.99446138888889 ], [ -82.390859388888899, 28.002063333333332 ], [ -82.38280113888888, 27.994807083333335 ], [ -82.383238638888884, 28.002409055555557 ] ] } },
{ "type": "Feature", "properties": { "style": "solid", "thickness": 1 }, "geometry": { "type": "LineString", "coordinates": [ [ -82.380103722222216, 27.994929361111112 ], [ -82.376831777777767, 28.002699388888889 ], [ -82.372888055555549, 27.995256194444444 ] ] } },
{ "type": "Feature", "properties": { "style": "solid", "thickness": 1 }, "geometry": { "type": "LineString", "coordinates": [ [ -82.379031, 27.997438555555558 ], [ -82.3741755, 27.997658472222223 ] ] } },
{ "type": "Feature", "properties": { "style": "solid", "thickness": 1 }, "geometry": { "type": "LineString", "coordinates": [ [ -82.40196, 27.990908194444444 ], [ -82.400948527777786, 27.990954194444445 ], [ -82.400520194444454, 27.983531833333334 ] ] } },
{ "type": "Feature", "properties": { "style": "solid", "thickness": 1 }, "geometry": { "type": "LineString", "coordinates": [ [ -82.397448916666676, 27.991233305555557 ], [ -82.392256555555562, 27.991469194444445 ], [ -82.395459611111121, 27.983701861111111 ] ] } },
{ "type": "Feature", "properties": { "style": "solid", "thickness": 1 }, "geometry": { "type": "LineString", "coordinates": [ [ -82.659187, 27.646004694444443 ], [ -82.658178805555565, 27.646052583333333 ], [ -82.657734388888898, 27.638630611111111 ] ] } },
{ "type": "Feature", "properties": { "style": "solid", "thickness": 1 }, "geometry": { "type": "LineString", "coordinates": [ [ -82.651188583333337, 27.646384333333334 ], [ -82.652075861111115, 27.64544188888889 ], [ -82.65283227777779, 27.644565638888889 ], [ -82.653457861111121, 27.643755638888887 ], [ -82.653832472222234, 27.643257666666667 ], [ -82.654132722222229, 27.642643166666666 ], [ -82.654231333333342, 27.64203825 ], [ -82.654266305555566, 27.641496361111109 ], [ -82.654201833333346, 27.640418972222221 ], [ -82.653975111111123, 27.640009555555554 ], [ -82.653684805555557, 27.639663194444445 ], [ -82.653390888888893, 27.639256972222221 ], [ -82.651950833333345, 27.63884511111111 ], [ -82.651144333333335, 27.638883361111109 ], [ -82.650295666666679, 27.639343805555555 ], [ -82.650168416666673, 27.63946988888889 ], [ -82.649659361111119, 27.639974222222222 ], [ -82.649599305555569, 27.64009711111111 ], [ -82.64938058333334, 27.640947833333332 ], [ -82.649416388888895, 27.641546388888887 ], [ -82.649575861111117, 27.641959 ], [ -82.64973175, 27.64231175 ], [ -82.650025666666679, 27.642717972222222 ], [ -82.650588416666679, 27.643111472222223 ], [ -82.651140416666678, 27.64332536111111 ], [ -82.651480055555567, 27.643369277777776 ], [ -82.651950555555558, 27.643346972222222 ], [ -82.652283027777784, 27.643271166666665 ], [ -82.653396972222225, 27.642738111111111 ], [ -82.654234888888894, 27.64209811111111 ] ] } }
]
}
