{
"type": "FeatureCollection",
"name": "tpa111sgp",
"features": [
{ "type": "Feature", "properties": { "style": "solid", "thickness": 1 }, "geometry": { "type": "LineString", "coordinates": [ [ -82.724535777777774, 27.9662115 ], [ -82.7239475, 27.985288472222223 ] ] } },
{ "type": "Feature", "properties": { "style": "solid", "thickness": 1 }, "geometry": { "type": "LineString", "coordinates": [ [ -82.32660688888889, 27.955506833333331 ], [ -82.325948611111102, 27.974582027777775 ] ] } },
{ "type": "Feature", "properties": { "style": "solid", "thickness": 1 }, "geometry": { "type": "LineString", "coordinates": [ [ -82.467535722222223, 27.964796611111112 ], [ -82.467219833333331, 27.973142277777775 ] ] } },
{ "type": "Feature", "properties": { "style": "solid", "thickness": 1 }, "geometry": { "type": "LineString", "coordinates": [ [ -82.42472602777778, 27.958251055555554 ], [ -82.424085027777778, 27.977326694444443 ] ] } },
{ "type": "Feature", "properties": { "style": "solid", "thickness": 1 }, "geometry": { "type": "LineString", "coordinates": [ [ -82.38895, 27.678402166666668 ], [ -82.388852777777785, 27.674366611111111 ] ] } },
{ "type": "Feature", "properties": { "style": "solid", "thickness": 1 }, "geometry": { "type": "LineString", "coordinates": [ [ -82.637996138888894, 28.210025111111111 ], [ -82.637797111111112, 28.219379527777775 ] ] } },
{ "type": "Feature", "properties": { "style": "solid", "thickness": 1 }, "geometry": { "type": "LineString", "coordinates": [ [ -82.6374945, 28.228734 ], [ -82.63719191666668, 28.238180166666666 ] ] } },
{ "type": "Feature", "properties": { "style": "solid", "thickness": 1 }, "geometry": { "type": "LineString", "coordinates": [ [ -82.636992777777778, 28.2475345 ], [ -82.636690027777789, 28.256888916666668 ] ] } },
{ "type": "Feature", "properties": { "style": "solid", "thickness": 1 }, "geometry": { "type": "LineString", "coordinates": [ [ -82.636490861111113, 28.266334944444445 ], [ -82.636188, 28.275689305555556 ] ] } },
{ "type": "Feature", "properties": { "style": "solid", "thickness": 1 }, "geometry": { "type": "LineString", "coordinates": [ [ -82.635988777777783, 28.285135305555556 ], [ -82.635685833333341, 28.294489611111114 ] ] } },
{ "type": "Feature", "properties": { "style": "solid", "thickness": 1 }, "geometry": { "type": "LineString", "coordinates": [ [ -82.635382833333338, 28.303843916666668 ], [ -82.635183472222224, 28.313289833333336 ] ] } },
{ "type": "Feature", "properties": { "style": "solid", "thickness": 1 }, "geometry": { "type": "LineString", "coordinates": [ [ -82.641605750000011, 28.078602333333333 ], [ -82.641407361111121, 28.088048694444442 ] ] } },
{ "type": "Feature", "properties": { "style": "solid", "thickness": 1 }, "geometry": { "type": "LineString", "coordinates": [ [ -82.641105416666676, 28.097403416666666 ], [ -82.640803444444458, 28.106758111111112 ] ] } },
{ "type": "Feature", "properties": { "style": "solid", "thickness": 1 }, "geometry": { "type": "LineString", "coordinates": [ [ -82.640604916666675, 28.116204416666669 ], [ -82.640302861111124, 28.125559083333332 ] ] } },
{ "type": "Feature", "properties": { "style": "solid", "thickness": 1 }, "geometry": { "type": "LineString", "coordinates": [ [ -82.640104166666674, 28.134913666666666 ], [ -82.639802083333336, 28.14436 ] ] } },
{ "type": "Feature", "properties": { "style": "solid", "thickness": 1 }, "geometry": { "type": "LineString", "coordinates": [ [ -82.639603333333341, 28.153714555555553 ], [ -82.639301055555563, 28.163069138888886 ] ] } },
{ "type": "Feature", "properties": { "style": "solid", "thickness": 1 }, "geometry": { "type": "LineString", "coordinates": [ [ -82.639102305555568, 28.172515361111113 ], [ -82.638799944444457, 28.181869916666667 ] ] } },
{ "type": "Feature", "properties": { "style": "solid", "thickness": 1 }, "geometry": { "type": "LineString", "coordinates": [ [ -82.63849761111112, 28.191316166666667 ], [ -82.638298583333338, 28.200578916666664 ] ] } },
{ "type": "Feature", "properties": { "style": "solid", "thickness": 1 }, "geometry": { "type": "LineString", "coordinates": [ [ -82.645327611111114, 27.966344416666665 ], [ -82.644922805555566, 27.97542425 ] ] } },
{ "type": "Feature", "properties": { "style": "solid", "thickness": 1 }, "geometry": { "type": "LineString", "coordinates": [ [ -82.646136333333345, 27.947451 ], [ -82.645628638888894, 27.956806083333333 ] ] } },
{ "type": "Feature", "properties": { "style": "solid", "thickness": 1 }, "geometry": { "type": "LineString", "coordinates": [ [ -82.646841694444447, 27.928741055555555 ], [ -82.6464375, 27.938187777777777 ] ] } },
{ "type": "Feature", "properties": { "style": "solid", "thickness": 1 }, "geometry": { "type": "LineString", "coordinates": [ [ -82.647649888888893, 27.909847555555555 ], [ -82.647245833333344, 27.919294305555557 ] ] } },
{ "type": "Feature", "properties": { "style": "solid", "thickness": 1 }, "geometry": { "type": "LineString", "coordinates": [ [ -82.64835475000001, 27.8911375 ], [ -82.64795075, 27.900492583333332 ] ] } },
{ "type": "Feature", "properties": { "style": "solid", "thickness": 1 }, "geometry": { "type": "LineString", "coordinates": [ [ -82.649162583333336, 27.872427333333334 ], [ -82.648758694444453, 27.881782416666667 ] ] } },
{ "type": "Feature", "properties": { "style": "solid", "thickness": 1 }, "geometry": { "type": "LineString", "coordinates": [ [ -82.65228755555556, 27.7972195 ], [ -82.651884333333342, 27.806666388888889 ] ] } },
{ "type": "Feature", "properties": { "style": "solid", "thickness": 1 }, "geometry": { "type": "LineString", "coordinates": [ [ -82.651480944444444, 27.816021527777778 ], [ -82.651077472222227, 27.825376694444444 ] ] } },
{ "type": "Feature", "properties": { "style": "solid", "thickness": 1 }, "geometry": { "type": "LineString", "coordinates": [ [ -82.654705972222231, 27.740996638888891 ], [ -82.65419997222223, 27.750351944444443 ] ] } },
{ "type": "Feature", "properties": { "style": "solid", "thickness": 1 }, "geometry": { "type": "LineString", "coordinates": [ [ -82.655408611111113, 27.722378 ], [ -82.655005833333334, 27.731733222222221 ] ] } },
{ "type": "Feature", "properties": { "style": "solid", "thickness": 1 }, "geometry": { "type": "LineString", "coordinates": [ [ -82.656213777777779, 27.703484111111109 ], [ -82.655811222222226, 27.712931055555554 ] ] } },
{ "type": "Feature", "properties": { "style": "solid", "thickness": 1 }, "geometry": { "type": "LineString", "coordinates": [ [ -82.657721277777782, 27.666705194444447 ], [ -82.65731816666667, 27.675326722222223 ] ] } },
{ "type": "Feature", "properties": { "style": "solid", "thickness": 1 }, "geometry": { "type": "LineString", "coordinates": [ [ -82.657018833333339, 27.684773611111112 ], [ -82.656616444444452, 27.694220583333333 ] ] } },
{ "type": "Feature", "properties": { "style": "solid", "thickness": 1 }, "geometry": { "type": "LineString", "coordinates": [ [ -82.650674027777782, 27.834823527777775 ], [ -82.650373611111121, 27.844178583333331 ] ] } },
{ "type": "Feature", "properties": { "style": "solid", "thickness": 1 }, "geometry": { "type": "LineString", "coordinates": [ [ -82.64996994444445, 27.853533694444447 ], [ -82.649669472222229, 27.862980444444446 ] ] } },
{ "type": "Feature", "properties": { "style": "solid", "thickness": 1 }, "geometry": { "type": "LineString", "coordinates": [ [ -82.65390008333334, 27.759707055555555 ], [ -82.653393916666673, 27.769062333333331 ] ] } },
{ "type": "Feature", "properties": { "style": "solid", "thickness": 1 }, "geometry": { "type": "LineString", "coordinates": [ [ -82.652990972222227, 27.778600944444442 ], [ -82.652587694444449, 27.787864416666668 ] ] } },
{ "type": "Feature", "properties": { "style": "solid", "thickness": 1 }, "geometry": { "type": "LineString", "coordinates": [ [ -82.628535388888878, 27.756606555555557 ], [ -82.625636666666665, 27.740374805555557 ] ] } },
{ "type": "Feature", "properties": { "style": "solid", "thickness": 1 }, "geometry": { "type": "LineString", "coordinates": [ [ -82.622738722222209, 27.724051277777775 ], [ -82.619841666666659, 27.707727638888887 ] ] } },
{ "type": "Feature", "properties": { "style": "solid", "thickness": 1 }, "geometry": { "type": "LineString", "coordinates": [ [ -82.616945583333333, 27.691587388888887 ], [ -82.61405025, 27.67526363888889 ] ] } },
{ "type": "Feature", "properties": { "style": "solid", "thickness": 1 }, "geometry": { "type": "LineString", "coordinates": [ [ -82.634335472222233, 27.789069805555556 ], [ -82.631435, 27.772838222222223 ] ] } },
{ "type": "Feature", "properties": { "style": "solid", "thickness": 1 }, "geometry": { "type": "LineString", "coordinates": [ [ -82.640553083333344, 27.823183277777776 ], [ -82.63754763888889, 27.806951944444446 ] ] } },
{ "type": "Feature", "properties": { "style": "solid", "thickness": 1 }, "geometry": { "type": "LineString", "coordinates": [ [ -82.646360333333334, 27.855645833333334 ], [ -82.643456194444454, 27.839322888888887 ] ] } },
{ "type": "Feature", "properties": { "style": "solid", "thickness": 1 }, "geometry": { "type": "LineString", "coordinates": [ [ -82.531886555555559, 28.140729055555553 ], [ -82.51409127777778, 28.140175944444444 ] ] } },
{ "type": "Feature", "properties": { "style": "solid", "thickness": 1 }, "geometry": { "type": "LineString", "coordinates": [ [ -82.541726694444449, 27.850983972222224 ], [ -82.523978888888891, 27.850432111111111 ] ] } },
{ "type": "Feature", "properties": { "style": "solid", "thickness": 1 }, "geometry": { "type": "LineString", "coordinates": [ [ -82.545121277777781, 27.750600416666668 ], [ -82.527389861111104, 27.750049 ] ] } },
{ "type": "Feature", "properties": { "style": "solid", "thickness": 1 }, "geometry": { "type": "LineString", "coordinates": [ [ -82.376845388888881, 28.310282138888891 ], [ -82.376727194444442, 28.319636055555556 ] ] } },
{ "type": "Feature", "properties": { "style": "solid", "thickness": 1 }, "geometry": { "type": "LineString", "coordinates": [ [ -82.389294333333339, 27.941255194444444 ], [ -82.389307916666667, 27.931808777777778 ] ] } },
{ "type": "Feature", "properties": { "style": "solid", "thickness": 1 }, "geometry": { "type": "LineString", "coordinates": [ [ -82.389321361111115, 27.922454055555558 ], [ -82.38933491666667, 27.913007611111109 ] ] } },
{ "type": "Feature", "properties": { "style": "solid", "thickness": 1 }, "geometry": { "type": "LineString", "coordinates": [ [ -82.389348361111118, 27.903652888888889 ], [ -82.389258555555557, 27.894298 ] ] } },
{ "type": "Feature", "properties": { "style": "solid", "thickness": 1 }, "geometry": { "type": "LineString", "coordinates": [ [ -82.389168916666677, 27.884851416666667 ], [ -82.389182361111111, 27.875496666666667 ] ] } },
{ "type": "Feature", "properties": { "style": "solid", "thickness": 1 }, "geometry": { "type": "LineString", "coordinates": [ [ -82.389195805555559, 27.86614188888889 ], [ -82.389106194444452, 27.85669525 ] ] } },
{ "type": "Feature", "properties": { "style": "solid", "thickness": 1 }, "geometry": { "type": "LineString", "coordinates": [ [ -82.3891196388889, 27.847340472222221 ], [ -82.389133083333334, 27.837985666666665 ] ] } },
{ "type": "Feature", "properties": { "style": "solid", "thickness": 1 }, "geometry": { "type": "LineString", "coordinates": [ [ -82.389146666666676, 27.828539138888889 ], [ -82.389160083333337, 27.819184305555556 ] ] } },
{ "type": "Feature", "properties": { "style": "solid", "thickness": 1 }, "geometry": { "type": "LineString", "coordinates": [ [ -82.389070388888896, 27.809829361111113 ], [ -82.389083972222224, 27.800382805555557 ] ] } },
{ "type": "Feature", "properties": { "style": "solid", "thickness": 1 }, "geometry": { "type": "LineString", "coordinates": [ [ -82.389097416666672, 27.791027972222224 ], [ -82.389110972222227, 27.781581416666665 ] ] } },
{ "type": "Feature", "properties": { "style": "solid", "thickness": 1 }, "geometry": { "type": "LineString", "coordinates": [ [ -82.389021305555559, 27.772226444444442 ], [ -82.38903475, 27.762871583333332 ] ] } },
{ "type": "Feature", "properties": { "style": "solid", "thickness": 1 }, "geometry": { "type": "LineString", "coordinates": [ [ -82.389048333333335, 27.753425 ], [ -82.389061777777783, 27.74407011111111 ] ] } },
{ "type": "Feature", "properties": { "style": "solid", "thickness": 1 }, "geometry": { "type": "LineString", "coordinates": [ [ -82.389075194444445, 27.734715222222224 ], [ -82.388985694444457, 27.7252685 ] ] } },
{ "type": "Feature", "properties": { "style": "solid", "thickness": 1 }, "geometry": { "type": "LineString", "coordinates": [ [ -82.388896083333336, 27.7159135 ], [ -82.388909527777784, 27.70655861111111 ] ] } },
{ "type": "Feature", "properties": { "style": "solid", "thickness": 1 }, "geometry": { "type": "LineString", "coordinates": [ [ -82.388923111111112, 27.697112 ], [ -82.38893655555556, 27.687757083333334 ] ] } },
{ "type": "Feature", "properties": { "style": "solid", "thickness": 1 }, "geometry": { "type": "LineString", "coordinates": [ [ -82.387780527777778, 27.988118611111112 ], [ -82.387456972222225, 27.997472916666666 ] ] } },
{ "type": "Feature", "properties": { "style": "solid", "thickness": 1 }, "geometry": { "type": "LineString", "coordinates": [ [ -82.387133361111111, 28.006827166666667 ], [ -82.386912916666674, 28.01627325 ] ] } },
{ "type": "Feature", "properties": { "style": "solid", "thickness": 1 }, "geometry": { "type": "LineString", "coordinates": [ [ -82.386485833333339, 28.025627388888889 ], [ -82.386162055555559, 28.034981611111114 ] ] } },
{ "type": "Feature", "properties": { "style": "solid", "thickness": 1 }, "geometry": { "type": "LineString", "coordinates": [ [ -82.385941472222228, 28.044427638888891 ], [ -82.385617583333342, 28.053781861111112 ] ] } },
{ "type": "Feature", "properties": { "style": "solid", "thickness": 1 }, "geometry": { "type": "LineString", "coordinates": [ [ -82.3852935, 28.06322775 ], [ -82.384969500000011, 28.072581916666667 ] ] } },
{ "type": "Feature", "properties": { "style": "solid", "thickness": 1 }, "geometry": { "type": "LineString", "coordinates": [ [ -82.384645472222232, 28.081936055555555 ], [ -82.384424638888902, 28.091382027777776 ] ] } },
{ "type": "Feature", "properties": { "style": "solid", "thickness": 1 }, "geometry": { "type": "LineString", "coordinates": [ [ -82.383997055555568, 28.100736027777778 ], [ -82.383776277777784, 28.11009025 ] ] } },
{ "type": "Feature", "properties": { "style": "solid", "thickness": 1 }, "geometry": { "type": "LineString", "coordinates": [ [ -82.383451861111112, 28.119536055555557 ], [ -82.383127527777773, 28.128890138888888 ] ] } },
{ "type": "Feature", "properties": { "style": "solid", "thickness": 1 }, "geometry": { "type": "LineString", "coordinates": [ [ -82.382803166666662, 28.138244194444443 ], [ -82.382478722222217, 28.147598222222221 ] ] } },
{ "type": "Feature", "properties": { "style": "solid", "thickness": 1 }, "geometry": { "type": "LineString", "coordinates": [ [ -82.382257583333327, 28.157044083333332 ], [ -82.381933027777777, 28.166398083333331 ] ] } },
{ "type": "Feature", "properties": { "style": "solid", "thickness": 1 }, "geometry": { "type": "LineString", "coordinates": [ [ -82.381608444444439, 28.175752055555556 ], [ -82.381283638888888, 28.185197722222224 ] ] } },
{ "type": "Feature", "properties": { "style": "solid", "thickness": 1 }, "geometry": { "type": "LineString", "coordinates": [ [ -82.380958944444444, 28.194551694444446 ], [ -82.380634166666667, 28.203905611111111 ] ] } },
{ "type": "Feature", "properties": { "style": "solid", "thickness": 1 }, "geometry": { "type": "LineString", "coordinates": [ [ -82.38041275, 28.213351361111112 ], [ -82.38008788888888, 28.22270525 ] ] } },
{ "type": "Feature", "properties": { "style": "solid", "thickness": 1 }, "geometry": { "type": "LineString", "coordinates": [ [ -82.379762944444437, 28.232059111111109 ], [ -82.379437833333327, 28.241504694444444 ] ] } },
{ "type": "Feature", "properties": { "style": "solid", "thickness": 1 }, "geometry": { "type": "LineString", "coordinates": [ [ -82.37911280555555, 28.250858527777776 ], [ -82.378787694444441, 28.260212333333332 ] ] } },
{ "type": "Feature", "properties": { "style": "solid", "thickness": 1 }, "geometry": { "type": "LineString", "coordinates": [ [ -82.378566138888885, 28.26956625 ], [ -82.378137222222222, 28.279011611111109 ] ] } },
{ "type": "Feature", "properties": { "style": "solid", "thickness": 1 }, "geometry": { "type": "LineString", "coordinates": [ [ -82.388324194444451, 27.969409916666667 ], [ -82.388104027777786, 27.978764333333331 ] ] } },
{ "type": "Feature", "properties": { "style": "solid", "thickness": 1 }, "geometry": { "type": "LineString", "coordinates": [ [ -82.388971055555558, 27.950609527777775 ], [ -82.388647722222231, 27.95996386111111 ] ] } },
{ "type": "Feature", "properties": { "style": "solid", "thickness": 1 }, "geometry": { "type": "LineString", "coordinates": [ [ -82.377708194444438, 28.288456916666668 ], [ -82.377382722222222, 28.297902361111113 ] ] } },
{ "type": "Feature", "properties": { "style": "solid", "thickness": 1 }, "geometry": { "type": "LineString", "coordinates": [ [ -82.640123222222229, 27.849102166666665 ], [ -82.639443555555559, 27.849543611111109 ], [ -82.638768694444451, 27.849991305555555 ], [ -82.638098750000012, 27.850445166666667 ], [ -82.63743386111112, 27.850905111111114 ], [ -82.636774111111123, 27.851371111111114 ], [ -82.636119611111113, 27.851843055555555 ], [ -82.635470472222224, 27.852320916666667 ], [ -82.634826777777789, 27.852804583333334 ], [ -82.634188611111114, 27.853294 ], [ -82.633556111111119, 27.853789083333336 ], [ -82.63292936111111, 27.85428977777778 ], [ -82.63230841666666, 27.854795972222224 ], [ -82.631693416666664, 27.855307611111112 ], [ -82.63108444444444, 27.855824583333334 ], [ -82.630481555555548, 27.856346833333333 ] ] } },
{ "type": "Feature", "properties": { "style": "solid", "thickness": 1 }, "geometry": { "type": "LineString", "coordinates": [ [ -82.643988722222232, 27.666467388888886 ], [ -82.643329388888901, 27.6663065 ], [ -82.642669722222223, 27.666146694444443 ], [ -82.642009694444454, 27.665987944444442 ], [ -82.641349361111111, 27.665830277777776 ], [ -82.640688694444449, 27.665673666666667 ], [ -82.640027722222229, 27.665518111111108 ], [ -82.639366416666675, 27.665363638888888 ], [ -82.638704805555562, 27.66521025 ], [ -82.63804288888889, 27.665057916666665 ], [ -82.637380638888899, 27.664906666666667 ], [ -82.636718111111122, 27.6647565 ], [ -82.636055277777785, 27.664607388888886 ], [ -82.635392138888889, 27.66445936111111 ], [ -82.634728694444448, 27.664312416666665 ], [ -82.634064972222234, 27.664166555555553 ] ] } },
{ "type": "Feature", "properties": { "style": "solid", "thickness": 1 }, "geometry": { "type": "LineString", "coordinates": [ [ -82.623321166666656, 27.661962888888887 ], [ -82.622638027777768, 27.66183275 ], [ -82.621954611111107, 27.661703722222221 ], [ -82.62127091666666, 27.66157583333333 ], [ -82.62058694444444, 27.661449055555554 ], [ -82.619902694444434, 27.661323416666665 ], [ -82.619218194444443, 27.661198944444443 ], [ -82.618533444444438, 27.661075555555556 ], [ -82.617848444444434, 27.660953333333332 ], [ -82.617163166666657, 27.66083225 ], [ -82.616477638888881, 27.660712277777776 ], [ -82.615791888888879, 27.660593472222221 ], [ -82.615105888888877, 27.660475777777776 ], [ -82.61441963888889, 27.660359222222223 ], [ -82.613733166666663, 27.660243805555552 ], [ -82.613046444444436, 27.660129555555553 ] ] } },
{ "type": "Feature", "properties": { "style": "solid", "thickness": 1 }, "geometry": { "type": "LineString", "coordinates": [ [ -82.603102972222217, 27.658606166666665 ], [ -82.60237475, 27.658504194444443 ], [ -82.601646277777775, 27.6584035 ], [ -82.6009176111111, 27.658304083333331 ], [ -82.600188694444441, 27.658205944444443 ], [ -82.599459555555555, 27.658109055555553 ], [ -82.598730222222216, 27.658013472222219 ], [ -82.598000666666664, 27.657919138888886 ], [ -82.597270916666659, 27.657826083333333 ], [ -82.596540944444442, 27.657734305555554 ], [ -82.595810777777771, 27.657643805555555 ], [ -82.595080444444434, 27.657554583333333 ], [ -82.594349888888885, 27.657466638888888 ], [ -82.593619166666656, 27.65737997222222 ], [ -82.59288825, 27.657294583333332 ], [ -82.592157166666667, 27.657210472222221 ] ] } },
{ "type": "Feature", "properties": { "style": "solid", "thickness": 1 }, "geometry": { "type": "LineString", "coordinates": [ [ -82.582113916666657, 27.656186083333331 ], [ -82.581334361111104, 27.656116777777775 ], [ -82.580554666666657, 27.656048888888886 ], [ -82.579774805555559, 27.655982444444444 ], [ -82.57899477777778, 27.655917472222221 ], [ -82.578214583333335, 27.655853944444441 ], [ -82.57743425, 27.655791833333332 ], [ -82.57665375, 27.655731194444442 ], [ -82.57587313888888, 27.655672027777776 ], [ -82.575092361111103, 27.655614277777776 ], [ -82.57431147222222, 27.655558 ], [ -82.573530444444444, 27.655503166666666 ], [ -82.572749333333334, 27.655449777777775 ], [ -82.571968055555558, 27.655397833333332 ], [ -82.571186694444435, 27.655347361111108 ], [ -82.57040525, 27.655298333333331 ] ] } },
{ "type": "Feature", "properties": { "style": "solid", "thickness": 1 }, "geometry": { "type": "LineString", "coordinates": [ [ -82.561665083333324, 27.65484925 ], [ -82.560924111111106, 27.654819527777775 ], [ -82.560183083333328, 27.654791138888889 ], [ -82.559442, 27.654764027777777 ], [ -82.558700833333333, 27.654738222222221 ], [ -82.557959583333329, 27.654713722222223 ], [ -82.557218305555551, 27.654690555555554 ], [ -82.556476972222214, 27.654668666666666 ], [ -82.55573558333333, 27.654648083333331 ], [ -82.55499416666666, 27.654628777777777 ], [ -82.554252694444443, 27.654610805555553 ], [ -82.55351119444444, 27.654594138888889 ], [ -82.552769666666663, 27.654578777777775 ], [ -82.552028111111113, 27.654564722222222 ], [ -82.551286527777776, 27.654551944444442 ], [ -82.550544944444439, 27.6545405 ] ] } },
{ "type": "Feature", "properties": { "style": "solid", "thickness": 1 }, "geometry": { "type": "LineString", "coordinates": [ [ -82.540111861111114, 27.65451758333333 ], [ -82.539517472222215, 27.654524055555555 ], [ -82.53892308333333, 27.654531361111111 ], [ -82.538328722222218, 27.6545395 ], [ -82.537734333333333, 27.6545485 ], [ -82.53714, 27.654558305555554 ], [ -82.536545666666669, 27.654568972222222 ], [ -82.53595133333333, 27.654580472222221 ], [ -82.535357027777778, 27.654592777777776 ], [ -82.53476275, 27.654605972222221 ], [ -82.53416852777778, 27.654619972222221 ], [ -82.533574305555547, 27.654634805555553 ], [ -82.532980111111115, 27.6546505 ], [ -82.532385944444442, 27.654667027777776 ], [ -82.531791805555557, 27.654684361111109 ], [ -82.531197722222217, 27.654702555555556 ] ] } },
{ "type": "Feature", "properties": { "style": "solid", "thickness": 1 }, "geometry": { "type": "LineString", "coordinates": [ [ -82.51897675, 27.655263111111111 ], [ -82.518275638888895, 27.655306055555553 ], [ -82.517574611111115, 27.655350194444441 ], [ -82.516873666666669, 27.655395472222221 ], [ -82.516172805555556, 27.655441944444444 ], [ -82.515472055555549, 27.655489555555555 ], [ -82.514771416666662, 27.655538361111109 ], [ -82.514070861111108, 27.655588333333331 ], [ -82.513370388888887, 27.655639444444443 ], [ -82.51267005555556, 27.65569175 ], [ -82.511969833333339, 27.655745222222222 ], [ -82.511269722222224, 27.655799833333333 ], [ -82.510569722222229, 27.655855638888887 ], [ -82.509869861111113, 27.655912611111109 ], [ -82.509170111111118, 27.655970722222222 ], [ -82.5084705, 27.656030027777778 ] ] } },
{ "type": "Feature", "properties": { "style": "solid", "thickness": 1 }, "geometry": { "type": "LineString", "coordinates": [ [ -82.497887694444444, 27.657070861111109 ], [ -82.497183833333338, 27.657149694444442 ], [ -82.496480111111111, 27.657229722222223 ], [ -82.495776555555551, 27.657310916666667 ], [ -82.495073166666671, 27.657393305555555 ], [ -82.494369972222216, 27.657476888888887 ], [ -82.493666916666669, 27.657561638888886 ], [ -82.492964055555561, 27.657647583333333 ], [ -82.492261388888892, 27.657734722222219 ], [ -82.491558888888889, 27.657823 ], [ -82.49085658333334, 27.6579125 ], [ -82.49015447222223, 27.658003166666663 ], [ -82.489452555555559, 27.658095 ], [ -82.488750861111114, 27.658188027777776 ], [ -82.488049333333336, 27.65828225 ], [ -82.487348055555557, 27.65837761111111 ] ] } },
{ "type": "Feature", "properties": { "style": "solid", "thickness": 1 }, "geometry": { "type": "LineString", "coordinates": [ [ -82.477072222222219, 27.659914305555553 ], [ -82.476363583333338, 27.660029944444442 ], [ -82.47565516666667, 27.660146777777776 ], [ -82.474947, 27.660264805555553 ], [ -82.474239055555557, 27.660384055555554 ], [ -82.473531388888887, 27.660504527777775 ], [ -82.472824, 27.66062622222222 ], [ -82.472116833333331, 27.660749083333332 ], [ -82.471409944444446, 27.660873194444441 ], [ -82.470703333333333, 27.660998472222222 ], [ -82.469997, 27.661125 ], [ -82.469290916666665, 27.661252694444443 ], [ -82.468585138888898, 27.661381611111111 ], [ -82.467879638888888, 27.66151175 ], [ -82.467174416666666, 27.661643055555555 ], [ -82.466469472222229, 27.661775583333331 ] ] } },
{ "type": "Feature", "properties": { "style": "solid", "thickness": 1 }, "geometry": { "type": "LineString", "coordinates": [ [ -82.456215555555559, 27.663846472222222 ], [ -82.455528027777774, 27.66399497222222 ], [ -82.454840805555563, 27.664144611111109 ], [ -82.454153888888897, 27.664295416666665 ], [ -82.453467305555563, 27.664447388888888 ], [ -82.452781027777775, 27.6646005 ], [ -82.45209505555556, 27.664754777777777 ], [ -82.451409416666664, 27.664910194444442 ], [ -82.450724138888887, 27.66506675 ], [ -82.45003916666667, 27.665224472222221 ], [ -82.449354527777786, 27.665383333333331 ], [ -82.448670222222219, 27.665543361111109 ], [ -82.447986277777787, 27.665704527777777 ], [ -82.447302666666673, 27.665866833333332 ], [ -82.446619416666664, 27.666030277777775 ], [ -82.4459365, 27.666194861111109 ] ] } },
{ "type": "Feature", "properties": { "style": "solid", "thickness": 1 }, "geometry": { "type": "LineString", "coordinates": [ [ -82.435250833333342, 27.668931805555555 ], [ -82.434528777777786, 27.669127805555558 ], [ -82.433807138888895, 27.669325083333334 ], [ -82.433085944444443, 27.669523666666667 ], [ -82.432365194444444, 27.669723555555557 ], [ -82.43164486111111, 27.669924722222223 ], [ -82.430925, 27.670127194444447 ], [ -82.43020561111112, 27.670330916666668 ], [ -82.429486666666676, 27.670535972222222 ], [ -82.428768194444444, 27.67074227777778 ], [ -82.428050166666665, 27.670949888888892 ], [ -82.427332638888899, 27.67115877777778 ], [ -82.426615555555557, 27.671368944444446 ], [ -82.425898972222228, 27.671580416666668 ], [ -82.425182888888898, 27.671793138888891 ], [ -82.424467277777779, 27.67200713888889 ] ] } },
{ "type": "Feature", "properties": { "style": "solid", "thickness": 1 }, "geometry": { "type": "LineString", "coordinates": [ [ -82.588505111111104, 28.150320666666666 ], [ -82.589750638888887, 28.150054611111109 ], [ -82.590994305555554, 28.149781 ], [ -82.592235972222213, 28.14949986111111 ], [ -82.59347558333333, 28.149211194444444 ], [ -82.594713055555545, 28.148915027777779 ], [ -82.595948277777779, 28.148611388888888 ], [ -82.597181194444445, 28.148300277777778 ], [ -82.598411694444437, 28.14798175 ], [ -82.599639694444434, 28.147655777777778 ], [ -82.600865111111105, 28.147322444444445 ], [ -82.602087888888889, 28.146981722222222 ], [ -82.603307888888878, 28.14663363888889 ], [ -82.604525055555555, 28.146278277777778 ], [ -82.605739333333332, 28.145915583333334 ], [ -82.60695058333333, 28.145545666666667 ] ] } },
{ "type": "Feature", "properties": { "style": "solid", "thickness": 1 }, "geometry": { "type": "LineString", "coordinates": [ [ -82.442795416666669, 28.12807738888889 ], [ -82.443873277777783, 28.12869088888889 ], [ -82.444956, 28.129297972222222 ], [ -82.4460435, 28.129898583333333 ], [ -82.447135694444455, 28.130492694444445 ], [ -82.448232527777776, 28.131080222222224 ], [ -82.449333916666674, 28.131661166666667 ], [ -82.450439777777774, 28.132235472222224 ], [ -82.451550055555558, 28.132803083333332 ], [ -82.452664666666664, 28.133364 ], [ -82.4537835, 28.133918111111111 ], [ -82.45490652777778, 28.134465472222221 ], [ -82.456033638888897, 28.135005972222221 ], [ -82.457164777777777, 28.135539583333333 ], [ -82.458299833333342, 28.136066333333332 ], [ -82.45943875, 28.136586111111111 ] ] } },
{ "type": "Feature", "properties": { "style": "solid", "thickness": 1 }, "geometry": { "type": "LineString", "coordinates": [ [ -82.513039694444444, 28.152462166666666 ], [ -82.514307, 28.152648138888889 ], [ -82.515575861111117, 28.152826444444443 ], [ -82.51684625, 28.152997083333332 ], [ -82.518118083333334, 28.153160027777776 ], [ -82.519391222222225, 28.153315277777775 ], [ -82.520665611111113, 28.153462861111109 ], [ -82.521941138888891, 28.153602694444444 ], [ -82.52321775, 28.153734805555555 ], [ -82.524495333333334, 28.153859166666667 ], [ -82.525773805555559, 28.153975805555554 ], [ -82.527053055555555, 28.154084666666666 ], [ -82.528333027777776, 28.154185805555553 ], [ -82.529613611111117, 28.154279138888889 ], [ -82.53089475, 28.154364722222219 ], [ -82.532176277777779, 28.154442555555555 ] ] } },
{ "type": "Feature", "properties": { "style": "solid", "thickness": 1 }, "geometry": { "type": "LineString", "coordinates": [ [ -82.483651277777781, 27.916691083333333 ], [ -82.486009444444448, 27.9177305 ], [ -82.490963722222219, 27.919576194444446 ], [ -82.496039972222221, 27.921138888888891 ], [ -82.49992808333333, 27.922095111111112 ] ] } },
{ "type": "Feature", "properties": { "style": "solid", "thickness": 1 }, "geometry": { "type": "LineString", "coordinates": [ [ -82.454701805555558, 27.895792916666664 ], [ -82.456340583333329, 27.897647083333332 ], [ -82.45991925, 27.901205805555556 ], [ -82.463745, 27.90455561111111 ], [ -82.467802444444445, 27.907683 ], [ -82.467836555555564, 27.907706083333331 ] ] } },
{ "type": "Feature", "properties": { "style": "solid", "thickness": 1 }, "geometry": { "type": "LineString", "coordinates": [ [ -82.442025111111121, 27.87507925 ], [ -82.441998777777783, 27.8750165 ], [ -82.441509083333344, 27.8737855 ], [ -82.4410436388889, 27.872547083333334 ], [ -82.440602611111117, 27.871301638888891 ], [ -82.440186111111117, 27.870049527777777 ], [ -82.439794277777779, 27.868791138888888 ], [ -82.439427222222221, 27.867526888888889 ], [ -82.439085083333339, 27.866257138888891 ], [ -82.43876788888889, 27.86498225 ], [ -82.438475833333342, 27.863702638888892 ], [ -82.438208916666667, 27.862418722222223 ], [ -82.437967277777787, 27.861130833333334 ], [ -82.437750944444446, 27.85983938888889 ], [ -82.43760808333333, 27.858870638888892 ] ] } },
{ "type": "Feature", "properties": { "style": "solid", "thickness": 1 }, "geometry": { "type": "LineString", "coordinates": [ [ -82.437340527777778, 27.842195388888889 ], [ -82.43740455555556, 27.841607861111111 ], [ -82.437571638888897, 27.840310666666664 ], [ -82.437764166666668, 27.839016277777777 ], [ -82.437982083333338, 27.837725055555556 ], [ -82.438225277777775, 27.836437388888889 ], [ -82.43849375, 27.83515372222222 ], [ -82.438787333333337, 27.833874416666667 ], [ -82.439106, 27.832599833333333 ], [ -82.439449638888888, 27.831330416666667 ], [ -82.439818138888896, 27.8300665 ], [ -82.44021136111111, 27.8288085 ], [ -82.440629222222228, 27.827556777777776 ], [ -82.44107158333334, 27.82631175 ], [ -82.441233777777782, 27.825881527777778 ] ] } },
{ "type": "Feature", "properties": { "style": "solid", "thickness": 1 }, "geometry": { "type": "LineString", "coordinates": [ [ -82.449092833333339, 27.81073875 ], [ -82.449747638888894, 27.809789555555557 ], [ -82.450537166666663, 27.808688666666669 ], [ -82.451348138888889, 27.807600166666667 ], [ -82.452180333333331, 27.806524416666669 ], [ -82.4530335, 27.80546175 ], [ -82.453907361111121, 27.804412472222221 ], [ -82.454801666666668, 27.803376916666668 ], [ -82.455716166666676, 27.802355388888891 ], [ -82.456650527777782, 27.801348194444444 ], [ -82.457604527777775, 27.800355666666668 ], [ -82.458577833333337, 27.799378055555557 ], [ -82.459570138888893, 27.798415722222224 ], [ -82.460527361111119, 27.797519305555557 ] ] } },
{ "type": "Feature", "properties": { "style": "solid", "thickness": 1 }, "geometry": { "type": "LineString", "coordinates": [ [ -82.474969944444453, 27.78688125 ], [ -82.475280444444451, 27.78669852777778 ], [ -82.476518777777784, 27.785997194444445 ], [ -82.477770666666672, 27.785315166666667 ], [ -82.47903575, 27.78465266666667 ], [ -82.480313611111114, 27.784009861111112 ], [ -82.481603861111111, 27.783387 ], [ -82.482906138888893, 27.78278425 ], [ -82.484220027777781, 27.782201777777775 ], [ -82.485545138888895, 27.781639777777777 ], [ -82.486881055555557, 27.781098444444442 ], [ -82.488227361111115, 27.780577888888889 ], [ -82.489583694444448, 27.780078277777775 ], [ -82.490949583333332, 27.779599805555556 ], [ -82.491700444444447, 27.779350166666667 ] ] } },
{ "type": "Feature", "properties": { "style": "solid", "thickness": 1 }, "geometry": { "type": "LineString", "coordinates": [ [ -82.525007194444441, 27.774242777777776 ], [ -82.522552277777777, 27.774138388888886 ], [ -82.517187666666672, 27.774213138888889 ], [ -82.511839138888888, 27.77459013888889 ], [ -82.506528194444442, 27.775267944444444 ], [ -82.5062975, 27.775310805555556 ] ] } },
{ "type": "Feature", "properties": { "style": "solid", "thickness": 1 }, "geometry": { "type": "LineString", "coordinates": [ [ -82.528215, 27.987128055555555 ], [ -82.528991388888883, 27.964310277777777 ] ] } },
{ "type": "Feature", "properties": { "style": "solid", "thickness": 1 }, "geometry": { "type": "LineString", "coordinates": [ [ -82.536084166666669, 27.97083111111111 ], [ -82.514410555555557, 27.97024722222222 ] ] } },
{ "type": "Feature", "properties": { "style": "solid", "thickness": 1 }, "geometry": { "type": "LineString", "coordinates": [ [ -82.541321638888888, 27.993569222222224 ], [ -82.542355277777773, 27.963294444444443 ] ] } },
{ "type": "Feature", "properties": { "style": "solid", "thickness": 1 }, "geometry": { "type": "LineString", "coordinates": [ [ -82.532688888888885, 27.837397222222222 ], [ -82.509747222222217, 27.861294444444447 ] ] } },
{ "type": "Feature", "properties": { "style": "solid", "thickness": 1 }, "geometry": { "type": "LineString", "coordinates": [ [ -82.454069444444443, 27.910891666666664 ], [ -82.4474, 27.918766944444446 ] ] } },
{ "type": "Feature", "properties": { "style": "solid", "thickness": 1 }, "geometry": { "type": "LineString", "coordinates": [ [ -82.448118888888899, 27.919959722222224 ], [ -82.447109166666664, 27.912624444444443 ] ] } },
{ "type": "Feature", "properties": { "style": "solid", "thickness": 1 }, "geometry": { "type": "LineString", "coordinates": [ [ -82.538625333333329, 27.680333638888889 ], [ -82.539190472222216, 27.663628722222221 ] ] } },
{ "type": "Feature", "properties": { "style": "solid", "thickness": 1 }, "geometry": { "type": "LineString", "coordinates": [ [ -82.537494527777781, 27.71374336111111 ], [ -82.53806, 27.697038527777778 ] ] } },
{ "type": "Feature", "properties": { "style": "solid", "thickness": 1 }, "geometry": { "type": "LineString", "coordinates": [ [ -82.536363027777782, 27.747152916666668 ], [ -82.536928861111107, 27.730448166666665 ] ] } },
{ "type": "Feature", "properties": { "style": "solid", "thickness": 1 }, "geometry": { "type": "LineString", "coordinates": [ [ -82.53523083333333, 27.780562305555556 ], [ -82.535797027777775, 27.76385763888889 ] ] } },
{ "type": "Feature", "properties": { "style": "solid", "thickness": 1 }, "geometry": { "type": "LineString", "coordinates": [ [ -82.53409794444444, 27.813971472222224 ], [ -82.534664472222218, 27.797266916666668 ] ] } },
{ "type": "Feature", "properties": { "style": "solid", "thickness": 1 }, "geometry": { "type": "LineString", "coordinates": [ [ -82.532964388888885, 27.847380444444443 ], [ -82.53353125, 27.830676 ] ] } },
{ "type": "Feature", "properties": { "style": "solid", "thickness": 1 }, "geometry": { "type": "LineString", "coordinates": [ [ -82.531830111111105, 27.88078925 ], [ -82.532397333333336, 27.864084861111113 ] ] } },
{ "type": "Feature", "properties": { "style": "solid", "thickness": 1 }, "geometry": { "type": "LineString", "coordinates": [ [ -82.530695138888888, 27.914197805555553 ], [ -82.531262722222223, 27.897493555555556 ] ] } },
{ "type": "Feature", "properties": { "style": "solid", "thickness": 1 }, "geometry": { "type": "LineString", "coordinates": [ [ -82.529559472222218, 27.947606166666667 ], [ -82.530127388888886, 27.93090202777778 ] ] } },
{ "type": "Feature", "properties": { "style": "solid", "thickness": 1 }, "geometry": { "type": "LineString", "coordinates": [ [ -82.52764636111111, 28.003832027777779 ], [ -82.52707755555555, 28.020535916666667 ] ] } },
{ "type": "Feature", "properties": { "style": "solid", "thickness": 1 }, "geometry": { "type": "LineString", "coordinates": [ [ -82.526508583333339, 28.037239777777778 ], [ -82.52593941666666, 28.053943555555556 ] ] } },
{ "type": "Feature", "properties": { "style": "solid", "thickness": 1 }, "geometry": { "type": "LineString", "coordinates": [ [ -82.525370083333328, 28.070647305555557 ], [ -82.524800583333331, 28.087350972222222 ] ] } },
{ "type": "Feature", "properties": { "style": "solid", "thickness": 1 }, "geometry": { "type": "LineString", "coordinates": [ [ -82.524230888888894, 28.104054583333333 ], [ -82.523661027777777, 28.120758138888888 ] ] } },
{ "type": "Feature", "properties": { "style": "solid", "thickness": 1 }, "geometry": { "type": "LineString", "coordinates": [ [ -82.523091, 28.13746161111111 ], [ -82.522520777777771, 28.154165027777776 ] ] } },
{ "type": "Feature", "properties": { "style": "solid", "thickness": 1 }, "geometry": { "type": "LineString", "coordinates": [ [ -82.521950388888882, 28.170868388888891 ], [ -82.521379805555554, 28.187571694444443 ] ] } },
{ "type": "Feature", "properties": { "style": "solid", "thickness": 1 }, "geometry": { "type": "LineString", "coordinates": [ [ -82.517380861111107, 28.304492888888891 ], [ -82.516808888888889, 28.321195638888888 ] ] } },
{ "type": "Feature", "properties": { "style": "solid", "thickness": 1 }, "geometry": { "type": "LineString", "coordinates": [ [ -82.518524305555559, 28.271087166666664 ], [ -82.517952694444446, 28.287790083333334 ] ] } },
{ "type": "Feature", "properties": { "style": "solid", "thickness": 1 }, "geometry": { "type": "LineString", "coordinates": [ [ -82.519667055555558, 28.237681194444445 ], [ -82.519095777777778, 28.254384222222221 ] ] } },
{ "type": "Feature", "properties": { "style": "solid", "thickness": 1 }, "geometry": { "type": "LineString", "coordinates": [ [ -82.52080905555556, 28.204274916666666 ], [ -82.520238138888885, 28.220978083333332 ] ] } },
{ "type": "Feature", "properties": { "style": "solid", "thickness": 1 }, "geometry": { "type": "LineString", "coordinates": [ [ -82.620866138888886, 28.31631925 ], [ -82.632192, 28.316053611111112 ] ] } },
{ "type": "Feature", "properties": { "style": "solid", "thickness": 1 }, "geometry": { "type": "LineString", "coordinates": [ [ -82.531254222222216, 28.318389833333335 ], [ -82.541583444444441, 28.318155638888889 ] ] } },
{ "type": "Feature", "properties": { "style": "solid", "thickness": 1 }, "geometry": { "type": "LineString", "coordinates": [ [ -82.552909694444438, 28.317894722222221 ], [ -82.56423647222222, 28.317655472222221 ] ] } },
{ "type": "Feature", "properties": { "style": "solid", "thickness": 1 }, "geometry": { "type": "LineString", "coordinates": [ [ -82.575562055555551, 28.317373222222223 ], [ -82.586888138888881, 28.317110777777778 ] ] } },
{ "type": "Feature", "properties": { "style": "solid", "thickness": 1 }, "geometry": { "type": "LineString", "coordinates": [ [ -82.598214222222211, 28.316848416666666 ], [ -82.609540166666662, 28.316584 ] ] } },
{ "type": "Feature", "properties": { "style": "solid", "thickness": 1 }, "geometry": { "type": "LineString", "coordinates": [ [ -82.505424638888883, 28.31869475 ], [ -82.515993333333327, 28.318611444444443 ] ] } },
{ "type": "Feature", "properties": { "style": "solid", "thickness": 1 }, "geometry": { "type": "LineString", "coordinates": [ [ -82.484286277777784, 28.318858972222223 ], [ -82.494854972222228, 28.318777277777777 ] ] } },
{ "type": "Feature", "properties": { "style": "solid", "thickness": 1 }, "geometry": { "type": "LineString", "coordinates": [ [ -82.463147833333338, 28.319019972222222 ], [ -82.473716583333342, 28.318939888888888 ] ] } },
{ "type": "Feature", "properties": { "style": "solid", "thickness": 1 }, "geometry": { "type": "LineString", "coordinates": [ [ -82.442009333333331, 28.319177694444445 ], [ -82.45257905555556, 28.31909925 ] ] } },
{ "type": "Feature", "properties": { "style": "solid", "thickness": 1 }, "geometry": { "type": "LineString", "coordinates": [ [ -82.420869833333342, 28.319332222222222 ], [ -82.431439583333344, 28.319255361111111 ] ] } },
{ "type": "Feature", "properties": { "style": "solid", "thickness": 1 }, "geometry": { "type": "LineString", "coordinates": [ [ -82.39973025, 28.3194835 ], [ -82.410299083333342, 28.319408277777779 ] ] } },
{ "type": "Feature", "properties": { "style": "solid", "thickness": 1 }, "geometry": { "type": "LineString", "coordinates": [ [ -82.376727194444442, 28.319644416666666 ], [ -82.3872961388889, 28.319570944444443 ] ] } },
{ "type": "Feature", "properties": { "style": "solid", "thickness": 1 }, "geometry": { "type": "LineString", "coordinates": [ [ -82.416005277777785, 28.05173475 ], [ -82.431828194444449, 28.043059777777778 ] ] } },
{ "type": "Feature", "properties": { "style": "solid", "thickness": 1 }, "geometry": { "type": "LineString", "coordinates": [ [ -82.383723083333336, 28.108521694444445 ], [ -82.401029472222234, 28.11425625 ] ] } },
{ "type": "Feature", "properties": { "style": "solid", "thickness": 1 }, "geometry": { "type": "LineString", "coordinates": [ [ -82.413335611111123, 28.11833225 ], [ -82.43038150000001, 28.123975805555556 ] ] } },
{ "type": "Feature", "properties": { "style": "solid", "thickness": 1 }, "geometry": { "type": "LineString", "coordinates": [ [ -82.641675, 28.075452777777777 ], [ -82.627597222222221, 28.064636111111113 ] ] } },
{ "type": "Feature", "properties": { "style": "solid", "thickness": 1 }, "geometry": { "type": "LineString", "coordinates": [ [ -82.628074916666662, 28.04588288888889 ], [ -82.627836666666667, 28.055236888888889 ] ] } },
{ "type": "Feature", "properties": { "style": "solid", "thickness": 1 }, "geometry": { "type": "LineString", "coordinates": [ [ -82.630496805555552, 27.970776777777775 ], [ -82.63015533333332, 27.980222305555554 ] ] } },
{ "type": "Feature", "properties": { "style": "solid", "thickness": 1 }, "geometry": { "type": "LineString", "coordinates": [ [ -82.629917416666657, 27.989576388888889 ], [ -82.629576111111106, 27.998930194444444 ] ] } },
{ "type": "Feature", "properties": { "style": "solid", "thickness": 1 }, "geometry": { "type": "LineString", "coordinates": [ [ -82.629337805555551, 28.008375944444445 ], [ -82.628996388888879, 28.017729694444444 ] ] } },
{ "type": "Feature", "properties": { "style": "solid", "thickness": 1 }, "geometry": { "type": "LineString", "coordinates": [ [ -82.628654944444435, 28.027083444444443 ], [ -82.628416777777772, 28.036437472222225 ] ] } },
{ "type": "Feature", "properties": { "style": "solid", "thickness": 1 }, "geometry": { "type": "LineString", "coordinates": [ [ -82.627597222222221, 28.064636111111113 ], [ -82.613362472222221, 28.053690138888889 ] ] } },
{ "type": "Feature", "properties": { "style": "solid", "thickness": 1 }, "geometry": { "type": "LineString", "coordinates": [ [ -82.599130583333334, 28.042742666666669 ], [ -82.584901555555547, 28.031793694444442 ] ] } },
{ "type": "Feature", "properties": { "style": "solid", "thickness": 1 }, "geometry": { "type": "LineString", "coordinates": [ [ -82.570675388888887, 28.020843222222222 ], [ -82.556452083333326, 28.009891277777779 ] ] } },
{ "type": "Feature", "properties": { "style": "solid", "thickness": 1 }, "geometry": { "type": "LineString", "coordinates": [ [ -82.515884472222226, 28.087726055555553 ], [ -82.533671138888892, 28.088278916666667 ] ] } },
{ "type": "Feature", "properties": { "style": "solid", "thickness": 1 }, "geometry": { "type": "LineString", "coordinates": [ [ -82.70542125, 27.975269527777776 ], [ -82.724237305555562, 27.975749888888888 ] ] } },
{ "type": "Feature", "properties": { "style": "solid", "thickness": 1 }, "geometry": { "type": "LineString", "coordinates": [ [ -82.667789611111118, 27.97430111111111 ], [ -82.68660536111112, 27.97478661111111 ] ] } },
{ "type": "Feature", "properties": { "style": "solid", "thickness": 1 }, "geometry": { "type": "LineString", "coordinates": [ [ -82.630158611111099, 27.973322472222222 ], [ -82.648974027777783, 27.973813083333333 ] ] } },
{ "type": "Feature", "properties": { "style": "solid", "thickness": 1 }, "geometry": { "type": "LineString", "coordinates": [ [ -82.592528305555547, 27.972333583333331 ], [ -82.611343361111111, 27.972829305555553 ] ] } },
{ "type": "Feature", "properties": { "style": "solid", "thickness": 1 }, "geometry": { "type": "LineString", "coordinates": [ [ -82.554898638888886, 27.971334444444445 ], [ -82.573713388888891, 27.971835277777775 ] ] } },
{ "type": "Feature", "properties": { "style": "solid", "thickness": 1 }, "geometry": { "type": "LineString", "coordinates": [ [ -82.495596388888885, 27.9697385 ], [ -82.476782388888893, 27.969227194444443 ] ] } },
{ "type": "Feature", "properties": { "style": "solid", "thickness": 1 }, "geometry": { "type": "LineString", "coordinates": [ [ -82.457968555555553, 27.968713305555553 ], [ -82.439154888888893, 27.96819683333333 ] ] } },
{ "type": "Feature", "properties": { "style": "solid", "thickness": 1 }, "geometry": { "type": "LineString", "coordinates": [ [ -82.420341416666673, 27.967677833333333 ], [ -82.401528138888892, 27.967156277777775 ] ] } },
{ "type": "Feature", "properties": { "style": "solid", "thickness": 1 }, "geometry": { "type": "LineString", "coordinates": [ [ -82.382715027777778, 27.966632138888887 ], [ -82.363902138888889, 27.966105472222221 ] ] } },
{ "type": "Feature", "properties": { "style": "solid", "thickness": 1 }, "geometry": { "type": "LineString", "coordinates": [ [ -82.345089416666667, 27.965576222222222 ], [ -82.326277777777776, 27.965044444444445 ] ] } },
{ "type": "Feature", "properties": { "style": "solid", "thickness": 1 }, "geometry": { "type": "LineString", "coordinates": [ [ -82.542921638888885, 27.946590194444443 ], [ -82.543236111111113, 27.937311111111111 ], [ -82.543488111111103, 27.929885972222223 ] ] } },
{ "type": "Feature", "properties": { "style": "solid", "thickness": 1 }, "geometry": { "type": "LineString", "coordinates": [ [ -82.54405494444444, 27.91318175 ], [ -82.544621583333338, 27.896477472222223 ] ] } },
{ "type": "Feature", "properties": { "style": "solid", "thickness": 1 }, "geometry": { "type": "LineString", "coordinates": [ [ -82.554141361111107, 27.877774083333335 ], [ -82.536386472222219, 27.877297555555558 ] ] } },
{ "type": "Feature", "properties": { "style": "solid", "thickness": 1 }, "geometry": { "type": "LineString", "coordinates": [ [ -82.545188055555556, 27.879773111111113 ], [ -82.545263888888883, 27.877536111111112 ], [ -82.545755194444439, 27.86306875 ] ] } },
{ "type": "Feature", "properties": { "style": "solid", "thickness": 1 }, "geometry": { "type": "LineString", "coordinates": [ [ -82.546322305555549, 27.846364333333334 ], [ -82.546866666666659, 27.830325 ], [ -82.546889333333326, 27.829659861111111 ] ] } },
{ "type": "Feature", "properties": { "style": "solid", "thickness": 1 }, "geometry": { "type": "LineString", "coordinates": [ [ -82.555745861111106, 27.830562861111112 ], [ -82.537998611111107, 27.830086555555557 ] ] } },
{ "type": "Feature", "properties": { "style": "solid", "thickness": 1 }, "geometry": { "type": "LineString", "coordinates": [ [ -82.547458444444445, 27.812955416666668 ], [ -82.54802736111111, 27.796250916666668 ] ] } },
{ "type": "Feature", "properties": { "style": "solid", "thickness": 1 }, "geometry": { "type": "LineString", "coordinates": [ [ -82.54859611111111, 27.779546361111109 ], [ -82.549164694444443, 27.76284175 ] ] } },
{ "type": "Feature", "properties": { "style": "solid", "thickness": 1 }, "geometry": { "type": "LineString", "coordinates": [ [ -82.557511055555551, 27.778446444444445 ], [ -82.539772305555559, 27.777969666666667 ] ] } },
{ "type": "Feature", "properties": { "style": "solid", "thickness": 1 }, "geometry": { "type": "LineString", "coordinates": [ [ -82.549733111111109, 27.746137111111111 ], [ -82.550301333333337, 27.729432416666665 ] ] } },
{ "type": "Feature", "properties": { "style": "solid", "thickness": 1 }, "geometry": { "type": "LineString", "coordinates": [ [ -82.550869416666657, 27.712727666666666 ], [ -82.551437305555552, 27.696022888888891 ] ] } },
{ "type": "Feature", "properties": { "style": "solid", "thickness": 1 }, "geometry": { "type": "LineString", "coordinates": [ [ -82.552005027777781, 27.679318083333335 ], [ -82.552572555555557, 27.662613194444443 ] ] } },
{ "type": "Feature", "properties": { "style": "solid", "thickness": 1 }, "geometry": { "type": "LineString", "coordinates": [ [ -82.540758388888889, 28.010243444444445 ], [ -82.540530555555549, 28.016925 ], [ -82.540190166666662, 28.026947361111109 ] ] } },
{ "type": "Feature", "properties": { "style": "solid", "thickness": 1 }, "geometry": { "type": "LineString", "coordinates": [ [ -82.539622722222219, 28.043651222222223 ], [ -82.539055111111111, 28.060355027777778 ] ] } },
{ "type": "Feature", "properties": { "style": "solid", "thickness": 1 }, "geometry": { "type": "LineString", "coordinates": [ [ -82.538487305555549, 28.077058777777779 ], [ -82.537919333333335, 28.09376247222222 ] ] } },
{ "type": "Feature", "properties": { "style": "solid", "thickness": 1 }, "geometry": { "type": "LineString", "coordinates": [ [ -82.528999166666665, 28.09425625 ], [ -82.54678975, 28.094732055555554 ] ] } },
{ "type": "Feature", "properties": { "style": "solid", "thickness": 1 }, "geometry": { "type": "LineString", "coordinates": [ [ -82.537348611111113, 28.110466027777779 ], [ -82.536777583333333, 28.127169527777777 ] ] } },
{ "type": "Feature", "properties": { "style": "solid", "thickness": 1 }, "geometry": { "type": "LineString", "coordinates": [ [ -82.536206388888885, 28.143872972222223 ], [ -82.535758333333334, 28.156972222222223 ], [ -82.535635166666665, 28.160576333333331 ] ] } },
{ "type": "Feature", "properties": { "style": "solid", "thickness": 1 }, "geometry": { "type": "LineString", "coordinates": [ [ -82.526857944444444, 28.156733888888887 ], [ -82.54465875, 28.157209972222219 ] ] } },
{ "type": "Feature", "properties": { "style": "solid", "thickness": 1 }, "geometry": { "type": "LineString", "coordinates": [ [ -82.535064222222218, 28.177279666666667 ], [ -82.534493111111104, 28.193982916666666 ] ] } },
{ "type": "Feature", "properties": { "style": "solid", "thickness": 1 }, "geometry": { "type": "LineString", "coordinates": [ [ -82.533921833333338, 28.210686111111109 ], [ -82.533350361111104, 28.22738925 ] ] } },
{ "type": "Feature", "properties": { "style": "solid", "thickness": 1 }, "geometry": { "type": "LineString", "coordinates": [ [ -82.524418777777782, 28.227891444444442 ], [ -82.542231277777773, 28.22836908333333 ] ] } },
{ "type": "Feature", "properties": { "style": "solid", "thickness": 1 }, "geometry": { "type": "LineString", "coordinates": [ [ -82.532778722222218, 28.244092305555558 ], [ -82.532206916666667, 28.260795305555554 ] ] } },
{ "type": "Feature", "properties": { "style": "solid", "thickness": 1 }, "geometry": { "type": "LineString", "coordinates": [ [ -82.531634916666661, 28.277498222222221 ], [ -82.53106275, 28.294201083333334 ] ] } },
{ "type": "Feature", "properties": { "style": "solid", "thickness": 1 }, "geometry": { "type": "LineString", "coordinates": [ [ -82.530490388888893, 28.310903861111111 ], [ -82.529917861111116, 28.327606583333335 ] ] } },
{ "type": "Feature", "properties": { "style": "solid", "thickness": 1 }, "geometry": { "type": "LineString", "coordinates": [ [ -82.631086833333327, 27.853913694444447 ], [ -82.623873249999988, 27.867124805555555 ], [ -82.615196305555557, 27.854656444444444 ] ] } },
{ "type": "Feature", "properties": { "style": "solid", "thickness": 1 }, "geometry": { "type": "LineString", "coordinates": [ [ -82.52132575, 27.98779625 ], [ -82.52122133333333, 27.986020916666668 ] ] } },
{ "type": "Feature", "properties": { "style": "solid", "thickness": 1 }, "geometry": { "type": "LineString", "coordinates": [ [ -82.520822472222221, 27.988031166666669 ], [ -82.520693222222221, 27.985833805555558 ] ] } },
{ "type": "Feature", "properties": { "style": "solid", "thickness": 1 }, "geometry": { "type": "LineString", "coordinates": [ [ -82.52030675, 27.988055055555556 ], [ -82.520177527777776, 27.985857722222224 ] ] } },
{ "type": "Feature", "properties": { "style": "solid", "thickness": 1 }, "geometry": { "type": "LineString", "coordinates": [ [ -82.519778638888894, 27.987867972222222 ], [ -82.51967425, 27.986092611111111 ] ] } },
{ "type": "Feature", "properties": { "style": "solid", "thickness": 1 }, "geometry": { "type": "LineString", "coordinates": [ [ -82.519159194444441, 27.987006583333333 ], [ -82.519193222222228, 27.987218111111112 ], [ -82.519269277777781, 27.987420833333335 ], [ -82.519384888888894, 27.98760825 ], [ -82.519536305555548, 27.987774333333334 ], [ -82.51971875, 27.98791375 ], [ -82.51992627777777, 27.988022 ], [ -82.520152222222222, 27.988095611111113 ], [ -82.520389388888887, 27.98813225 ], [ -82.52063008333333, 27.988130694444447 ], [ -82.520866611111117, 27.988091 ], [ -82.521091333333331, 27.988014472222222 ], [ -82.521297083333337, 27.987903555555558 ], [ -82.521477194444444, 27.987761777777777 ], [ -82.521625888888892, 27.987593777777779 ], [ -82.521738388888892, 27.987404861111113 ], [ -82.521811111111106, 27.987201194444445 ], [ -82.521841694444447, 27.98698925 ], [ -82.52182913888889, 27.986775861111113 ], [ -82.521773861111114, 27.986567888888889 ], [ -82.521677638888889, 27.986372027777779 ], [ -82.521543583333326, 27.986194555555556 ], [ -82.521375972222216, 27.986041194444446 ], [ -82.521180222222227, 27.985916861111111 ], [ -82.520962583333329, 27.985825583333334 ], [ -82.520730111111106, 27.985770222222222 ], [ -82.520490222222222, 27.985752611111113 ], [ -82.520250638888882, 27.985773333333334 ], [ -82.520019083333338, 27.985831666666666 ], [ -82.519803, 27.98592577777778 ], [ -82.519609305555548, 27.986052611111113 ], [ -82.519444222222219, 27.986208138888891 ], [ -82.51931308333333, 27.986387305555557 ], [ -82.519220083333337, 27.98658438888889 ], [ -82.51916825, 27.986793055555555 ], [ -82.519159194444441, 27.987006583333333 ] ] } },
{ "type": "Feature", "properties": { "style": "solid", "thickness": 1 }, "geometry": { "type": "LineString", "coordinates": [ [ -82.643071361111112, 27.810207805555557 ], [ -82.64306975, 27.80843 ] ] } },
{ "type": "Feature", "properties": { "style": "solid", "thickness": 1 }, "geometry": { "type": "LineString", "coordinates": [ [ -82.642555972222226, 27.810419472222222 ], [ -82.642554027777791, 27.808219055555558 ] ] } },
{ "type": "Feature", "properties": { "style": "solid", "thickness": 1 }, "geometry": { "type": "LineString", "coordinates": [ [ -82.642040416666674, 27.810419833333334 ], [ -82.642038472222225, 27.808219416666667 ] ] } },
{ "type": "Feature", "properties": { "style": "solid", "thickness": 1 }, "geometry": { "type": "LineString", "coordinates": [ [ -82.641524666666669, 27.810208888888891 ], [ -82.641523111111113, 27.808431083333335 ] ] } },
{ "type": "Feature", "properties": { "style": "solid", "thickness": 1 }, "geometry": { "type": "LineString", "coordinates": [ [ -82.640956777777788, 27.809320388888889 ], [ -82.6409785, 27.809533194444445 ], [ -82.641042611111118, 27.80973911111111 ], [ -82.641147055555564, 27.809931555555558 ], [ -82.641288444444456, 27.810104333333335 ], [ -82.641462277777791, 27.810251888888889 ], [ -82.641662944444448, 27.810369472222224 ], [ -82.641884, 27.810453277777778 ], [ -82.642118333333343, 27.810500666666666 ], [ -82.642358416666667, 27.810510083333334 ], [ -82.642596527777783, 27.81048125 ], [ -82.642825027777789, 27.810415055555556 ], [ -82.643036555555568, 27.810313638888889 ], [ -82.643224333333336, 27.810180277777778 ], [ -82.643382305555562, 27.81001925 ], [ -82.643505388888897, 27.809835722222221 ], [ -82.643589666666671, 27.809635611111112 ], [ -82.643632361111116, 27.809425333333333 ], [ -82.64363219444445, 27.809211666666666 ], [ -82.643589083333339, 27.809001444444444 ], [ -82.643504472222233, 27.808801444444445 ], [ -82.643381027777778, 27.808618111111112 ], [ -82.64322277777778, 27.808457305555557 ], [ -82.643034777777785, 27.808324194444445 ], [ -82.64282308333334, 27.808223111111111 ], [ -82.642594472222228, 27.808157222222224 ], [ -82.642356305555566, 27.808128722222222 ], [ -82.64211625, 27.808138472222222 ], [ -82.641882, 27.808186194444446 ], [ -82.641661111111119, 27.808270305555556 ], [ -82.641460638888901, 27.808388166666667 ], [ -82.641287083333339, 27.808535972222224 ], [ -82.641145972222233, 27.808708916666667 ], [ -82.641041888888893, 27.808901527777778 ], [ -82.640978138888897, 27.809107555555556 ], [ -82.640956777777788, 27.809320388888889 ] ] } },
{ "type": "Feature", "properties": { "style": "solid", "thickness": 1 }, "geometry": { "type": "LineString", "coordinates": [ [ -82.625687583333331, 27.76941625 ], [ -82.625686277777774, 27.767638416666667 ] ] } },
{ "type": "Feature", "properties": { "style": "solid", "thickness": 1 }, "geometry": { "type": "LineString", "coordinates": [ [ -82.625172388888885, 27.769627833333331 ], [ -82.625170777777768, 27.767427416666667 ] ] } },
{ "type": "Feature", "properties": { "style": "solid", "thickness": 1 }, "geometry": { "type": "LineString", "coordinates": [ [ -82.624657, 27.769628138888887 ], [ -82.624655416666656, 27.767427722222223 ] ] } },
{ "type": "Feature", "properties": { "style": "solid", "thickness": 1 }, "geometry": { "type": "LineString", "coordinates": [ [ -82.62414147222222, 27.769417138888887 ], [ -82.624140194444436, 27.767639305555555 ] ] } },
{ "type": "Feature", "properties": { "style": "solid", "thickness": 1 }, "geometry": { "type": "LineString", "coordinates": [ [ -82.623573944444445, 27.768528555555555 ], [ -82.623595611111099, 27.768741361111111 ], [ -82.623659666666654, 27.768947305555553 ], [ -82.623764055555554, 27.76913975 ], [ -82.623905361111099, 27.769312555555555 ], [ -82.624079111111101, 27.769460111111112 ], [ -82.624279694444439, 27.76957772222222 ], [ -82.624500638888875, 27.769661583333331 ], [ -82.624734888888881, 27.769709 ], [ -82.624974861111099, 27.769718444444443 ], [ -82.625212916666655, 27.769689611111112 ], [ -82.625441333333328, 27.769623444444445 ], [ -82.625652805555546, 27.769522083333332 ], [ -82.625840527777768, 27.76938875 ], [ -82.625998444444434, 27.769227722222222 ], [ -82.626121527777769, 27.76904422222222 ], [ -82.62620577777777, 27.768844111111111 ], [ -82.626248527777776, 27.768633833333332 ], [ -82.626248361111109, 27.768420166666665 ], [ -82.626205305555544, 27.768209944444443 ], [ -82.62612075, 27.768009944444444 ], [ -82.625997416666664, 27.767826555555555 ], [ -82.62583925, 27.76766575 ], [ -82.625651333333323, 27.767532638888888 ], [ -82.625439722222211, 27.7674315 ], [ -82.625211194444432, 27.767365583333333 ], [ -82.624973138888876, 27.767337055555554 ], [ -82.624733166666658, 27.767346777777778 ], [ -82.624499, 27.767394444444445 ], [ -82.624278166666656, 27.767478555555556 ], [ -82.624077777777771, 27.767596388888887 ], [ -82.62390425, 27.767744166666667 ], [ -82.623763166666663, 27.76791711111111 ], [ -82.623659083333322, 27.768109694444444 ], [ -82.623595305555554, 27.768315722222223 ], [ -82.623573944444445, 27.768528555555555 ] ] } }
]
}
