{
"type": "FeatureCollection",
"name": "tpa145sgp",
"features": [
{ "type": "Feature", "properties": { "style": "solid", "thickness": 1 }, "geometry": { "type": "LineString", "coordinates": [ [ -82.447978972222231, 27.692319666666666 ], [ -82.448172861111118, 27.694254694444446 ], [ -82.448751833333333, 27.696127833333332 ], [ -82.449697277777787, 27.697878833333334 ], [ -82.450978833333338, 27.699451416666665 ], [ -82.452555277777776, 27.700795027777776 ], [ -82.454376, 27.7018665 ], [ -82.456382416666671, 27.702631361111109 ], [ -82.458510055555564, 27.703065 ], [ -82.4606905, 27.703153527777776 ], [ -82.462853666666675, 27.702894083333334 ], [ -82.46493, 27.702294972222223 ], [ -82.46685275, 27.7013755 ], [ -82.46856008333333, 27.700165194444445 ], [ -82.469997166666673, 27.698703 ], [ -82.471117777777778, 27.697035888888887 ], [ -82.471885944444452, 27.695217444444445 ], [ -82.472276944444445, 27.693306166666666 ], [ -82.47227825, 27.691363444444445 ], [ -82.471889833333336, 27.689451722222223 ], [ -82.47112422222223, 27.687632444444446 ], [ -82.470006027777785, 27.685964111111112 ], [ -82.468571194444451, 27.684500305555556 ], [ -82.466865861111117, 27.683288055555558 ], [ -82.464944777777774, 27.682366361111111 ], [ -82.46286975, 27.681764777777779 ], [ -82.460707416666665, 27.681502666666667 ], [ -82.45852725, 27.681588472222224 ], [ -82.456399305555564, 27.68201941666667 ], [ -82.454391972222226, 27.682781638888891 ], [ -82.452569777777782, 27.683850638888888 ], [ -82.450991222222228, 27.68519211111111 ], [ -82.449707083333337, 27.686762916666666 ], [ -82.448758611111117, 27.688512583333335 ], [ -82.448176333333336, 27.690384888888889 ], [ -82.447978972222231, 27.692319666666666 ] ] } },
{ "type": "Feature", "properties": { "style": "solid", "thickness": 1 }, "geometry": { "type": "LineString", "coordinates": [ [ -82.422197722222222, 27.705217611111109 ], [ -82.415642944444457, 27.977324722222221 ] ] } },
{ "type": "Feature", "properties": { "style": "solid", "thickness": 1 }, "geometry": { "type": "LineString", "coordinates": [ [ -82.514496805555552, 27.688079166666668 ], [ -82.514831527777773, 27.698545222222222 ] ] } },
{ "type": "Feature", "properties": { "style": "solid", "thickness": 1 }, "geometry": { "type": "LineString", "coordinates": [ [ -82.522640472222221, 27.691831861111112 ], [ -82.523086138888885, 27.69441025 ] ] } },
{ "type": "Feature", "properties": { "style": "solid", "thickness": 1 }, "geometry": { "type": "LineString", "coordinates": [ [ -82.52406525, 27.692504583333335 ], [ -82.5239325, 27.693602666666667 ] ] } },
{ "type": "Feature", "properties": { "style": "solid", "thickness": 1 }, "geometry": { "type": "LineString", "coordinates": [ [ -82.518469277777783, 27.689815833333334 ], [ -82.518486666666661, 27.69678877777778 ] ] } },
{ "type": "Feature", "properties": { "style": "solid", "thickness": 1 }, "geometry": { "type": "LineString", "coordinates": [ [ -82.519692944444444, 27.690300777777779 ], [ -82.519634694444449, 27.696262916666665 ] ] } },
{ "type": "Feature", "properties": { "style": "solid", "thickness": 1 }, "geometry": { "type": "LineString", "coordinates": [ [ -82.520394166666662, 27.691049777777778 ], [ -82.52068216666666, 27.695643166666667 ] ] } },
{ "type": "Feature", "properties": { "style": "solid", "thickness": 1 }, "geometry": { "type": "LineString", "coordinates": [ [ -82.513886222222226, 27.687790805555554 ], [ -82.514095527777783, 27.699079888888889 ] ] } },
{ "type": "Feature", "properties": { "style": "solid", "thickness": 1 }, "geometry": { "type": "LineString", "coordinates": [ [ -82.515617416666672, 27.688561944444444 ], [ -82.515979583333333, 27.698019388888888 ] ] } },
{ "type": "Feature", "properties": { "style": "solid", "thickness": 1 }, "geometry": { "type": "LineString", "coordinates": [ [ -82.516532055555558, 27.689040305555555 ], [ -82.516504611111117, 27.697663694444444 ] ] } },
{ "type": "Feature", "properties": { "style": "solid", "thickness": 1 }, "geometry": { "type": "LineString", "coordinates": [ [ -82.521622805555552, 27.691351333333333 ], [ -82.521943111111113, 27.69475275 ] ] } },
{ "type": "Feature", "properties": { "style": "solid", "thickness": 1 }, "geometry": { "type": "LineString", "coordinates": [ [ -82.517145111111105, 27.689236944444445 ], [ -82.517755666666659, 27.697140055555554 ] ] } },
{ "type": "Feature", "properties": { "style": "solid", "thickness": 1 }, "geometry": { "type": "LineString", "coordinates": [ [ -82.512976611111114, 27.687129055555555 ], [ -82.513263944444446, 27.69933725 ] ] } },
{ "type": "Feature", "properties": { "style": "solid", "thickness": 1 }, "geometry": { "type": "LineString", "coordinates": [ [ -82.512569555555558, 27.686936833333334 ], [ -82.525387027777782, 27.693175083333333 ], [ -82.512635916666667, 27.699690722222222 ], [ -82.512569555555558, 27.686936833333334 ] ] } },
{ "type": "Feature", "properties": { "style": "solid", "thickness": 1 }, "geometry": { "type": "LineString", "coordinates": [ [ -82.472325277777784, 27.692488222222224 ], [ -82.512611138888886, 27.693011555555557 ] ] } },
{ "type": "Feature", "properties": { "style": "solid", "thickness": 1 }, "geometry": { "type": "LineString", "coordinates": [ [ -82.43756675, 27.69202725 ], [ -82.447980305555561, 27.69216627777778 ] ] } },
{ "type": "Feature", "properties": { "style": "solid", "thickness": 1 }, "geometry": { "type": "LineString", "coordinates": [ [ -82.259546694444438, 27.54325313888889 ], [ -82.411996055555562, 27.682249444444444 ] ] } },
{ "type": "Feature", "properties": { "style": "solid", "thickness": 1 }, "geometry": { "type": "LineString", "coordinates": [ [ -82.238746388888885, 27.535606916666669 ], [ -82.238936333333328, 27.537542277777778 ], [ -82.239510944444447, 27.539416277777779 ], [ -82.240451694444445, 27.541168722222224 ], [ -82.241728444444448, 27.542743277777781 ], [ -82.243300083333338, 27.544089277777779 ], [ -82.245116166666662, 27.5451635 ], [ -82.24711825, 27.545931388888892 ], [ -82.249242027777782, 27.54636825 ], [ -82.251419194444438, 27.546460055555556 ], [ -82.25357975, 27.546203861111113 ], [ -82.25565425, 27.545607888888892 ], [ -82.257576, 27.54469127777778 ], [ -82.259283222222223, 27.543483527777781 ], [ -82.260721, 27.542023472222223 ], [ -82.261843194444438, 27.540358 ], [ -82.262613666666667, 27.538540722222223 ], [ -82.26300775, 27.536629972222222 ], [ -82.26301275, 27.534687222222225 ], [ -82.262628527777778, 27.532774888888888 ], [ -82.261867444444448, 27.530954444444443 ], [ -82.260754027777779, 27.52928438888889 ], [ -82.259324, 27.527818416666666 ], [ -82.257623388888888, 27.526603583333333 ], [ -82.255706833333335, 27.52567897222222 ], [ -82.253635888888894, 27.52507425 ], [ -82.251477138888887, 27.524808916666665 ], [ -82.249299916666672, 27.524891416666666 ], [ -82.247174222222228, 27.525319166666666 ], [ -82.245168305555552, 27.526078361111111 ], [ -82.243346666666667, 27.527144666666665 ], [ -82.241767833333341, 27.528483777777776 ], [ -82.240482555555559, 27.530052694444443 ], [ -82.23953213888889, 27.531800944444445 ], [ -82.238947138888889, 27.533672416666668 ], [ -82.238746388888885, 27.535606916666669 ] ] } },
{ "type": "Feature", "properties": { "style": "solid", "thickness": 1 }, "geometry": { "type": "LineString", "coordinates": [ [ -82.305238583333335, 27.539130416666669 ], [ -82.303701527777775, 27.549510888888889 ] ] } },
{ "type": "Feature", "properties": { "style": "solid", "thickness": 1 }, "geometry": { "type": "LineString", "coordinates": [ [ -82.312598388888887, 27.543988111111112 ], [ -82.312577805555549, 27.546596805555556 ] ] } },
{ "type": "Feature", "properties": { "style": "solid", "thickness": 1 }, "geometry": { "type": "LineString", "coordinates": [ [ -82.31388311111111, 27.544853944444448 ], [ -82.313556361111111, 27.545919305555557 ] ] } },
{ "type": "Feature", "properties": { "style": "solid", "thickness": 1 }, "geometry": { "type": "LineString", "coordinates": [ [ -82.308845444444444, 27.541407305555555 ], [ -82.307618638888883, 27.548294111111112 ] ] } },
{ "type": "Feature", "properties": { "style": "solid", "thickness": 1 }, "geometry": { "type": "LineString", "coordinates": [ [ -82.309965416666657, 27.542059305555558 ], [ -82.308844333333326, 27.547937416666667 ] ] } },
{ "type": "Feature", "properties": { "style": "solid", "thickness": 1 }, "geometry": { "type": "LineString", "coordinates": [ [ -82.310523138888882, 27.542898027777781 ], [ -82.309987666666657, 27.547473805555558 ] ] } },
{ "type": "Feature", "properties": { "style": "solid", "thickness": 1 }, "geometry": { "type": "LineString", "coordinates": [ [ -82.304688055555559, 27.538759333333335 ], [ -82.3028805, 27.549934555555556 ] ] } },
{ "type": "Feature", "properties": { "style": "solid", "thickness": 1 }, "geometry": { "type": "LineString", "coordinates": [ [ -82.306257333333335, 27.539765694444448 ], [ -82.304927277777779, 27.549154222222224 ] ] } },
{ "type": "Feature", "properties": { "style": "solid", "thickness": 1 }, "geometry": { "type": "LineString", "coordinates": [ [ -82.307073777777774, 27.540367416666669 ], [ -82.305508333333336, 27.548877361111114 ] ] } },
{ "type": "Feature", "properties": { "style": "solid", "thickness": 1 }, "geometry": { "type": "LineString", "coordinates": [ [ -82.311680722222221, 27.54336963888889 ], [ -82.311389722222216, 27.546773166666668 ] ] } },
{ "type": "Feature", "properties": { "style": "solid", "thickness": 1 }, "geometry": { "type": "LineString", "coordinates": [ [ -82.307643138888892, 27.540648361111113 ], [ -82.306835222222219, 27.548537472222225 ] ] } },
{ "type": "Feature", "properties": { "style": "solid", "thickness": 1 }, "geometry": { "type": "LineString", "coordinates": [ [ -82.30390925, 27.537977222222224 ], [ -82.302014694444438, 27.550070972222223 ] ] } },
{ "type": "Feature", "properties": { "style": "solid", "thickness": 1 }, "geometry": { "type": "LineString", "coordinates": [ [ -82.303542222222219, 27.537729805555557 ], [ -82.315066722222213, 27.545703 ], [ -82.301332416666668, 27.550331055555557 ], [ -82.303542222222219, 27.537729805555557 ] ] } },
{ "type": "Feature", "properties": { "style": "solid", "thickness": 1 }, "geometry": { "type": "LineString", "coordinates": [ [ -82.262874722222222, 27.537514555555557 ], [ -82.302499583333329, 27.54373325 ] ] } },
{ "type": "Feature", "properties": { "style": "solid", "thickness": 1 }, "geometry": { "type": "LineString", "coordinates": [ [ -81.847568361111101, 27.093523416666667 ], [ -82.071892444444444, 27.358355527777778 ] ] } },
{ "type": "Feature", "properties": { "style": "solid", "thickness": 1 }, "geometry": { "type": "LineString", "coordinates": [ [ -82.158983083333339, 27.451278972222223 ], [ -82.242570611111105, 27.527742916666664 ] ] } },
{ "type": "Feature", "properties": { "style": "solid", "thickness": 1 }, "geometry": { "type": "LineString", "coordinates": [ [ -82.090539972222217, 27.379339277777778 ], [ -82.138915888888889, 27.431375833333334 ] ] } },
{ "type": "Feature", "properties": { "style": "solid", "thickness": 1 }, "geometry": { "type": "LineString", "coordinates": [ [ -81.383412972222231, 26.984014222222225 ], [ -81.823993916666666, 27.079702444444443 ] ] } },
{ "type": "Feature", "properties": { "style": "solid", "thickness": 1 }, "geometry": { "type": "LineString", "coordinates": [ [ -81.328166888888887, 26.717698611111111 ], [ -81.826828361111112, 27.074501388888887 ] ] } },
{ "type": "Feature", "properties": { "style": "solid", "thickness": 1 }, "geometry": { "type": "LineString", "coordinates": [ [ -81.772610027777773, 26.526476888888887 ], [ -81.8369585, 27.069515416666665 ] ] } },
{ "type": "Feature", "properties": { "style": "solid", "thickness": 1 }, "geometry": { "type": "LineString", "coordinates": [ [ -82.4225045, 28.196765833333334 ], [ -82.422310055555556, 28.194829972222223 ], [ -82.421728583333334, 28.192955972222222 ], [ -82.420778805555557, 28.191204083333332 ], [ -82.41949127777778, 28.189630583333333 ], [ -82.417907333333332, 28.188286055555555 ], [ -82.416077944444453, 28.187213666666668 ], [ -82.414061888888895, 28.186447916666665 ], [ -82.411923888888893, 28.186013416666668 ], [ -82.40973272222223, 28.185924083333333 ], [ -82.40755875, 28.186182833333334 ], [ -82.405471833333337, 28.186781305555556 ], [ -82.403539055555555, 28.187700305555556 ], [ -82.401822472222221, 28.188910277777779 ], [ -82.400377305555565, 28.190372388888889 ], [ -82.399249972222222, 28.192039611111113 ], [ -82.398476722222227, 28.193858361111111 ], [ -82.398082444444455, 28.195770222222222 ], [ -82.398079805555568, 28.197713722222222 ], [ -82.398468916666673, 28.199626416666668 ], [ -82.399237305555559, 28.201446805555555 ], [ -82.400360277777779, 28.203116388888887 ], [ -82.40180175, 28.204581472222223 ], [ -82.403515388888891, 28.205795 ], [ -82.405446138888891, 28.206717944444442 ], [ -82.40753191666667, 28.207320611111111 ], [ -82.409705666666667, 28.207583638888888 ], [ -82.4118975, 28.207498583333333 ], [ -82.414036944444447, 28.207068138888889 ], [ -82.416055222222226, 28.206306194444444 ], [ -82.417887444444446, 28.20523725 ], [ -82.419474722222233, 28.203895611111111 ], [ -82.420766055555561, 28.202324444444443 ], [ -82.421719916666675, 28.200574277777775 ], [ -82.422305666666674, 28.198701333333332 ], [ -82.4225045, 28.196765833333334 ] ] } },
{ "type": "Feature", "properties": { "style": "solid", "thickness": 1 }, "geometry": { "type": "LineString", "coordinates": [ [ -82.414995444444443, 28.004108583333334 ], [ -82.41058847222223, 28.185917416666666 ] ] } },
{ "type": "Feature", "properties": { "style": "solid", "thickness": 1 }, "geometry": { "type": "LineString", "coordinates": [ [ -82.410324888888894, 28.207607361111112 ], [ -82.410324666666668, 28.230177027777778 ] ] } },
{ "type": "Feature", "properties": { "style": "solid", "thickness": 1 }, "geometry": { "type": "LineString", "coordinates": [ [ -82.416206472222228, 28.231923777777777 ], [ -82.404387166666666, 28.232099194444444 ] ] } },
{ "type": "Feature", "properties": { "style": "solid", "thickness": 1 }, "geometry": { "type": "LineString", "coordinates": [ [ -82.411874027777785, 28.239127722222221 ], [ -82.40895775, 28.239494 ] ] } },
{ "type": "Feature", "properties": { "style": "solid", "thickness": 1 }, "geometry": { "type": "LineString", "coordinates": [ [ -82.411097666666677, 28.240387833333333 ], [ -82.40985950000001, 28.24025677777778 ] ] } },
{ "type": "Feature", "properties": { "style": "solid", "thickness": 1 }, "geometry": { "type": "LineString", "coordinates": [ [ -82.41751861111112, 28.230221805555555 ], [ -82.410325027777787, 28.241556277777779 ], [ -82.403119916666668, 28.230131805555555 ], [ -82.41751861111112, 28.230221805555555 ] ] } },
{ "type": "Feature", "properties": { "style": "solid", "thickness": 1 }, "geometry": { "type": "LineString", "coordinates": [ [ -82.41419925000001, 28.235439055555556 ], [ -82.406326888888898, 28.235372694444447 ] ] } },
{ "type": "Feature", "properties": { "style": "solid", "thickness": 1 }, "geometry": { "type": "LineString", "coordinates": [ [ -82.413637333333341, 28.236522444444446 ], [ -82.406906972222231, 28.236400555555555 ] ] } },
{ "type": "Feature", "properties": { "style": "solid", "thickness": 1 }, "geometry": { "type": "LineString", "coordinates": [ [ -82.4127835, 28.237137722222222 ], [ -82.40759427777779, 28.237340055555556 ] ] } },
{ "type": "Feature", "properties": { "style": "solid", "thickness": 1 }, "geometry": { "type": "LineString", "coordinates": [ [ -82.416539138888893, 28.231383722222219 ], [ -82.403792277777782, 28.231437916666664 ] ] } },
{ "type": "Feature", "properties": { "style": "solid", "thickness": 1 }, "geometry": { "type": "LineString", "coordinates": [ [ -82.415648305555564, 28.232915527777777 ], [ -82.404967222222226, 28.233127083333333 ] ] } },
{ "type": "Feature", "properties": { "style": "solid", "thickness": 1 }, "geometry": { "type": "LineString", "coordinates": [ [ -82.415097527777789, 28.233723972222222 ], [ -82.405362583333343, 28.233598472222223 ] ] } },
{ "type": "Feature", "properties": { "style": "solid", "thickness": 1 }, "geometry": { "type": "LineString", "coordinates": [ [ -82.412428555555564, 28.238227666666667 ], [ -82.408584611111124, 28.238472722222223 ] ] } },
{ "type": "Feature", "properties": { "style": "solid", "thickness": 1 }, "geometry": { "type": "LineString", "coordinates": [ [ -82.414868333333345, 28.234267305555555 ], [ -82.405938944444443, 28.234718 ] ] } },
{ "type": "Feature", "properties": { "style": "solid", "thickness": 1 }, "geometry": { "type": "LineString", "coordinates": [ [ -82.417296833333339, 28.230581833333332 ], [ -82.403511527777781, 28.230694861111111 ] ] } },
{ "type": "Feature", "properties": { "style": "solid", "thickness": 1 }, "geometry": { "type": "LineString", "coordinates": [ [ -82.410057416666675, 27.990712527777777 ], [ -82.410141111111116, 27.991546611111112 ], [ -82.410391277777777, 27.992354027777779 ], [ -82.410799833333343, 27.993108833333334 ], [ -82.411353638888897, 27.99378675 ], [ -82.412034944444457, 27.994365972222223 ], [ -82.412821833333339, 27.994827916666669 ], [ -82.413688972222232, 27.995157722222224 ], [ -82.41460855555556, 27.995344777777778 ], [ -82.415550972222235, 27.995383055555557 ], [ -82.416485972222233, 27.995271361111111 ], [ -82.417383444444454, 27.99501327777778 ], [ -82.418214583333338, 27.994617083333335 ], [ -82.418952666666669, 27.99409552777778 ], [ -82.419573944444451, 27.993465361111113 ], [ -82.420058472222223, 27.992746861111112 ], [ -82.42039069444445, 27.991963111111112 ], [ -82.420559916666676, 27.991139305555556 ], [ -82.420560694444447, 27.99030188888889 ], [ -82.420393, 27.989477833333336 ], [ -82.42006225, 27.988693583333333 ], [ -82.419579083333332, 27.987974361111114 ], [ -82.418959027777788, 27.987343305555555 ], [ -82.418221972222227, 27.98682063888889 ], [ -82.417391666666674, 27.986423194444445 ], [ -82.416494750000012, 27.98616375 ], [ -82.415560055555559, 27.986050638888891 ], [ -82.414617638888899, 27.986087472222223 ], [ -82.413697777777784, 27.986273083333334 ], [ -82.412830027777787, 27.986601527777779 ], [ -82.412042305555559, 27.987062222222225 ], [ -82.411359861111123, 27.987640388888892 ], [ -82.410804694444451, 27.988317416666668 ], [ -82.410394611111116, 27.989071555555558 ], [ -82.410142833333339, 27.989878555555556 ], [ -82.410057416666675, 27.990712527777777 ] ] } },
{ "type": "Feature", "properties": { "style": "solid", "thickness": 1 }, "geometry": { "type": "LineString", "coordinates": [ [ -82.403144083333345, 27.991270944444445 ], [ -82.405467111111122, 27.990882694444444 ], [ -82.407669277777785, 27.990120027777778 ], [ -82.409674722222235, 27.989009277777779 ], [ -82.411414361111113, 27.987588666666667 ], [ -82.412828277777777, 27.985907138888891 ], [ -82.413867777777781, 27.984022611111111 ], [ -82.414497055555557, 27.982000055555552 ], [ -82.414694472222223, 27.979909083333332 ] ] } },
{ "type": "Feature", "properties": { "style": "solid", "thickness": 1 }, "geometry": { "type": "LineString", "coordinates": [ [ -82.414694472222223, 27.979909083333332 ], [ -82.415132027777787, 27.981971111111111 ], [ -82.415991305555565, 27.983925861111111 ], [ -82.417242694444454, 27.985705972222224 ], [ -82.418843138888889, 27.987250138888889 ], [ -82.4207375, 27.98850513888889 ], [ -82.422860527777786, 27.989427777777777 ], [ -82.425139083333335, 27.98998625 ], [ -82.427494666666675, 27.990161305555556 ] ] } },
{ "type": "Feature", "properties": { "style": "solid", "thickness": 1 }, "geometry": { "type": "LineString", "coordinates": [ [ -82.415944555555555, 28.001524222222223 ], [ -82.416141972222235, 27.99943325 ], [ -82.416771305555557, 27.997410694444444 ], [ -82.417810833333334, 27.995526166666668 ], [ -82.41922475, 27.993844555555558 ], [ -82.420964333333345, 27.992423833333334 ], [ -82.422969694444447, 27.991312861111112 ], [ -82.42517175, 27.990549944444446 ], [ -82.427494666666675, 27.990161305555556 ] ] } },
{ "type": "Feature", "properties": { "style": "solid", "thickness": 1 }, "geometry": { "type": "LineString", "coordinates": [ [ -82.415944555555555, 28.001524222222223 ], [ -82.415506888888899, 27.999462194444444 ], [ -82.4146475, 27.997507472222225 ], [ -82.413396027777779, 27.995727333333335 ], [ -82.411795527777784, 27.994183111111113 ], [ -82.409901166666671, 27.992927972222223 ], [ -82.407778194444447, 27.992005138888889 ], [ -82.405499666666671, 27.991446388888889 ], [ -82.403144083333345, 27.991270944444445 ] ] } },
{ "type": "Feature", "properties": { "style": "solid", "thickness": 1 }, "geometry": { "type": "LineString", "coordinates": [ [ -82.45490508333333, 27.692325361111113 ], [ -82.454988916666665, 27.693159472222224 ], [ -82.455238694444446, 27.693966833333334 ], [ -82.455646444444454, 27.694721555555557 ], [ -82.456199055555558, 27.695399305555554 ], [ -82.45687875, 27.695978361111113 ], [ -82.457663666666676, 27.696440055555556 ], [ -82.45852861111112, 27.696769583333335 ], [ -82.45944575, 27.696956361111113 ], [ -82.460385611111107, 27.696994333333333 ], [ -82.461318, 27.696882333333335 ], [ -82.462212944444445, 27.696623944444443 ], [ -82.463041638888896, 27.696227444444446 ], [ -82.4637775, 27.695705638888889 ], [ -82.464396833333339, 27.695075222222222 ], [ -82.46487975, 27.694356527777778 ], [ -82.465210722222224, 27.693572638888888 ], [ -82.465379138888892, 27.692748722222223 ], [ -82.465379555555558, 27.691911277777777 ], [ -82.465212, 27.691087222222222 ], [ -82.464881833333337, 27.690303055555557 ], [ -82.464399694444452, 27.689583944444443 ], [ -82.463781055555557, 27.688953055555555 ], [ -82.463045805555552, 27.688430611111112 ], [ -82.462217583333342, 27.688033416666666 ], [ -82.461323, 27.68777425 ], [ -82.460390805555562, 27.687661416666668 ], [ -82.459450972222228, 27.687698583333333 ], [ -82.458533694444441, 27.6878845 ], [ -82.457668444444451, 27.68821325 ], [ -82.456883027777778, 27.688674222222222 ], [ -82.45620272222223, 27.689252638888888 ], [ -82.455649333333341, 27.689929861111111 ], [ -82.455240694444441, 27.690684194444444 ], [ -82.454989916666676, 27.691491333333335 ], [ -82.45490508333333, 27.692325361111113 ] ] } },
{ "type": "Feature", "properties": { "style": "solid", "thickness": 1 }, "geometry": { "type": "LineString", "coordinates": [ [ -82.448010833333342, 27.692886083333335 ], [ -82.450327361111107, 27.692497055555556 ], [ -82.452523222222226, 27.691733638888888 ], [ -82.45452275000001, 27.690622138888891 ], [ -82.456257055555554, 27.689200888888887 ], [ -82.457666416666669, 27.687518805555555 ], [ -82.458702277777775, 27.685633861111111 ], [ -82.459329, 27.683610972222223 ], [ -82.459525027777786, 27.681519833333333 ] ] } },
{ "type": "Feature", "properties": { "style": "solid", "thickness": 1 }, "geometry": { "type": "LineString", "coordinates": [ [ -82.459525027777786, 27.681519833333333 ], [ -82.45996225, 27.683581833333335 ], [ -82.460819972222225, 27.685536388888888 ], [ -82.462068722222227, 27.687316194444445 ], [ -82.463665444444445, 27.688859916666665 ], [ -82.465555166666675, 27.69011436111111 ], [ -82.467672777777778, 27.691036361111113 ], [ -82.469945361111115, 27.691594111111112 ], [ -82.47229461111111, 27.691768416666665 ] ] } },
{ "type": "Feature", "properties": { "style": "solid", "thickness": 1 }, "geometry": { "type": "LineString", "coordinates": [ [ -82.460780666666665, 27.703135694444445 ], [ -82.460976666666667, 27.701044555555555 ], [ -82.461603444444449, 27.699021666666667 ], [ -82.462639361111115, 27.697136694444445 ], [ -82.46404872222223, 27.695454555555557 ], [ -82.465783, 27.694033194444444 ], [ -82.467782416666665, 27.6929215 ], [ -82.469978166666664, 27.692157805555556 ], [ -82.47229461111111, 27.691768416666665 ] ] } },
{ "type": "Feature", "properties": { "style": "solid", "thickness": 1 }, "geometry": { "type": "LineString", "coordinates": [ [ -82.460780666666665, 27.703135694444445 ], [ -82.460343333333341, 27.701073694444442 ], [ -82.4594855, 27.699119138888889 ], [ -82.458236666666664, 27.697339333333332 ], [ -82.456639888888887, 27.695795555555556 ], [ -82.45475016666667, 27.694540972222221 ], [ -82.45263258333334, 27.693618777777779 ], [ -82.450360055555564, 27.69306075 ], [ -82.448010833333342, 27.692886083333335 ] ] } },
{ "type": "Feature", "properties": { "style": "solid", "thickness": 1 }, "geometry": { "type": "LineString", "coordinates": [ [ -82.417271583333331, 27.691821222222224 ], [ -82.417355166666667, 27.692655388888888 ], [ -82.417604694444449, 27.693462861111112 ], [ -82.418012222222231, 27.694217694444443 ], [ -82.418564611111123, 27.694895611111111 ], [ -82.419244138888899, 27.695474861111112 ], [ -82.420028916666666, 27.695936777777778 ], [ -82.420893777777778, 27.696266527777777 ], [ -82.421810888888899, 27.696453527777777 ], [ -82.422750777777779, 27.696491777777776 ], [ -82.423683222222223, 27.69638 ], [ -82.424578277777783, 27.696121833333333 ], [ -82.4254071388889, 27.695725555555555 ], [ -82.426143166666677, 27.695203888888891 ], [ -82.426762722222222, 27.69457363888889 ], [ -82.427245888888891, 27.693855027777779 ], [ -82.427577138888893, 27.693071194444446 ], [ -82.42774580555556, 27.692247305555554 ], [ -82.427746527777785, 27.691409833333335 ], [ -82.427579222222221, 27.690585694444444 ], [ -82.427249305555563, 27.689801416666668 ], [ -82.426767361111118, 27.689082166666665 ], [ -82.426148916666676, 27.688451083333334 ], [ -82.425413805555564, 27.687928444444445 ], [ -82.424585694444445, 27.687531027777776 ], [ -82.423691166666671, 27.687271611111111 ], [ -82.422759, 27.687158555555555 ], [ -82.421819138888893, 27.687195472222221 ], [ -82.42090175, 27.687381166666668 ], [ -82.420036388888889, 27.687709694444443 ], [ -82.419250805555563, 27.6881705 ], [ -82.418570277777789, 27.68874875 ], [ -82.418016638888901, 27.689425861111111 ], [ -82.41760775, 27.690180083333335 ], [ -82.41735669444445, 27.690987194444446 ], [ -82.417271583333331, 27.691821222222224 ] ] } },
{ "type": "Feature", "properties": { "style": "solid", "thickness": 1 }, "geometry": { "type": "LineString", "coordinates": [ [ -82.410376972222224, 27.692380222222223 ], [ -82.412693694444457, 27.69199175 ], [ -82.414889861111121, 27.69122888888889 ], [ -82.416889805555556, 27.690117888888889 ], [ -82.418624611111113, 27.688697 ], [ -82.42003455555556, 27.68701525 ], [ -82.421071055555558, 27.6851305 ], [ -82.421698444444445, 27.683107722222225 ], [ -82.4218951388889, 27.681016555555559 ] ] } },
{ "type": "Feature", "properties": { "style": "solid", "thickness": 1 }, "geometry": { "type": "LineString", "coordinates": [ [ -82.4218951388889, 27.681016555555559 ], [ -82.422331722222225, 27.683078722222223 ], [ -82.423188861111115, 27.685033583333333 ], [ -82.424437055555558, 27.68681375 ], [ -82.426033305555563, 27.688357916666668 ], [ -82.427922694444447, 27.689612888888888 ], [ -82.430040083333338, 27.690535444444446 ], [ -82.432312555555555, 27.691093805555557 ], [ -82.434661805555564, 27.691268694444446 ] ] } },
{ "type": "Feature", "properties": { "style": "solid", "thickness": 1 }, "geometry": { "type": "LineString", "coordinates": [ [ -82.423143861111114, 27.702633416666664 ], [ -82.423340555555555, 27.700542277777778 ], [ -82.423968, 27.698519472222223 ], [ -82.42500455555556, 27.696634722222221 ], [ -82.4264145, 27.694952888888889 ], [ -82.428149277777777, 27.693531888888888 ], [ -82.43014911111112, 27.692420694444444 ], [ -82.432345166666678, 27.691657527777778 ], [ -82.434661805555564, 27.691268694444446 ] ] } },
{ "type": "Feature", "properties": { "style": "solid", "thickness": 1 }, "geometry": { "type": "LineString", "coordinates": [ [ -82.423143861111114, 27.702633416666664 ], [ -82.422707194444456, 27.70057125 ], [ -82.421849944444446, 27.698616416666667 ], [ -82.42060166666667, 27.696836222222224 ], [ -82.419005361111118, 27.695292 ], [ -82.41711597222222, 27.694036888888888 ], [ -82.414998638888889, 27.693114138888888 ], [ -82.412726222222233, 27.6925555 ], [ -82.410376972222224, 27.692380222222223 ] ] } },
{ "type": "Feature", "properties": { "style": "solid", "thickness": 1 }, "geometry": { "type": "LineString", "coordinates": [ [ -82.497233083333327, 27.677017083333336 ], [ -82.4976505, 27.677237833333333 ], [ -82.498128166666675, 27.67733575 ], [ -82.499741888888892, 27.677261 ], [ -82.500340027777781, 27.67711325 ], [ -82.50053825, 27.677044055555555 ], [ -82.501515305555557, 27.676458583333336 ], [ -82.502085444444447, 27.675831944444447 ], [ -82.502252138888892, 27.675224 ], [ -82.502659805555552, 27.674124722222224 ], [ -82.502579277777784, 27.672747944444446 ], [ -82.502406305555553, 27.672095722222224 ], [ -82.502173111111105, 27.671566333333335 ], [ -82.501869166666665, 27.670980222222223 ], [ -82.501158333333336, 27.670352916666669 ], [ -82.499845888888885, 27.66981352777778 ], [ -82.498961361111114, 27.669674444444446 ], [ -82.498221805555559, 27.669708694444445 ], [ -82.497291027777777, 27.669931861111113 ], [ -82.496965333333335, 27.670127027777777 ], [ -82.496703416666662, 27.670259194444444 ] ] } },
{ "type": "Feature", "properties": { "style": "solid", "thickness": 1 }, "geometry": { "type": "LineString", "coordinates": [ [ -82.491718583333338, 27.673791111111111 ], [ -82.488472888888893, 27.670159944444446 ] ] } },
{ "type": "Feature", "properties": { "style": "solid", "thickness": 1 }, "geometry": { "type": "LineString", "coordinates": [ [ -82.493918833333339, 27.669907944444446 ], [ -82.494362833333341, 27.677510111111111 ], [ -82.491000888888891, 27.677665694444446 ], [ -82.490724972222225, 27.677558416666667 ], [ -82.490105833333331, 27.677346972222225 ], [ -82.48946575, 27.676776361111113 ], [ -82.489161861111114, 27.676190222222225 ], [ -82.48911994444444, 27.67547188888889 ], [ -82.489353972222219, 27.674860861111114 ], [ -82.489924166666668, 27.674234277777778 ], [ -82.490515305555562, 27.673966833333335 ], [ -82.490777277777781, 27.673834666666668 ], [ -82.494139083333337, 27.673679111111113 ] ] } },
{ "type": "Feature", "properties": { "style": "solid", "thickness": 1 }, "geometry": { "type": "LineString", "coordinates": [ [ -82.486159722222226, 27.677889583333336 ], [ -82.485807083333327, 27.67184375 ], [ -82.485722388888888, 27.671547555555556 ], [ -82.48521683333334, 27.670970722222222 ], [ -82.484859722222225, 27.670627111111113 ], [ -82.484307861111105, 27.670412527777778 ], [ -82.483564805555559, 27.670386833333335 ], [ -82.482489055555561, 27.670436555555558 ], [ -82.481887444444453, 27.670524388888889 ], [ -82.481098055555563, 27.670860944444446 ], [ -82.48065183333334, 27.671301722222225 ], [ -82.480403833333341, 27.671673305555558 ], [ -82.48030075, 27.67221825 ], [ -82.480646111111113, 27.678144361111112 ] ] } },
{ "type": "Feature", "properties": { "style": "solid", "thickness": 1 }, "geometry": { "type": "LineString", "coordinates": [ [ -82.477822083333336, 27.67827477777778 ], [ -82.477469888888891, 27.672228944444445 ], [ -82.477385222222225, 27.67193275 ], [ -82.476879694444449, 27.671355861111113 ], [ -82.476522611111108, 27.671012222222224 ], [ -82.475970777777775, 27.670797611111112 ], [ -82.475227722222229, 27.67077188888889 ], [ -82.474151972222231, 27.670821527777779 ], [ -82.473550333333336, 27.670909333333334 ], [ -82.472760944444445, 27.671245833333334 ], [ -82.472314666666662, 27.671686583333333 ], [ -82.47206663888889, 27.67205813888889 ], [ -82.471963527777774, 27.672603083333335 ], [ -82.472308444444451, 27.67852925 ] ] } },
{ "type": "Feature", "properties": { "style": "solid", "thickness": 1 }, "geometry": { "type": "LineString", "coordinates": [ [ -82.46908091666667, 27.678678083333335 ], [ -82.464508611111114, 27.678888833333335 ], [ -82.464477305555562, 27.678350083333335 ], [ -82.469112833333341, 27.671114 ], [ -82.469109333333336, 27.671054138888891 ], [ -82.46379775, 27.671298972222225 ] ] } },
{ "type": "Feature", "properties": { "style": "solid", "thickness": 1 }, "geometry": { "type": "LineString", "coordinates": [ [ -82.245662583333328, 27.535623027777781 ], [ -82.245744722222227, 27.53645725 ], [ -82.245992611111106, 27.537265027777778 ], [ -82.246398361111119, 27.538020361111112 ], [ -82.246948888888895, 27.538698972222225 ], [ -82.2476265, 27.539279027777781 ], [ -82.248409416666661, 27.539741916666667 ], [ -82.2492725, 27.54007277777778 ], [ -82.250187972222221, 27.540260916666668 ], [ -82.251126444444438, 27.540300305555558 ], [ -82.252057694444446, 27.540189722222223 ], [ -82.252951833333327, 27.539932666666669 ], [ -82.253780111111112, 27.539537416666668 ], [ -82.254515916666662, 27.539016694444445 ], [ -82.255135555555555, 27.538387222222223 ], [ -82.255619138888889, 27.537669222222224 ], [ -82.255951138888889, 27.536885805555556 ], [ -82.256120861111114, 27.536062138888891 ], [ -82.256122888888882, 27.535224694444445 ], [ -82.255957138888888, 27.534400361111114 ], [ -82.255628916666666, 27.533615694444446 ], [ -82.25514880555555, 27.532895861111111 ], [ -82.25453225, 27.532264 ], [ -82.253799055555561, 27.531740444444445 ], [ -82.252972777777771, 27.531342 ], [ -82.252079972222219, 27.5310815 ], [ -82.251149333333331, 27.530967277777776 ], [ -82.25021075, 27.531003 ], [ -82.249294444444445, 27.531187555555555 ], [ -82.24842980555556, 27.531515 ], [ -82.247644638888886, 27.531974805555553 ], [ -82.246964194444445, 27.532552194444442 ], [ -82.246410305555557, 27.53322861111111 ], [ -82.246000833333341, 27.533982333333334 ], [ -82.245748888888883, 27.534789111111113 ], [ -82.245662583333328, 27.535623027777781 ] ] } },
{ "type": "Feature", "properties": { "style": "solid", "thickness": 1 }, "geometry": { "type": "LineString", "coordinates": [ [ -82.238777138888892, 27.536173388888891 ], [ -82.24109108333333, 27.535787805555557 ], [ -82.24328525, 27.535027694444445 ], [ -82.245284027777785, 27.533919194444447 ], [ -82.247018555555556, 27.532500527777778 ], [ -82.248429083333335, 27.530820555555554 ], [ -82.249467055555556, 27.528937138888889 ], [ -82.250096722222224, 27.526915166666665 ], [ -82.250296416666671, 27.524824305555555 ] ] } },
{ "type": "Feature", "properties": { "style": "solid", "thickness": 1 }, "geometry": { "type": "LineString", "coordinates": [ [ -82.250296416666671, 27.524824305555555 ], [ -82.250729111111113, 27.526886972222222 ], [ -82.251581916666666, 27.528842861111109 ], [ -82.252825472222227, 27.530624555555555 ], [ -82.254417, 27.532170694444442 ], [ -82.256301638888885, 27.533428027777781 ], [ -82.2584145, 27.534353194444446 ], [ -82.26068275, 27.53491438888889 ], [ -82.263028305555551, 27.535092222222225 ] ] } },
{ "type": "Feature", "properties": { "style": "solid", "thickness": 1 }, "geometry": { "type": "LineString", "coordinates": [ [ -82.25150925, 27.546442361111112 ], [ -82.251708972222218, 27.544351472222225 ], [ -82.252338694444447, 27.5423295 ], [ -82.253376694444441, 27.540446055555556 ], [ -82.25478722222222, 27.538766027777779 ], [ -82.256521722222217, 27.53734725 ], [ -82.258520388888883, 27.536238555555556 ], [ -82.260714444444446, 27.535478166666667 ], [ -82.263028305555551, 27.535092222222225 ] ] } },
{ "type": "Feature", "properties": { "style": "solid", "thickness": 1 }, "geometry": { "type": "LineString", "coordinates": [ [ -82.25150925, 27.546442361111112 ], [ -82.251076472222223, 27.544379666666668 ], [ -82.25022355555555, 27.542423805555558 ], [ -82.248979888888883, 27.540642083333335 ], [ -82.247388333333333, 27.539095888888891 ], [ -82.245503694444452, 27.537838444444446 ], [ -82.243390888888896, 27.536913055555559 ], [ -82.241122666666669, 27.536351583333335 ], [ -82.238777138888892, 27.536173388888891 ] ] } },
{ "type": "Feature", "properties": { "style": "solid", "thickness": 1 }, "geometry": { "type": "LineString", "coordinates": [ [ -82.23807716666667, 27.554246 ], [ -82.239286222222219, 27.554192194444447 ], [ -82.239887388888889, 27.554105444444446 ], [ -82.24106625, 27.553512833333333 ], [ -82.242151111111113, 27.55244425 ], [ -82.2425105, 27.551648055555557 ], [ -82.242658305555551, 27.550681222222224 ], [ -82.242614694444441, 27.549902944444447 ], [ -82.242440083333335, 27.549190527777778 ], [ -82.242060638888887, 27.548427222222223 ], [ -82.241268138888884, 27.54750225 ], [ -82.24098269444444, 27.547214888888892 ], [ -82.24042525, 27.546879611111112 ], [ -82.239263333333341, 27.546571222222223 ], [ -82.237852861111108, 27.546633972222224 ], [ -82.23718791666667, 27.546783611111113 ], [ -82.236529666666669, 27.547052944444445 ], [ -82.236136722222227, 27.547250472222224 ], [ -82.235491888888888, 27.547759277777779 ], [ -82.234927611111118, 27.548504555555557 ], [ -82.234752916666665, 27.548992444444448 ], [ -82.23460169444445, 27.549899416666669 ], [ -82.234682111111113, 27.551336222222222 ], [ -82.235367055555557, 27.552746138888889 ], [ -82.235796888888885, 27.55320713888889 ], [ -82.236290527777783, 27.553605277777777 ], [ -82.236777472222229, 27.553883694444444 ], [ -82.236915166666662, 27.553937611111113 ], [ -82.23807716666667, 27.554246 ] ] } },
{ "type": "Feature", "properties": { "style": "solid", "thickness": 1 }, "geometry": { "type": "LineString", "coordinates": [ [ -82.231875138888896, 27.546899805555558 ], [ -82.22645675, 27.5547625 ] ] } },
{ "type": "Feature", "properties": { "style": "solid", "thickness": 1 }, "geometry": { "type": "LineString", "coordinates": [ [ -82.232099055555551, 27.554511833333333 ], [ -82.225763083333334, 27.547171361111111 ] ] } },
{ "type": "Feature", "properties": { "style": "solid", "thickness": 1 }, "geometry": { "type": "LineString", "coordinates": [ [ -82.22321077777778, 27.54728466666667 ], [ -82.223635583333333, 27.55488775 ] ] } },
{ "type": "Feature", "properties": { "style": "solid", "thickness": 1 }, "geometry": { "type": "LineString", "coordinates": [ [ -82.216337694444448, 27.554431305555557 ], [ -82.21697566666667, 27.555003166666669 ], [ -82.21711333333333, 27.555057083333335 ], [ -82.21799325, 27.555138083333333 ], [ -82.218725444444445, 27.554985583333334 ], [ -82.219115083333335, 27.55472825 ], [ -82.219501388888887, 27.554411027777778 ], [ -82.219807166666669, 27.553857333333333 ], [ -82.219730277777785, 27.552480388888888 ], [ -82.219297166666664, 27.551959472222222 ], [ -82.219015138888892, 27.551731916666668 ], [ -82.217987555555553, 27.55141738888889 ], [ -82.216828972222231, 27.551168694444446 ], [ -82.216002916666667, 27.550845222222222 ], [ -82.215714194444445, 27.550497944444444 ], [ -82.215533083333341, 27.54966575 ], [ -82.215624, 27.54888152777778 ], [ -82.21593308333334, 27.548387694444447 ], [ -82.216255555555563, 27.548133333333336 ], [ -82.21651422222223, 27.547941833333336 ], [ -82.216840027777778, 27.547747333333334 ], [ -82.217568833333331, 27.547534972222223 ], [ -82.217971833333337, 27.547517111111112 ], [ -82.2183815, 27.547618972222224 ], [ -82.218932194444449, 27.547834611111114 ], [ -82.219281416666675, 27.548059166666668 ], [ -82.21977830555555, 27.54851725 ] ] } },
{ "type": "Feature", "properties": { "style": "solid", "thickness": 1 }, "geometry": { "type": "LineString", "coordinates": [ [ -82.208925138888887, 27.555539916666667 ], [ -82.213022583333341, 27.555358416666667 ], [ -82.2125985, 27.547755305555558 ], [ -82.20843419444445, 27.54793975 ] ] } },
{ "type": "Feature", "properties": { "style": "solid", "thickness": 1 }, "geometry": { "type": "LineString", "coordinates": [ [ -82.212808888888887, 27.551526916666667 ], [ -82.208845916666675, 27.551702472222225 ] ] } },
{ "type": "Feature", "properties": { "style": "solid", "thickness": 1 }, "geometry": { "type": "LineString", "coordinates": [ [ -82.061229111111103, 27.38598686111111 ], [ -82.061644555555546, 27.386208916666668 ], [ -82.062120555555552, 27.386308333333332 ], [ -82.063730277777779, 27.386238638888887 ], [ -82.064327416666657, 27.38609275 ], [ -82.064525388888882, 27.386024166666665 ], [ -82.065502166666661, 27.38544175 ], [ -82.06607325, 27.384816888888889 ], [ -82.066241916666669, 27.384209444444444 ], [ -82.066652805555549, 27.383111416666669 ], [ -82.06657791666666, 27.381734388888891 ], [ -82.066407972222223, 27.38108161111111 ], [ -82.066177472222222, 27.3805515 ], [ -82.065876638888881, 27.379964416666667 ], [ -82.065170166666661, 27.379334888888888 ], [ -82.06386333333333, 27.378791361111112 ], [ -82.062981722222219, 27.3786495 ], [ -82.06224397222222, 27.378681444444446 ], [ -82.061314777777781, 27.378901722222224 ], [ -82.060989194444446, 27.379095861111111 ], [ -82.060727444444439, 27.379227194444447 ] ] } },
{ "type": "Feature", "properties": { "style": "solid", "thickness": 1 }, "geometry": { "type": "LineString", "coordinates": [ [ -82.053602416666664, 27.386676888888889 ], [ -82.054809722222217, 27.386624666666666 ], [ -82.055410111111115, 27.386538694444443 ], [ -82.056588166666657, 27.38594763888889 ], [ -82.057673111111114, 27.3848805 ], [ -82.058033277777781, 27.38408475 ], [ -82.058182472222214, 27.383118111111113 ], [ -82.058140222222221, 27.38233977777778 ], [ -82.057967055555551, 27.381627138888888 ], [ -82.057589472222219, 27.380863305555557 ], [ -82.056799694444436, 27.379937277777778 ], [ -82.056515166666671, 27.379649527777779 ], [ -82.05595913888888, 27.3793135 ], [ -82.0547995, 27.379003583333333 ], [ -82.053391083333324, 27.3790645 ], [ -82.052726888888884, 27.379213222222223 ], [ -82.052069194444442, 27.379481722222224 ], [ -82.051676527777772, 27.379678722222224 ], [ -82.051031833333326, 27.380186666666667 ], [ -82.050467194444437, 27.380931222222223 ], [ -82.050291944444439, 27.381418888888888 ], [ -82.05013944444444, 27.382325666666667 ], [ -82.050217361111109, 27.383762583333333 ], [ -82.050898916666668, 27.385173416666667 ], [ -82.051327333333333, 27.385635 ], [ -82.051819555555554, 27.386033805555556 ], [ -82.052305305555549, 27.386312861111112 ], [ -82.052442694444437, 27.386366944444443 ], [ -82.053602416666664, 27.386676888888889 ] ] } },
{ "type": "Feature", "properties": { "style": "solid", "thickness": 1 }, "geometry": { "type": "LineString", "coordinates": [ [ -82.04383475, 27.386318666666668 ], [ -82.044470833333335, 27.386891333333335 ], [ -82.044608222222223, 27.386945416666666 ], [ -82.045486638888889, 27.3870275 ], [ -82.046217944444436, 27.386875916666668 ], [ -82.04660741666666, 27.386619055555556 ], [ -82.046993611111105, 27.386302305555557 ], [ -82.047299777777781, 27.38574897222222 ], [ -82.047225138888891, 27.384371944444442 ], [ -82.0467935, 27.383850472222221 ], [ -82.04651225, 27.383622583333334 ], [ -82.045486722222222, 27.383306777777779 ], [ -82.044330305555548, 27.383056638888888 ], [ -82.043506, 27.382732166666667 ], [ -82.043218277777783, 27.3823845 ], [ -82.043038722222221, 27.381552083333332 ], [ -82.043130722222216, 27.380767972222223 ], [ -82.04344011111111, 27.380274527777779 ], [ -82.0437625, 27.380020555555557 ], [ -82.044021027777774, 27.37982936111111 ], [ -82.044346638888882, 27.37963527777778 ], [ -82.045074666666665, 27.379423805555557 ], [ -82.045477083333338, 27.379406444444445 ], [ -82.045885972222223, 27.379508805555556 ], [ -82.0464355, 27.37972511111111 ], [ -82.046783805555549, 27.379950111111111 ], [ -82.04727925, 27.380408833333334 ] ] } },
{ "type": "Feature", "properties": { "style": "solid", "thickness": 1 }, "geometry": { "type": "LineString", "coordinates": [ [ -82.04017869444445, 27.37963511111111 ], [ -82.036901333333333, 27.387397916666668 ], [ -82.033002361111116, 27.3799445 ] ] } },
{ "type": "Feature", "properties": { "style": "solid", "thickness": 1 }, "geometry": { "type": "LineString", "coordinates": [ [ -82.039104333333327, 27.382141916666669 ], [ -82.03427527777778, 27.382350138888889 ] ] } },
{ "type": "Feature", "properties": { "style": "solid", "thickness": 1 }, "geometry": { "type": "LineString", "coordinates": [ [ -82.027974777777771, 27.38394175 ], [ -82.024752916666671, 27.380299722222222 ] ] } },
{ "type": "Feature", "properties": { "style": "solid", "thickness": 1 }, "geometry": { "type": "LineString", "coordinates": [ [ -82.030185472222215, 27.380065861111113 ], [ -82.030596444444441, 27.387669583333334 ], [ -82.027242777777772, 27.387814 ], [ -82.026968, 27.387705777777779 ], [ -82.026351416666671, 27.387492277777778 ], [ -82.025715416666671, 27.386919527777778 ], [ -82.025414805555556, 27.386332361111112 ], [ -82.025376, 27.385613888888887 ], [ -82.025611944444449, 27.38500363888889 ], [ -82.02618325, 27.384378944444443 ], [ -82.026773972222216, 27.384113472222221 ], [ -82.027035777777783, 27.383982166666666 ], [ -82.030389333333332, 27.383837777777778 ] ] } },
{ "type": "Feature", "properties": { "style": "solid", "thickness": 1 }, "geometry": { "type": "LineString", "coordinates": [ [ -82.191922166666672, 27.42306263888889 ], [ -82.192344388888898, 27.430665916666669 ], [ -82.189392166666664, 27.430796416666666 ], [ -82.188580361111121, 27.430712277777779 ], [ -82.188234916666673, 27.4305475 ], [ -82.187674916666666, 27.430152138888889 ], [ -82.186833222222219, 27.429529138888888 ], [ -82.18625327777778, 27.428774555555556 ], [ -82.18608586111111, 27.428181805555557 ], [ -82.185976277777783, 27.42620613888889 ], [ -82.186080555555563, 27.425661388888891 ], [ -82.186443250000011, 27.424925194444445 ], [ -82.186889666666673, 27.424485361111113 ], [ -82.187329416666671, 27.423925805555555 ], [ -82.187977055555564, 27.423477083333335 ], [ -82.188772194444454, 27.423261888888891 ], [ -82.1892385, 27.423181277777779 ], [ -82.191922166666672, 27.42306263888889 ] ] } },
{ "type": "Feature", "properties": { "style": "solid", "thickness": 1 }, "geometry": { "type": "LineString", "coordinates": [ [ -82.179687194444455, 27.430444805555556 ], [ -82.18032425, 27.431016833333334 ], [ -82.18046175, 27.43107077777778 ], [ -82.181340638888898, 27.431152027777777 ], [ -82.182072055555565, 27.430999722222225 ], [ -82.182461361111109, 27.430742472222224 ], [ -82.182847333333342, 27.430425361111112 ], [ -82.183152944444444, 27.429871722222224 ], [ -82.183076583333332, 27.42849475 ], [ -82.18264413888889, 27.427973694444447 ], [ -82.182362472222223, 27.427746083333336 ], [ -82.181336166666668, 27.427431277777778 ], [ -82.180178972222222, 27.427182277777778 ], [ -82.179353944444443, 27.426858583333335 ], [ -82.179065666666673, 27.426511222222224 ], [ -82.178885027777781, 27.425678972222222 ], [ -82.178976083333339, 27.42489477777778 ], [ -82.179285, 27.42440102777778 ], [ -82.179607194444444, 27.42414675 ], [ -82.179865611111111, 27.423955305555555 ], [ -82.180191111111114, 27.423760888888889 ], [ -82.180919166666669, 27.423548722222222 ], [ -82.181321722222222, 27.423530944444444 ], [ -82.181730916666666, 27.423632916666669 ], [ -82.18228091666667, 27.423848694444445 ], [ -82.182629666666671, 27.424073361111112 ], [ -82.183125861111122, 27.424531583333334 ] ] } },
{ "type": "Feature", "properties": { "style": "solid", "thickness": 1 }, "geometry": { "type": "LineString", "coordinates": [ [ -82.175954388888897, 27.42376775 ], [ -82.1763755, 27.431371083333335 ] ] } },
{ "type": "Feature", "properties": { "style": "solid", "thickness": 1 }, "geometry": { "type": "LineString", "coordinates": [ [ -82.172465583333334, 27.423921555555555 ], [ -82.172886472222231, 27.431524888888891 ], [ -82.169934222222224, 27.431654972222223 ], [ -82.169122444444454, 27.431570722222222 ], [ -82.168777027777779, 27.431405888888889 ], [ -82.168217055555559, 27.431010444444446 ], [ -82.167375472222233, 27.430387333333336 ], [ -82.166795666666673, 27.429632694444447 ], [ -82.166628361111123, 27.429039916666667 ], [ -82.166519111111114, 27.427064222222224 ], [ -82.1666235, 27.4265195 ], [ -82.166986333333341, 27.425783361111112 ], [ -82.167432805555563, 27.425343583333333 ], [ -82.167872666666668, 27.424784083333336 ], [ -82.168520388888894, 27.424335444444445 ], [ -82.169315583333344, 27.424120388888891 ], [ -82.169781916666665, 27.424039805555555 ], [ -82.172465583333334, 27.423921555555555 ] ] } },
{ "type": "Feature", "properties": { "style": "solid", "thickness": 1 }, "geometry": { "type": "LineString", "coordinates": [ [ -82.15993675, 27.432095055555557 ], [ -82.164029694444451, 27.431914972222224 ], [ -82.163609416666674, 27.424311611111111 ], [ -82.159449666666674, 27.424494611111111 ] ] } },
{ "type": "Feature", "properties": { "style": "solid", "thickness": 1 }, "geometry": { "type": "LineString", "coordinates": [ [ -82.1638178888889, 27.428083361111113 ], [ -82.159859277777784, 27.428257527777777 ] ] } },
{ "type": "Feature", "properties": { "style": "solid", "thickness": 1 }, "geometry": { "type": "LineString", "coordinates": [ [ -82.143269666666669, 27.44166925 ], [ -82.143350972222223, 27.442503583333334 ], [ -82.143597972222224, 27.443311555555557 ], [ -82.144002694444453, 27.444067222222223 ], [ -82.144552138888898, 27.44474625 ], [ -82.145228666666668, 27.445326833333333 ], [ -82.14601052777779, 27.445790305555555 ], [ -82.146872611111121, 27.44612177777778 ], [ -82.147787166666674, 27.446310583333332 ], [ -82.14872480555556, 27.446350666666667 ], [ -82.149655416666675, 27.446240722222221 ], [ -82.150549055555558, 27.445984305555555 ], [ -82.151377, 27.44558963888889 ], [ -82.152112638888894, 27.445069416666666 ], [ -82.15273236111112, 27.444440361111113 ], [ -82.153216194444454, 27.443722694444446 ], [ -82.153548638888893, 27.4429395 ], [ -82.153718972222222, 27.442115916666665 ], [ -82.15372175, 27.441278416666666 ], [ -82.153556861111113, 27.440453972222222 ], [ -82.153229638888888, 27.439669 ], [ -82.152750583333344, 27.438948805555555 ], [ -82.152135083333334, 27.4383165 ], [ -82.151402972222229, 27.437792388888891 ], [ -82.150577722222224, 27.437393333333333 ], [ -82.149685888888897, 27.437132166666668 ], [ -82.148756111111112, 27.43701725 ], [ -82.14781830555556, 27.437052333333334 ], [ -82.146902555555556, 27.437236222222221 ], [ -82.146038333333337, 27.437563055555557 ], [ -82.145253416666677, 27.438022333333333 ], [ -82.144573, 27.43859925 ], [ -82.144018972222227, 27.439275305555554 ], [ -82.143609138888891, 27.44002875 ], [ -82.143356666666676, 27.440835361111112 ], [ -82.143269666666669, 27.44166925 ] ] } },
{ "type": "Feature", "properties": { "style": "solid", "thickness": 1 }, "geometry": { "type": "LineString", "coordinates": [ [ -82.136389388888901, 27.442214694444445 ], [ -82.138701805555556, 27.441830777777778 ], [ -82.140894833333334, 27.441072222222221 ], [ -82.142892972222228, 27.43996511111111 ], [ -82.144627333333347, 27.438547611111112 ], [ -82.146038222222231, 27.436868583333332 ], [ -82.147077027777783, 27.434985861111112 ], [ -82.147708, 27.43296425 ], [ -82.147909444444451, 27.430873444444444 ] ] } },
{ "type": "Feature", "properties": { "style": "solid", "thickness": 1 }, "geometry": { "type": "LineString", "coordinates": [ [ -82.147909444444451, 27.430873444444444 ], [ -82.148339916666671, 27.43293652777778 ], [ -82.14919025, 27.434893083333332 ], [ -82.150431194444451, 27.43667575 ], [ -82.15202, 27.438223083333334 ], [ -82.153901972222229, 27.439481805555555 ], [ -82.15601225, 27.440408555555557 ], [ -82.158278138888889, 27.44097136111111 ], [ -82.160621611111111, 27.441150888888888 ] ] } },
{ "type": "Feature", "properties": { "style": "solid", "thickness": 1 }, "geometry": { "type": "LineString", "coordinates": [ [ -82.149101777777787, 27.45249322222222 ], [ -82.14930322222223, 27.45040238888889 ], [ -82.14993425, 27.448380805555555 ], [ -82.150973083333341, 27.446498027777778 ], [ -82.152384, 27.444818944444446 ], [ -82.154118333333344, 27.443401333333334 ], [ -82.156116361111117, 27.442294027777777 ], [ -82.158309305555562, 27.441535194444445 ], [ -82.160621611111111, 27.441150888888888 ] ] } },
{ "type": "Feature", "properties": { "style": "solid", "thickness": 1 }, "geometry": { "type": "LineString", "coordinates": [ [ -82.149101777777787, 27.45249322222222 ], [ -82.148671222222234, 27.450430138888887 ], [ -82.147820777777781, 27.448473583333335 ], [ -82.14657975, 27.446690888888888 ], [ -82.144990888888898, 27.4451435 ], [ -82.14310894444445, 27.443884638888889 ], [ -82.140998694444448, 27.442957722222221 ], [ -82.138732833333336, 27.442394611111112 ], [ -82.136389388888901, 27.442214694444445 ] ] } },
{ "type": "Feature", "properties": { "style": "solid", "thickness": 1 }, "geometry": { "type": "LineString", "coordinates": [ [ -82.075728694444436, 27.369011166666667 ], [ -82.075809444444445, 27.369845555555557 ], [ -82.076055777777768, 27.370653638888889 ], [ -82.076459777777771, 27.3714095 ], [ -82.077008444444445, 27.37208877777778 ], [ -82.077684194444444, 27.372669694444443 ], [ -82.07846525, 27.373133555555555 ], [ -82.079326555555554, 27.373465444444445 ], [ -82.080240388888882, 27.373654694444443 ], [ -82.081177388888889, 27.373695222222224 ], [ -82.082107444444446, 27.37358575 ], [ -82.08300063888889, 27.37332975 ], [ -82.083828305555556, 27.372935472222224 ], [ -82.084563777777774, 27.372415611111112 ], [ -82.085183444444439, 27.371786861111111 ], [ -82.085667416666666, 27.371069416666668 ], [ -82.086000111111105, 27.370286361111113 ], [ -82.086170833333327, 27.36946286111111 ], [ -82.086174111111106, 27.368625388888891 ], [ -82.086009833333335, 27.367800833333334 ], [ -82.085683277777775, 27.367015722222224 ], [ -82.085205, 27.36629527777778 ], [ -82.084590305555551, 27.365662666666669 ], [ -82.083858972222217, 27.365138222222225 ], [ -82.0830345, 27.36473875 ], [ -82.082143416666668, 27.364477166666667 ], [ -82.081214333333335, 27.364361805555557 ], [ -82.080277111111101, 27.364396416666668 ], [ -82.07936186111111, 27.36457988888889 ], [ -82.078498027777769, 27.364906305555557 ], [ -82.077713333333335, 27.365365194444447 ], [ -82.077033, 27.365941777777778 ], [ -82.076478944444446, 27.366617555555557 ], [ -82.076068916666657, 27.367370805555556 ], [ -82.075816138888882, 27.368177333333335 ], [ -82.075728694444436, 27.369011166666667 ] ] } },
{ "type": "Feature", "properties": { "style": "solid", "thickness": 1 }, "geometry": { "type": "LineString", "coordinates": [ [ -82.068852611111112, 27.369553305555556 ], [ -82.07116375, 27.3691705 ], [ -82.073355777777778, 27.368412972222224 ], [ -82.075353277777779, 27.367306833333334 ], [ -82.077087361111111, 27.365890194444447 ], [ -82.078498333333329, 27.364211833333336 ], [ -82.079537583333334, 27.362329583333334 ], [ -82.080169388888891, 27.360308277777779 ], [ -82.080371916666664, 27.358217555555559 ] ] } },
{ "type": "Feature", "properties": { "style": "solid", "thickness": 1 }, "geometry": { "type": "LineString", "coordinates": [ [ -82.080371916666664, 27.358217555555559 ], [ -82.080800861111101, 27.360280833333334 ], [ -82.081649472222225, 27.362237833333335 ], [ -82.0828885, 27.364021083333334 ], [ -82.08447533333333, 27.365569194444447 ], [ -82.08635527777777, 27.366828833333333 ], [ -82.088463611111109, 27.367756611111112 ], [ -82.090727694444439, 27.368320527777779 ], [ -82.0930695, 27.368501194444445 ] ] } },
{ "type": "Feature", "properties": { "style": "solid", "thickness": 1 }, "geometry": { "type": "LineString", "coordinates": [ [ -82.081550388888886, 27.379837972222223 ], [ -82.081752972222219, 27.37774725 ], [ -82.082384805555549, 27.375725944444444 ], [ -82.0834241111111, 27.373843694444446 ], [ -82.084835083333331, 27.37216525 ], [ -82.086569138888891, 27.3707485 ], [ -82.088566527777772, 27.369642166666669 ], [ -82.09075847222222, 27.36888436111111 ], [ -82.0930695, 27.368501194444445 ] ] } },
{ "type": "Feature", "properties": { "style": "solid", "thickness": 1 }, "geometry": { "type": "LineString", "coordinates": [ [ -82.081550388888886, 27.379837972222223 ], [ -82.081121361111101, 27.377774694444444 ], [ -82.080272666666659, 27.375817722222223 ], [ -82.079033527777767, 27.374034444444444 ], [ -82.07744666666666, 27.37248625 ], [ -82.07556672222222, 27.3712265 ], [ -82.073458444444441, 27.370298527777777 ], [ -82.071194416666657, 27.369734333333334 ], [ -82.068852611111112, 27.369553305555556 ] ] } },
{ "type": "Feature", "properties": { "style": "solid", "thickness": 1 }, "geometry": { "type": "LineString", "coordinates": [ [ -81.348239666666657, 27.002099694444443 ], [ -81.347933583333329, 26.995692083333335 ], [ -81.347983277777772, 26.995330222222222 ], [ -81.348300333333327, 26.994958111111114 ], [ -81.348687138888877, 26.994643305555556 ], [ -81.348948805555551, 26.994513277777777 ], [ -81.349347027777767, 26.994438027777779 ], [ -81.350015527777771, 26.99441238888889 ], [ -81.350419472222214, 26.994456888888891 ], [ -81.351041138888888, 26.994853 ], [ -81.351183416666657, 26.995027527777779 ] ] } },
{ "type": "Feature", "properties": { "style": "solid", "thickness": 1 }, "geometry": { "type": "LineString", "coordinates": [ [ -81.345202416666666, 26.994596888888889 ], [ -81.341888638888889, 27.002343 ], [ -81.338049611111103, 26.99487075 ] ] } },
{ "type": "Feature", "properties": { "style": "solid", "thickness": 1 }, "geometry": { "type": "LineString", "coordinates": [ [ -81.344116361111105, 26.997098222222224 ], [ -81.33930313888888, 26.997282527777777 ] ] } },
{ "type": "Feature", "properties": { "style": "solid", "thickness": 1 }, "geometry": { "type": "LineString", "coordinates": [ [ -81.335604416666655, 27.002583444444443 ], [ -81.332504361111106, 26.9979625 ], [ -81.329921861111103, 27.002800638888889 ] ] } },
{ "type": "Feature", "properties": { "style": "solid", "thickness": 1 }, "geometry": { "type": "LineString", "coordinates": [ [ -81.332504361111106, 26.9979625 ], [ -81.332370305555557, 26.995147916666667 ] ] } },
{ "type": "Feature", "properties": { "style": "solid", "thickness": 1 }, "geometry": { "type": "LineString", "coordinates": [ [ -81.326818972222213, 26.9953 ], [ -81.324907805555554, 27.002992083333332 ], [ -81.321738416666662, 26.995493888888891 ], [ -81.319760055555548, 27.003188444444444 ], [ -81.31692525, 26.995677416666666 ] ] } },
{ "type": "Feature", "properties": { "style": "solid", "thickness": 1 }, "geometry": { "type": "LineString", "coordinates": [ [ -81.308912638888884, 27.003241666666668 ], [ -81.309325111111107, 27.003465916666666 ], [ -81.309798777777772, 27.003567888888888 ], [ -81.311403277777771, 27.003506833333333 ], [ -81.311999277777772, 27.003364138888887 ], [ -81.312197, 27.003296638888887 ], [ -81.31317425, 27.002719472222221 ], [ -81.3137475, 27.002097722222221 ], [ -81.313919638888891, 27.00149125 ], [ -81.314336444444436, 27.0003955 ], [ -81.314271055555551, 26.999018138888889 ], [ -81.314106083333328, 26.9983645 ], [ -81.313879972222225, 26.997833194444446 ], [ -81.313584138888885, 26.997244527777777 ], [ -81.312884361111102, 26.99661125 ], [ -81.311585805555552, 26.996060777777778 ], [ -81.310708222222218, 26.995914194444445 ], [ -81.309972888888879, 26.995942194444446 ], [ -81.3090455, 26.996157472222222 ], [ -81.308719777777782, 26.996349833333333 ], [ -81.308458055555548, 26.996479777777779 ] ] } },
{ "type": "Feature", "properties": { "style": "solid", "thickness": 1 }, "geometry": { "type": "LineString", "coordinates": [ [ -81.83332563888888, 27.0828105 ], [ -81.833404361111107, 27.083645 ], [ -81.833648305555556, 27.084453527777775 ], [ -81.834049638888885, 27.085210083333333 ], [ -81.834595444444446, 27.085890333333332 ], [ -81.835268166666665, 27.086472388888886 ], [ -81.836046222222222, 27.086937611111111 ], [ -81.836904555555549, 27.087270972222221 ], [ -81.837815611111111, 27.087461805555556 ], [ -81.838750111111111, 27.087503944444443 ], [ -81.839678, 27.087396055555555 ], [ -81.840569416666668, 27.087141611111111 ], [ -81.841395777777777, 27.08674875 ], [ -81.842130472222223, 27.086230166666667 ], [ -81.842749888888889, 27.08560247222222 ], [ -81.843234138888889, 27.084885861111111 ], [ -81.843567666666658, 27.084103388888888 ], [ -81.843739722222224, 27.083280166666665 ], [ -81.843744777777772, 27.082442694444445 ], [ -81.843582722222223, 27.081617861111109 ], [ -81.843258722222217, 27.080832194444444 ], [ -81.842783222222224, 27.080110916666666 ], [ -81.842171472222219, 27.07947725 ], [ -81.841443166666664, 27.078951527777779 ], [ -81.840621694444437, 27.078550638888888 ], [ -81.8397335, 27.0782875 ], [ -81.838807055555549, 27.078170555555555 ], [ -81.837872194444444, 27.078203555555554 ], [ -81.83695891666666, 27.078385444444443 ], [ -81.836096611111103, 27.07871038888889 ], [ -81.835312972222212, 27.079167916666666 ], [ -81.834633166666663, 27.07974336111111 ], [ -81.834079083333322, 27.080418166666668 ], [ -81.8336685, 27.081170722222222 ], [ -81.833414638888883, 27.081976805555556 ], [ -81.83332563888888, 27.0828105 ] ] } },
{ "type": "Feature", "properties": { "style": "solid", "thickness": 1 }, "geometry": { "type": "LineString", "coordinates": [ [ -81.826466194444436, 27.083340805555554 ], [ -81.828772166666667, 27.082961972222222 ], [ -81.830960166666657, 27.082208222222221 ], [ -81.832954833333332, 27.081105527777776 ], [ -81.834687472222214, 27.079691833333332 ], [ -81.836098416666658, 27.078015916666665 ], [ -81.837139055555554, 27.076135444444443 ], [ -81.83777352777777, 27.074115222222222 ], [ -81.837980055555548, 27.07202486111111 ] ] } },
{ "type": "Feature", "properties": { "style": "solid", "thickness": 1 }, "geometry": { "type": "LineString", "coordinates": [ [ -81.837980055555548, 27.07202486111111 ], [ -81.838403444444438, 27.074088888888888 ], [ -81.839245638888883, 27.076047333333332 ], [ -81.840477638888885, 27.077832722222222 ], [ -81.842057, 27.079383583333332 ], [ -81.843929388888881, 27.080646444444444 ], [ -81.84603025, 27.081577861111111 ], [ -81.848287222222211, 27.082145666666666 ], [ -81.850622583333333, 27.082330361111111 ] ] } },
{ "type": "Feature", "properties": { "style": "solid", "thickness": 1 }, "geometry": { "type": "LineString", "coordinates": [ [ -81.83910891666666, 27.09364736111111 ], [ -81.839315472222211, 27.091556972222222 ], [ -81.83995, 27.08953675 ], [ -81.840990694444443, 27.087656277777775 ], [ -81.8424016111111, 27.085980277777775 ], [ -81.844134222222223, 27.084566472222221 ], [ -81.846128833333324, 27.083463583333334 ], [ -81.848316722222222, 27.082709555555557 ], [ -81.850622583333333, 27.082330361111111 ] ] } },
{ "type": "Feature", "properties": { "style": "solid", "thickness": 1 }, "geometry": { "type": "LineString", "coordinates": [ [ -81.83910891666666, 27.09364736111111 ], [ -81.838685444444437, 27.091583333333332 ], [ -81.837843166666659, 27.089624888888888 ], [ -81.836611083333324, 27.087839472222221 ], [ -81.835031666666666, 27.086288555555555 ], [ -81.833159305555554, 27.085025555555553 ], [ -81.831058472222225, 27.08409397222222 ], [ -81.828801555555557, 27.083525861111109 ], [ -81.826466194444436, 27.083340805555554 ] ] } },
{ "type": "Feature", "properties": { "style": "solid", "thickness": 1 }, "geometry": { "type": "LineString", "coordinates": [ [ -81.36367525, 26.980790194444442 ], [ -81.363750416666662, 26.981624916666664 ], [ -81.36399075, 26.982434222222221 ], [ -81.3643885, 26.983192083333332 ], [ -81.364930916666665, 26.983874111111113 ], [ -81.365600555555545, 26.984458416666669 ], [ -81.366375888888882, 26.984926194444444 ], [ -81.367232027777774, 26.985262444444444 ], [ -81.368141388888887, 26.985456305555555 ], [ -81.369074805555556, 26.985501611111111 ], [ -81.370002222222212, 26.985396833333333 ], [ -81.370893861111099, 26.985145388888888 ], [ -81.371721055555554, 26.984755333333336 ], [ -81.372457222222209, 26.98423925 ], [ -81.373078666666657, 26.983613666666667 ], [ -81.373565444444438, 26.98289872222222 ], [ -81.373901916666654, 26.982117416666664 ], [ -81.37407725, 26.981294833333333 ], [ -81.374085833333325, 26.980457416666663 ], [ -81.3739273611111, 26.979632083333332 ], [ -81.37360697222222, 26.978845361111109 ], [ -81.373134944444445, 26.978122527777778 ], [ -81.372526472222219, 26.97748683333333 ], [ -81.371801055555551, 26.976958694444441 ], [ -81.370982083333331, 26.976555083333331 ], [ -81.370095833333323, 26.976288972222221 ], [ -81.369170777777768, 26.976168944444442 ], [ -81.368236694444434, 26.976198777777775 ], [ -81.367323555555544, 26.976377611111108 ], [ -81.366460722222214, 26.976699611111108 ], [ -81.36567591666666, 26.9771545 ], [ -81.364994388888888, 26.97772761111111 ], [ -81.364438, 26.978400527777776 ], [ -81.364024666666666, 26.979151666666667 ], [ -81.363767666666661, 26.979956833333333 ], [ -81.36367525, 26.980790194444442 ] ] } },
{ "type": "Feature", "properties": { "style": "solid", "thickness": 1 }, "geometry": { "type": "LineString", "coordinates": [ [ -81.356820305555544, 26.981297416666663 ], [ -81.359125583333324, 26.980926361111109 ], [ -81.361314611111112, 26.98018 ], [ -81.36331197222222, 26.979084055555553 ], [ -81.365048861111106, 26.977676277777775 ], [ -81.366465444444444, 26.976005194444443 ], [ -81.367512916666655, 26.974128333333333 ], [ -81.368155249999987, 26.97211036111111 ], [ -81.368370361111104, 26.970020777777776 ] ] } },
{ "type": "Feature", "properties": { "style": "solid", "thickness": 1 }, "geometry": { "type": "LineString", "coordinates": [ [ -81.368370361111104, 26.970020777777776 ], [ -81.368784666666656, 26.972086111111111 ], [ -81.369617833333322, 26.974047277777775 ], [ -81.370841166666665, 26.975836722222219 ], [ -81.3724125, 26.977392805555553 ], [ -81.37427775, 26.978661888888887 ], [ -81.376372666666654, 26.979600305555554 ], [ -81.378625083333333, 26.980175666666664 ], [ -81.380957388888888, 26.980368194444441 ] ] } },
{ "type": "Feature", "properties": { "style": "solid", "thickness": 1 }, "geometry": { "type": "LineString", "coordinates": [ [ -81.3694075, 26.99164588888889 ], [ -81.369622611111097, 26.989556305555556 ], [ -81.370265, 26.987538333333333 ], [ -81.371312555555548, 26.985661444444446 ], [ -81.372729138888886, 26.983990277777778 ], [ -81.374465972222211, 26.982582388888886 ], [ -81.37646325, 26.98148625 ], [ -81.378652194444442, 26.980739611111108 ], [ -81.380957388888888, 26.980368194444441 ] ] } },
{ "type": "Feature", "properties": { "style": "solid", "thickness": 1 }, "geometry": { "type": "LineString", "coordinates": [ [ -81.3694075, 26.99164588888889 ], [ -81.368993111111109, 26.989580555555555 ], [ -81.368159833333323, 26.987619361111111 ], [ -81.366936444444434, 26.985829916666667 ], [ -81.365365055555543, 26.98427377777778 ], [ -81.363499805555549, 26.983004555555553 ], [ -81.361404944444445, 26.98206597222222 ], [ -81.359152583333326, 26.981490305555553 ], [ -81.356820305555544, 26.981297416666663 ] ] } },
{ "type": "Feature", "properties": { "style": "solid", "thickness": 1 }, "geometry": { "type": "LineString", "coordinates": [ [ -81.885924194444456, 27.065857277777777 ], [ -81.886324333333334, 27.073461527777777 ], [ -81.883515083333336, 27.073579944444443 ], [ -81.882913111111108, 27.073605333333333 ], [ -81.882426, 27.073265805555554 ], [ -81.882069527777773, 27.072860777777777 ], [ -81.882056944444443, 27.07262125 ], [ -81.881993972222219, 27.07142375 ], [ -81.882051416666656, 27.071241305555557 ], [ -81.882226861111107, 27.070753833333335 ], [ -81.88286425, 27.07012688888889 ], [ -81.8821765, 27.069795805555554 ], [ -81.881832638888881, 27.069630277777776 ], [ -81.881482472222217, 27.069345 ], [ -81.881253472222213, 27.068814555555555 ], [ -81.8811716111111, 27.067257777777776 ], [ -81.88135025, 27.066830194444446 ], [ -81.881799527777773, 27.066451222222224 ], [ -81.88212133333333, 27.066197611111111 ], [ -81.882446305555547, 27.06600388888889 ], [ -81.885924194444456, 27.065857277777777 ] ] } },
{ "type": "Feature", "properties": { "style": "solid", "thickness": 1 }, "geometry": { "type": "LineString", "coordinates": [ [ -81.886141583333341, 27.069988722222224 ], [ -81.88286425, 27.07012688888889 ] ] } },
{ "type": "Feature", "properties": { "style": "solid", "thickness": 1 }, "geometry": { "type": "LineString", "coordinates": [ [ -81.87869922222221, 27.073782861111109 ], [ -81.87829958333333, 27.066178583333333 ], [ -81.875022333333334, 27.066316583333332 ] ] } },
{ "type": "Feature", "properties": { "style": "solid", "thickness": 1 }, "geometry": { "type": "LineString", "coordinates": [ [ -81.872478166666653, 27.070204194444443 ], [ -81.868665722222218, 27.070364527777777 ] ] } },
{ "type": "Feature", "properties": { "style": "solid", "thickness": 1 }, "geometry": { "type": "LineString", "coordinates": [ [ -81.868666111111111, 27.074205055555556 ], [ -81.872679361111111, 27.074036277777779 ], [ -81.872280138888883, 27.066431972222222 ] ] } },
{ "type": "Feature", "properties": { "style": "solid", "thickness": 1 }, "geometry": { "type": "LineString", "coordinates": [ [ -81.863515527777778, 27.070580972222221 ], [ -81.860308055555549, 27.066935166666667 ] ] } },
{ "type": "Feature", "properties": { "style": "solid", "thickness": 1 }, "geometry": { "type": "LineString", "coordinates": [ [ -81.865725611111102, 27.066707611111109 ], [ -81.866124388888878, 27.074311888888889 ], [ -81.862779972222214, 27.074452416666666 ], [ -81.862506166666662, 27.07434388888889 ], [ -81.861891611111105, 27.074129666666668 ], [ -81.86125825, 27.073556166666666 ], [ -81.860959333333327, 27.072968638888888 ], [ -81.860921666666655, 27.07225013888889 ], [ -81.86115786111111, 27.071640138888888 ], [ -81.861728444444438, 27.071016083333333 ], [ -81.862317861111109, 27.070751305555554 ], [ -81.86257913888889, 27.070620305555554 ], [ -81.865923416666661, 27.070479805555554 ] ] } },
{ "type": "Feature", "properties": { "style": "solid", "thickness": 1 }, "geometry": { "type": "LineString", "coordinates": [ [ -81.851422638888877, 27.073908833333334 ], [ -81.851708972222212, 27.07425686111111 ], [ -81.852329777777769, 27.074590888888888 ], [ -81.85273736111111, 27.074693805555555 ], [ -81.8538838611111, 27.07482575 ], [ -81.854285194444444, 27.074808944444445 ], [ -81.85508158333333, 27.0746555 ], [ -81.855741055555555, 27.074447833333334 ], [ -81.855871694444446, 27.074382333333332 ], [ -81.85632425, 27.074063305555555 ], [ -81.856773638888882, 27.073684416666666 ], [ -81.857523, 27.072632833333333 ], [ -81.85780725, 27.071660777777776 ], [ -81.85773827777777, 27.070343472222223 ], [ -81.857566888888883, 27.069630583333332 ], [ -81.857271138888876, 27.069102916666665 ], [ -81.85684475, 27.06864075 ], [ -81.856488361111104, 27.06823563888889 ], [ -81.855925083333332, 27.067719194444443 ], [ -81.855377472222216, 27.067502138888887 ], [ -81.854829861111099, 27.067285083333331 ], [ -81.854355416666664, 27.067184972222222 ], [ -81.8531515, 27.067235472222222 ], [ -81.852488944444445, 27.06738325 ], [ -81.851966388888883, 27.067645194444445 ], [ -81.851380083333325, 27.067969833333333 ], [ -81.850994444444439, 27.068286027777777 ], [ -81.850363194444441, 27.069032583333332 ], [ -81.849990055555551, 27.069588305555556 ], [ -81.84987508333333, 27.069953166666668 ], [ -81.849925166666665, 27.070911194444445 ], [ -81.852734388888877, 27.070793416666667 ] ] } },
{ "type": "Feature", "properties": { "style": "solid", "thickness": 1 }, "geometry": { "type": "LineString", "coordinates": [ [ -81.814295, 26.498237472222222 ], [ -81.810501833333333, 26.498396416666669 ] ] } },
{ "type": "Feature", "properties": { "style": "solid", "thickness": 1 }, "geometry": { "type": "LineString", "coordinates": [ [ -81.810500472222216, 26.502236916666668 ], [ -81.814493416666664, 26.502069611111111 ], [ -81.814099694444437, 26.494465194444444 ] ] } },
{ "type": "Feature", "properties": { "style": "solid", "thickness": 1 }, "geometry": { "type": "LineString", "coordinates": [ [ -81.803912111111103, 26.50251275 ], [ -81.807971611111114, 26.502342833333334 ], [ -81.807578333333325, 26.494738388888891 ], [ -81.803452555555552, 26.494911083333335 ] ] } },
{ "type": "Feature", "properties": { "style": "solid", "thickness": 1 }, "geometry": { "type": "LineString", "coordinates": [ [ -81.807773416666663, 26.498510666666668 ], [ -81.803847138888884, 26.498675027777779 ] ] } },
{ "type": "Feature", "properties": { "style": "solid", "thickness": 1 }, "geometry": { "type": "LineString", "coordinates": [ [ -81.798723027777783, 26.498889333333334 ], [ -81.795533694444444, 26.495242194444444 ] ] } },
{ "type": "Feature", "properties": { "style": "solid", "thickness": 1 }, "geometry": { "type": "LineString", "coordinates": [ [ -81.800923861111102, 26.495016861111111 ], [ -81.801316694444438, 26.502621305555557 ], [ -81.797989222222213, 26.502760444444444 ], [ -81.797716833333325, 26.502651805555555 ], [ -81.797105527777774, 26.502437333333333 ], [ -81.796475666666666, 26.501863583333332 ], [ -81.796178555555556, 26.501275916666668 ], [ -81.796141472222217, 26.50055738888889 ], [ -81.79637677777778, 26.4999475 ], [ -81.796944777777782, 26.499323694444445 ], [ -81.797531361111112, 26.499059138888889 ], [ -81.797791361111109, 26.498928277777779 ], [ -81.801118722222213, 26.498789138888888 ] ] } },
{ "type": "Feature", "properties": { "style": "solid", "thickness": 1 }, "geometry": { "type": "LineString", "coordinates": [ [ -81.792871888888882, 26.495353388888891 ], [ -81.789603944444437, 26.503110666666668 ], [ -81.785751527777776, 26.495650583333333 ] ] } },
{ "type": "Feature", "properties": { "style": "solid", "thickness": 1 }, "geometry": { "type": "LineString", "coordinates": [ [ -81.791800694444447, 26.49785838888889 ], [ -81.78700933333333, 26.498058388888889 ] ] } },
{ "type": "Feature", "properties": { "style": "solid", "thickness": 1 }, "geometry": { "type": "LineString", "coordinates": [ [ -81.78334825, 26.50337163888889 ], [ -81.782956611111103, 26.49576713888889 ], [ -81.779695888888881, 26.495903055555555 ] ] } },
{ "type": "Feature", "properties": { "style": "solid", "thickness": 1 }, "geometry": { "type": "LineString", "coordinates": [ [ -81.765846527777782, 26.513127694444446 ], [ -81.765924416666664, 26.51396225 ], [ -81.766166694444451, 26.51477086111111 ], [ -81.766565583333332, 26.515527583333334 ], [ -81.76710825, 26.516208055555555 ], [ -81.76777725, 26.516790416666666 ], [ -81.768551111111108, 26.51725597222222 ], [ -81.769404916666659, 26.517589694444442 ], [ -81.770311277777779, 26.517780916666666 ], [ -81.771241, 26.517823472222222 ], [ -81.77216425, 26.51771597222222 ], [ -81.773051305555555, 26.517461916666665 ], [ -81.773873694444447, 26.517069444444445 ], [ -81.774604944444448, 26.516551138888889 ], [ -81.775221555555561, 26.515923722222222 ], [ -81.77570375, 26.515207333333333 ], [ -81.776036, 26.514425 ], [ -81.776207611111104, 26.513601861111113 ], [ -81.776213111111105, 26.51276438888889 ], [ -81.776052305555552, 26.511939472222224 ], [ -81.775730361111115, 26.511153666666665 ], [ -81.775257666666661, 26.510432194444444 ], [ -81.774649361111116, 26.50979825 ], [ -81.773925027777778, 26.509272222222222 ], [ -81.773107944444448, 26.508871 ], [ -81.772224361111114, 26.508607472222224 ], [ -81.771302666666671, 26.508490138888888 ], [ -81.770372527777781, 26.508522722222221 ], [ -81.769463777777773, 26.508704222222221 ], [ -81.768605666666659, 26.509028777777779 ], [ -81.76782575, 26.509485972222222 ], [ -81.767149083333337, 26.51006111111111 ], [ -81.766597444444443, 26.510735694444445 ], [ -81.766188527777771, 26.511488055555557 ], [ -81.7659355, 26.512294027777777 ], [ -81.765846527777782, 26.513127694444446 ] ] } },
{ "type": "Feature", "properties": { "style": "solid", "thickness": 1 }, "geometry": { "type": "LineString", "coordinates": [ [ -81.759021555555549, 26.513655027777776 ], [ -81.761316027777781, 26.513277194444445 ], [ -81.763493361111117, 26.512524388888888 ], [ -81.765478527777773, 26.511422555555555 ], [ -81.767203138888888, 26.510009638888889 ], [ -81.768607833333334, 26.508334305555554 ], [ -81.769644194444439, 26.506454305555554 ], [ -81.770276555555554, 26.504434361111112 ], [ -81.770483166666665, 26.502344083333334 ] ] } },
{ "type": "Feature", "properties": { "style": "solid", "thickness": 1 }, "geometry": { "type": "LineString", "coordinates": [ [ -81.770483166666665, 26.502344083333334 ], [ -81.770903305555549, 26.504408277777777 ], [ -81.77174016666666, 26.506367083333334 ], [ -81.772964972222226, 26.508153027777777 ], [ -81.774535527777772, 26.509704555555555 ], [ -81.776397722222228, 26.510968222222221 ], [ -81.778487444444437, 26.51190052777778 ], [ -81.780732694444438, 26.512469333333332 ], [ -81.783056138888881, 26.512655027777779 ] ] } },
{ "type": "Feature", "properties": { "style": "solid", "thickness": 1 }, "geometry": { "type": "LineString", "coordinates": [ [ -81.771594694444445, 26.523967027777775 ], [ -81.771801333333329, 26.52187675 ], [ -81.77243375, 26.519856805555555 ], [ -81.773470138888882, 26.517976777777776 ], [ -81.774874833333328, 26.516301388888888 ], [ -81.776599444444443, 26.514888333333332 ], [ -81.778584527777781, 26.513786305555556 ], [ -81.78076175, 26.513033222222223 ], [ -81.783056138888881, 26.512655027777779 ] ] } },
{ "type": "Feature", "properties": { "style": "solid", "thickness": 1 }, "geometry": { "type": "LineString", "coordinates": [ [ -81.771594694444445, 26.523967027777775 ], [ -81.771174472222228, 26.521902833333332 ], [ -81.7703375, 26.519944027777775 ], [ -81.769112638888885, 26.518158055555556 ], [ -81.767542055555552, 26.516606472222222 ], [ -81.765679833333337, 26.515342666666665 ], [ -81.76359016666666, 26.514410166666668 ], [ -81.761344972222219, 26.513841111111113 ], [ -81.759021555555549, 26.513655027777776 ] ] } },
{ "type": "Feature", "properties": { "style": "solid", "thickness": 1 }, "geometry": { "type": "LineString", "coordinates": [ [ -82.405081805555568, 28.19678025 ], [ -82.405165638888889, 28.197614333333334 ], [ -82.40541625, 28.19842175 ], [ -82.405825555555566, 28.199176555555557 ], [ -82.406380416666678, 28.199854472222224 ], [ -82.407063, 28.200433722222222 ], [ -82.407851388888901, 28.200895694444444 ], [ -82.408720194444456, 28.2012255 ], [ -82.409641555555567, 28.201412583333333 ], [ -82.410585777777783, 28.201450916666666 ], [ -82.411522583333337, 28.20133925 ], [ -82.412421805555567, 28.201081194444445 ], [ -82.413254555555568, 28.200685055555557 ], [ -82.413994083333336, 28.200163527777779 ], [ -82.414616583333341, 28.199533388888888 ], [ -82.415102083333338, 28.198814916666667 ], [ -82.415434972222229, 28.198031166666667 ], [ -82.415604555555561, 28.197207361111111 ], [ -82.415605361111119, 28.19637 ], [ -82.41543738888889, 28.195545916666667 ], [ -82.415106055555555, 28.194761694444445 ], [ -82.414621972222221, 28.194042472222222 ], [ -82.414000722222227, 28.19341136111111 ], [ -82.413262305555563, 28.192888694444445 ], [ -82.412430388888893, 28.192491222222223 ], [ -82.41153175, 28.19223175 ], [ -82.410595277777787, 28.192118611111113 ], [ -82.409651027777784, 28.192155416666665 ], [ -82.408729388888901, 28.192341027777779 ], [ -82.407859972222226, 28.192669416666668 ], [ -82.407070666666669, 28.193130083333333 ], [ -82.406386916666676, 28.193708194444444 ], [ -82.405830638888901, 28.194385194444443 ], [ -82.40541975, 28.195139333333334 ], [ -82.405167416666671, 28.195946305555555 ], [ -82.405081805555568, 28.19678025 ] ] } },
{ "type": "Feature", "properties": { "style": "solid", "thickness": 1 }, "geometry": { "type": "LineString", "coordinates": [ [ -82.398155138888896, 28.197338472222224 ], [ -82.400482666666676, 28.196950277777777 ], [ -82.402689111111115, 28.196187722222223 ], [ -82.404698472222222, 28.195077027777778 ], [ -82.406441527777787, 28.193656472222223 ], [ -82.407858222222231, 28.191975027777779 ], [ -82.408899777777791, 28.190090583333333 ], [ -82.409530361111123, 28.188068055555554 ], [ -82.40972825, 28.185977111111111 ] ] } },
{ "type": "Feature", "properties": { "style": "solid", "thickness": 1 }, "geometry": { "type": "LineString", "coordinates": [ [ -82.40972825, 28.185977111111111 ], [ -82.410166555555563, 28.18803913888889 ], [ -82.41102741666667, 28.189993888888889 ], [ -82.412281166666673, 28.191774 ], [ -82.413884611111115, 28.193318194444444 ], [ -82.415782583333339, 28.19457325 ], [ -82.417909666666674, 28.195495944444446 ], [ -82.420192611111119, 28.196054472222222 ], [ -82.422552722222221, 28.196229611111111 ] ] } },
{ "type": "Feature", "properties": { "style": "solid", "thickness": 1 }, "geometry": { "type": "LineString", "coordinates": [ [ -82.410979861111116, 28.207592 ], [ -82.41117775, 28.205501083333331 ], [ -82.4118083888889, 28.203478555555556 ], [ -82.41285, 28.201594083333333 ], [ -82.41426669444445, 28.199912555555557 ], [ -82.416009694444455, 28.198491888888888 ], [ -82.418018972222228, 28.197381027777777 ], [ -82.420225305555562, 28.196618166666667 ], [ -82.422552722222221, 28.196229611111111 ] ] } },
{ "type": "Feature", "properties": { "style": "solid", "thickness": 1 }, "geometry": { "type": "LineString", "coordinates": [ [ -82.410979861111116, 28.207592 ], [ -82.410541444444448, 28.20553 ], [ -82.4096805, 28.203575277777777 ], [ -82.408426666666671, 28.20179511111111 ], [ -82.406823138888896, 28.200250861111112 ], [ -82.404925166666672, 28.198995694444445 ], [ -82.402798138888897, 28.198072805555555 ], [ -82.400515250000012, 28.197513972222222 ], [ -82.398155138888896, 28.197338472222224 ] ] } },
{ "type": "Feature", "properties": { "style": "solid", "thickness": 1 }, "geometry": { "type": "LineString", "coordinates": [ [ -82.382042666666663, 28.185921694444446 ], [ -82.381604555555555, 28.178319916666666 ], [ -82.378294555555556, 28.178469638888892 ] ] } },
{ "type": "Feature", "properties": { "style": "solid", "thickness": 1 }, "geometry": { "type": "LineString", "coordinates": [ [ -82.375524972222209, 28.178594888888892 ], [ -82.375962666666666, 28.186196666666667 ] ] } },
{ "type": "Feature", "properties": { "style": "solid", "thickness": 1 }, "geometry": { "type": "LineString", "coordinates": [ [ -82.368621861111109, 28.185748166666666 ], [ -82.369264305555546, 28.186319277777777 ], [ -82.369402861111098, 28.18637302777778 ], [ -82.370287972222215, 28.186453083333333 ], [ -82.371024194444445, 28.186299805555556 ], [ -82.37141575, 28.186042055555557 ], [ -82.371803861111104, 28.185724472222223 ], [ -82.372110638888884, 28.1851705 ], [ -82.372031416666658, 28.183793805555556 ], [ -82.371595111111105, 28.183273388888889 ], [ -82.371311111111098, 28.183046166666667 ], [ -82.370277138888881, 28.182732805555556 ], [ -82.369111527777775, 28.182485388888889 ], [ -82.368280222222211, 28.182162861111113 ], [ -82.3679893611111, 28.181815916666668 ], [ -82.367806055555548, 28.180984 ], [ -82.367896416666653, 28.18019977777778 ], [ -82.368206638888879, 28.179705666666667 ], [ -82.368530638888885, 28.179451 ], [ -82.368790499999989, 28.179259222222225 ], [ -82.36911794444444, 28.179064388888889 ], [ -82.369850666666665, 28.178851277777778 ], [ -82.370255972222211, 28.178832972222224 ], [ -82.370668166666661, 28.178934361111111 ], [ -82.371222361111109, 28.179149388888892 ], [ -82.371573888888889, 28.179373555555557 ], [ -82.372074305555543, 28.179831055555557 ] ] } },
{ "type": "Feature", "properties": { "style": "solid", "thickness": 1 }, "geometry": { "type": "LineString", "coordinates": [ [ -82.364919416666666, 28.17907388888889 ], [ -82.36164075, 28.186843333333332 ], [ -82.357691361111108, 28.179399888888891 ] ] } },
{ "type": "Feature", "properties": { "style": "solid", "thickness": 1 }, "geometry": { "type": "LineString", "coordinates": [ [ -82.363844527777772, 28.18158288888889 ], [ -82.358980666666668, 28.18180225 ] ] } },
{ "type": "Feature", "properties": { "style": "solid", "thickness": 1 }, "geometry": { "type": "LineString", "coordinates": [ [ -82.35507058333333, 28.18329875 ], [ -82.351219972222211, 28.183472166666668 ] ] } },
{ "type": "Feature", "properties": { "style": "solid", "thickness": 1 }, "geometry": { "type": "LineString", "coordinates": [ [ -82.351237, 28.187312166666668 ], [ -82.355290416666662, 28.187129611111111 ], [ -82.354854194444442, 28.17952775 ] ] } },
{ "type": "Feature", "properties": { "style": "solid", "thickness": 1 }, "geometry": { "type": "LineString", "coordinates": [ [ -82.521274388888884, 27.987833444444444 ], [ -82.521274777777776, 27.986055694444445 ] ] } },
{ "type": "Feature", "properties": { "style": "solid", "thickness": 1 }, "geometry": { "type": "LineString", "coordinates": [ [ -82.520757944444441, 27.988044666666667 ], [ -82.520758444444439, 27.985844305555556 ] ] } },
{ "type": "Feature", "properties": { "style": "solid", "thickness": 1 }, "geometry": { "type": "LineString", "coordinates": [ [ -82.520241555555558, 27.988044555555557 ], [ -82.520242055555556, 27.985844222222223 ] ] } },
{ "type": "Feature", "properties": { "style": "solid", "thickness": 1 }, "geometry": { "type": "LineString", "coordinates": [ [ -82.519725194444447, 27.987833194444445 ], [ -82.519725611111113, 27.986055416666666 ] ] } },
{ "type": "Feature", "properties": { "style": "solid", "thickness": 1 }, "geometry": { "type": "LineString", "coordinates": [ [ -82.519157361111112, 27.986944194444444 ], [ -82.519178888888888, 27.98715702777778 ], [ -82.51924286111111, 27.987363 ], [ -82.519347277777783, 27.987555527777779 ], [ -82.519488722222221, 27.987728416666666 ], [ -82.519662666666662, 27.987876111111113 ], [ -82.519863527777773, 27.987993861111111 ], [ -82.520084833333328, 27.988077888888888 ], [ -82.5203195, 27.988125472222222 ], [ -82.520559972222216, 27.988135111111113 ], [ -82.5207985, 27.988106472222224 ], [ -82.521027444444442, 27.988040472222224 ], [ -82.521239444444447, 27.98793925 ], [ -82.521427666666668, 27.987806055555556 ], [ -82.521586055555559, 27.987645194444447 ], [ -82.52170955555556, 27.987461777777778 ], [ -82.521794166666666, 27.98726175 ], [ -82.521837194444444, 27.9870515 ], [ -82.52183725, 27.986837833333333 ], [ -82.521794305555559, 27.986627583333334 ], [ -82.521709777777772, 27.986427527777778 ], [ -82.521586361111105, 27.986244083333336 ], [ -82.521428027777773, 27.98608313888889 ], [ -82.521239861111113, 27.985949888888889 ], [ -82.521027916666668, 27.985848583333333 ], [ -82.520799027777784, 27.985782527777779 ], [ -82.5205605, 27.985753805555557 ], [ -82.520320027777771, 27.985763333333335 ], [ -82.520085361111114, 27.985810861111112 ], [ -82.519864, 27.98589477777778 ], [ -82.519663083333327, 27.986012472222225 ], [ -82.519489083333326, 27.986160083333335 ], [ -82.519347555555555, 27.986332944444445 ], [ -82.519243083333336, 27.986525416666666 ], [ -82.519179, 27.986731388888892 ], [ -82.519157361111112, 27.986944194444444 ] ] } },
{ "type": "Feature", "properties": { "style": "solid", "thickness": 1 }, "geometry": { "type": "LineString", "coordinates": [ [ -82.40392961111111, 27.705638694444445 ], [ -82.403560750000011, 27.699233527777778 ], [ -82.403607305555568, 27.698871277777776 ], [ -82.4039228888889, 27.698496777777777 ], [ -82.404309194444451, 27.698179055555556 ], [ -82.404571305555564, 27.698047055555556 ], [ -82.404971361111123, 27.697968777777778 ], [ -82.405643916666676, 27.697938083333334 ], [ -82.406050861111112, 27.697979527777779 ], [ -82.406680305555568, 27.698370944444445 ], [ -82.406825138888891, 27.698544388888887 ] ] } },
{ "type": "Feature", "properties": { "style": "solid", "thickness": 1 }, "geometry": { "type": "LineString", "coordinates": [ [ -82.397360805555564, 27.705158 ], [ -82.398000555555569, 27.705729027777778 ], [ -82.398138527777789, 27.70578275 ], [ -82.399019777777781, 27.705862611111112 ], [ -82.399752722222232, 27.705709166666665 ], [ -82.4001425, 27.705451333333333 ], [ -82.400528805555567, 27.705133611111112 ], [ -82.400834083333336, 27.704579527777778 ], [ -82.400754833333338, 27.703202694444442 ], [ -82.40032027777778, 27.702682361111112 ], [ -82.400037472222223, 27.702455166666667 ], [ -82.399007944444449, 27.702142 ], [ -82.397847388888891, 27.701894805555554 ], [ -82.397019638888892, 27.701572416666664 ], [ -82.396729972222232, 27.701225527777776 ], [ -82.396547250000012, 27.700393583333334 ], [ -82.396637, 27.69960925 ], [ -82.396945722222227, 27.699115027777779 ], [ -82.39726819444445, 27.69886025 ], [ -82.397526888888891, 27.698668416666667 ], [ -82.397852833333346, 27.6984735 ], [ -82.398582277777791, 27.698260194444444 ], [ -82.398985805555569, 27.698241805555554 ], [ -82.399396222222222, 27.698343111111111 ], [ -82.399948027777782, 27.698558027777779 ], [ -82.40029808333334, 27.698782138888888 ], [ -82.400796416666665, 27.699239583333334 ] ] } },
{ "type": "Feature", "properties": { "style": "solid", "thickness": 1 }, "geometry": { "type": "LineString", "coordinates": [ [ -82.394042638888891, 27.706089416666664 ], [ -82.38920002777779, 27.706309916666665 ] ] } },
{ "type": "Feature", "properties": { "style": "solid", "thickness": 1 }, "geometry": { "type": "LineString", "coordinates": [ [ -82.391688583333334, 27.706196638888887 ], [ -82.391251611111116, 27.698594194444446 ] ] } },
{ "type": "Feature", "properties": { "style": "solid", "thickness": 1 }, "geometry": { "type": "LineString", "coordinates": [ [ -82.383733861111111, 27.702717444444446 ], [ -82.380490916666659, 27.69908375 ] ] } },
{ "type": "Feature", "properties": { "style": "solid", "thickness": 1 }, "geometry": { "type": "LineString", "coordinates": [ [ -82.385938527777782, 27.698836027777777 ], [ -82.386375138888894, 27.706438472222221 ], [ -82.383012194444433, 27.706591444444445 ], [ -82.382736277777767, 27.706483944444443 ], [ -82.382117194444433, 27.706272027777779 ], [ -82.381477499999988, 27.705700916666665 ], [ -82.381174111111108, 27.705114527777777 ], [ -82.381132888888885, 27.704396194444445 ], [ -82.381367583333329, 27.703785333333332 ], [ -82.381938527777777, 27.703159194444442 ], [ -82.382530111111109, 27.702892222222221 ], [ -82.382792277777767, 27.702760277777777 ], [ -82.386155111111123, 27.702607305555556 ] ] } },
{ "type": "Feature", "properties": { "style": "solid", "thickness": 1 }, "geometry": { "type": "LineString", "coordinates": [ [ -82.377733472222218, 27.699209055555556 ], [ -82.375882694444442, 27.706915444444444 ], [ -82.372622083333326, 27.699441222222223 ], [ -82.370703694444444, 27.707150583333334 ], [ -82.367779694444437, 27.699660972222222 ] ] } },
{ "type": "Feature", "properties": { "style": "solid", "thickness": 1 }, "geometry": { "type": "LineString", "coordinates": [ [ -82.386822027777782, 27.994187638888889 ], [ -82.387112472222228, 27.994534555555557 ], [ -82.387740083333341, 27.994866166666668 ], [ -82.38815158333334, 27.994967527777778 ], [ -82.389308361111119, 27.995095083333336 ], [ -82.389712972222227, 27.995076722222223 ], [ -82.39051533333334, 27.99492025 ], [ -82.391179333333341, 27.994710055555558 ], [ -82.39131077777779, 27.994644083333334 ], [ -82.391765583333338, 27.99432336111111 ], [ -82.392216916666669, 27.993942777777779 ], [ -82.392967500000012, 27.992888416666666 ], [ -82.393249472222223, 27.991915361111111 ], [ -82.393173555555563, 27.990598472222224 ], [ -82.392997277777781, 27.989886277777778 ], [ -82.3926965, 27.989359805555555 ], [ -82.392264305555557, 27.988899305555556 ], [ -82.391903, 27.988495611111112 ], [ -82.3913325, 27.98798138888889 ], [ -82.390779222222235, 27.987766444444446 ], [ -82.390225972222225, 27.9875515 ], [ -82.38974705555556, 27.987453194444445 ], [ -82.388533277777782, 27.987508305555558 ], [ -82.387865861111123, 27.987658611111112 ], [ -82.387340194444448, 27.98792252777778 ], [ -82.386750527777778, 27.988249361111112 ], [ -82.386363166666669, 27.98856702777778 ], [ -82.385730194444449, 27.989315916666669 ], [ -82.385356611111121, 27.989873 ], [ -82.385242416666671, 27.990238277777777 ], [ -82.385297555555567, 27.991196027777779 ], [ -82.388129805555565, 27.99106752777778 ] ] } },
{ "type": "Feature", "properties": { "style": "solid", "thickness": 1 }, "geometry": { "type": "LineString", "coordinates": [ [ -82.382766972222214, 27.995391833333333 ], [ -82.382419055555545, 27.989346055555558 ], [ -82.382334416666666, 27.989049833333333 ], [ -82.381827944444439, 27.98847263888889 ], [ -82.381470111111099, 27.988128777777778 ], [ -82.380916861111103, 27.987913777777777 ], [ -82.380171666666655, 27.987887555555556 ], [ -82.37909275, 27.987936444444447 ], [ -82.378489305555547, 27.988023805555557 ], [ -82.377697305555543, 27.988359777777777 ], [ -82.377249361111097, 27.988800166666667 ], [ -82.377000277777768, 27.989171555555558 ], [ -82.376896388888881, 27.98971638888889 ], [ -82.3772371111111, 27.995642444444446 ] ] } },
{ "type": "Feature", "properties": { "style": "solid", "thickness": 1 }, "geometry": { "type": "LineString", "coordinates": [ [ -82.374000111111101, 27.995789055555555 ], [ -82.369414333333324, 27.995996611111114 ], [ -82.369383416666665, 27.99545788888889 ], [ -82.37403872222221, 27.988225416666669 ], [ -82.374035277777764, 27.988165555555558 ], [ -82.368708083333331, 27.988406666666666 ] ] } },
{ "type": "Feature", "properties": { "style": "solid", "thickness": 1 }, "geometry": { "type": "LineString", "coordinates": [ [ -82.366145611111108, 27.988522583333335 ], [ -82.366581944444434, 27.99612475 ], [ -82.363614666666663, 27.996258888888889 ], [ -82.362798555555557, 27.99617575 ], [ -82.362451055555553, 27.996011416666668 ], [ -82.361887527777768, 27.99561677777778 ], [ -82.361040499999987, 27.99499488888889 ], [ -82.360456388888878, 27.994241111111112 ], [ -82.360287166666666, 27.993648611111112 ], [ -82.360173916666668, 27.991673222222222 ], [ -82.360277888888888, 27.991128388888889 ], [ -82.360641305555546, 27.990391805555557 ], [ -82.361089333333325, 27.989951472222224 ], [ -82.361530472222213, 27.98939138888889 ], [ -82.362180777777766, 27.988941888888888 ], [ -82.362979666666661, 27.98872575 ], [ -82.363448277777778, 27.988644555555556 ], [ -82.366145611111108, 27.988522583333335 ] ] } },
{ "type": "Feature", "properties": { "style": "solid", "thickness": 1 }, "geometry": { "type": "LineString", "coordinates": [ [ -82.357311805555554, 27.988921805555556 ], [ -82.354038416666654, 27.996691444444444 ], [ -82.350096361111099, 27.989247472222225 ] ] } },
{ "type": "Feature", "properties": { "style": "solid", "thickness": 1 }, "geometry": { "type": "LineString", "coordinates": [ [ -82.356238638888883, 27.991430861111112 ], [ -82.351383277777771, 27.99165 ] ] } }
]
}
