{
"type": "FeatureCollection",
"name": "tpa158sgp",
"features": [
{ "type": "Feature", "properties": { "style": "solid", "thickness": 1 }, "geometry": { "type": "LineString", "coordinates": [ [ -82.850516861111103, 27.766482 ], [ -82.8039235, 27.688602361111112 ] ] } },
{ "type": "Feature", "properties": { "style": "solid", "thickness": 1 }, "geometry": { "type": "LineString", "coordinates": [ [ -82.798845805555558, 27.679093222222225 ], [ -82.760956055555553, 27.599463083333333 ] ] } },
{ "type": "Feature", "properties": { "style": "solid", "thickness": 1 }, "geometry": { "type": "LineString", "coordinates": [ [ -82.616367944444434, 27.646402972222223 ], [ -82.6080015, 27.594090694444443 ] ] } },
{ "type": "Feature", "properties": { "style": "solid", "thickness": 1 }, "geometry": { "type": "LineString", "coordinates": [ [ -82.621664444444434, 27.679493666666669 ], [ -82.619015805555549, 27.662948388888889 ] ] } },
{ "type": "Feature", "properties": { "style": "solid", "thickness": 1 }, "geometry": { "type": "LineString", "coordinates": [ [ -82.647951666666671, 27.846067583333333 ], [ -82.656672333333333, 27.860873444444447 ] ] } },
{ "type": "Feature", "properties": { "style": "solid", "thickness": 1 }, "geometry": { "type": "LineString", "coordinates": [ [ -82.677213527777781, 27.895729805555554 ], [ -82.665395388888896, 27.875678722222222 ] ] } },
{ "type": "Feature", "properties": { "style": "solid", "thickness": 1 }, "geometry": { "type": "LineString", "coordinates": [ [ -82.726783305555557, 27.71925236111111 ], [ -82.743375333333333, 27.711424944444445 ] ] } },
{ "type": "Feature", "properties": { "style": "solid", "thickness": 1 }, "geometry": { "type": "LineString", "coordinates": [ [ -82.796166333333332, 27.68649975 ], [ -82.759965, 27.703595555555555 ] ] } },
{ "type": "Feature", "properties": { "style": "solid", "thickness": 1 }, "geometry": { "type": "LineString", "coordinates": [ [ -82.61341347222222, 27.828709055555557 ], [ -82.610159222222222, 27.825080916666668 ] ] } },
{ "type": "Feature", "properties": { "style": "solid", "thickness": 1 }, "geometry": { "type": "LineString", "coordinates": [ [ -82.61561247222221, 27.824824138888889 ], [ -82.616065555555551, 27.832425527777776 ], [ -82.612699111111112, 27.832584083333334 ], [ -82.61242266666666, 27.832477055555554 ], [ -82.611802444444436, 27.832266166666667 ], [ -82.611160833333329, 27.831696166666667 ], [ -82.610855888888878, 27.831110305555555 ], [ -82.610813083333326, 27.830392055555556 ], [ -82.61104675, 27.829780833333334 ], [ -82.611617055555556, 27.829153777777776 ], [ -82.612208722222221, 27.828885833333334 ], [ -82.612470888888879, 27.828753444444445 ], [ -82.615837222222211, 27.828594916666667 ] ] } },
{ "type": "Feature", "properties": { "style": "solid", "thickness": 1 }, "geometry": { "type": "LineString", "coordinates": [ [ -82.607851444444435, 27.83281225 ], [ -82.607491555555555, 27.826767 ], [ -82.607406416666663, 27.826470916666665 ], [ -82.60689952777777, 27.825894527777777 ], [ -82.606541527777779, 27.82555125 ], [ -82.605988666666661, 27.825337166666667 ], [ -82.605244527777771, 27.82531213888889 ], [ -82.604167361111109, 27.825362805555557 ], [ -82.603565, 27.825451166666667 ], [ -82.602774888888888, 27.825788416666665 ], [ -82.602328527777772, 27.826229555555557 ], [ -82.602080611111106, 27.826601333333333 ], [ -82.601978, 27.827146333333332 ], [ -82.602330444444434, 27.833071888888888 ] ] } },
{ "type": "Feature", "properties": { "style": "solid", "thickness": 1 }, "geometry": { "type": "LineString", "coordinates": [ [ -82.599502611111106, 27.833204777777777 ], [ -82.59465486111111, 27.8334325 ] ] } },
{ "type": "Feature", "properties": { "style": "solid", "thickness": 1 }, "geometry": { "type": "LineString", "coordinates": [ [ -82.597146083333328, 27.8333155 ], [ -82.596694305555545, 27.825714027777778 ] ] } },
{ "type": "Feature", "properties": { "style": "solid", "thickness": 1 }, "geometry": { "type": "LineString", "coordinates": [ [ -82.591823472222217, 27.833505388888888 ], [ -82.591375611111104, 27.82596375 ] ] } },
{ "type": "Feature", "properties": { "style": "solid", "thickness": 1 }, "geometry": { "type": "LineString", "coordinates": [ [ -82.586100416666667, 27.833773861111109 ], [ -82.585652944444433, 27.826232194444444 ] ] } },
{ "type": "Feature", "properties": { "style": "solid", "thickness": 1 }, "geometry": { "type": "LineString", "coordinates": [ [ -82.59161375, 27.829973972222223 ], [ -82.585890888888883, 27.830242444444444 ] ] } },
{ "type": "Feature", "properties": { "style": "solid", "thickness": 1 }, "geometry": { "type": "LineString", "coordinates": [ [ -82.583343416666665, 27.833963138888887 ], [ -82.579660944444441, 27.826513027777779 ], [ -82.577014333333324, 27.834259638888888 ] ] } },
{ "type": "Feature", "properties": { "style": "solid", "thickness": 1 }, "geometry": { "type": "LineString", "coordinates": [ [ -82.728979666666675, 27.752737722222221 ], [ -82.724135805555562, 27.752969972222221 ] ] } },
{ "type": "Feature", "properties": { "style": "solid", "thickness": 1 }, "geometry": { "type": "LineString", "coordinates": [ [ -82.726625, 27.752850638888887 ], [ -82.726164527777783, 27.745249555555556 ] ] } },
{ "type": "Feature", "properties": { "style": "solid", "thickness": 1 }, "geometry": { "type": "LineString", "coordinates": [ [ -82.71653358333333, 27.753334166666665 ], [ -82.717744555555555, 27.753276194444446 ], [ -82.718346416666662, 27.753187333333333 ], [ -82.719524805555551, 27.752590666666666 ], [ -82.720606888888895, 27.751518416666666 ], [ -82.72096344444445, 27.750721 ], [ -82.721107305555563, 27.749753722222223 ], [ -82.721060222222221, 27.74897563888889 ], [ -82.720882194444442, 27.748263888888889 ], [ -82.720498722222217, 27.747501944444444 ], [ -82.719700777777774, 27.74657975 ], [ -82.719413583333335, 27.746293388888891 ], [ -82.718853666666675, 27.745960055555557 ], [ -82.717688305555555, 27.745655722222224 ], [ -82.716275611111115, 27.745723388888891 ], [ -82.715610138888891, 27.745875277777778 ], [ -82.714951888888891, 27.746146888888891 ], [ -82.714559111111114, 27.74634577777778 ], [ -82.713915333333333, 27.746856777777779 ], [ -82.713353305555557, 27.747603972222223 ], [ -82.713180444444447, 27.748092444444445 ], [ -82.71303288888889, 27.748999888888889 ], [ -82.71311975, 27.750436305555557 ], [ -82.713812083333337, 27.751843777777779 ], [ -82.714244694444446, 27.752303277777777 ], [ -82.714740944444443, 27.752699694444445 ], [ -82.71523, 27.752976388888889 ], [ -82.715368166666664, 27.753029805555556 ], [ -82.71653358333333, 27.753334166666665 ] ] } },
{ "type": "Feature", "properties": { "style": "solid", "thickness": 1 }, "geometry": { "type": "LineString", "coordinates": [ [ -82.710086583333336, 27.746019555555556 ], [ -82.710545944444448, 27.753620722222223 ], [ -82.702484777777784, 27.746382972222221 ], [ -82.702943638888897, 27.753984166666665 ] ] } },
{ "type": "Feature", "properties": { "style": "solid", "thickness": 1 }, "geometry": { "type": "LineString", "coordinates": [ [ -82.700185277777777, 27.754115916666667 ], [ -82.697007138888893, 27.74952575 ], [ -82.694466666666671, 27.754388916666667 ] ] } },
{ "type": "Feature", "properties": { "style": "solid", "thickness": 1 }, "geometry": { "type": "LineString", "coordinates": [ [ -82.697007138888893, 27.74952575 ], [ -82.696837472222228, 27.746712722222224 ] ] } },
{ "type": "Feature", "properties": { "style": "solid", "thickness": 1 }, "geometry": { "type": "LineString", "coordinates": [ [ -82.688411638888894, 27.754677722222223 ], [ -82.688025888888887, 27.74827352777778 ], [ -82.688071555555553, 27.747911222222225 ], [ -82.688386277777781, 27.747536055555557 ], [ -82.688771888888894, 27.747217555555558 ], [ -82.68903377777778, 27.747085027777779 ], [ -82.689433805555566, 27.747005916666669 ], [ -82.690106555555559, 27.746973833333335 ], [ -82.690513805555554, 27.747014444444446 ], [ -82.6911445, 27.747404527777778 ], [ -82.691289861111116, 27.747577666666668 ] ] } },
{ "type": "Feature", "properties": { "style": "solid", "thickness": 1 }, "geometry": { "type": "LineString", "coordinates": [ [ -82.601546027777772, 27.58676525 ], [ -82.601630916666664, 27.58759925 ], [ -82.601881555555551, 27.588406388888888 ], [ -82.602289944444436, 27.589160638888888 ], [ -82.60284291666666, 27.589837805555554 ], [ -82.603522722222223, 27.590416138888887 ], [ -82.6043075, 27.590877 ], [ -82.605172055555556, 27.591205611111111 ], [ -82.606088555555544, 27.591391388888887 ], [ -82.607027555555547, 27.59142836111111 ], [ -82.607958888888888, 27.591315361111111 ], [ -82.608852611111104, 27.591056 ], [ -82.60967997222221, 27.59065861111111 ], [ -82.610414388888884, 27.590136 ], [ -82.611032277777767, 27.589504944444442 ], [ -82.61151375, 27.588785722222219 ], [ -82.611843361111099, 27.588001472222221 ], [ -82.6120105, 27.58717736111111 ], [ -82.612009777777772, 27.586339916666667 ], [ -82.611841277777771, 27.585516055555555 ], [ -82.611510361111101, 27.584732222222222 ], [ -82.611027722222218, 27.584013638888887 ], [ -82.610408805555551, 27.583383388888887 ], [ -82.609673583333333, 27.58286175 ], [ -82.60884563888888, 27.582465444444445 ], [ -82.607951555555545, 27.582207222222223 ], [ -82.607020138888885, 27.582095416666668 ], [ -82.606081277777776, 27.582133583333334 ], [ -82.605165138888879, 27.5823205 ], [ -82.604301166666659, 27.582650166666667 ], [ -82.60351713888889, 27.583111972222223 ], [ -82.60283825, 27.583691111111111 ], [ -82.602286333333325, 27.584368944444442 ], [ -82.601879111111103, 27.585123694444444 ], [ -82.601629666666668, 27.585931111111108 ], [ -82.601546027777772, 27.58676525 ] ] } },
{ "type": "Feature", "properties": { "style": "solid", "thickness": 1 }, "geometry": { "type": "LineString", "coordinates": [ [ -82.59465925, 27.58733336111111 ], [ -82.596973, 27.586941833333331 ], [ -82.599165694444437, 27.586176055555555 ], [ -82.601161777777776, 27.585062444444443 ], [ -82.602892472222223, 27.583639305555554 ], [ -82.604298194444439, 27.581955722222222 ], [ -82.6053305, 27.580069666666667 ], [ -82.605953888888877, 27.57804611111111 ], [ -82.606146888888887, 27.57595475 ] ] } },
{ "type": "Feature", "properties": { "style": "solid", "thickness": 1 }, "geometry": { "type": "LineString", "coordinates": [ [ -82.606146888888887, 27.57595475 ], [ -82.606586472222219, 27.578016277777778 ], [ -82.607446027777769, 27.579969916666666 ], [ -82.608695944444435, 27.58174838888889 ], [ -82.610293194444438, 27.583290388888887 ], [ -82.612182777777775, 27.584542833333334 ], [ -82.614299583333334, 27.585462555555555 ], [ -82.616570722222221, 27.58601786111111 ], [ -82.618917916666661, 27.586189638888889 ] ] } },
{ "type": "Feature", "properties": { "style": "solid", "thickness": 1 }, "geometry": { "type": "LineString", "coordinates": [ [ -82.607430527777765, 27.597569305555556 ], [ -82.607623527777776, 27.595477944444443 ], [ -82.608246944444446, 27.593454388888887 ], [ -82.609279305555546, 27.591568305555555 ], [ -82.610685027777777, 27.589884638888886 ], [ -82.612415694444437, 27.588461416666664 ], [ -82.614411666666655, 27.587347583333333 ], [ -82.61660425, 27.586581527777778 ], [ -82.618917916666661, 27.586189638888889 ] ] } },
{ "type": "Feature", "properties": { "style": "solid", "thickness": 1 }, "geometry": { "type": "LineString", "coordinates": [ [ -82.607430527777765, 27.597569305555556 ], [ -82.606990833333327, 27.595507777777776 ], [ -82.606131194444444, 27.593554138888887 ], [ -82.604881166666658, 27.591775666666667 ], [ -82.603283861111109, 27.590233583333333 ], [ -82.601394277777771, 27.588981027777777 ], [ -82.5992775, 27.588061111111109 ], [ -82.597006416666659, 27.587505527777775 ], [ -82.59465925, 27.58733336111111 ] ] } },
{ "type": "Feature", "properties": { "style": "solid", "thickness": 1 }, "geometry": { "type": "LineString", "coordinates": [ [ -82.582951861111113, 27.605531972222224 ], [ -82.58257288888889, 27.599127472222222 ], [ -82.582618805555555, 27.598765194444443 ], [ -82.5829335, 27.598390277777778 ], [ -82.583318888888883, 27.598072055555555 ], [ -82.583580527777769, 27.597939722222222 ], [ -82.583980111111103, 27.597860944444442 ], [ -82.584651944444445, 27.597829388888886 ], [ -82.585058583333335, 27.597870305555553 ], [ -82.585688055555551, 27.598260861111111 ], [ -82.585833055555554, 27.598434111111111 ] ] } },
{ "type": "Feature", "properties": { "style": "solid", "thickness": 1 }, "geometry": { "type": "LineString", "coordinates": [ [ -82.577551805555558, 27.601944111111113 ], [ -82.574305527777767, 27.598315055555556 ] ] } },
{ "type": "Feature", "properties": { "style": "solid", "thickness": 1 }, "geometry": { "type": "LineString", "coordinates": [ [ -82.579747472222223, 27.598059694444444 ], [ -82.580197111111104, 27.605661333333334 ], [ -82.576837666666663, 27.605819 ], [ -82.576561805555556, 27.605711888888891 ], [ -82.575942972222222, 27.605500861111114 ], [ -82.575302888888885, 27.604930666666668 ], [ -82.57499875, 27.604344722222223 ], [ -82.574956305555546, 27.603626444444444 ], [ -82.57518966666666, 27.603015277777779 ], [ -82.575758972222218, 27.602388361111114 ], [ -82.5763495, 27.602120583333335 ], [ -82.576611166666666, 27.60198825 ], [ -82.579970527777775, 27.601830583333335 ] ] } },
{ "type": "Feature", "properties": { "style": "solid", "thickness": 1 }, "geometry": { "type": "LineString", "coordinates": [ [ -82.565422555555557, 27.60533377777778 ], [ -82.5657125, 27.605680305555556 ], [ -82.566338416666667, 27.606011111111112 ], [ -82.566748611111109, 27.606111944444446 ], [ -82.567901444444445, 27.606238 ], [ -82.56830458333333, 27.606219111111113 ], [ -82.569103777777769, 27.606061611111112 ], [ -82.569765083333323, 27.605850555555556 ], [ -82.569895916666667, 27.605784416666669 ], [ -82.570348583333327, 27.605463083333333 ], [ -82.570797694444437, 27.60508188888889 ], [ -82.571543833333322, 27.604026555555556 ], [ -82.571823222222221, 27.603053111111112 ], [ -82.571745416666658, 27.601736305555558 ], [ -82.571568611111104, 27.601024333333335 ], [ -82.571268055555549, 27.600498222222225 ], [ -82.570836638888892, 27.600038277777781 ], [ -82.570475972222212, 27.599635055555556 ], [ -82.569906666666668, 27.599121527777775 ], [ -82.569355055555548, 27.598907305555553 ], [ -82.568803416666668, 27.59869308333333 ], [ -82.568326055555545, 27.598595388888889 ], [ -82.567116722222224, 27.598652055555554 ], [ -82.566451944444438, 27.59880325 ], [ -82.565928583333331, 27.599067861111109 ], [ -82.565341583333336, 27.59939547222222 ], [ -82.564956138888888, 27.59971361111111 ], [ -82.564326666666659, 27.600463361111114 ], [ -82.563955333333325, 27.601020944444446 ], [ -82.563842138888887, 27.601386361111114 ], [ -82.563898638888887, 27.602344055555555 ], [ -82.566720527777775, 27.602211888888892 ] ] } },
{ "type": "Feature", "properties": { "style": "solid", "thickness": 1 }, "geometry": { "type": "LineString", "coordinates": [ [ -82.561002861111106, 27.598938388888886 ], [ -82.557755722222225, 27.606713 ], [ -82.553813972222216, 27.599274694444443 ] ] } },
{ "type": "Feature", "properties": { "style": "solid", "thickness": 1 }, "geometry": { "type": "LineString", "coordinates": [ [ -82.559938222222215, 27.601449083333335 ], [ -82.55510075, 27.601675388888889 ] ] } },
{ "type": "Feature", "properties": { "style": "solid", "thickness": 1 }, "geometry": { "type": "LineString", "coordinates": [ [ -82.551439805555546, 27.607008333333336 ], [ -82.55099216666666, 27.59940661111111 ], [ -82.547700055555552, 27.599560416666666 ] ] } },
{ "type": "Feature", "properties": { "style": "solid", "thickness": 1 }, "geometry": { "type": "LineString", "coordinates": [ [ -82.572286111111111, 27.591818305555556 ], [ -82.572307305555555, 27.592177444444442 ], [ -82.572197694444441, 27.592602722222221 ], [ -82.571960805555548, 27.593154027777775 ], [ -82.571713277777775, 27.593525777777778 ], [ -82.571324333333322, 27.593784083333333 ], [ -82.570793944444446, 27.593929 ], [ -82.56978622222222, 27.59397625 ], [ -82.56904013888888, 27.593891166666666 ], [ -82.568693638888888, 27.593727333333334 ], [ -82.568198611111114, 27.593330388888887 ], [ -82.568046583333327, 27.593037416666665 ], [ -82.567883972222219, 27.592564861111111 ], [ -82.56782741666666, 27.591607166666666 ], [ -82.567940583333325, 27.59124175 ], [ -82.568471, 27.589956444444443 ], [ -82.569227666666663, 27.589080666666664 ], [ -82.570436916666665, 27.587883583333333 ], [ -82.571893638888881, 27.58631475 ], [ -82.56766144444444, 27.586513138888886 ] ] } },
{ "type": "Feature", "properties": { "style": "solid", "thickness": 1 }, "geometry": { "type": "LineString", "coordinates": [ [ -82.560374111111102, 27.58973547222222 ], [ -82.56048, 27.591531138888886 ], [ -82.560741527777779, 27.59253925 ], [ -82.560904138888887, 27.593011805555555 ], [ -82.561126861111106, 27.5933615 ], [ -82.56197541666667, 27.594042027777778 ], [ -82.56279925, 27.594303583333332 ], [ -82.563067972222214, 27.594291 ], [ -82.563856527777773, 27.59395397222222 ], [ -82.564553138888883, 27.593201083333334 ], [ -82.56480066666667, 27.592829361111111 ], [ -82.564906777777779, 27.59234422222222 ], [ -82.565048277777777, 27.591317222222219 ], [ -82.564942333333335, 27.589521555555553 ], [ -82.56468075, 27.588513444444445 ], [ -82.564518138888886, 27.588040888888887 ], [ -82.56422825, 27.587694361111112 ], [ -82.56344688888889, 27.587010694444444 ], [ -82.562623111111108, 27.586749166666664 ], [ -82.562354388888892, 27.58676175 ], [ -82.561565916666666, 27.587098777777776 ], [ -82.560802138888889, 27.587854777777778 ], [ -82.560621777777769, 27.588223333333332 ], [ -82.560515638888887, 27.588708472222223 ], [ -82.560374111111102, 27.58973547222222 ] ] } },
{ "type": "Feature", "properties": { "style": "solid", "thickness": 1 }, "geometry": { "type": "LineString", "coordinates": [ [ -82.906861027777779, 27.774974972222221 ], [ -82.906387833333341, 27.7673745 ], [ -82.903091138888897, 27.767536833333331 ] ] } },
{ "type": "Feature", "properties": { "style": "solid", "thickness": 1 }, "geometry": { "type": "LineString", "coordinates": [ [ -82.896028222222228, 27.775508138888888 ], [ -82.897239361111119, 27.775448583333333 ], [ -82.897841194444453, 27.775358944444445 ], [ -82.899018833333344, 27.77476075 ], [ -82.900099361111117, 27.773687083333332 ], [ -82.900454666666676, 27.772889194444442 ], [ -82.900596972222232, 27.771921722222221 ], [ -82.900548555555559, 27.77114372222222 ], [ -82.900369333333344, 27.770432194444442 ], [ -82.899984527777789, 27.76967075 ], [ -82.899184888888897, 27.768749611111112 ], [ -82.898897166666671, 27.768463638888889 ], [ -82.898336583333347, 27.768131027777777 ], [ -82.8971705, 27.767828222222221 ], [ -82.895757611111122, 27.767897722222223 ], [ -82.89509225, 27.7680505 ], [ -82.894434333333336, 27.768322972222222 ], [ -82.89404180555556, 27.76852236111111 ], [ -82.89339875, 27.769034222222221 ], [ -82.892837833333346, 27.769782138888889 ], [ -82.89266575, 27.770270833333331 ], [ -82.892519666666672, 27.771178444444445 ], [ -82.892608916666674, 27.772614777777775 ], [ -82.893303722222228, 27.774021333333334 ], [ -82.893737166666668, 27.77448025 ], [ -82.894234194444451, 27.774876027777776 ], [ -82.894723777777784, 27.775152083333332 ], [ -82.894862083333336, 27.775205333333332 ], [ -82.896028222222228, 27.775508138888888 ] ] } },
{ "type": "Feature", "properties": { "style": "solid", "thickness": 1 }, "geometry": { "type": "LineString", "coordinates": [ [ -82.89003986111112, 27.775802527777778 ], [ -82.886853083333335, 27.771216777777777 ], [ -82.884320611111121, 27.776083444444442 ] ] } },
{ "type": "Feature", "properties": { "style": "solid", "thickness": 1 }, "geometry": { "type": "LineString", "coordinates": [ [ -82.886853083333335, 27.771216777777777 ], [ -82.886678472222229, 27.76840397222222 ] ] } },
{ "type": "Feature", "properties": { "style": "solid", "thickness": 1 }, "geometry": { "type": "LineString", "coordinates": [ [ -82.881090444444439, 27.768618305555556 ], [ -82.881561888888882, 27.776218861111111 ] ] } },
{ "type": "Feature", "properties": { "style": "solid", "thickness": 1 }, "geometry": { "type": "LineString", "coordinates": [ [ -82.87806302777777, 27.776390527777778 ], [ -82.877591805555554, 27.768789944444443 ], [ -82.874295027777777, 27.76895161111111 ] ] } },
{ "type": "Feature", "properties": { "style": "solid", "thickness": 1 }, "geometry": { "type": "LineString", "coordinates": [ [ -82.806506388888891, 27.594525416666666 ], [ -82.806924083333328, 27.594745222222222 ], [ -82.807401638888891, 27.594842055555553 ], [ -82.809013861111112, 27.594763666666665 ], [ -82.80961111111111, 27.594614583333332 ], [ -82.809808972222214, 27.594544944444444 ], [ -82.810783611111106, 27.593957277777776 ], [ -82.8113515, 27.593329388888886 ], [ -82.811516361111103, 27.592721083333331 ], [ -82.81192055555556, 27.591620916666667 ], [ -82.811836194444439, 27.590244388888888 ], [ -82.8116615, 27.589592583333332 ], [ -82.811426972222222, 27.58906375 ], [ -82.811121611111105, 27.588478333333331 ], [ -82.810409555555552, 27.587852666666667 ], [ -82.809096638888889, 27.587316222222221 ], [ -82.808212416666663, 27.587179138888889 ], [ -82.807473555555546, 27.587215055555554 ], [ -82.806544138888881, 27.587440333333333 ], [ -82.806219277777771, 27.587636194444443 ], [ -82.805957916666671, 27.587768972222221 ] ] } },
{ "type": "Feature", "properties": { "style": "solid", "thickness": 1 }, "geometry": { "type": "LineString", "coordinates": [ [ -82.803639805555548, 27.595024888888886 ], [ -82.800890777777781, 27.587534944444442 ], [ -82.798534416666669, 27.595272833333333 ], [ -82.795718555555553, 27.587786055555554 ], [ -82.79369772222222, 27.595507583333333 ] ] } },
{ "type": "Feature", "properties": { "style": "solid", "thickness": 1 }, "geometry": { "type": "LineString", "coordinates": [ [ -82.790411972222216, 27.5880435 ], [ -82.790876305555557, 27.595644416666666 ], [ -82.788054888888894, 27.595781222222222 ], [ -82.787450277777779, 27.595810527777775 ], [ -82.786958111111105, 27.595474194444442 ], [ -82.786596666666668, 27.595071527777776 ], [ -82.786582055555556, 27.594832138888886 ], [ -82.786508972222222, 27.593635138888889 ], [ -82.786565166666662, 27.593452333333332 ], [ -82.786737472222214, 27.59296375 ], [ -82.78737266666667, 27.592332694444444 ], [ -82.786679, 27.592006166666664 ], [ -82.786332166666668, 27.591842888888888 ], [ -82.785978027777773, 27.591559916666665 ], [ -82.785743638888889, 27.591031027777777 ], [ -82.785648638888887, 27.589474944444444 ], [ -82.785824583333337, 27.589046222222223 ], [ -82.786272861111115, 27.588664333333334 ], [ -82.786594111111114, 27.588408666666666 ], [ -82.78691902777777, 27.588212833333333 ], [ -82.790411972222216, 27.5880435 ] ] } },
{ "type": "Feature", "properties": { "style": "solid", "thickness": 1 }, "geometry": { "type": "LineString", "coordinates": [ [ -82.79066425, 27.592173138888889 ], [ -82.78737266666667, 27.592332694444444 ] ] } },
{ "type": "Feature", "properties": { "style": "solid", "thickness": 1 }, "geometry": { "type": "LineString", "coordinates": [ [ -82.78275433333333, 27.588414611111109 ], [ -82.783218138888884, 27.596015583333333 ] ] } },
{ "type": "Feature", "properties": { "style": "solid", "thickness": 1 }, "geometry": { "type": "LineString", "coordinates": [ [ -82.779724916666666, 27.596184722222223 ], [ -82.779261361111111, 27.58858375 ], [ -82.775969888888895, 27.58874308333333 ] ] } },
{ "type": "Feature", "properties": { "style": "solid", "thickness": 1 }, "geometry": { "type": "LineString", "coordinates": [ [ -82.728979666666675, 27.752737722222221 ], [ -82.724135805555562, 27.752969972222221 ] ] } },
{ "type": "Feature", "properties": { "style": "solid", "thickness": 1 }, "geometry": { "type": "LineString", "coordinates": [ [ -82.726625, 27.752850638888887 ], [ -82.726164527777783, 27.745249555555556 ] ] } },
{ "type": "Feature", "properties": { "style": "solid", "thickness": 1 }, "geometry": { "type": "LineString", "coordinates": [ [ -82.71653358333333, 27.753334166666665 ], [ -82.717744555555555, 27.753276194444446 ], [ -82.718346416666662, 27.753187333333333 ], [ -82.719524805555551, 27.752590666666666 ], [ -82.720606888888895, 27.751518416666666 ], [ -82.72096344444445, 27.750721 ], [ -82.721107305555563, 27.749753722222223 ], [ -82.721060222222221, 27.74897563888889 ], [ -82.720882194444442, 27.748263888888889 ], [ -82.720498722222217, 27.747501944444444 ], [ -82.719700777777774, 27.74657975 ], [ -82.719413583333335, 27.746293388888891 ], [ -82.718853666666675, 27.745960055555557 ], [ -82.717688305555555, 27.745655722222224 ], [ -82.716275611111115, 27.745723388888891 ], [ -82.715610138888891, 27.745875277777778 ], [ -82.714951888888891, 27.746146888888891 ], [ -82.714559111111114, 27.74634577777778 ], [ -82.713915333333333, 27.746856777777779 ], [ -82.713353305555557, 27.747603972222223 ], [ -82.713180444444447, 27.748092444444445 ], [ -82.71303288888889, 27.748999888888889 ], [ -82.71311975, 27.750436305555557 ], [ -82.713812083333337, 27.751843777777779 ], [ -82.714244694444446, 27.752303277777777 ], [ -82.714740944444443, 27.752699694444445 ], [ -82.71523, 27.752976388888889 ], [ -82.715368166666664, 27.753029805555556 ], [ -82.71653358333333, 27.753334166666665 ] ] } },
{ "type": "Feature", "properties": { "style": "solid", "thickness": 1 }, "geometry": { "type": "LineString", "coordinates": [ [ -82.710086583333336, 27.746019555555556 ], [ -82.710545944444448, 27.753620722222223 ], [ -82.702484777777784, 27.746382972222221 ], [ -82.702943638888897, 27.753984166666665 ] ] } },
{ "type": "Feature", "properties": { "style": "solid", "thickness": 1 }, "geometry": { "type": "LineString", "coordinates": [ [ -82.700185277777777, 27.754115916666667 ], [ -82.697007138888893, 27.74952575 ], [ -82.694466666666671, 27.754388916666667 ] ] } },
{ "type": "Feature", "properties": { "style": "solid", "thickness": 1 }, "geometry": { "type": "LineString", "coordinates": [ [ -82.697007138888893, 27.74952575 ], [ -82.696837472222228, 27.746712722222224 ] ] } },
{ "type": "Feature", "properties": { "style": "solid", "thickness": 1 }, "geometry": { "type": "LineString", "coordinates": [ [ -82.688411638888894, 27.754677722222223 ], [ -82.688025888888887, 27.74827352777778 ], [ -82.688071555555553, 27.747911222222225 ], [ -82.688386277777781, 27.747536055555557 ], [ -82.688771888888894, 27.747217555555558 ], [ -82.68903377777778, 27.747085027777779 ], [ -82.689433805555566, 27.747005916666669 ], [ -82.690106555555559, 27.746973833333335 ], [ -82.690513805555554, 27.747014444444446 ], [ -82.6911445, 27.747404527777778 ], [ -82.691289861111116, 27.747577666666668 ] ] } },
{ "type": "Feature", "properties": { "style": "solid", "thickness": 1 }, "geometry": { "type": "LineString", "coordinates": [ [ -82.704939527777782, 27.727084944444442 ], [ -82.705025305555552, 27.727918888888887 ], [ -82.705277027777782, 27.728725805555555 ], [ -82.705686666666665, 27.729479777777776 ], [ -82.706241, 27.730156527777776 ], [ -82.706922222222218, 27.730734305555554 ], [ -82.707708472222222, 27.73119458333333 ], [ -82.708574444444452, 27.731522527777777 ], [ -82.709492305555557, 27.731707611111108 ], [ -82.710432555555556, 27.731743888888886 ], [ -82.711365, 27.731630194444442 ], [ -82.712259611111108, 27.731370166666665 ], [ -82.713087666666667, 27.730972166666664 ], [ -82.713822555555552, 27.730449 ], [ -82.714440611111115, 27.729817472222219 ], [ -82.714922027777774, 27.729097888888887 ], [ -82.715251305555554, 27.728313388888886 ], [ -82.715417888888894, 27.727489166666665 ], [ -82.715416388888897, 27.726651722222222 ], [ -82.715246861111112, 27.725828 ], [ -82.714914777777778, 27.725044416666666 ], [ -82.714430805555565, 27.724326194444444 ], [ -82.713810527777781, 27.723696444444442 ], [ -82.71307383333334, 27.72317533333333 ], [ -82.712244444444451, 27.722779666666664 ], [ -82.711348972222225, 27.722522111111111 ], [ -82.71041625, 27.722411 ], [ -82.709476194444449, 27.722449888888889 ], [ -82.708559055555554, 27.722637472222221 ], [ -82.707694277777776, 27.722967805555555 ], [ -82.706909694444448, 27.72343022222222 ], [ -82.706230472222231, 27.72400986111111 ], [ -82.705678472222232, 27.72468811111111 ], [ -82.705271444444449, 27.725443166666665 ], [ -82.705022444444452, 27.72625075 ], [ -82.704939527777782, 27.727084944444442 ] ] } },
{ "type": "Feature", "properties": { "style": "solid", "thickness": 1 }, "geometry": { "type": "LineString", "coordinates": [ [ -82.698044361111116, 27.72765825 ], [ -82.70036075, 27.727265 ], [ -82.702555527777776, 27.726497555555554 ], [ -82.704553138888897, 27.725382444444442 ], [ -82.706284722222222, 27.723958 ], [ -82.707690638888891, 27.72227336111111 ], [ -82.7087225, 27.720386555555553 ], [ -82.70934475, 27.718362527777778 ], [ -82.709536027777787, 27.716271027777776 ] ] } },
{ "type": "Feature", "properties": { "style": "solid", "thickness": 1 }, "geometry": { "type": "LineString", "coordinates": [ [ -82.709536027777787, 27.716271027777776 ], [ -82.709978138888886, 27.718332222222219 ], [ -82.710840638888897, 27.720285194444443 ], [ -82.712093888888887, 27.722062722222219 ], [ -82.713694666666669, 27.7236035 ], [ -82.715587888888891, 27.7248545 ], [ -82.717708305555561, 27.725772638888888 ], [ -82.719982888888893, 27.72632622222222 ], [ -82.722333277777778, 27.72649622222222 ] ] } },
{ "type": "Feature", "properties": { "style": "solid", "thickness": 1 }, "geometry": { "type": "LineString", "coordinates": [ [ -82.710841888888893, 27.7378845 ], [ -82.711033166666667, 27.735793 ], [ -82.711655472222219, 27.733769 ], [ -82.712687361111108, 27.731882138888889 ], [ -82.714093277777778, 27.730197444444443 ], [ -82.715824833333343, 27.728772888888887 ], [ -82.717822333333331, 27.727657555555552 ], [ -82.720017, 27.726889861111111 ], [ -82.722333277777778, 27.72649622222222 ] ] } },
{ "type": "Feature", "properties": { "style": "solid", "thickness": 1 }, "geometry": { "type": "LineString", "coordinates": [ [ -82.710841888888893, 27.7378845 ], [ -82.710399694444448, 27.735823305555556 ], [ -82.709537055555558, 27.733870333333336 ], [ -82.70828372222222, 27.732092805555553 ], [ -82.706682888888892, 27.730551972222219 ], [ -82.70478966666667, 27.729300833333333 ], [ -82.70266930555556, 27.728382527777775 ], [ -82.70039475, 27.727828638888887 ], [ -82.698044361111116, 27.72765825 ] ] } },
{ "type": "Feature", "properties": { "style": "solid", "thickness": 1 }, "geometry": { "type": "LineString", "coordinates": [ [ -82.850752833333331, 27.678519472222224 ], [ -82.85122175, 27.686120166666665 ], [ -82.847860222222224, 27.686284472222223 ], [ -82.847583916666665, 27.686177944444445 ], [ -82.846964083333333, 27.685968111111112 ], [ -82.846322083333334, 27.685399194444443 ], [ -82.846016277777778, 27.684813833333333 ], [ -82.845972, 27.684095666666668 ], [ -82.846204027777773, 27.683484055555557 ], [ -82.846772194444441, 27.682856 ], [ -82.847362472222216, 27.682587055555558 ], [ -82.847624027777769, 27.682454194444446 ], [ -82.850985444444433, 27.682289888888889 ] ] } },
{ "type": "Feature", "properties": { "style": "solid", "thickness": 1 }, "geometry": { "type": "LineString", "coordinates": [ [ -82.843284805555555, 27.686447972222222 ], [ -82.842820111111109, 27.678907083333335 ] ] } },
{ "type": "Feature", "properties": { "style": "solid", "thickness": 1 }, "geometry": { "type": "LineString", "coordinates": [ [ -82.837570138888879, 27.686726944444445 ], [ -82.837105833333325, 27.679186027777778 ] ] } },
{ "type": "Feature", "properties": { "style": "solid", "thickness": 1 }, "geometry": { "type": "LineString", "coordinates": [ [ -82.843067194444444, 27.682916916666667 ], [ -82.837352722222221, 27.683195888888889 ] ] } },
{ "type": "Feature", "properties": { "style": "solid", "thickness": 1 }, "geometry": { "type": "LineString", "coordinates": [ [ -82.834349527777775, 27.6793205 ], [ -82.834817305555546, 27.68692125 ] ] } },
{ "type": "Feature", "properties": { "style": "solid", "thickness": 1 }, "geometry": { "type": "LineString", "coordinates": [ [ -82.82722008333333, 27.687291583333334 ], [ -82.83132125, 27.687091722222224 ], [ -82.830853694444443, 27.679490944444446 ], [ -82.82668558333333, 27.679694083333334 ] ] } },
{ "type": "Feature", "properties": { "style": "solid", "thickness": 1 }, "geometry": { "type": "LineString", "coordinates": [ [ -82.831085638888879, 27.683261416666667 ], [ -82.827119055555556, 27.683454722222223 ] ] } },
{ "type": "Feature", "properties": { "style": "solid", "thickness": 1 }, "geometry": { "type": "LineString", "coordinates": [ [ -82.824598027777768, 27.687419305555554 ], [ -82.824130944444434, 27.6798185 ], [ -82.820836777777771, 27.67997888888889 ] ] } },
{ "type": "Feature", "properties": { "style": "solid", "thickness": 1 }, "geometry": { "type": "LineString", "coordinates": [ [ -82.841237444444445, 27.672396166666669 ], [ -82.841259555555553, 27.672755277777778 ], [ -82.841150916666663, 27.67318077777778 ], [ -82.840915222222222, 27.67373252777778 ], [ -82.840668444444447, 27.67410475 ], [ -82.840279833333327, 27.674363833333334 ], [ -82.839749416666663, 27.674509777777779 ], [ -82.838741055555545, 27.674559 ], [ -82.837994222222221, 27.67447538888889 ], [ -82.83764705555555, 27.67431225 ], [ -82.837150694444446, 27.673916277777778 ], [ -82.836997805555555, 27.673623583333335 ], [ -82.83683388888889, 27.673151361111113 ], [ -82.836774944444443, 27.672193805555558 ], [ -82.836887277777777, 27.671828138888891 ], [ -82.83741491666666, 27.670541805555558 ], [ -82.838169972222218, 27.669664555555556 ], [ -82.839377166666665, 27.668465111111111 ], [ -82.840831055555554, 27.666893416666667 ], [ -82.83659625, 27.667100111111111 ] ] } },
{ "type": "Feature", "properties": { "style": "solid", "thickness": 1 }, "geometry": { "type": "LineString", "coordinates": [ [ -82.829311472222216, 27.670336722222224 ], [ -82.829421888888888, 27.672132194444444 ], [ -82.829686111111101, 27.673139777777777 ], [ -82.82985, 27.673612027777779 ], [ -82.83007377777777, 27.673961277777778 ], [ -82.830924638888888, 27.67464013888889 ], [ -82.831749722222213, 27.674900055555558 ], [ -82.832018638888883, 27.674886944444445 ], [ -82.832806916666669, 27.674548361111114 ], [ -82.833502194444435, 27.673794111111111 ], [ -82.833748972222224, 27.673421916666669 ], [ -82.833853972222215, 27.672936583333335 ], [ -82.83399302777778, 27.671909305555555 ], [ -82.833882555555547, 27.670113861111112 ], [ -82.833618277777774, 27.669106277777779 ], [ -82.833454388888882, 27.668634027777777 ], [ -82.833163416666665, 27.668288055555557 ], [ -82.832379805555547, 27.667605944444446 ], [ -82.83155475, 27.667346027777779 ], [ -82.831285888888885, 27.667359138888891 ], [ -82.830497638888886, 27.667697694444445 ], [ -82.829735166666666, 27.668455194444444 ], [ -82.829555583333331, 27.66882413888889 ], [ -82.829450583333326, 27.669309472222224 ], [ -82.829311472222216, 27.670336722222224 ] ] } },
{ "type": "Feature", "properties": { "style": "solid", "thickness": 1 }, "geometry": { "type": "LineString", "coordinates": [ [ -82.84797075, 27.771012638888887 ], [ -82.848057638888889, 27.7718465 ], [ -82.848310555555557, 27.772653166666665 ], [ -82.84872133333333, 27.773406694444443 ], [ -82.849276805555547, 27.774082861111111 ], [ -82.849959055555544, 27.774659944444444 ], [ -82.850746222222213, 27.775119388888889 ], [ -82.851612972222213, 27.775446444444444 ], [ -82.852531472222211, 27.775630555555555 ], [ -82.85347213888889, 27.775665861111111 ], [ -82.854404805555546, 27.775551166666666 ], [ -82.855299444444441, 27.775290222222221 ], [ -82.856127305555546, 27.774891361111109 ], [ -82.856861777777766, 27.774367416666667 ], [ -82.85747927777777, 27.77373525 ], [ -82.857959944444445, 27.773015166666667 ], [ -82.858288333333334, 27.772230333333333 ], [ -82.858453861111101, 27.771405944444442 ], [ -82.858451249999987, 27.7705685 ], [ -82.858280583333325, 27.769744944444444 ], [ -82.857947361111101, 27.768961722222222 ], [ -82.85746225, 27.768244027777776 ], [ -82.85684086111111, 27.76761488888889 ], [ -82.856103194444444, 27.767094583333332 ], [ -82.855272944444437, 27.766699777777777 ], [ -82.854376777777773, 27.766443166666665 ], [ -82.85344352777777, 27.766333027777776 ], [ -82.852503138888878, 27.766372861111112 ], [ -82.851585888888877, 27.766561444444445 ], [ -82.850721194444432, 27.766892666666667 ], [ -82.849936888888891, 27.767355888888886 ], [ -82.849258166666658, 27.767936222222222 ], [ -82.848706861111111, 27.768615055555554 ], [ -82.848300638888887, 27.769370527777777 ], [ -82.8480526111111, 27.770178388888887 ], [ -82.84797075, 27.771012638888887 ] ] } },
{ "type": "Feature", "properties": { "style": "solid", "thickness": 1 }, "geometry": { "type": "LineString", "coordinates": [ [ -82.841073555555553, 27.771593166666666 ], [ -82.843390361111105, 27.771197472222223 ], [ -82.845585027777773, 27.770427777777776 ], [ -82.847581944444443, 27.769310555555556 ], [ -82.849312361111103, 27.767884333333331 ], [ -82.850716638888883, 27.766198222222222 ], [ -82.851746416666657, 27.764310333333334 ], [ -82.852366277777776, 27.762285666666667 ], [ -82.852554861111102, 27.760194 ] ] } },
{ "type": "Feature", "properties": { "style": "solid", "thickness": 1 }, "geometry": { "type": "LineString", "coordinates": [ [ -82.852554861111102, 27.760194 ], [ -82.852999861111101, 27.762254722222224 ], [ -82.853865305555544, 27.764206777777776 ], [ -82.855121361111102, 27.765982972222222 ], [ -82.856724833333331, 27.767522083333333 ], [ -82.858620472222213, 27.768771111111111 ], [ -82.860742944444439, 27.769687027777778 ], [ -82.863019194444433, 27.77023825 ], [ -82.86537075, 27.770405805555555 ] ] } },
{ "type": "Feature", "properties": { "style": "solid", "thickness": 1 }, "geometry": { "type": "LineString", "coordinates": [ [ -82.85388975, 27.781806 ], [ -82.854078333333334, 27.779714333333331 ], [ -82.854698222222211, 27.777689666666667 ], [ -82.855728027777772, 27.77580175 ], [ -82.857132305555552, 27.774115583333334 ], [ -82.858862666666667, 27.77268925 ], [ -82.860859499999989, 27.771571833333333 ], [ -82.863054055555551, 27.77080186111111 ], [ -82.86537075, 27.770405805555555 ] ] } },
{ "type": "Feature", "properties": { "style": "solid", "thickness": 1 }, "geometry": { "type": "LineString", "coordinates": [ [ -82.85388975, 27.781806 ], [ -82.853444638888888, 27.779745305555554 ], [ -82.852579083333325, 27.777793222222222 ], [ -82.85132291666666, 27.776017027777776 ], [ -82.849719388888886, 27.774477833333332 ], [ -82.847823777777776, 27.773228694444445 ], [ -82.845701305555551, 27.772312583333331 ], [ -82.843425111111102, 27.771761083333331 ], [ -82.841073555555553, 27.771593166666666 ] ] } },
{ "type": "Feature", "properties": { "style": "solid", "thickness": 1 }, "geometry": { "type": "LineString", "coordinates": [ [ -82.753340361111114, 27.59448125 ], [ -82.75342641666667, 27.595315194444442 ], [ -82.75367822222222, 27.596122027777778 ], [ -82.754087666666663, 27.596875833333332 ], [ -82.754641638888884, 27.597552388888889 ], [ -82.755322277777779, 27.598129944444445 ], [ -82.756107777777771, 27.598589944444445 ], [ -82.756972833333336, 27.598917583333332 ], [ -82.757889666666671, 27.599102361111111 ], [ -82.758828777777779, 27.599138305555556 ], [ -82.759760027777773, 27.59902425 ], [ -82.760653444444443, 27.598763916666666 ], [ -82.761480305555551, 27.59836561111111 ], [ -82.76221405555556, 27.597842194444443 ], [ -82.762831111111112, 27.597210444444443 ], [ -82.763311611111106, 27.596490694444444 ], [ -82.763640138888888, 27.595706055555553 ], [ -82.763806138888896, 27.594881777777776 ], [ -82.76380425, 27.594044333333333 ], [ -82.763634583333328, 27.593220666666664 ], [ -82.763302555555555, 27.592437194444443 ], [ -82.762818861111114, 27.591719166666664 ], [ -82.762199055555556, 27.591089611111109 ], [ -82.761463027777779, 27.59056875 ], [ -82.760634472222222, 27.590173361111109 ], [ -82.759739972222221, 27.589916166666665 ], [ -82.758808333333334, 27.589805361111111 ], [ -82.757869444444438, 27.589844555555555 ], [ -82.7569535, 27.5900325 ], [ -82.75608994444444, 27.590363138888886 ], [ -82.7553065, 27.590825805555554 ], [ -82.754628388888889, 27.591405694444443 ], [ -82.754077361111115, 27.592084166666666 ], [ -82.753671166666663, 27.59283936111111 ], [ -82.753422833333332, 27.593647055555554 ], [ -82.753340361111114, 27.59448125 ] ] } },
{ "type": "Feature", "properties": { "style": "solid", "thickness": 1 }, "geometry": { "type": "LineString", "coordinates": [ [ -82.746453888888894, 27.595057027777777 ], [ -82.74876725, 27.594662916666664 ], [ -82.750959027777782, 27.59389472222222 ], [ -82.752953694444443, 27.592778888888887 ], [ -82.754682527777774, 27.591353833333333 ], [ -82.756086, 27.589668694444445 ], [ -82.75711575, 27.5877815 ], [ -82.757736361111114, 27.58575725 ], [ -82.75792644444445, 27.583665666666665 ] ] } },
{ "type": "Feature", "properties": { "style": "solid", "thickness": 1 }, "geometry": { "type": "LineString", "coordinates": [ [ -82.75792644444445, 27.583665666666665 ], [ -82.758368944444442, 27.585726722222223 ], [ -82.759231277777772, 27.587679416666667 ], [ -82.760483777777779, 27.589456472222221 ], [ -82.762083277777776, 27.590996722222222 ], [ -82.76397475, 27.592247055555553 ], [ -82.766093, 27.593164416666667 ], [ -82.768365055555549, 27.593717222222221 ], [ -82.770712666666668, 27.593886416666667 ] ] } },
{ "type": "Feature", "properties": { "style": "solid", "thickness": 1 }, "geometry": { "type": "LineString", "coordinates": [ [ -82.759240361111111, 27.60527877777778 ], [ -82.759430444444448, 27.603187222222225 ], [ -82.76005111111111, 27.601162972222223 ], [ -82.761080888888884, 27.59927575 ], [ -82.762484361111106, 27.597590527777776 ], [ -82.764213138888891, 27.596165388888888 ], [ -82.766207722222219, 27.595049333333332 ], [ -82.768399361111108, 27.594280861111109 ], [ -82.770712666666668, 27.593886416666667 ] ] } },
{ "type": "Feature", "properties": { "style": "solid", "thickness": 1 }, "geometry": { "type": "LineString", "coordinates": [ [ -82.759240361111111, 27.60527877777778 ], [ -82.758797777777772, 27.60321775 ], [ -82.757935305555549, 27.601265083333335 ], [ -82.756682722222223, 27.599487972222221 ], [ -82.755083166666665, 27.597947694444443 ], [ -82.753191694444439, 27.596697222222222 ], [ -82.7510735, 27.595779638888889 ], [ -82.748801472222226, 27.595226555555556 ], [ -82.746453888888894, 27.595057027777777 ] ] } },
{ "type": "Feature", "properties": { "style": "solid", "thickness": 1 }, "geometry": { "type": "LineString", "coordinates": [ [ -82.795974944444438, 27.684094 ], [ -82.796061388888887, 27.68492788888889 ], [ -82.796313694444436, 27.685734638888889 ], [ -82.796723777777771, 27.686488333333333 ], [ -82.797278472222217, 27.687164722222221 ], [ -82.79795991666667, 27.687742055555557 ], [ -82.79874625, 27.688201805555554 ], [ -82.799612138888889, 27.688529194444445 ], [ -82.800529805555556, 27.688713666666668 ], [ -82.801469722222222, 27.688749305555557 ], [ -82.802401666666668, 27.688635 ], [ -82.803295722222217, 27.688374361111112 ], [ -82.80412311111111, 27.687975805555556 ], [ -82.804857277777771, 27.687452166666667 ], [ -82.805474555555548, 27.686820222222224 ], [ -82.805955194444437, 27.686100333333332 ], [ -82.806283694444446, 27.685315611111111 ], [ -82.8064495, 27.684491277777777 ], [ -82.806447277777778, 27.683653833333334 ], [ -82.806277138888888, 27.682830194444445 ], [ -82.805944555555556, 27.682046861111111 ], [ -82.805460166666663, 27.681328944444445 ], [ -82.804839583333333, 27.680699583333336 ], [ -82.80410275, 27.680178972222222 ], [ -82.80327336111111, 27.679783861111112 ], [ -82.802378027777777, 27.679526916666667 ], [ -82.801445583333333, 27.679416416666669 ], [ -82.800505944444438, 27.679455916666669 ], [ -82.799589305555557, 27.679644138888889 ], [ -82.798725166666671, 27.679975027777779 ], [ -82.797941277777781, 27.680437944444446 ], [ -82.797262805555548, 27.681018055555558 ], [ -82.796711611111107, 27.681696666666667 ], [ -82.796305361111109, 27.682452 ], [ -82.796057138888884, 27.68325975 ], [ -82.795974944444438, 27.684094 ] ] } },
{ "type": "Feature", "properties": { "style": "solid", "thickness": 1 }, "geometry": { "type": "LineString", "coordinates": [ [ -82.789083, 27.684671888888889 ], [ -82.79139813888888, 27.684277083333335 ], [ -82.793591416666658, 27.683508194444446 ], [ -82.79558727777777, 27.68239175 ], [ -82.79731697222222, 27.680966166666668 ], [ -82.79872094444444, 27.679280583333334 ], [ -82.799750805555547, 27.677393083333335 ], [ -82.800371111111104, 27.675368638888891 ], [ -82.800560555555549, 27.673277027777779 ] ] } },
{ "type": "Feature", "properties": { "style": "solid", "thickness": 1 }, "geometry": { "type": "LineString", "coordinates": [ [ -82.800560555555549, 27.673277027777779 ], [ -82.801004222222218, 27.675337916666667 ], [ -82.801868027777772, 27.677290333333335 ], [ -82.80312225, 27.679067 ], [ -82.804723694444448, 27.68060675 ], [ -82.806617222222215, 27.6818565 ], [ -82.808737555555552, 27.682773194444447 ], [ -82.811011722222219, 27.683325277777779 ], [ -82.813361305555546, 27.683493722222224 ] ] } },
{ "type": "Feature", "properties": { "style": "solid", "thickness": 1 }, "geometry": { "type": "LineString", "coordinates": [ [ -82.801884027777774, 27.694889666666668 ], [ -82.802073472222219, 27.692798027777776 ], [ -82.802693833333336, 27.690773611111112 ], [ -82.803723722222216, 27.688886055555557 ], [ -82.805127694444437, 27.687200416666666 ], [ -82.806857361111113, 27.685774722222224 ], [ -82.808853111111105, 27.684658083333332 ], [ -82.811046277777777, 27.683888916666668 ], [ -82.813361305555546, 27.683493722222224 ] ] } },
{ "type": "Feature", "properties": { "style": "solid", "thickness": 1 }, "geometry": { "type": "LineString", "coordinates": [ [ -82.801884027777774, 27.694889666666668 ], [ -82.801440277777772, 27.692828777777777 ], [ -82.800576333333325, 27.690876361111112 ], [ -82.799322027777777, 27.689099666666667 ], [ -82.79772052777777, 27.687559861111112 ], [ -82.795827027777776, 27.68631 ], [ -82.793706694444438, 27.685393083333334 ], [ -82.791432583333332, 27.684840722222223 ], [ -82.789083, 27.684671888888889 ] ] } },
{ "type": "Feature", "properties": { "style": "solid", "thickness": 1 }, "geometry": { "type": "LineString", "coordinates": [ [ -82.684799305555558, 27.921324944444446 ], [ -82.68645575, 27.921188 ], [ -82.68817966666667, 27.920869138888889 ], [ -82.689937333333333, 27.920344694444445 ], [ -82.691685527777778, 27.91959702777778 ], [ -82.693373055555554, 27.918617694444446 ], [ -82.694943944444447, 27.917410555555556 ], [ -82.696342138888895, 27.915993444444442 ], [ -82.697517111111111, 27.914398388888888 ], [ -82.698429277777777, 27.9126695 ], [ -82.699054333333336, 27.910859111111108 ], [ -82.699385305555566, 27.909022527777775 ], [ -82.699432138888895, 27.90721275 ], [ -82.699219027777787, 27.905476027777777 ], [ -82.698780333333332, 27.903848722222222 ], [ -82.698155916666664, 27.902356194444444 ], [ -82.697387166666672, 27.901013138888889 ], [ -82.696487527777776, 27.899793416666665 ], [ -82.695386305555559, 27.898609861111112 ], [ -82.694068888888893, 27.897489944444445 ], [ -82.692535861111111, 27.896474527777777 ], [ -82.6908, 27.895607111111111 ], [ -82.688888277777778, 27.894930083333332 ], [ -82.686841666666666, 27.89448047222222 ], [ -82.684713388888895, 27.894285361111109 ], [ -82.682564694444451, 27.894358222222223 ], [ -82.680459361111119, 27.894696888888888 ], [ -82.67845725, 27.895283777777777 ], [ -82.676609138888892, 27.896088305555555 ], [ -82.674952777777776, 27.89707075 ], [ -82.673511277777777, 27.898187027777777 ], [ -82.672293777777782, 27.899392888888887 ], [ -82.671297305555555, 27.900647583333331 ], [ -82.670504916666673, 27.901924666666666 ], [ -82.669853638888895, 27.903315888888887 ], [ -82.66935911111112, 27.904846333333332 ], [ -82.669061305555559, 27.906498638888888 ], [ -82.668997833333336, 27.90824475 ], [ -82.669199833333337, 27.910046055555554 ], [ -82.669687472222222, 27.911854888888886 ], [ -82.670466083333338, 27.913617694444444 ], [ -82.671523972222232, 27.915279777777776 ], [ -82.672832416666665, 27.916790638888891 ], [ -82.674348166666675, 27.918108944444445 ], [ -82.676018111111119, 27.919206194444445 ], [ -82.677784777777788, 27.92006838888889 ], [ -82.679592083333333, 27.9206955 ], [ -82.681389638888888, 27.921099388888891 ], [ -82.683135916666672, 27.921300583333334 ], [ -82.684799305555558, 27.921324944444446 ] ] } },
{ "type": "Feature", "properties": { "style": "solid", "thickness": 1 }, "geometry": { "type": "LineString", "coordinates": [ [ -82.619066027777777, 27.696042777777777 ], [ -82.619151111111108, 27.696876777777778 ], [ -82.619402138888887, 27.697683861111113 ], [ -82.619811055555544, 27.698438055555556 ], [ -82.620364694444433, 27.699115166666665 ], [ -82.621045277777768, 27.699693388888889 ], [ -82.621830916666667, 27.700154138888887 ], [ -82.622696388888883, 27.700482638888889 ], [ -82.62361386111111, 27.700668305555556 ], [ -82.62455380555555, 27.700705166666665 ], [ -82.625486055555555, 27.700592027777777 ], [ -82.626380611111102, 27.700332555555555 ], [ -82.62720875, 27.699935083333333 ], [ -82.627943833333333, 27.699412388888888 ], [ -82.628562222222214, 27.69878125 ], [ -82.629044083333326, 27.698061972222224 ], [ -82.629373888888878, 27.697277666666668 ], [ -82.629541055555549, 27.696453555555557 ], [ -82.629540222222218, 27.695616111111111 ], [ -82.629371388888885, 27.694792277777779 ], [ -82.629040027777776, 27.6940085 ], [ -82.628556777777774, 27.693289972222221 ], [ -82.627937166666655, 27.692659805555557 ], [ -82.627201083333333, 27.69213825 ], [ -82.626372249999989, 27.691742055555554 ], [ -82.625477249999989, 27.691483972222223 ], [ -82.624544861111104, 27.69137225 ], [ -82.623605055555544, 27.691410555555557 ], [ -82.62268802777777, 27.691597583333333 ], [ -82.62182325, 27.691927361111112 ], [ -82.6210385, 27.692389277777778 ], [ -82.620359027777766, 27.6929685 ], [ -82.619806666666662, 27.69364638888889 ], [ -82.619399166666653, 27.694401194444445 ], [ -82.619149583333325, 27.695208638888889 ], [ -82.619066027777777, 27.696042777777777 ] ] } },
{ "type": "Feature", "properties": { "style": "solid", "thickness": 1 }, "geometry": { "type": "LineString", "coordinates": [ [ -82.612172388888879, 27.696611777777779 ], [ -82.61448841666666, 27.696219944444444 ], [ -82.616683194444434, 27.695453888888888 ], [ -82.618681083333328, 27.694340027777777 ], [ -82.620413305555545, 27.692916694444445 ], [ -82.621820138888879, 27.691232916666667 ], [ -82.622853194444431, 27.68934675 ], [ -82.623476888888888, 27.687323111111112 ], [ -82.62366975, 27.68523175 ] ] } },
{ "type": "Feature", "properties": { "style": "solid", "thickness": 1 }, "geometry": { "type": "LineString", "coordinates": [ [ -82.62366975, 27.68523175 ], [ -82.624110111111108, 27.687293194444443 ], [ -82.624970833333322, 27.689246722222222 ], [ -82.626222277777771, 27.691025027777776 ], [ -82.627821388888876, 27.692566805555554 ], [ -82.629713083333328, 27.693819 ], [ -82.631832166666655, 27.694738444444443 ], [ -82.63410566666667, 27.695293472222222 ], [ -82.636455250000012, 27.695464944444446 ] ] } },
{ "type": "Feature", "properties": { "style": "solid", "thickness": 1 }, "geometry": { "type": "LineString", "coordinates": [ [ -82.624958166666659, 27.706846027777779 ], [ -82.625151027777775, 27.70475463888889 ], [ -82.62577475, 27.702731027777777 ], [ -82.626807833333331, 27.700844805555555 ], [ -82.628214694444438, 27.699160972222224 ], [ -82.629946861111108, 27.697737527777779 ], [ -82.631944666666655, 27.696623444444445 ], [ -82.634139333333337, 27.69585713888889 ], [ -82.636455250000012, 27.695464944444446 ] ] } },
{ "type": "Feature", "properties": { "style": "solid", "thickness": 1 }, "geometry": { "type": "LineString", "coordinates": [ [ -82.624958166666659, 27.706846027777779 ], [ -82.624517722222222, 27.704784555555555 ], [ -82.623656861111101, 27.702831027777776 ], [ -82.622405305555546, 27.701052722222222 ], [ -82.620806166666654, 27.699510888888888 ], [ -82.618914472222215, 27.698258555555554 ], [ -82.616795416666662, 27.697338916666666 ], [ -82.614521972222221, 27.696783611111112 ], [ -82.612172388888879, 27.696611777777779 ] ] } },
{ "type": "Feature", "properties": { "style": "solid", "thickness": 1 }, "geometry": { "type": "LineString", "coordinates": [ [ -82.606913194444445, 27.711041194444444 ], [ -82.604174805555544, 27.703547361111109 ], [ -82.601801916666659, 27.711281805555554 ], [ -82.598996611111104, 27.703791027777775 ], [ -82.59695963888889, 27.711509583333331 ] ] } },
{ "type": "Feature", "properties": { "style": "solid", "thickness": 1 }, "geometry": { "type": "LineString", "coordinates": [ [ -82.594131416666656, 27.711582527777779 ], [ -82.593683916666663, 27.704040833333334 ] ] } },
{ "type": "Feature", "properties": { "style": "solid", "thickness": 1 }, "geometry": { "type": "LineString", "coordinates": [ [ -82.588414805555544, 27.711851083333332 ], [ -82.587967694444444, 27.704309388888888 ] ] } },
{ "type": "Feature", "properties": { "style": "solid", "thickness": 1 }, "geometry": { "type": "LineString", "coordinates": [ [ -82.593921861111113, 27.708051111111111 ], [ -82.588205444444441, 27.708319666666664 ] ] } },
{ "type": "Feature", "properties": { "style": "solid", "thickness": 1 }, "geometry": { "type": "LineString", "coordinates": [ [ -82.585210444444442, 27.704438833333331 ], [ -82.585660916666669, 27.712040416666667 ] ] } },
{ "type": "Feature", "properties": { "style": "solid", "thickness": 1 }, "geometry": { "type": "LineString", "coordinates": [ [ -82.582163666666659, 27.712204527777779 ], [ -82.577321305555557, 27.712431611111111 ] ] } },
{ "type": "Feature", "properties": { "style": "solid", "thickness": 1 }, "geometry": { "type": "LineString", "coordinates": [ [ -82.57980975, 27.712314916666667 ], [ -82.579359694444435, 27.704713333333334 ] ] } },
{ "type": "Feature", "properties": { "style": "solid", "thickness": 1 }, "geometry": { "type": "LineString", "coordinates": [ [ -82.574046888888887, 27.704962388888887 ], [ -82.574496583333328, 27.712564 ], [ -82.571537361111112, 27.712702638888889 ], [ -82.570723222222213, 27.712620722222223 ], [ -82.570376305555556, 27.712456888888887 ], [ -82.5698135, 27.71206311111111 ], [ -82.568967527777772, 27.7114425 ], [ -82.5683835, 27.710689555555554 ], [ -82.568213611111105, 27.710097305555554 ], [ -82.568096861111101, 27.708122083333333 ], [ -82.568199527777779, 27.707577083333334 ], [ -82.56856061111111, 27.706839944444443 ], [ -82.569006611111107, 27.706398916666664 ], [ -82.569445527777773, 27.705838166666666 ], [ -82.57009325, 27.705387694444443 ], [ -82.570889666666659, 27.705170333333331 ], [ -82.571356861111113, 27.705088416666666 ], [ -82.574046888888887, 27.704962388888887 ] ] } },
{ "type": "Feature", "properties": { "style": "solid", "thickness": 1 }, "geometry": { "type": "LineString", "coordinates": [ [ -82.633978916666678, 27.831265555555554 ], [ -82.634064222222236, 27.832099555555555 ], [ -82.634315694444453, 27.832906583333333 ], [ -82.634725222222229, 27.83366075 ], [ -82.635279638888889, 27.834337777777776 ], [ -82.635961138888902, 27.834915916666667 ], [ -82.636747833333345, 27.835376611111109 ], [ -82.637614416666679, 27.835705 ], [ -82.638533055555556, 27.835890555555554 ], [ -82.639474194444446, 27.835927305555554 ], [ -82.640407583333342, 27.835814083333332 ], [ -82.641303222222234, 27.835554527777777 ], [ -82.642132333333336, 27.835156972222222 ], [ -82.642868277777779, 27.834634166666664 ], [ -82.643487361111113, 27.834002972222223 ], [ -82.643969694444451, 27.83328363888889 ], [ -82.644299805555562, 27.832499333333335 ], [ -82.644467083333339, 27.831675194444443 ], [ -82.644466111111115, 27.830837777777777 ], [ -82.644296972222236, 27.830013944444445 ], [ -82.643965083333342, 27.829230222222222 ], [ -82.643481138888902, 27.82851175 ], [ -82.642860666666678, 27.827881666666666 ], [ -82.642123611111117, 27.827360194444445 ], [ -82.64129366666667, 27.826964083333333 ], [ -82.640397527777779, 27.826706083333335 ], [ -82.639463944444458, 27.8265945 ], [ -82.638522972222233, 27.826632888888888 ], [ -82.637604833333342, 27.826820027777778 ], [ -82.636739027777779, 27.82714988888889 ], [ -82.63595336111112, 27.827611888888889 ], [ -82.635273138888891, 27.828191166666667 ], [ -82.634720166666668, 27.828869138888887 ], [ -82.63431225, 27.829623972222223 ], [ -82.634062472222226, 27.830431416666666 ], [ -82.633978916666678, 27.831265555555554 ] ] } },
{ "type": "Feature", "properties": { "style": "solid", "thickness": 1 }, "geometry": { "type": "LineString", "coordinates": [ [ -82.627076777777773, 27.831835305555554 ], [ -82.62939563888888, 27.831443222222223 ], [ -82.631593027777768, 27.830676944444445 ], [ -82.633593277777791, 27.829562861111111 ], [ -82.635327444444457, 27.828139361111109 ], [ -82.636735833333347, 27.826455444444445 ], [ -82.63776991666667, 27.824569166666667 ], [ -82.638394083333338, 27.8225455 ], [ -82.638586888888895, 27.820454138888888 ] ] } },
{ "type": "Feature", "properties": { "style": "solid", "thickness": 1 }, "geometry": { "type": "LineString", "coordinates": [ [ -82.638586888888895, 27.820454138888888 ], [ -82.639028083333343, 27.822515527777778 ], [ -82.639890166666675, 27.824468944444444 ], [ -82.641143416666679, 27.826247083333332 ], [ -82.64274475, 27.827788694444443 ], [ -82.644638972222225, 27.829040666666668 ], [ -82.646760833333346, 27.82995986111111 ], [ -82.649037222222233, 27.830514638888889 ], [ -82.65138977777778, 27.830685833333334 ] ] } },
{ "type": "Feature", "properties": { "style": "solid", "thickness": 1 }, "geometry": { "type": "LineString", "coordinates": [ [ -82.639879888888899, 27.842068083333331 ], [ -82.640072722222229, 27.839976694444442 ], [ -82.640696944444457, 27.837953027777775 ], [ -82.641731055555567, 27.83606672222222 ], [ -82.643139444444458, 27.83438275 ], [ -82.644873583333336, 27.832959111111112 ], [ -82.646873722222225, 27.831844833333331 ], [ -82.649071, 27.831078277777777 ], [ -82.65138977777778, 27.830685833333334 ] ] } },
{ "type": "Feature", "properties": { "style": "solid", "thickness": 1 }, "geometry": { "type": "LineString", "coordinates": [ [ -82.639879888888899, 27.842068083333331 ], [ -82.639438611111117, 27.840006694444444 ], [ -82.63857641666668, 27.838053277777778 ], [ -82.637323055555555, 27.83627511111111 ], [ -82.635721694444456, 27.834733444444442 ], [ -82.63382750000001, 27.833481361111112 ], [ -82.631705666666662, 27.832561944444443 ], [ -82.629429305555547, 27.832006888888888 ], [ -82.627076777777773, 27.831835305555554 ] ] } },
{ "type": "Feature", "properties": { "style": "solid", "thickness": 1 }, "geometry": { "type": "LineString", "coordinates": [ [ -82.52127486111111, 27.98783361111111 ], [ -82.52127486111111, 27.98605525 ] ] } },
{ "type": "Feature", "properties": { "style": "solid", "thickness": 1 }, "geometry": { "type": "LineString", "coordinates": [ [ -82.520758277777773, 27.988045 ], [ -82.520758277777773, 27.985843888888891 ] ] } },
{ "type": "Feature", "properties": { "style": "solid", "thickness": 1 }, "geometry": { "type": "LineString", "coordinates": [ [ -82.520241694444437, 27.988045 ], [ -82.520241722222224, 27.985843888888891 ] ] } },
{ "type": "Feature", "properties": { "style": "solid", "thickness": 1 }, "geometry": { "type": "LineString", "coordinates": [ [ -82.519725138888887, 27.98783361111111 ], [ -82.519725138888887, 27.98605525 ] ] } },
{ "type": "Feature", "properties": { "style": "solid", "thickness": 1 }, "geometry": { "type": "LineString", "coordinates": [ [ -82.519156888888887, 27.986944444444447 ], [ -82.519178472222222, 27.987157333333336 ], [ -82.519242527777777, 27.987363361111111 ], [ -82.519347, 27.987555944444445 ], [ -82.519488555555554, 27.987728861111112 ], [ -82.519662583333329, 27.987876583333335 ], [ -82.519863527777773, 27.987994333333333 ], [ -82.520084944444449, 27.988078333333334 ], [ -82.520319694444439, 27.988125916666668 ], [ -82.52056025, 27.9881355 ], [ -82.520798861111103, 27.988106805555557 ], [ -82.521027861111108, 27.98804075 ], [ -82.521239916666673, 27.987939472222223 ], [ -82.521428166666666, 27.987806194444445 ], [ -82.521586583333331, 27.987645222222223 ], [ -82.521710083333332, 27.98746175 ], [ -82.521794694444438, 27.987261611111112 ], [ -82.521837694444443, 27.987051305555557 ], [ -82.52183766666667, 27.986837555555557 ], [ -82.521794694444438, 27.98662725 ], [ -82.521710083333332, 27.986427138888889 ], [ -82.521586583333331, 27.98624363888889 ], [ -82.521428138888893, 27.986082694444445 ], [ -82.521239888888886, 27.985949416666667 ], [ -82.521027861111108, 27.98584813888889 ], [ -82.520798861111103, 27.985782083333334 ], [ -82.52056025, 27.985753388888888 ], [ -82.520319722222226, 27.985762972222222 ], [ -82.520084972222222, 27.98581052777778 ], [ -82.51986355555556, 27.985894555555557 ], [ -82.519662611111116, 27.986012305555555 ], [ -82.519488555555554, 27.98616 ], [ -82.519347027777783, 27.986332916666669 ], [ -82.51924255555555, 27.9865255 ], [ -82.5191785, 27.986731555555558 ], [ -82.519156888888887, 27.986944444444447 ] ] } }
]
}
