{
"type": "FeatureCollection",
"name": "tpa296sgp",
"features": [
{ "type": "Feature", "properties": { "style": "solid", "thickness": 1 }, "geometry": { "type": "LineString", "coordinates": [ [ -82.521223194444445, 27.986027333333336 ], [ -82.521223194444445, 27.987861555555558 ] ] } },
{ "type": "Feature", "properties": { "style": "solid", "thickness": 1 }, "geometry": { "type": "LineString", "coordinates": [ [ -82.520706611111109, 27.985843888888891 ], [ -82.520706638888882, 27.988045 ] ] } },
{ "type": "Feature", "properties": { "style": "solid", "thickness": 1 }, "geometry": { "type": "LineString", "coordinates": [ [ -82.52019005555556, 27.985843888888891 ], [ -82.52019005555556, 27.988045 ] ] } },
{ "type": "Feature", "properties": { "style": "solid", "thickness": 1 }, "geometry": { "type": "LineString", "coordinates": [ [ -82.519673472222223, 27.986027305555556 ], [ -82.519673472222223, 27.987861555555558 ] ] } },
{ "type": "Feature", "properties": { "style": "solid", "thickness": 1 }, "geometry": { "type": "LineString", "coordinates": [ [ -82.519156888888887, 27.986944444444447 ], [ -82.519164916666668, 27.987074472222222 ], [ -82.51919075, 27.98721038888889 ], [ -82.519236861111111, 27.987349666666667 ], [ -82.519305138888882, 27.987488916666667 ], [ -82.519396611111105, 27.987624222222223 ], [ -82.519511083333327, 27.987751194444446 ], [ -82.519646944444446, 27.987865333333335 ], [ -82.519801222222227, 27.987962638888892 ], [ -82.519969666666668, 27.988039833333335 ], [ -82.520147166666661, 27.988094833333335 ], [ -82.52032825, 27.988126916666669 ], [ -82.520507638888887, 27.988136694444446 ], [ -82.520680666666664, 27.988125861111111 ], [ -82.520843583333331, 27.98809702777778 ], [ -82.52099375, 27.988053222222224 ], [ -82.521129583333334, 27.987997583333335 ], [ -82.521253638888894, 27.987931305555556 ], [ -82.52137477777778, 27.98784913888889 ], [ -82.52149030555556, 27.987749833333336 ], [ -82.521596222222215, 27.987633305555555 ], [ -82.521688111111104, 27.987500416666666 ], [ -82.521761722222223, 27.987353111111112 ], [ -82.521813222222221, 27.9871945 ], [ -82.52183975, 27.987028611111111 ], [ -82.521839722222225, 27.98686025 ], [ -82.521813222222221, 27.986694388888889 ], [ -82.521761722222223, 27.986535777777778 ], [ -82.521688111111104, 27.986388472222224 ], [ -82.521596194444442, 27.986255555555555 ], [ -82.52149030555556, 27.986139027777778 ], [ -82.52137475, 27.98603975 ], [ -82.521253611111106, 27.985957555555558 ], [ -82.521129583333334, 27.985891305555558 ], [ -82.52099375, 27.985835666666667 ], [ -82.520843583333331, 27.985791861111114 ], [ -82.520680666666664, 27.985763027777779 ], [ -82.520507638888887, 27.985752194444444 ], [ -82.52032825, 27.985761972222225 ], [ -82.520147166666661, 27.985794055555555 ], [ -82.519969666666668, 27.985849055555555 ], [ -82.519801222222227, 27.98592625 ], [ -82.519646944444446, 27.986023527777778 ], [ -82.519511083333327, 27.986137694444444 ], [ -82.519396611111105, 27.98626463888889 ], [ -82.519305138888882, 27.986399944444447 ], [ -82.519236861111111, 27.986539222222223 ], [ -82.51919075, 27.986678472222223 ], [ -82.519164916666668, 27.986814388888888 ], [ -82.519156888888887, 27.986944444444447 ] ] } },
{ "type": "Feature", "properties": { "style": "solid", "thickness": 1 }, "geometry": { "type": "LineString", "coordinates": [ [ -82.50553444444445, 26.829073472222223 ], [ -82.505938555555559, 26.8308795 ], [ -82.507089472222219, 26.832404972222221 ], [ -82.508808277777774, 26.833412694444444 ], [ -82.510827722222217, 26.833746 ], [ -82.512833777777772, 26.833353027777775 ], [ -82.514514527777777, 26.832294888888889 ], [ -82.515608611111105, 26.830736111111111 ], [ -82.515945972222227, 26.828919083333332 ], [ -82.515474194444451, 26.827126333333332 ], [ -82.514266638888884, 26.825636527777778 ], [ -82.512511083333337, 26.824681333333334 ], [ -82.51048044444444, 26.82440925 ], [ -82.50849041666666, 26.824862555555555 ], [ -82.506850361111105, 26.82597075 ], [ -82.505815277777771, 26.827561611111111 ], [ -82.50553444444445, 26.829073472222223 ] ] } },
{ "type": "Feature", "properties": { "style": "solid", "thickness": 1 }, "geometry": { "type": "LineString", "coordinates": [ [ -82.498693638888895, 26.82963761111111 ], [ -82.501819194444451, 26.8290065 ], [ -82.504666388888893, 26.82768875 ], [ -82.507051194444443, 26.825769527777776 ], [ -82.508819583333334, 26.82337286111111 ], [ -82.509857305555556, 26.820653611111112 ], [ -82.510114055555562, 26.818266194444444 ] ] } },
{ "type": "Feature", "properties": { "style": "solid", "thickness": 1 }, "geometry": { "type": "LineString", "coordinates": [ [ -82.510114055555562, 26.818266194444444 ], [ -82.510817722222228, 26.821070222222222 ], [ -82.512286638888895, 26.8236245 ], [ -82.514425916666667, 26.825763972222223 ], [ -82.517097416666672, 26.827350388888888 ], [ -82.520128472222225, 26.828281222222223 ], [ -82.522789583333335, 26.828511361111111 ] ] } },
{ "type": "Feature", "properties": { "style": "solid", "thickness": 1 }, "geometry": { "type": "LineString", "coordinates": [ [ -82.511369416666668, 26.839883805555555 ], [ -82.511744555555552, 26.837029333333334 ], [ -82.51290975, 26.834351916666666 ], [ -82.514789694444445, 26.832024527777776 ], [ -82.517262916666667, 26.830197444444444 ], [ -82.520169611111115, 26.828988722222221 ], [ -82.522789583333335, 26.828511361111111 ] ] } },
{ "type": "Feature", "properties": { "style": "solid", "thickness": 1 }, "geometry": { "type": "LineString", "coordinates": [ [ -82.511369416666668, 26.839883805555555 ], [ -82.510665611111108, 26.837079777777777 ], [ -82.509196555555562, 26.834525472222222 ], [ -82.507057194444442, 26.832385944444443 ], [ -82.504385722222224, 26.830799333333331 ], [ -82.50135475, 26.829868138888887 ], [ -82.498693638888895, 26.82963761111111 ] ] } },
{ "type": "Feature", "properties": { "style": "solid", "thickness": 1 }, "geometry": { "type": "LineString", "coordinates": [ [ -82.407483555555558, 26.728397583333333 ], [ -82.407885722222233, 26.730203888888887 ], [ -82.409034305555565, 26.731730194444442 ], [ -82.410750666666672, 26.732739111111108 ], [ -82.412768, 26.733073833333332 ], [ -82.414772611111118, 26.732682277777776 ], [ -82.416452777777778, 26.731625305555553 ], [ -82.41754725, 26.730067305555554 ], [ -82.41788588888889, 26.728250527777774 ], [ -82.417416083333336, 26.726457416666666 ], [ -82.416210916666671, 26.724966777777777 ], [ -82.414457750000011, 26.724010361111109 ], [ -82.412429166666669, 26.72373683333333 ], [ -82.41044052777778, 26.72418875 ], [ -82.408801, 26.725295805555554 ], [ -82.407765472222223, 26.726885944444444 ], [ -82.407483555555558, 26.728397583333333 ] ] } },
{ "type": "Feature", "properties": { "style": "solid", "thickness": 1 }, "geometry": { "type": "LineString", "coordinates": [ [ -82.400648388888897, 26.728956916666665 ], [ -82.403771694444444, 26.728328 ], [ -82.406617472222223, 26.72701225 ], [ -82.409001833333335, 26.72509472222222 ], [ -82.410770722222225, 26.722699305555555 ], [ -82.411809888888897, 26.719980777777778 ], [ -82.412068472222231, 26.717593555555553 ] ] } },
{ "type": "Feature", "properties": { "style": "solid", "thickness": 1 }, "geometry": { "type": "LineString", "coordinates": [ [ -82.412068472222231, 26.717593555555553 ], [ -82.412769055555557, 26.720398083333333 ], [ -82.414234444444446, 26.722953361111109 ], [ -82.416369944444455, 26.725094333333331 ], [ -82.419037666666668, 26.726682611111109 ], [ -82.422065194444443, 26.727615583333332 ], [ -82.424723722222225, 26.727847583333332 ] ] } },
{ "type": "Feature", "properties": { "style": "solid", "thickness": 1 }, "geometry": { "type": "LineString", "coordinates": [ [ -82.41330388888889, 26.739212 ], [ -82.413681166666677, 26.736357805555556 ], [ -82.414847666666674, 26.733681222222224 ], [ -82.416727944444446, 26.731355138888887 ], [ -82.419200527777789, 26.729529805555554 ], [ -82.422105666666667, 26.728323138888886 ], [ -82.424723722222225, 26.727847583333332 ] ] } },
{ "type": "Feature", "properties": { "style": "solid", "thickness": 1 }, "geometry": { "type": "LineString", "coordinates": [ [ -82.41330388888889, 26.739212 ], [ -82.412603166666671, 26.736407472222222 ], [ -82.411137638888889, 26.733852166666669 ], [ -82.409002055555561, 26.73171111111111 ], [ -82.406334361111121, 26.730122638888886 ], [ -82.403306916666679, 26.729189333333331 ], [ -82.400648388888897, 26.728956916666665 ] ] } },
{ "type": "Feature", "properties": { "style": "solid", "thickness": 1 }, "geometry": { "type": "LineString", "coordinates": [ [ -82.309602111111104, 26.627652277777777 ], [ -82.310002361111103, 26.629458861111111 ], [ -82.311148583333335, 26.630985944444443 ], [ -82.312862555555554, 26.631996083333334 ], [ -82.314877777777781, 26.632332194444444 ], [ -82.316880916666662, 26.631942027777779 ], [ -82.3185605, 26.63088625 ], [ -82.31965533333333, 26.629329027777779 ], [ -82.31999525, 26.6275125 ], [ -82.319527416666659, 26.625719055555557 ], [ -82.318324611111109, 26.624227611111113 ], [ -82.31657386111111, 26.623269944444445 ], [ -82.314547333333337, 26.62299502777778 ], [ -82.312560083333324, 26.623445527777779 ], [ -82.310921055555553, 26.624551444444446 ], [ -82.309885083333327, 26.626140833333334 ], [ -82.309602111111104, 26.627652277777777 ] ] } },
{ "type": "Feature", "properties": { "style": "solid", "thickness": 1 }, "geometry": { "type": "LineString", "coordinates": [ [ -82.302772583333336, 26.62820686111111 ], [ -82.30589363888889, 26.627580111111111 ], [ -82.308738, 26.62626636111111 ], [ -82.311121888888891, 26.6243505 ], [ -82.31289125, 26.621956305555557 ], [ -82.313931833333328, 26.619238527777778 ], [ -82.31419225, 26.6168515 ] ] } },
{ "type": "Feature", "properties": { "style": "solid", "thickness": 1 }, "geometry": { "type": "LineString", "coordinates": [ [ -82.31419225, 26.6168515 ], [ -82.314889805555552, 26.6196565 ], [ -82.316351638888889, 26.622212805555556 ], [ -82.318483416666666, 26.62435525 ], [ -82.321147361111102, 26.625945388888891 ], [ -82.324171361111112, 26.626880472222222 ], [ -82.326827305555554, 26.627114333333335 ] ] } },
{ "type": "Feature", "properties": { "style": "solid", "thickness": 1 }, "geometry": { "type": "LineString", "coordinates": [ [ -82.315407861111112, 26.638470722222223 ], [ -82.315787277777773, 26.635616805555554 ], [ -82.316955055555553, 26.632941055555555 ], [ -82.318835666666658, 26.630616277777779 ], [ -82.321307611111109, 26.628792666666666 ], [ -82.324211194444445, 26.627588055555556 ], [ -82.326827305555554, 26.627114333333335 ] ] } },
{ "type": "Feature", "properties": { "style": "solid", "thickness": 1 }, "geometry": { "type": "LineString", "coordinates": [ [ -82.315407861111112, 26.638470722222223 ], [ -82.314710194444444, 26.635665722222221 ], [ -82.313248194444441, 26.63310938888889 ], [ -82.311116388888891, 26.630966861111112 ], [ -82.308452444444441, 26.629376527777779 ], [ -82.305428527777778, 26.628441111111112 ], [ -82.302772583333336, 26.62820686111111 ] ] } },
{ "type": "Feature", "properties": { "style": "solid", "thickness": 1 }, "geometry": { "type": "LineString", "coordinates": [ [ -82.321913805555553, 26.795444388888889 ], [ -82.322314833333323, 26.797250944444446 ], [ -82.323462916666656, 26.798777944444446 ], [ -82.32517955555555, 26.79978791666667 ], [ -82.327197833333329, 26.800123861111111 ], [ -82.329203916666657, 26.799733527777779 ], [ -82.330885888888886, 26.798677611111113 ], [ -82.331982194444436, 26.797120305555556 ], [ -82.332322444444443, 26.795303722222222 ], [ -82.33185372222222, 26.793510333333334 ], [ -82.330648972222221, 26.792018972222223 ], [ -82.3288955, 26.791061472222225 ], [ -82.326865916666662, 26.790786694444446 ], [ -82.32487575, 26.791237361111111 ], [ -82.323234388888892, 26.792343444444445 ], [ -82.322197027777776, 26.79393291666667 ], [ -82.321913805555553, 26.795444388888889 ] ] } },
{ "type": "Feature", "properties": { "style": "solid", "thickness": 1 }, "geometry": { "type": "LineString", "coordinates": [ [ -82.315074138888889, 26.795999527777781 ], [ -82.318199777777778, 26.795372527777779 ], [ -82.321048277777777, 26.794058527777779 ], [ -82.3234355, 26.792142472222224 ], [ -82.325207277777778, 26.789748138888889 ], [ -82.32624911111111, 26.78703025 ], [ -82.326509666666666, 26.784643194444445 ] ] } },
{ "type": "Feature", "properties": { "style": "solid", "thickness": 1 }, "geometry": { "type": "LineString", "coordinates": [ [ -82.326509666666666, 26.784643194444445 ], [ -82.327208555555558, 26.787448138888891 ], [ -82.328672833333329, 26.790004333333336 ], [ -82.330808, 26.792146611111114 ], [ -82.333476083333323, 26.793736527777778 ], [ -82.336504694444443, 26.794671361111114 ], [ -82.339164638888889, 26.794905 ] ] } },
{ "type": "Feature", "properties": { "style": "solid", "thickness": 1 }, "geometry": { "type": "LineString", "coordinates": [ [ -82.327729333333323, 26.806262361111113 ], [ -82.328109027777771, 26.803408416666667 ], [ -82.32927825, 26.800732527777779 ], [ -82.331161444444447, 26.798407611111113 ], [ -82.33363688888889, 26.796583805555557 ], [ -82.336544666666668, 26.795378916666667 ], [ -82.339164638888889, 26.794905 ] ] } },
{ "type": "Feature", "properties": { "style": "solid", "thickness": 1 }, "geometry": { "type": "LineString", "coordinates": [ [ -82.327729333333323, 26.806262361111113 ], [ -82.327030333333326, 26.803457416666667 ], [ -82.325565888888889, 26.800901194444446 ], [ -82.323430666666667, 26.798758861111114 ], [ -82.320762611111107, 26.79716875 ], [ -82.317734055555547, 26.796233555555556 ], [ -82.315074138888889, 26.795999527777781 ] ] } },
{ "type": "Feature", "properties": { "style": "solid", "thickness": 1 }, "geometry": { "type": "LineString", "coordinates": [ [ -82.507279833333328, 26.825525027777779 ], [ -82.416141944444448, 26.731955083333332 ] ] } },
{ "type": "Feature", "properties": { "style": "solid", "thickness": 1 }, "geometry": { "type": "LineString", "coordinates": [ [ -82.409230388888901, 26.724850472222222 ], [ -82.31824975, 26.631215722222223 ] ] } },
{ "type": "Feature", "properties": { "style": "solid", "thickness": 1 }, "geometry": { "type": "LineString", "coordinates": [ [ -82.341152861111112, 26.784465305555557 ], [ -82.355183527777768, 26.773476388888888 ] ] } },
{ "type": "Feature", "properties": { "style": "solid", "thickness": 1 }, "geometry": { "type": "LineString", "coordinates": [ [ -82.408729916666672, 26.731505777777777 ], [ -82.369211444444431, 26.762486083333332 ] ] } },
{ "type": "Feature", "properties": { "style": "solid", "thickness": 1 }, "geometry": { "type": "LineString", "coordinates": [ [ -82.18528950000001, 27.079480888888888 ], [ -82.185689333333343, 27.081287833333334 ], [ -82.186838444444447, 27.082815916666668 ], [ -82.188558166666667, 27.083827611111111 ], [ -82.190581166666675, 27.084165555555554 ], [ -82.192592805555563, 27.083777222222221 ], [ -82.194280333333339, 27.082722972222221 ], [ -82.195381361111117, 27.08116675 ], [ -82.195724694444451, 27.079350555555557 ], [ -82.195257, 27.077556722222223 ], [ -82.194051027777775, 27.076064166666665 ], [ -82.192294305555563, 27.075104944444444 ], [ -82.190259916666676, 27.074828166666666 ], [ -82.188264138888897, 27.07527686111111 ], [ -82.186617277777785, 27.076381277777777 ], [ -82.18557530555556, 27.077969722222221 ], [ -82.18528950000001, 27.079480888888888 ] ] } },
{ "type": "Feature", "properties": { "style": "solid", "thickness": 1 }, "geometry": { "type": "LineString", "coordinates": [ [ -82.178431805555562, 27.08002925 ], [ -82.18156616666667, 27.07940536111111 ], [ -82.184423472222221, 27.078094194444443 ], [ -82.186819138888893, 27.076180527777776 ], [ -82.188598361111119, 27.07378797222222 ], [ -82.18964619444445, 27.071071166666666 ], [ -82.189910361111117, 27.06868438888889 ] ] } },
{ "type": "Feature", "properties": { "style": "solid", "thickness": 1 }, "geometry": { "type": "LineString", "coordinates": [ [ -82.189910361111117, 27.06868438888889 ], [ -82.190607527777786, 27.07149 ], [ -82.192072388888889, 27.074047611111112 ], [ -82.194210333333331, 27.076191972222222 ], [ -82.196883194444453, 27.077784527777776 ], [ -82.199918333333343, 27.078722333333332 ], [ -82.20258475, 27.078958611111112 ] ] } },
{ "type": "Feature", "properties": { "style": "solid", "thickness": 1 }, "geometry": { "type": "LineString", "coordinates": [ [ -82.19110641666667, 27.090304472222222 ], [ -82.191490611111121, 27.087450944444445 ], [ -82.192666111111109, 27.084776277777777 ], [ -82.19455691666667, 27.08245325 ], [ -82.197040888888893, 27.080631916666665 ], [ -82.199957555555557, 27.079429916666665 ], [ -82.20258475, 27.078958611111112 ] ] } },
{ "type": "Feature", "properties": { "style": "solid", "thickness": 1 }, "geometry": { "type": "LineString", "coordinates": [ [ -82.19110641666667, 27.090304472222222 ], [ -82.190409111111109, 27.087498888888888 ], [ -82.188944111111113, 27.08494125 ], [ -82.186806138888898, 27.082796805555557 ], [ -82.184133277777775, 27.081204083333333 ], [ -82.181098194444445, 27.080265916666665 ], [ -82.178431805555562, 27.08002925 ] ] } },
{ "type": "Feature", "properties": { "style": "solid", "thickness": 1 }, "geometry": { "type": "LineString", "coordinates": [ [ -82.173102888888891, 26.911730472222221 ], [ -82.173501944444453, 26.913537444444444 ], [ -82.174649166666669, 26.915065666666667 ], [ -82.176366222222228, 26.91607747222222 ], [ -82.178386138888897, 26.916415583333333 ], [ -82.180394805555565, 26.916027416666665 ], [ -82.182079916666666, 26.914973305555556 ], [ -82.183179444444448, 26.913417166666665 ], [ -82.183522444444449, 26.911600972222221 ], [ -82.183055638888888, 26.90980708333333 ], [ -82.181851611111114, 26.908314444444443 ], [ -82.180097611111123, 26.907355083333332 ], [ -82.178066305555561, 26.907078138888888 ], [ -82.1760735, 26.907526666666666 ], [ -82.174428972222231, 26.90863097222222 ], [ -82.173388416666668, 26.91021933333333 ], [ -82.173102888888891, 26.911730472222221 ] ] } },
{ "type": "Feature", "properties": { "style": "solid", "thickness": 1 }, "geometry": { "type": "LineString", "coordinates": [ [ -82.166255444444445, 26.912278277777776 ], [ -82.169385138888899, 26.911654638888887 ], [ -82.172238305555567, 26.910343694444443 ], [ -82.174630555555567, 26.908430222222222 ], [ -82.176407333333344, 26.906037805555552 ], [ -82.177453888888891, 26.903321055555555 ], [ -82.177717888888893, 26.900934277777775 ] ] } },
{ "type": "Feature", "properties": { "style": "solid", "thickness": 1 }, "geometry": { "type": "LineString", "coordinates": [ [ -82.177717888888893, 26.900934277777775 ], [ -82.17841375, 26.903739972222223 ], [ -82.179876138888901, 26.906297694444444 ], [ -82.18201066666667, 26.90844225 ], [ -82.184679361111108, 26.910035027777777 ], [ -82.187709861111117, 26.910973083333332 ], [ -82.190372222222223, 26.911209555555555 ] ] } },
{ "type": "Feature", "properties": { "style": "solid", "thickness": 1 }, "geometry": { "type": "LineString", "coordinates": [ [ -82.17891, 26.922554583333334 ], [ -82.179293888888893, 26.919701055555556 ], [ -82.180467888888899, 26.917026472222222 ], [ -82.182356111111119, 26.914703583333331 ], [ -82.184836527777776, 26.912882444444442 ], [ -82.187748944444451, 26.911680694444442 ], [ -82.190372222222223, 26.911209555555555 ] ] } },
{ "type": "Feature", "properties": { "style": "solid", "thickness": 1 }, "geometry": { "type": "LineString", "coordinates": [ [ -82.17891, 26.922554583333334 ], [ -82.178214027777784, 26.919748916666666 ], [ -82.176751472222222, 26.917191166666669 ], [ -82.174616916666665, 26.915046527777776 ], [ -82.171948222222227, 26.913453583333332 ], [ -82.168917805555566, 26.912515166666665 ], [ -82.166255444444445, 26.912278277777776 ] ] } },
{ "type": "Feature", "properties": { "style": "solid", "thickness": 1 }, "geometry": { "type": "LineString", "coordinates": [ [ -82.087313694444447, 26.978582805555554 ], [ -82.087711583333331, 26.98039 ], [ -82.088858305555547, 26.981918916666665 ], [ -82.090575611111106, 26.982931805555555 ], [ -82.092596472222212, 26.983271166666665 ], [ -82.094606638888891, 26.982884222222221 ], [ -82.096293555555548, 26.981831166666666 ], [ -82.097394916666659, 26.98027572222222 ], [ -82.097739527777776, 26.97845975 ], [ -82.097273833333333, 26.976665583333332 ], [ -82.09607025, 26.97517222222222 ], [ -82.094315944444446, 26.97421175 ], [ -82.092283638888887, 26.973933555555554 ], [ -82.090289305555544, 26.974380861111108 ], [ -82.088642972222218, 26.975484138888888 ], [ -82.087600555555554, 26.97707183333333 ], [ -82.087313694444447, 26.978582805555554 ] ] } },
{ "type": "Feature", "properties": { "style": "solid", "thickness": 1 }, "geometry": { "type": "LineString", "coordinates": [ [ -82.08046175, 26.97912636111111 ], [ -82.083593805555552, 26.978504666666666 ], [ -82.086449666666667, 26.9771955 ], [ -82.088844805555553, 26.9752835 ], [ -82.0906245, 26.972892222222221 ], [ -82.09167375, 26.970176138888888 ], [ -82.09193975, 26.967789555555555 ] ] } },
{ "type": "Feature", "properties": { "style": "solid", "thickness": 1 }, "geometry": { "type": "LineString", "coordinates": [ [ -82.09193975, 26.967789555555555 ], [ -82.092633861111111, 26.970595638888888 ], [ -82.094095166666662, 26.973154277777777 ], [ -82.096229277777766, 26.97530011111111 ], [ -82.098898361111111, 26.976894527777777 ], [ -82.101929916666663, 26.97783447222222 ], [ -82.104593694444432, 26.978072583333333 ] ] } },
{ "type": "Feature", "properties": { "style": "solid", "thickness": 1 }, "geometry": { "type": "LineString", "coordinates": [ [ -82.093115916666662, 26.989410444444445 ], [ -82.093502222222213, 26.986557166666667 ], [ -82.094679, 26.983883333333335 ], [ -82.096570111111106, 26.981561611111111 ], [ -82.099053416666663, 26.979742027777775 ], [ -82.101968472222211, 26.97854208333333 ], [ -82.104593694444432, 26.978072583333333 ] ] } },
{ "type": "Feature", "properties": { "style": "solid", "thickness": 1 }, "geometry": { "type": "LineString", "coordinates": [ [ -82.093115916666662, 26.989410444444445 ], [ -82.092421666666667, 26.986604361111112 ], [ -82.09096025, 26.984045722222223 ], [ -82.088826055555558, 26.981899777777777 ], [ -82.086157, 26.980305166666664 ], [ -82.083125527777767, 26.979364888888888 ], [ -82.08046175, 26.97912636111111 ] ] } },
{ "type": "Feature", "properties": { "style": "solid", "thickness": 1 }, "geometry": { "type": "LineString", "coordinates": [ [ -81.989510111111116, 26.8776125 ], [ -81.989906083333338, 26.87942 ], [ -81.99105044444444, 26.880949694444446 ], [ -81.992765305555551, 26.88196375 ], [ -81.994784027777783, 26.882304527777777 ], [ -81.996792694444451, 26.881918972222223 ], [ -81.998479, 26.880867111111112 ], [ -81.99958072222222, 26.879312444444444 ], [ -81.999926583333334, 26.877496694444446 ], [ -81.999462861111112, 26.87570225 ], [ -81.998261666666664, 26.87420802777778 ], [ -81.996509777777774, 26.873246361111111 ], [ -81.99447958333333, 26.87296675 ], [ -81.992486666666665, 26.873412666666667 ], [ -81.99084086111111, 26.87451477777778 ], [ -81.98979802777778, 26.87610175 ], [ -81.989510111111116, 26.8776125 ] ] } },
{ "type": "Feature", "properties": { "style": "solid", "thickness": 1 }, "geometry": { "type": "LineString", "coordinates": [ [ -81.982663916666667, 26.878151305555555 ], [ -81.985793666666666, 26.877531777777779 ], [ -81.988648083333331, 26.876224611111112 ], [ -81.991042694444445, 26.874314277777778 ], [ -81.992822833333335, 26.87192425 ], [ -81.993873472222219, 26.869208888888888 ], [ -81.994141305555559, 26.8668225 ] ] } },
{ "type": "Feature", "properties": { "style": "solid", "thickness": 1 }, "geometry": { "type": "LineString", "coordinates": [ [ -81.994141305555559, 26.8668225 ], [ -81.994832361111108, 26.869629055555556 ], [ -81.996290111111108, 26.872188694444446 ], [ -81.998420444444449, 26.87433602777778 ], [ -82.001085722222228, 26.875932305555555 ], [ -82.004113722222229, 26.876874333333333 ], [ -82.006774861111111, 26.877114333333335 ] ] } },
{ "type": "Feature", "properties": { "style": "solid", "thickness": 1 }, "geometry": { "type": "LineString", "coordinates": [ [ -81.995297694444446, 26.888444166666666 ], [ -81.995686111111112, 26.885591166666668 ], [ -81.996864138888895, 26.88291813888889 ], [ -81.998755555555562, 26.88059775 ], [ -82.001238166666667, 26.878779888888889 ], [ -82.004151611111112, 26.877581972222224 ], [ -82.006774861111111, 26.877114333333335 ] ] } },
{ "type": "Feature", "properties": { "style": "solid", "thickness": 1 }, "geometry": { "type": "LineString", "coordinates": [ [ -81.995297694444446, 26.888444166666666 ], [ -81.9946065, 26.885637583333335 ], [ -81.99314861111111, 26.883077944444445 ], [ -81.991018222222223, 26.880930527777778 ], [ -81.988352972222216, 26.879334083333333 ], [ -81.985325055555563, 26.878391694444446 ], [ -81.982663916666667, 26.878151305555555 ] ] } },
{ "type": "Feature", "properties": { "style": "solid", "thickness": 1 }, "geometry": { "type": "LineString", "coordinates": [ [ -82.187049027777775, 27.075936527777777 ], [ -82.095981055555555, 26.98216025 ] ] } },
{ "type": "Feature", "properties": { "style": "solid", "thickness": 1 }, "geometry": { "type": "LineString", "coordinates": [ [ -82.089074694444434, 26.975039666666664 ], [ -81.998166527777784, 26.881195972222223 ] ] } },
{ "type": "Feature", "properties": { "style": "solid", "thickness": 1 }, "geometry": { "type": "LineString", "coordinates": [ [ -82.164248444444453, 26.922715194444446 ], [ -82.15018025, 26.933684472222222 ] ] } },
{ "type": "Feature", "properties": { "style": "solid", "thickness": 1 }, "geometry": { "type": "LineString", "coordinates": [ [ -82.0965015, 26.975506111111109 ], [ -82.136109305555564, 26.944652333333334 ] ] } },
{ "type": "Feature", "properties": { "style": "solid", "thickness": 1 }, "geometry": { "type": "LineString", "coordinates": [ [ -82.57311925, 26.839080055555556 ], [ -82.570404833333328, 26.831584722222221 ], [ -82.56804775, 26.839319277777776 ], [ -82.565266916666658, 26.83182697222222 ], [ -82.563243138888879, 26.83954575 ] ] } },
{ "type": "Feature", "properties": { "style": "solid", "thickness": 1 }, "geometry": { "type": "LineString", "coordinates": [ [ -82.560440444444438, 26.839677777777776 ], [ -82.560086611111103, 26.83363175 ], [ -82.56000238888889, 26.833335583333334 ], [ -82.55950025, 26.832758972222223 ], [ -82.559145611111106, 26.8324155 ], [ -82.558597777777777, 26.832201194444444 ], [ -82.55786030555555, 26.832175888888887 ], [ -82.556792666666666, 26.832226138888888 ], [ -82.55619563888888, 26.832314277777776 ], [ -82.55541241666667, 26.832651277777778 ], [ -82.554969833333331, 26.833092277777777 ], [ -82.55472391666666, 26.833464027777776 ], [ -82.554621972222222, 26.834009055555555 ], [ -82.5549685, 26.83993536111111 ] ] } },
{ "type": "Feature", "properties": { "style": "solid", "thickness": 1 }, "geometry": { "type": "LineString", "coordinates": [ [ -82.537084388888886, 26.840775805555555 ], [ -82.536731833333334, 26.834729694444444 ], [ -82.53664763888888, 26.834433527777776 ], [ -82.536145638888883, 26.833856833333332 ], [ -82.535791055555549, 26.833513305555556 ], [ -82.535243277777781, 26.833298888888887 ], [ -82.534505777777781, 26.833273472222221 ], [ -82.533438138888883, 26.833323555555555 ], [ -82.532841083333338, 26.833411583333334 ], [ -82.53205777777778, 26.833748444444442 ], [ -82.531615083333335, 26.834189388888888 ], [ -82.531369111111104, 26.834561083333334 ], [ -82.531267027777773, 26.835106111111109 ], [ -82.531612333333328, 26.841032472222221 ] ] } },
{ "type": "Feature", "properties": { "style": "solid", "thickness": 1 }, "geometry": { "type": "LineString", "coordinates": [ [ -82.44653544444445, 26.708483138888887 ], [ -82.44773525, 26.708427527777776 ], [ -82.448331722222221, 26.70833986111111 ], [ -82.449500583333332, 26.707745472222221 ], [ -82.450575222222227, 26.70667525 ], [ -82.450930416666665, 26.705878472222221 ], [ -82.451075333333335, 26.704911361111112 ], [ -82.451030583333335, 26.704133138888889 ], [ -82.450856, 26.703420944444442 ], [ -82.450478, 26.702658166666666 ], [ -82.449689777777778, 26.701734305555554 ], [ -82.449405972222223, 26.701447361111111 ], [ -82.448852111111108, 26.70111288888889 ], [ -82.447698388888895, 26.700806222222223 ], [ -82.446298722222224, 26.700871083333332 ], [ -82.445639083333333, 26.701021694444442 ], [ -82.44498630555556, 26.701292027777779 ], [ -82.444596694444442, 26.701490138888889 ], [ -82.443957666666677, 26.701999944444445 ], [ -82.44339905555556, 26.702746083333334 ], [ -82.443226583333342, 26.703234277777778 ], [ -82.443078166666666, 26.7041415 ], [ -82.443160666666671, 26.70557825 ], [ -82.443843055555561, 26.706987222222221 ], [ -82.444270472222229, 26.70744761111111 ], [ -82.444761138888893, 26.707845055555556 ], [ -82.445244916666667, 26.70812275 ], [ -82.445381666666677, 26.708176444444444 ], [ -82.44653544444445, 26.708483138888887 ] ] } },
{ "type": "Feature", "properties": { "style": "solid", "thickness": 1 }, "geometry": { "type": "LineString", "coordinates": [ [ -82.427471638888889, 26.709365111111111 ], [ -82.428671444444447, 26.709309666666666 ], [ -82.429267944444447, 26.709222083333334 ], [ -82.430436888888892, 26.708627861111111 ], [ -82.43151175, 26.707557777777776 ], [ -82.431867083333344, 26.706761055555553 ], [ -82.432012138888894, 26.705793972222221 ], [ -82.431967527777786, 26.705015722222221 ], [ -82.431793055555559, 26.7043035 ], [ -82.431415194444455, 26.703540666666665 ], [ -82.430627111111122, 26.702616722222221 ], [ -82.430343361111113, 26.70232972222222 ], [ -82.429789555555558, 26.701995166666666 ], [ -82.428635888888891, 26.70168836111111 ], [ -82.427236166666674, 26.701753027777777 ], [ -82.42657650000001, 26.701903527777777 ], [ -82.42592369444445, 26.702173777777777 ], [ -82.425534055555559, 26.702371861111111 ], [ -82.424894944444446, 26.702881555555553 ], [ -82.424336166666677, 26.703627638888889 ], [ -82.424163638888899, 26.704115777777776 ], [ -82.424015055555557, 26.705023 ], [ -82.424097305555563, 26.70645975 ], [ -82.424779472222227, 26.707868833333333 ], [ -82.425206805555561, 26.708329277777779 ], [ -82.425697416666665, 26.708726777777777 ], [ -82.426181138888893, 26.709004555555556 ], [ -82.426317888888889, 26.70905825 ], [ -82.427471638888889, 26.709365111111111 ] ] } },
{ "type": "Feature", "properties": { "style": "solid", "thickness": 1 }, "geometry": { "type": "LineString", "coordinates": [ [ -82.413638944444443, 26.7023805 ], [ -82.414073444444455, 26.709983388888887 ] ] } },
{ "type": "Feature", "properties": { "style": "solid", "thickness": 1 }, "geometry": { "type": "LineString", "coordinates": [ [ -82.348412416666662, 26.608446111111114 ], [ -82.343883638888883, 26.608652888888891 ], [ -82.343853194444435, 26.608114083333334 ], [ -82.34845225, 26.60088163888889 ], [ -82.348448861111109, 26.60082175 ], [ -82.343187833333332, 26.601061944444446 ] ] } },
{ "type": "Feature", "properties": { "style": "solid", "thickness": 1 }, "geometry": { "type": "LineString", "coordinates": [ [ -82.333997638888889, 26.601481055555556 ], [ -82.332162, 26.609187361111111 ], [ -82.328936333333331, 26.601711611111114 ], [ -82.32703375, 26.609420861111111 ], [ -82.324141416666663, 26.601929861111113 ] ] } },
{ "type": "Feature", "properties": { "style": "solid", "thickness": 1 }, "geometry": { "type": "LineString", "coordinates": [ [ -82.321772277777768, 26.60966025 ], [ -82.321431972222214, 26.603613666666668 ], [ -82.321348527777772, 26.603317361111113 ], [ -82.32084863888889, 26.602739888888891 ], [ -82.320495444444447, 26.602395805555556 ], [ -82.319949194444447, 26.602180583333336 ], [ -82.319213277777777, 26.602154 ], [ -82.318147722222221, 26.602202444444448 ], [ -82.31755172222222, 26.602289555555558 ], [ -82.316769388888886, 26.602625222222223 ], [ -82.316326777777775, 26.603065472222223 ], [ -82.316080583333331, 26.60343677777778 ], [ -82.315977694444442, 26.603981638888889 ], [ -82.316310972222226, 26.60990852777778 ] ] } },
{ "type": "Feature", "properties": { "style": "solid", "thickness": 1 }, "geometry": { "type": "LineString", "coordinates": [ [ -82.293613944444445, 26.782156638888889 ], [ -82.289078083333337, 26.782361583333333 ], [ -82.289047861111115, 26.781822777777776 ], [ -82.293657583333328, 26.774592138888888 ], [ -82.293654222222216, 26.774532277777777 ], [ -82.288384972222218, 26.774770388888889 ] ] } },
{ "type": "Feature", "properties": { "style": "solid", "thickness": 1 }, "geometry": { "type": "LineString", "coordinates": [ [ -82.437791388888897, 26.694744222222223 ], [ -82.437812, 26.695103416666665 ], [ -82.437702722222227, 26.695528638888888 ], [ -82.437467027777785, 26.69607975 ], [ -82.437221055555554, 26.696451277777779 ], [ -82.436834888888896, 26.69670925 ], [ -82.436308555555556, 26.696853638888889 ], [ -82.435308805555565, 26.69689988888889 ], [ -82.434568805555557, 26.696814083333333 ], [ -82.43422525, 26.696649888888889 ], [ -82.433734694444453, 26.696252416666667 ], [ -82.433584222222223, 26.69595925 ], [ -82.433423472222231, 26.6954865 ], [ -82.433368583333333, 26.694528666666667 ], [ -82.433481277777787, 26.694163305555556 ], [ -82.434009055555563, 26.692878416666666 ], [ -82.434760777777782, 26.692003305555556 ], [ -82.435961833333337, 26.690807305555555 ], [ -82.437408861111109, 26.68923975 ], [ -82.433210222222229, 26.689434 ] ] } },
{ "type": "Feature", "properties": { "style": "solid", "thickness": 1 }, "geometry": { "type": "LineString", "coordinates": [ [ -82.425977083333336, 26.692649416666669 ], [ -82.426079888888893, 26.694445361111111 ], [ -82.426338111111122, 26.695453833333335 ], [ -82.426498833333341, 26.695926611111112 ], [ -82.426719361111111, 26.696276555555556 ], [ -82.427560277777786, 26.696957972222222 ], [ -82.428377222222224, 26.697220361111111 ], [ -82.428643833333339, 26.697208027777776 ], [ -82.429426472222232, 26.69687175 ], [ -82.430118472222233, 26.6961195 ], [ -82.43036450000001, 26.695747972222222 ], [ -82.430470333333332, 26.695262888888887 ], [ -82.430611972222223, 26.694235944444443 ], [ -82.430509083333334, 26.69244 ], [ -82.430250833333332, 26.691431555555557 ], [ -82.430090111111113, 26.690958777777777 ], [ -82.429802944444447, 26.690611916666668 ], [ -82.429028694444455, 26.689927416666666 ], [ -82.428211805555563, 26.689665055555555 ], [ -82.42794522222222, 26.689677361111112 ], [ -82.427162611111115, 26.690013638888889 ], [ -82.426404, 26.690768972222223 ], [ -82.426224638888897, 26.691137416666667 ], [ -82.42611875, 26.691622472222221 ], [ -82.425977083333336, 26.692649416666669 ] ] } },
{ "type": "Feature", "properties": { "style": "solid", "thickness": 1 }, "geometry": { "type": "LineString", "coordinates": [ [ -82.16829225, 27.091036361111112 ], [ -82.168706805555559, 27.091258138888886 ], [ -82.169181666666674, 27.091357194444445 ], [ -82.170787055555564, 27.091286277777776 ], [ -82.17138247222222, 27.091139916666666 ], [ -82.17157983333334, 27.091071194444442 ], [ -82.172553472222233, 27.090488 ], [ -82.173122444444445, 27.089862694444442 ], [ -82.173290083333342, 27.089255138888888 ], [ -82.17369886111112, 27.088156777777776 ], [ -82.1736228888889, 27.08677975 ], [ -82.17345275000001, 27.086127111111111 ], [ -82.173222361111115, 27.085597138888886 ], [ -82.172921777777788, 27.08501025 ], [ -82.172216583333338, 27.08438125 ], [ -82.170912694444453, 27.083838722222222 ], [ -82.170033277777776, 27.083697527777776 ], [ -82.169297527777786, 27.083730027777776 ], [ -82.168371, 27.083951 ], [ -82.16804647222223, 27.084145388888889 ], [ -82.167785527777781, 27.084276944444444 ] ] } },
{ "type": "Feature", "properties": { "style": "solid", "thickness": 1 }, "geometry": { "type": "LineString", "coordinates": [ [ -82.160686416666678, 27.091732166666667 ], [ -82.161890472222225, 27.091679055555556 ], [ -82.162489194444447, 27.091592638888887 ], [ -82.163663555555559, 27.091000666666666 ], [ -82.164744638888891, 27.089932666666666 ], [ -82.165103083333335, 27.089136638888888 ], [ -82.165250972222225, 27.088169861111108 ], [ -82.16520808333334, 27.087391555555556 ], [ -82.165034722222231, 27.086679 ], [ -82.164657388888898, 27.085915472222222 ], [ -82.163868861111112, 27.08499 ], [ -82.163584805555558, 27.084702472222222 ], [ -82.163029944444446, 27.084366861111111 ], [ -82.16187305555556, 27.084057805555556 ], [ -82.160468444444447, 27.084119777777776 ], [ -82.159806138888896, 27.084269027777776 ], [ -82.159150472222223, 27.084538 ], [ -82.158759027777776, 27.084735333333331 ], [ -82.1581165, 27.085243777777777 ], [ -82.157554055555565, 27.085988777777775 ], [ -82.15737975, 27.086476583333333 ], [ -82.1572285, 27.0873835 ], [ -82.157307583333335, 27.088820388888887 ], [ -82.157988666666668, 27.09023072222222 ], [ -82.158416388888895, 27.090692 ], [ -82.158907694444451, 27.091090444444443 ], [ -82.159392416666677, 27.091369138888886 ], [ -82.1595295, 27.091423111111109 ], [ -82.160686416666678, 27.091732166666667 ] ] } },
{ "type": "Feature", "properties": { "style": "solid", "thickness": 1 }, "geometry": { "type": "LineString", "coordinates": [ [ -82.147241111111114, 27.09232461111111 ], [ -82.146908888888902, 27.086277666666664 ], [ -82.146825555555566, 27.08598125 ], [ -82.146324444444446, 27.085403166666666 ], [ -82.145970277777778, 27.085058666666665 ], [ -82.145422, 27.08484272222222 ], [ -82.144682944444455, 27.084815222222222 ], [ -82.14361275, 27.084862305555554 ], [ -82.143014027777781, 27.084948666666666 ], [ -82.142227805555564, 27.085283305555553 ], [ -82.141782611111111, 27.085723 ], [ -82.14153475, 27.086094 ], [ -82.141430555555559, 27.086638722222222 ], [ -82.141755916666668, 27.092565916666665 ] ] } },
{ "type": "Feature", "properties": { "style": "solid", "thickness": 1 }, "geometry": { "type": "LineString", "coordinates": [ [ -82.066181944444438, 26.989073805555556 ], [ -82.066593861111102, 26.996677611111114 ], [ -82.058629861111115, 26.989401944444445 ], [ -82.05904127777778, 26.99700577777778 ] ] } },
{ "type": "Feature", "properties": { "style": "solid", "thickness": 1 }, "geometry": { "type": "LineString", "coordinates": [ [ -82.056300944444445, 26.997124722222225 ], [ -82.055973888888886, 26.991077583333333 ], [ -82.055890861111109, 26.990781111111112 ], [ -82.055390638888881, 26.990202694444445 ], [ -82.055037055555559, 26.989857972222222 ], [ -82.054489444444442, 26.989641666666667 ], [ -82.053751055555551, 26.989613694444447 ], [ -82.052681722222218, 26.989660083333334 ], [ -82.052083444444435, 26.989746055555557 ], [ -82.051297638888883, 26.990080194444445 ], [ -82.050852444444445, 26.990519583333334 ], [ -82.050604527777779, 26.990890416666666 ], [ -82.050499972222212, 26.991435083333336 ], [ -82.05082025, 26.9973625 ] ] } },
{ "type": "Feature", "properties": { "style": "solid", "thickness": 1 }, "geometry": { "type": "LineString", "coordinates": [ [ -81.96871630555556, 26.877504194444445 ], [ -81.969918111111113, 26.877452722222223 ], [ -81.970515833333337, 26.877367111111113 ], [ -81.971688944444452, 26.87677675 ], [ -81.97276975, 26.87571025 ], [ -81.973128861111107, 26.874914722222222 ], [ -81.973278111111114, 26.873948138888888 ], [ -81.973236638888892, 26.873169777777779 ], [ -81.973064805555552, 26.872457 ], [ -81.9726895, 26.871692944444444 ], [ -81.971904055555555, 26.870766416666669 ], [ -81.971621055555559, 26.870478472222224 ], [ -81.971067805555563, 26.870142111111111 ], [ -81.969913694444443, 26.8698315 ], [ -81.968511666666672, 26.869891555555554 ], [ -81.967850416666664, 26.87003988888889 ], [ -81.967195527777776, 26.870307972222221 ], [ -81.9668045, 26.87050475 ], [ -81.966162361111117, 26.871012333333333 ], [ -81.965599722222223, 26.871756555555557 ], [ -81.965424916666663, 26.872244111111112 ], [ -81.965272416666664, 26.873150805555557 ], [ -81.96534891666667, 26.874587805555556 ], [ -81.966026277777786, 26.875999083333333 ], [ -81.966452388888897, 26.876460916666666 ], [ -81.966942083333336, 26.876860055555557 ], [ -81.967425388888884, 26.877139416666669 ], [ -81.967562111111107, 26.877193555555557 ], [ -81.96871630555556, 26.877504194444445 ] ] } },
{ "type": "Feature", "properties": { "style": "solid", "thickness": 1 }, "geometry": { "type": "LineString", "coordinates": [ [ -81.959502277777787, 26.8778985 ], [ -81.959161666666674, 26.87149188888889 ], [ -81.959209333333334, 26.871129777777778 ], [ -81.959524027777775, 26.87075625 ], [ -81.959908694444451, 26.87043975 ], [ -81.960169388888886, 26.870308583333333 ], [ -81.960566805555558, 26.870231583333332 ], [ -81.961234444444443, 26.870203027777777 ], [ -81.961638194444447, 26.87024575 ], [ -81.962261361111118, 26.870639166666667 ], [ -81.962404444444445, 26.870813083333335 ] ] } },
{ "type": "Feature", "properties": { "style": "solid", "thickness": 1 }, "geometry": { "type": "LineString", "coordinates": [ [ -81.936114138888897, 26.878536527777779 ], [ -81.936527444444451, 26.878758944444446 ], [ -81.937001166666676, 26.878858805555556 ], [ -81.938603638888893, 26.878790527777777 ], [ -81.939198222222231, 26.878645166666669 ], [ -81.93939536111111, 26.87857675 ], [ -81.940368333333339, 26.877995194444445 ], [ -81.9409375, 26.877370833333334 ], [ -81.941106083333338, 26.876763555555556 ], [ -81.94151633333334, 26.875665861111113 ], [ -81.941443333333339, 26.87428875 ], [ -81.941274888888898, 26.873635805555555 ], [ -81.941046, 26.873105472222221 ], [ -81.940747222222228, 26.872518111111113 ], [ -81.940044666666665, 26.871887944444445 ], [ -81.938744388888892, 26.87134325 ], [ -81.937866944444451, 26.87120061111111 ], [ -81.937132527777777, 26.871231888888889 ], [ -81.936207333333343, 26.871451333333333 ], [ -81.935883, 26.871645166666667 ], [ -81.935622305555555, 26.871776305555557 ] ] } },
{ "type": "Feature", "properties": { "style": "solid", "thickness": 1 }, "geometry": { "type": "LineString", "coordinates": [ [ -82.16652230555556, 26.898307611111111 ], [ -82.166809166666667, 26.898655027777778 ], [ -82.167429916666677, 26.898987666666667 ], [ -82.167837166666672, 26.899089666666665 ], [ -82.16898225, 26.899219055555555 ], [ -82.169382916666677, 26.899201305555554 ], [ -82.170177638888887, 26.899046111111112 ], [ -82.170835527777783, 26.898836944444444 ], [ -82.170965777777781, 26.89877113888889 ], [ -82.171416722222233, 26.898451111111111 ], [ -82.171864361111119, 26.898071194444444 ], [ -82.172609611111113, 26.89701788888889 ], [ -82.17289072222222, 26.896045194444444 ], [ -82.1728181388889, 26.894728027777777 ], [ -82.172645027777776, 26.8940155 ], [ -82.17234825, 26.8934885 ], [ -82.171921250000011, 26.893027277777776 ], [ -82.171564305555563, 26.89262297222222 ], [ -82.171000444444445, 26.892107777777777 ], [ -82.170453083333342, 26.891891944444446 ], [ -82.169905722222225, 26.89167611111111 ], [ -82.169431722222228, 26.891577055555555 ], [ -82.168229833333342, 26.89163025 ], [ -82.167568694444455, 26.891779527777778 ], [ -82.167047694444449, 26.892042666666665 ], [ -82.166463222222234, 26.892368583333333 ], [ -82.166079055555556, 26.892685666666665 ], [ -82.165450861111111, 26.893433666666667 ], [ -82.16507986111111, 26.893990222222222 ], [ -82.16496608333334, 26.89435536111111 ], [ -82.165018777777789, 26.895313277777777 ], [ -82.167823305555558, 26.895189222222221 ] ] } },
{ "type": "Feature", "properties": { "style": "solid", "thickness": 1 }, "geometry": { "type": "LineString", "coordinates": [ [ -82.16250494444445, 26.899505555555557 ], [ -82.162172388888891, 26.893458611111111 ], [ -82.162089166666675, 26.893162194444443 ], [ -82.16158883333334, 26.892584166666666 ], [ -82.161235222222231, 26.892239694444445 ], [ -82.160687861111114, 26.892023805555556 ], [ -82.159950083333342, 26.891996416666665 ], [ -82.158881722222233, 26.892043611111109 ], [ -82.158284055555555, 26.892130055555555 ], [ -82.157499222222228, 26.892464805555555 ], [ -82.157054861111121, 26.892904555555557 ], [ -82.1568075, 26.893275555555554 ], [ -82.156703555555566, 26.893820305555554 ], [ -82.157029222222235, 26.899747527777777 ] ] } },
{ "type": "Feature", "properties": { "style": "solid", "thickness": 1 }, "geometry": { "type": "LineString", "coordinates": [ [ -82.145660722222232, 26.892627166666667 ], [ -82.14607775, 26.900230805555555 ], [ -82.142738861111113, 26.90037797222222 ], [ -82.142465194444455, 26.90027 ], [ -82.141851055555563, 26.900057 ], [ -82.141217250000011, 26.899484777777776 ], [ -82.140917333333334, 26.898897833333333 ], [ -82.140877944444455, 26.898179388888888 ], [ -82.14111225, 26.897568888888888 ], [ -82.141680416666674, 26.896943694444445 ], [ -82.142268277777788, 26.89667775 ], [ -82.142528805555557, 26.89654622222222 ], [ -82.145867583333342, 26.896399055555555 ] ] } },
{ "type": "Feature", "properties": { "style": "solid", "thickness": 1 }, "geometry": { "type": "LineString", "coordinates": [ [ -82.0675225, 26.98289525 ], [ -82.067541972222216, 26.9832545 ], [ -82.067431027777772, 26.983679416666668 ], [ -82.067192888888883, 26.984229888888891 ], [ -82.06694505555555, 26.98460075 ], [ -82.066557055555549, 26.984857666666667 ], [ -82.06602888888888, 26.985000666666668 ], [ -82.065026444444442, 26.98504425 ], [ -82.064284833333332, 26.984956444444446 ], [ -82.06394094444444, 26.98479136111111 ], [ -82.063450444444442, 26.984392583333335 ], [ -82.06330058333333, 26.984099027777777 ], [ -82.063140972222214, 26.983625861111111 ], [ -82.063089111111111, 26.982667888888887 ], [ -82.063203333333334, 26.982302833333332 ], [ -82.063736694444444, 26.981019388888889 ], [ -82.06449325, 26.980146305555554 ], [ -82.065701333333337, 26.978953527777776 ], [ -82.06715725, 26.977389888888887 ], [ -82.06294725, 26.977572916666666 ] ] } },
{ "type": "Feature", "properties": { "style": "solid", "thickness": 1 }, "geometry": { "type": "LineString", "coordinates": [ [ -82.055684972222224, 26.980768944444442 ], [ -82.055782111111114, 26.982565138888887 ], [ -82.056037638888881, 26.98357427777778 ], [ -82.056197194444437, 26.984047472222223 ], [ -82.056417111111102, 26.984398 ], [ -82.057257944444444, 26.985081638888889 ], [ -82.058076083333333, 26.985346194444446 ], [ -82.058343416666659, 26.985334583333334 ], [ -82.059129194444438, 26.985000388888889 ], [ -82.059825444444442, 26.98425 ], [ -82.060073305555548, 26.983879166666668 ], [ -82.060181055555546, 26.983394361111113 ], [ -82.060326472222215, 26.982367833333331 ], [ -82.06022925, 26.980571638888886 ], [ -82.059973694444437, 26.9795625 ], [ -82.059814138888882, 26.979089333333331 ], [ -82.059527388888881, 26.978741722222221 ], [ -82.058753416666661, 26.978055166666664 ], [ -82.057935305555546, 26.977790611111111 ], [ -82.057668, 26.97780222222222 ], [ -82.056882305555547, 26.978136416666665 ], [ -82.056119222222222, 26.978889694444444 ], [ -82.055938166666664, 26.979257638888889 ], [ -82.055830416666666, 26.979742416666664 ], [ -82.055684972222224, 26.980768944444442 ] ] } },
{ "type": "Feature", "properties": { "style": "solid", "thickness": 1 }, "geometry": { "type": "LineString", "coordinates": [ [ -82.551721444444439, 26.832464777777776 ], [ -82.552165777777773, 26.840067222222221 ], [ -82.54936305555556, 26.840199027777775 ], [ -82.548762472222222, 26.840227277777778 ], [ -82.548274388888885, 26.839890055555554 ], [ -82.54791625, 26.839486722222222 ], [ -82.54790225, 26.83924725 ], [ -82.547832333333332, 26.838050027777776 ], [ -82.547888555555559, 26.837867305555555 ], [ -82.548060777777778, 26.837379 ], [ -82.548693111111106, 26.836749 ], [ -82.548004833333337, 26.836421194444444 ], [ -82.547660694444446, 26.836257305555556 ], [ -82.547309555555557, 26.835973666666664 ], [ -82.547077916666666, 26.835444333333331 ], [ -82.546987027777774, 26.833887916666665 ], [ -82.547162722222225, 26.83345947222222 ], [ -82.547608833333328, 26.833078333333333 ], [ -82.5479285, 26.83282322222222 ], [ -82.548251638888885, 26.832627944444443 ], [ -82.551721444444439, 26.832464777777776 ] ] } },
{ "type": "Feature", "properties": { "style": "solid", "thickness": 1 }, "geometry": { "type": "LineString", "coordinates": [ [ -82.551962861111107, 26.83659525 ], [ -82.548693111111106, 26.836749 ] ] } },
{ "type": "Feature", "properties": { "style": "solid", "thickness": 1 }, "geometry": { "type": "LineString", "coordinates": [ [ -82.544558388888888, 26.84042486111111 ], [ -82.544114555555552, 26.832822361111109 ] ] } },
{ "type": "Feature", "properties": { "style": "solid", "thickness": 1 }, "geometry": { "type": "LineString", "coordinates": [ [ -82.539950388888883, 26.84058125 ], [ -82.544334722222217, 26.836593666666666 ], [ -82.539443638888883, 26.83304175 ] ] } },
{ "type": "Feature", "properties": { "style": "solid", "thickness": 1 }, "geometry": { "type": "LineString", "coordinates": [ [ -82.440603027777783, 26.70875786111111 ], [ -82.437465527777775, 26.704161222222222 ], [ -82.434937222222231, 26.709020027777775 ] ] } },
{ "type": "Feature", "properties": { "style": "solid", "thickness": 1 }, "geometry": { "type": "LineString", "coordinates": [ [ -82.437465527777775, 26.704161222222222 ], [ -82.437304138888891, 26.701347555555554 ] ] } },
{ "type": "Feature", "properties": { "style": "solid", "thickness": 1 }, "geometry": { "type": "LineString", "coordinates": [ [ -82.421539111111116, 26.709639027777776 ], [ -82.42110411111112, 26.702036166666666 ] ] } },
{ "type": "Feature", "properties": { "style": "solid", "thickness": 1 }, "geometry": { "type": "LineString", "coordinates": [ [ -82.416936305555566, 26.709791361111112 ], [ -82.421319888888888, 26.705807666666665 ], [ -82.416438388888892, 26.702251416666666 ] ] } },
{ "type": "Feature", "properties": { "style": "solid", "thickness": 1 }, "geometry": { "type": "LineString", "coordinates": [ [ -82.337023833333333, 26.608965777777779 ], [ -82.341086416666656, 26.608780527777778 ], [ -82.34065722222222, 26.601177416666669 ], [ -82.336528277777774, 26.601365722222223 ] ] } },
{ "type": "Feature", "properties": { "style": "solid", "thickness": 1 }, "geometry": { "type": "LineString", "coordinates": [ [ -82.340870111111101, 26.604949027777778 ], [ -82.336940861111103, 26.605128222222223 ] ] } },
{ "type": "Feature", "properties": { "style": "solid", "thickness": 1 }, "geometry": { "type": "LineString", "coordinates": [ [ -82.313513722222226, 26.610035611111112 ], [ -82.308718416666665, 26.610253333333336 ] ] } },
{ "type": "Feature", "properties": { "style": "solid", "thickness": 1 }, "geometry": { "type": "LineString", "coordinates": [ [ -82.311182666666667, 26.610141472222224 ], [ -82.310755472222226, 26.602538277777779 ] ] } },
{ "type": "Feature", "properties": { "style": "solid", "thickness": 1 }, "geometry": { "type": "LineString", "coordinates": [ [ -82.321429138888888, 26.780896527777777 ], [ -82.325497972222223, 26.780711722222222 ], [ -82.325069194444438, 26.773108555555556 ], [ -82.320933944444434, 26.773296388888888 ] ] } },
{ "type": "Feature", "properties": { "style": "solid", "thickness": 1 }, "geometry": { "type": "LineString", "coordinates": [ [ -82.325281888888881, 26.776880194444445 ], [ -82.32134661111111, 26.777058944444445 ] ] } },
{ "type": "Feature", "properties": { "style": "solid", "thickness": 1 }, "geometry": { "type": "LineString", "coordinates": [ [ -82.318824388888885, 26.780954722222223 ], [ -82.318399416666665, 26.773411444444445 ] ] } },
{ "type": "Feature", "properties": { "style": "solid", "thickness": 1 }, "geometry": { "type": "LineString", "coordinates": [ [ -82.313154666666662, 26.781211944444443 ], [ -82.312730083333335, 26.773668611111109 ] ] } },
{ "type": "Feature", "properties": { "style": "solid", "thickness": 1 }, "geometry": { "type": "LineString", "coordinates": [ [ -82.31862538888889, 26.777422555555553 ], [ -82.312955833333334, 26.77767975 ] ] } },
{ "type": "Feature", "properties": { "style": "solid", "thickness": 1 }, "geometry": { "type": "LineString", "coordinates": [ [ -82.310207638888883, 26.77756425 ], [ -82.306405694444436, 26.777736527777776 ] ] } },
{ "type": "Feature", "properties": { "style": "solid", "thickness": 1 }, "geometry": { "type": "LineString", "coordinates": [ [ -82.306421027777773, 26.781577111111112 ], [ -82.310423194444439, 26.781395777777778 ], [ -82.309995444444439, 26.773792583333332 ] ] } },
{ "type": "Feature", "properties": { "style": "solid", "thickness": 1 }, "geometry": { "type": "LineString", "coordinates": [ [ -82.303525666666658, 26.774085666666664 ], [ -82.30028430555555, 26.781854944444444 ], [ -82.296388888888885, 26.77440863888889 ] ] } },
{ "type": "Feature", "properties": { "style": "solid", "thickness": 1 }, "geometry": { "type": "LineString", "coordinates": [ [ -82.302463027777776, 26.776594611111111 ], [ -82.297660583333325, 26.776811916666666 ] ] } },
{ "type": "Feature", "properties": { "style": "solid", "thickness": 1 }, "geometry": { "type": "LineString", "coordinates": [ [ -82.15473302777778, 27.091994666666665 ], [ -82.154314805555558, 27.08439111111111 ] ] } },
{ "type": "Feature", "properties": { "style": "solid", "thickness": 1 }, "geometry": { "type": "LineString", "coordinates": [ [ -82.150114194444456, 27.092138111111112 ], [ -82.154522277777787, 27.088162944444445 ], [ -82.149632666666676, 27.084597361111111 ] ] } },
{ "type": "Feature", "properties": { "style": "solid", "thickness": 1 }, "geometry": { "type": "LineString", "coordinates": [ [ -82.138729916666676, 27.085077027777778 ], [ -82.13332741666666, 27.092936305555554 ] ] } },
{ "type": "Feature", "properties": { "style": "solid", "thickness": 1 }, "geometry": { "type": "LineString", "coordinates": [ [ -82.13894641666667, 27.092689444444442 ], [ -82.132643055555548, 27.085344444444445 ] ] } },
{ "type": "Feature", "properties": { "style": "solid", "thickness": 1 }, "geometry": { "type": "LineString", "coordinates": [ [ -82.08169894444444, 26.996020083333335 ], [ -82.078568222222216, 26.991415416666669 ], [ -82.076017861111112, 26.996267583333335 ] ] } },
{ "type": "Feature", "properties": { "style": "solid", "thickness": 1 }, "geometry": { "type": "LineString", "coordinates": [ [ -82.078568222222216, 26.991415416666669 ], [ -82.078415472222218, 26.988601416666668 ] ] } },
{ "type": "Feature", "properties": { "style": "solid", "thickness": 1 }, "geometry": { "type": "LineString", "coordinates": [ [ -82.0692005, 26.996564277777779 ], [ -82.073277555555549, 26.996386888888889 ], [ -82.072865166666659, 26.988783083333335 ], [ -82.068721555555555, 26.988963361111111 ] ] } },
{ "type": "Feature", "properties": { "style": "solid", "thickness": 1 }, "geometry": { "type": "LineString", "coordinates": [ [ -82.073069722222215, 26.992555055555556 ], [ -82.0691265, 26.992726611111113 ] ] } },
{ "type": "Feature", "properties": { "style": "solid", "thickness": 1 }, "geometry": { "type": "LineString", "coordinates": [ [ -82.048013055555558, 26.997484194444446 ], [ -82.043200722222224, 26.997692694444446 ] ] } },
{ "type": "Feature", "properties": { "style": "solid", "thickness": 1 }, "geometry": { "type": "LineString", "coordinates": [ [ -82.04567375, 26.997585555555556 ], [ -82.045263222222218, 26.989981694444445 ] ] } },
{ "type": "Feature", "properties": { "style": "solid", "thickness": 1 }, "geometry": { "type": "LineString", "coordinates": [ [ -81.956761611111119, 26.877955638888889 ], [ -81.956360666666669, 26.870411416666666 ] ] } },
{ "type": "Feature", "properties": { "style": "solid", "thickness": 1 }, "geometry": { "type": "LineString", "coordinates": [ [ -81.951086277777776, 26.878198083333334 ], [ -81.950685722222218, 26.870653833333336 ] ] } },
{ "type": "Feature", "properties": { "style": "solid", "thickness": 1 }, "geometry": { "type": "LineString", "coordinates": [ [ -81.95657386111111, 26.874423027777777 ], [ -81.950898694444447, 26.874665472222222 ] ] } },
{ "type": "Feature", "properties": { "style": "solid", "thickness": 1 }, "geometry": { "type": "LineString", "coordinates": [ [ -81.944279027777782, 26.878548583333334 ], [ -81.948351916666667, 26.878374833333332 ], [ -81.947948388888889, 26.870770694444445 ], [ -81.943809, 26.870947305555557 ] ] } },
{ "type": "Feature", "properties": { "style": "solid", "thickness": 1 }, "geometry": { "type": "LineString", "coordinates": [ [ -81.948148555555562, 26.874542833333333 ], [ -81.944209333333333, 26.874710888888888 ] ] } },
{ "type": "Feature", "properties": { "style": "solid", "thickness": 1 }, "geometry": { "type": "LineString", "coordinates": [ [ -82.15161025, 26.89614575 ], [ -82.14839841666668, 26.892506444444443 ] ] } },
{ "type": "Feature", "properties": { "style": "solid", "thickness": 1 }, "geometry": { "type": "LineString", "coordinates": [ [ -82.153807, 26.89226775 ], [ -82.154224583333345, 26.89987136111111 ], [ -82.150885722222228, 26.90001875 ], [ -82.150612027777782, 26.899910777777777 ], [ -82.14999788888889, 26.899697805555554 ], [ -82.149364055555566, 26.89912561111111 ], [ -82.149064083333343, 26.898538694444444 ], [ -82.149024666666676, 26.89782025 ], [ -82.149258916666668, 26.89720975 ], [ -82.149827027777789, 26.896584527777776 ], [ -82.150414861111116, 26.896318527777776 ], [ -82.150675388888899, 26.896187 ], [ -82.154014138888897, 26.896039638888887 ] ] } },
{ "type": "Feature", "properties": { "style": "solid", "thickness": 1 }, "geometry": { "type": "LineString", "coordinates": [ [ -82.134124500000013, 26.900757333333331 ], [ -82.13819797222223, 26.900578 ], [ -82.13778147222223, 26.892974361111111 ], [ -82.13364150000001, 26.893156583333333 ] ] } },
{ "type": "Feature", "properties": { "style": "solid", "thickness": 1 }, "geometry": { "type": "LineString", "coordinates": [ [ -82.13798808333334, 26.89674625 ], [ -82.134048305555567, 26.896919666666665 ] ] } }
]
}
