{
"type": "FeatureCollection",
"name": "tpa263sgp",
"features": [
{ "type": "Feature", "properties": { "style": "solid", "thickness": 1 }, "geometry": { "type": "LineString", "coordinates": [ [ -82.521223194444445, 27.986027333333336 ], [ -82.521223194444445, 27.987861555555558 ] ] } },
{ "type": "Feature", "properties": { "style": "solid", "thickness": 1 }, "geometry": { "type": "LineString", "coordinates": [ [ -82.520706611111109, 27.985843888888891 ], [ -82.520706638888882, 27.988045 ] ] } },
{ "type": "Feature", "properties": { "style": "solid", "thickness": 1 }, "geometry": { "type": "LineString", "coordinates": [ [ -82.52019005555556, 27.985843888888891 ], [ -82.52019005555556, 27.988045 ] ] } },
{ "type": "Feature", "properties": { "style": "solid", "thickness": 1 }, "geometry": { "type": "LineString", "coordinates": [ [ -82.519673472222223, 27.986027305555556 ], [ -82.519673472222223, 27.987861555555558 ] ] } },
{ "type": "Feature", "properties": { "style": "solid", "thickness": 1 }, "geometry": { "type": "LineString", "coordinates": [ [ -82.519156888888887, 27.986944444444447 ], [ -82.519164916666668, 27.987074472222222 ], [ -82.51919075, 27.98721038888889 ], [ -82.519236861111111, 27.987349666666667 ], [ -82.519305138888882, 27.987488916666667 ], [ -82.519396611111105, 27.987624222222223 ], [ -82.519511083333327, 27.987751194444446 ], [ -82.519646944444446, 27.987865333333335 ], [ -82.519801222222227, 27.987962638888892 ], [ -82.519969666666668, 27.988039833333335 ], [ -82.520147166666661, 27.988094833333335 ], [ -82.52032825, 27.988126916666669 ], [ -82.520507638888887, 27.988136694444446 ], [ -82.520680666666664, 27.988125861111111 ], [ -82.520843583333331, 27.98809702777778 ], [ -82.52099375, 27.988053222222224 ], [ -82.521129583333334, 27.987997583333335 ], [ -82.521253638888894, 27.987931305555556 ], [ -82.52137477777778, 27.98784913888889 ], [ -82.52149030555556, 27.987749833333336 ], [ -82.521596222222215, 27.987633305555555 ], [ -82.521688111111104, 27.987500416666666 ], [ -82.521761722222223, 27.987353111111112 ], [ -82.521813222222221, 27.9871945 ], [ -82.52183975, 27.987028611111111 ], [ -82.521839722222225, 27.98686025 ], [ -82.521813222222221, 27.986694388888889 ], [ -82.521761722222223, 27.986535777777778 ], [ -82.521688111111104, 27.986388472222224 ], [ -82.521596194444442, 27.986255555555555 ], [ -82.52149030555556, 27.986139027777778 ], [ -82.52137475, 27.98603975 ], [ -82.521253611111106, 27.985957555555558 ], [ -82.521129583333334, 27.985891305555558 ], [ -82.52099375, 27.985835666666667 ], [ -82.520843583333331, 27.985791861111114 ], [ -82.520680666666664, 27.985763027777779 ], [ -82.520507638888887, 27.985752194444444 ], [ -82.52032825, 27.985761972222225 ], [ -82.520147166666661, 27.985794055555555 ], [ -82.519969666666668, 27.985849055555555 ], [ -82.519801222222227, 27.98592625 ], [ -82.519646944444446, 27.986023527777778 ], [ -82.519511083333327, 27.986137694444444 ], [ -82.519396611111105, 27.98626463888889 ], [ -82.519305138888882, 27.986399944444447 ], [ -82.519236861111111, 27.986539222222223 ], [ -82.51919075, 27.986678472222223 ], [ -82.519164916666668, 27.986814388888888 ], [ -82.519156888888887, 27.986944444444447 ] ] } },
{ "type": "Feature", "properties": { "style": "solid", "thickness": 1 }, "geometry": { "type": "LineString", "coordinates": [ [ -82.075319777777779, 27.952483583333333 ], [ -82.089773944444445, 27.952556111111111 ] ] } },
{ "type": "Feature", "properties": { "style": "solid", "thickness": 1 }, "geometry": { "type": "LineString", "coordinates": [ [ -82.086171416666659, 27.950796222222223 ], [ -82.089773944444445, 27.952556111111111 ], [ -82.086149361111111, 27.954280027777777 ] ] } },
{ "type": "Feature", "properties": { "style": "solid", "thickness": 1 }, "geometry": { "type": "LineString", "coordinates": [ [ -82.024026194444446, 27.95268188888889 ], [ -82.075319777777779, 27.952483583333333 ] ] } },
{ "type": "Feature", "properties": { "style": "solid", "thickness": 1 }, "geometry": { "type": "LineString", "coordinates": [ [ -81.953720555555563, 27.952898805555556 ], [ -81.939266388888896, 27.952835583333332 ] ] } },
{ "type": "Feature", "properties": { "style": "solid", "thickness": 1 }, "geometry": { "type": "LineString", "coordinates": [ [ -81.942870222222226, 27.954593416666665 ], [ -81.939266388888896, 27.952835583333332 ], [ -81.942889638888886, 27.951109638888887 ] ] } },
{ "type": "Feature", "properties": { "style": "solid", "thickness": 1 }, "geometry": { "type": "LineString", "coordinates": [ [ -81.953720555555563, 27.952898805555556 ], [ -82.004987833333331, 27.952746888888889 ] ] } },
{ "type": "Feature", "properties": { "style": "solid", "thickness": 1 }, "geometry": { "type": "LineString", "coordinates": [ [ -82.009267555555553, 27.952939722222222 ], [ -82.009773166666662, 27.954725666666665 ], [ -82.011017083333329, 27.956199111111111 ], [ -82.012805888888892, 27.957130888888887 ], [ -82.014861305555556, 27.957376083333333 ], [ -82.016863638888893, 27.956896527777776 ], [ -82.018501416666666, 27.955766833333332 ], [ -82.019519888888894, 27.954162722222222 ], [ -82.019760694444443, 27.952333666666664 ], [ -82.01918641666667, 27.950564194444443 ], [ -82.017886388888883, 27.9491295 ], [ -82.016062833333336, 27.948252666666669 ], [ -82.013999333333331, 27.948070083333334 ], [ -82.012016805555561, 27.948610166666668 ], [ -82.010423555555562, 27.949788888888889 ], [ -82.009467388888893, 27.951422944444445 ], [ -82.009267555555553, 27.952939722222222 ] ] } },
{ "type": "Feature", "properties": { "style": "solid", "thickness": 1 }, "geometry": { "type": "LineString", "coordinates": [ [ -82.002350888888884, 27.953233333333333 ], [ -82.005510694444439, 27.952614166666667 ], [ -82.0083925, 27.951307444444442 ], [ -82.010810055555552, 27.949397611111113 ], [ -82.012607055555549, 27.94700811111111 ], [ -82.013667444444451, 27.944293444444444 ], [ -82.013937444444451, 27.941910666666669 ] ] } },
{ "type": "Feature", "properties": { "style": "solid", "thickness": 1 }, "geometry": { "type": "LineString", "coordinates": [ [ -82.013937444444451, 27.941910666666669 ], [ -82.014634916666665, 27.944716444444445 ], [ -82.016106611111113, 27.94727538888889 ], [ -82.018257444444444, 27.949422027777779 ], [ -82.02094841666667, 27.951017666666665 ], [ -82.024005583333334, 27.951959111111112 ], [ -82.026688972222217, 27.952198666666664 ] ] } },
{ "type": "Feature", "properties": { "style": "solid", "thickness": 1 }, "geometry": { "type": "LineString", "coordinates": [ [ -82.015102638888891, 27.963522388888887 ], [ -82.015495138888895, 27.960670277777776 ], [ -82.016684916666662, 27.957998166666666 ], [ -82.018595, 27.955678805555554 ], [ -82.021101944444439, 27.953862 ], [ -82.024043722222217, 27.952665166666666 ], [ -82.026688972222217, 27.952198666666664 ] ] } },
{ "type": "Feature", "properties": { "style": "solid", "thickness": 1 }, "geometry": { "type": "LineString", "coordinates": [ [ -82.015102638888891, 27.963522388888887 ], [ -82.014405027777784, 27.96071661111111 ], [ -82.012933194444443, 27.958157666666665 ], [ -82.010782305555551, 27.956010944444444 ], [ -82.008091361111113, 27.954415111111111 ], [ -82.00503425, 27.953473305555555 ], [ -82.002350888888884, 27.953233333333333 ] ] } },
{ "type": "Feature", "properties": { "style": "solid", "thickness": 1 }, "geometry": { "type": "LineString", "coordinates": [ [ -82.011926222222229, 27.819309444444443 ], [ -82.012431277777779, 27.821095416666665 ], [ -82.013673722222222, 27.822568861111112 ], [ -82.01546036111111, 27.823500611111111 ], [ -82.01751327777778, 27.82374575 ], [ -82.019513138888883, 27.82326613888889 ], [ -82.021148888888888, 27.822136361111109 ], [ -82.022166083333332, 27.820532194444443 ], [ -82.022406527777775, 27.818703083333332 ], [ -82.021832888888895, 27.816933583333334 ], [ -82.02053438888889, 27.815498888888889 ], [ -82.018713027777778, 27.814622083333333 ], [ -82.016652055555554, 27.814439555555555 ], [ -82.014671972222217, 27.814979694444446 ], [ -82.01308069444444, 27.8161585 ], [ -82.01212575, 27.817792638888889 ], [ -82.011926222222229, 27.819309444444443 ] ] } },
{ "type": "Feature", "properties": { "style": "solid", "thickness": 1 }, "geometry": { "type": "LineString", "coordinates": [ [ -82.005018, 27.81960325 ], [ -82.008173944444451, 27.818984 ], [ -82.011052194444446, 27.817677138888889 ], [ -82.013466694444446, 27.815767194444444 ], [ -82.015261444444448, 27.813377611111111 ], [ -82.016320416666673, 27.810662833333335 ], [ -82.01659, 27.808279972222223 ] ] } },
{ "type": "Feature", "properties": { "style": "solid", "thickness": 1 }, "geometry": { "type": "LineString", "coordinates": [ [ -82.01659, 27.808279972222223 ], [ -82.017286722222224, 27.811085833333333 ], [ -82.018756722222221, 27.813644777777778 ], [ -82.020905, 27.815791444444447 ], [ -82.023592722222219, 27.817387027777777 ], [ -82.026646194444439, 27.818328416666667 ], [ -82.02932633333333, 27.818567888888889 ] ] } },
{ "type": "Feature", "properties": { "style": "solid", "thickness": 1 }, "geometry": { "type": "LineString", "coordinates": [ [ -82.017754527777782, 27.82989222222222 ], [ -82.018146472222227, 27.82704 ], [ -82.019334694444439, 27.824367805555557 ], [ -82.021242361111106, 27.822048333333335 ], [ -82.023746166666669, 27.820231416666665 ], [ -82.026684305555548, 27.819034472222221 ], [ -82.02932633333333, 27.818567888888889 ] ] } },
{ "type": "Feature", "properties": { "style": "solid", "thickness": 1 }, "geometry": { "type": "LineString", "coordinates": [ [ -82.017754527777782, 27.82989222222222 ], [ -82.017057694444446, 27.82708638888889 ], [ -82.015587555555555, 27.824527416666665 ], [ -82.013439222222217, 27.822380694444444 ], [ -82.0107515, 27.820784888888888 ], [ -82.007698111111111, 27.819843166666665 ], [ -82.005018, 27.81960325 ] ] } },
{ "type": "Feature", "properties": { "style": "solid", "thickness": 1 }, "geometry": { "type": "LineString", "coordinates": [ [ -82.014804194444451, 27.938416527777779 ], [ -82.016908361111106, 27.832398083333334 ] ] } }
]
}
