{
"type": "FeatureCollection",
"name": "tpa173sgp",
"features": [
{ "type": "Feature", "properties": { "style": "solid", "thickness": 1 }, "geometry": { "type": "LineString", "coordinates": [ [ -82.355733305555546, 28.155950166666667 ], [ -82.294123972222224, 28.105690583333335 ] ] } },
{ "type": "Feature", "properties": { "style": "solid", "thickness": 1 }, "geometry": { "type": "LineString", "coordinates": [ [ -82.286377138888881, 28.099363972222221 ], [ -82.22484125, 28.049054555555557 ] ] } },
{ "type": "Feature", "properties": { "style": "solid", "thickness": 1 }, "geometry": { "type": "LineString", "coordinates": [ [ -82.23917025, 28.151682527777776 ], [ -82.251948722222224, 28.139391638888888 ] ] } },
{ "type": "Feature", "properties": { "style": "solid", "thickness": 1 }, "geometry": { "type": "LineString", "coordinates": [ [ -82.264724277777773, 28.127099555555557 ], [ -82.286682805555557, 28.105962611111114 ] ] } },
{ "type": "Feature", "properties": { "style": "solid", "thickness": 1 }, "geometry": { "type": "LineString", "coordinates": [ [ -82.521223194444445, 27.986027333333336 ], [ -82.521223194444445, 27.987861555555558 ] ] } },
{ "type": "Feature", "properties": { "style": "solid", "thickness": 1 }, "geometry": { "type": "LineString", "coordinates": [ [ -82.520706611111109, 27.985843888888891 ], [ -82.520706638888882, 27.988045 ] ] } },
{ "type": "Feature", "properties": { "style": "solid", "thickness": 1 }, "geometry": { "type": "LineString", "coordinates": [ [ -82.52019005555556, 27.985843888888891 ], [ -82.52019005555556, 27.988045 ] ] } },
{ "type": "Feature", "properties": { "style": "solid", "thickness": 1 }, "geometry": { "type": "LineString", "coordinates": [ [ -82.519673472222223, 27.986027305555556 ], [ -82.519673472222223, 27.987861555555558 ] ] } },
{ "type": "Feature", "properties": { "style": "solid", "thickness": 1 }, "geometry": { "type": "LineString", "coordinates": [ [ -82.519156888888887, 27.986944444444447 ], [ -82.519164916666668, 27.987074472222222 ], [ -82.51919075, 27.98721038888889 ], [ -82.519236861111111, 27.987349666666667 ], [ -82.519305138888882, 27.987488916666667 ], [ -82.519396611111105, 27.987624222222223 ], [ -82.519511083333327, 27.987751194444446 ], [ -82.519646944444446, 27.987865333333335 ], [ -82.519801222222227, 27.987962638888892 ], [ -82.519969666666668, 27.988039833333335 ], [ -82.520147166666661, 27.988094833333335 ], [ -82.52032825, 27.988126916666669 ], [ -82.520507638888887, 27.988136694444446 ], [ -82.520680666666664, 27.988125861111111 ], [ -82.520843583333331, 27.98809702777778 ], [ -82.52099375, 27.988053222222224 ], [ -82.521129583333334, 27.987997583333335 ], [ -82.521253638888894, 27.987931305555556 ], [ -82.52137477777778, 27.98784913888889 ], [ -82.52149030555556, 27.987749833333336 ], [ -82.521596222222215, 27.987633305555555 ], [ -82.521688111111104, 27.987500416666666 ], [ -82.521761722222223, 27.987353111111112 ], [ -82.521813222222221, 27.9871945 ], [ -82.52183975, 27.987028611111111 ], [ -82.521839722222225, 27.98686025 ], [ -82.521813222222221, 27.986694388888889 ], [ -82.521761722222223, 27.986535777777778 ], [ -82.521688111111104, 27.986388472222224 ], [ -82.521596194444442, 27.986255555555555 ], [ -82.52149030555556, 27.986139027777778 ], [ -82.52137475, 27.98603975 ], [ -82.521253611111106, 27.985957555555558 ], [ -82.521129583333334, 27.985891305555558 ], [ -82.52099375, 27.985835666666667 ], [ -82.520843583333331, 27.985791861111114 ], [ -82.520680666666664, 27.985763027777779 ], [ -82.520507638888887, 27.985752194444444 ], [ -82.52032825, 27.985761972222225 ], [ -82.520147166666661, 27.985794055555555 ], [ -82.519969666666668, 27.985849055555555 ], [ -82.519801222222227, 27.98592625 ], [ -82.519646944444446, 27.986023527777778 ], [ -82.519511083333327, 27.986137694444444 ], [ -82.519396611111105, 27.98626463888889 ], [ -82.519305138888882, 27.986399944444447 ], [ -82.519236861111111, 27.986539222222223 ], [ -82.51919075, 27.986678472222223 ], [ -82.519164916666668, 27.986814388888888 ], [ -82.519156888888887, 27.986944444444447 ] ] } },
{ "type": "Feature", "properties": { "style": "solid", "thickness": 1 }, "geometry": { "type": "LineString", "coordinates": [ [ -82.217274777777774, 28.049214166666669 ], [ -82.219011138888888, 28.05022375 ], [ -82.221052444444453, 28.050559333333332 ], [ -82.22308127777778, 28.050168722222224 ], [ -82.224782138888884, 28.049112666666669 ], [ -82.225890611111112, 28.047555388888892 ], [ -82.226234333333338, 28.045739 ], [ -82.225759916666675, 28.043945944444445 ], [ -82.224541166666668, 28.042454972222224 ], [ -82.222767555555563, 28.041497888888891 ], [ -82.220714833333332, 28.041223472222224 ], [ -82.218702138888887, 28.04167441666667 ], [ -82.217042361111112, 28.042780611111112 ], [ -82.215993527777783, 28.044370055555557 ], [ -82.21571875, 28.046195638888889 ], [ -82.216260777777777, 28.047973555555558 ], [ -82.217274777777774, 28.049214166666669 ] ] } },
{ "type": "Feature", "properties": { "style": "solid", "thickness": 1 }, "geometry": { "type": "LineString", "coordinates": [ [ -82.208789416666676, 28.04642602777778 ], [ -82.211951222222226, 28.045801583333336 ], [ -82.214833388888891, 28.04449002777778 ], [ -82.217249694444448, 28.042576111111114 ], [ -82.219043972222224, 28.0401835 ], [ -82.220100361111108, 28.037466805555557 ], [ -82.22036625, 28.03508027777778 ] ] } },
{ "type": "Feature", "properties": { "style": "solid", "thickness": 1 }, "geometry": { "type": "LineString", "coordinates": [ [ -82.22036625, 28.03508027777778 ], [ -82.221070277777784, 28.037885416666668 ], [ -82.222548694444441, 28.040442416666668 ], [ -82.224706, 28.042586083333337 ], [ -82.227402833333329, 28.044177888888889 ], [ -82.230464972222222, 28.045114972222223 ], [ -82.233154916666663, 28.045350666666668 ] ] } },
{ "type": "Feature", "properties": { "style": "solid", "thickness": 1 }, "geometry": { "type": "LineString", "coordinates": [ [ -82.221578305555553, 28.056697472222222 ], [ -82.221965166666664, 28.053844194444444 ], [ -82.223150333333336, 28.051169611111114 ], [ -82.22505725, 28.0488465 ], [ -82.227562638888884, 28.047024888888892 ], [ -82.230504694444448, 28.045822472222223 ], [ -82.233154916666663, 28.045350666666668 ] ] } },
{ "type": "Feature", "properties": { "style": "solid", "thickness": 1 }, "geometry": { "type": "LineString", "coordinates": [ [ -82.221578305555553, 28.056697472222222 ], [ -82.220874138888888, 28.05389236111111 ], [ -82.219395583333338, 28.051335333333334 ], [ -82.217238222222221, 28.049191583333336 ], [ -82.21454138888889, 28.047599583333334 ], [ -82.21147933333333, 28.046662138888891 ], [ -82.208789416666676, 28.04642602777778 ] ] } },
{ "type": "Feature", "properties": { "style": "solid", "thickness": 1 }, "geometry": { "type": "LineString", "coordinates": [ [ -82.222458027777776, 28.160860722222221 ], [ -82.221406361111107, 28.16244925 ], [ -82.22112936111111, 28.164274583333331 ], [ -82.221670083333336, 28.166052916666665 ], [ -82.222944527777784, 28.16750775 ], [ -82.224754527777776, 28.168412861111111 ], [ -82.226818666666674, 28.168627555555556 ], [ -82.228816, 28.168118388888889 ], [ -82.230435916666664, 28.166964583333336 ], [ -82.231426555555558, 28.165345527777777 ], [ -82.231633916666667, 28.163512944444442 ], [ -82.231025805555561, 28.161751805555554 ], [ -82.229696805555562, 28.160335861111111 ], [ -82.227853555555555, 28.159485305555553 ], [ -82.225782583333341, 28.159332333333332 ], [ -82.22380588888889, 28.159900722222222 ], [ -82.222458027777776, 28.160860722222221 ] ] } },
{ "type": "Feature", "properties": { "style": "solid", "thickness": 1 }, "geometry": { "type": "LineString", "coordinates": [ [ -82.214192805555555, 28.164509805555554 ], [ -82.217358027777777, 28.163885277777776 ], [ -82.220243277777783, 28.162573638888887 ], [ -82.22266211111112, 28.160659666666664 ], [ -82.224458222222225, 28.158267055555555 ], [ -82.225515638888893, 28.155550388888887 ], [ -82.22578169444445, 28.153163861111111 ] ] } },
{ "type": "Feature", "properties": { "style": "solid", "thickness": 1 }, "geometry": { "type": "LineString", "coordinates": [ [ -82.22578169444445, 28.153163861111111 ], [ -82.226486638888886, 28.155968888888886 ], [ -82.227966805555553, 28.158525777777776 ], [ -82.230126555555557, 28.160669305555555 ], [ -82.232826416666668, 28.162261 ], [ -82.235891916666674, 28.163197944444445 ], [ -82.238584861111107, 28.163433527777777 ] ] } },
{ "type": "Feature", "properties": { "style": "solid", "thickness": 1 }, "geometry": { "type": "LineString", "coordinates": [ [ -82.226996166666666, 28.174780527777777 ], [ -82.227383305555563, 28.171927333333336 ], [ -82.228569638888885, 28.16925275 ], [ -82.2304785, 28.166929611111112 ], [ -82.232986527777783, 28.165107944444443 ], [ -82.235931722222219, 28.163905444444442 ], [ -82.238584861111107, 28.163433527777777 ] ] } },
{ "type": "Feature", "properties": { "style": "solid", "thickness": 1 }, "geometry": { "type": "LineString", "coordinates": [ [ -82.226996166666666, 28.174780527777777 ], [ -82.226291111111109, 28.171975527777779 ], [ -82.224810805555563, 28.169418611111112 ], [ -82.222650972222226, 28.167275 ], [ -82.219951138888888, 28.165683138888888 ], [ -82.21688572222223, 28.164745833333331 ], [ -82.214192805555555, 28.164509805555554 ] ] } },
{ "type": "Feature", "properties": { "style": "solid", "thickness": 1 }, "geometry": { "type": "LineString", "coordinates": [ [ -82.355836527777768, 28.162371 ], [ -82.357551916666665, 28.163410722222221 ], [ -82.359587472222216, 28.163781944444445 ], [ -82.361626722222212, 28.163426916666666 ], [ -82.363352555555551, 28.162400861111109 ], [ -82.364496611111107, 28.160863277777775 ], [ -82.364881055555543, 28.159053305555553 ], [ -82.36444613888888, 28.157252333333332 ], [ -82.3632595, 28.155740361111111 ], [ -82.361505666666659, 28.154752444444444 ], [ -82.359457305555551, 28.154442194444442 ], [ -82.357432861111107, 28.154857833333331 ], [ -82.355747055555554, 28.15593472222222 ], [ -82.354661972222218, 28.157505472222219 ], [ -82.354346333333325, 28.159325888888887 ], [ -82.35484925, 28.161112888888887 ], [ -82.355836527777768, 28.162371 ] ] } },
{ "type": "Feature", "properties": { "style": "solid", "thickness": 1 }, "geometry": { "type": "LineString", "coordinates": [ [ -82.34741625, 28.1596605 ], [ -82.350580555555553, 28.159032888888888 ], [ -82.353464083333321, 28.157718472222221 ], [ -82.355880444444438, 28.155802138888887 ], [ -82.357673527777777, 28.153407777777776 ], [ -82.358727527777774, 28.15069008333333 ], [ -82.358990638888883, 28.148303333333335 ] ] } },
{ "type": "Feature", "properties": { "style": "solid", "thickness": 1 }, "geometry": { "type": "LineString", "coordinates": [ [ -82.358990638888883, 28.148303333333335 ], [ -82.359699, 28.151107694444445 ], [ -82.36118225, 28.153663166666664 ], [ -82.363344555555557, 28.155804611111108 ], [ -82.36604627777777, 28.157393666666664 ], [ -82.369112805555545, 28.158327638888888 ], [ -82.371805861111099, 28.15856061111111 ] ] } },
{ "type": "Feature", "properties": { "style": "solid", "thickness": 1 }, "geometry": { "type": "LineString", "coordinates": [ [ -82.360231694444437, 28.169918833333334 ], [ -82.360615277777768, 28.16706525 ], [ -82.361798277777766, 28.164389527777775 ], [ -82.363704194444438, 28.162064527777776 ], [ -82.366209888888889, 28.160240444444444 ], [ -82.369153472222209, 28.159035083333332 ], [ -82.371805861111099, 28.15856061111111 ] ] } },
{ "type": "Feature", "properties": { "style": "solid", "thickness": 1 }, "geometry": { "type": "LineString", "coordinates": [ [ -82.360231694444437, 28.169918833333334 ], [ -82.359523194444435, 28.1671145 ], [ -82.358039805555549, 28.164559027777777 ], [ -82.355877416666658, 28.1624175 ], [ -82.35317575, 28.16082825 ], [ -82.350109277777776, 28.159893916666665 ], [ -82.34741625, 28.1596605 ] ] } },
{ "type": "Feature", "properties": { "style": "solid", "thickness": 1 }, "geometry": { "type": "LineString", "coordinates": [ [ -82.2862625, 28.105579944444447 ], [ -82.287903111111106, 28.106709527777777 ], [ -82.289908638888889, 28.107188888888889 ], [ -82.291967277777772, 28.10694352777778 ], [ -82.293758861111115, 28.106011611111114 ], [ -82.29500486111111, 28.104538 ], [ -82.295511527777776, 28.102751833333336 ], [ -82.295200138888887, 28.100930861111113 ], [ -82.294119166666661, 28.099358194444441 ], [ -82.292436638888887, 28.098278305555553 ], [ -82.290414194444438, 28.097859083333333 ], [ -82.288366222222223, 28.09816575 ], [ -82.286611083333327, 28.099150555555553 ], [ -82.285421694444437, 28.100660444444447 ], [ -82.284982944444437, 28.102460666666669 ], [ -82.28536311111111, 28.104271361111113 ], [ -82.2862625, 28.105579944444447 ] ] } },
{ "type": "Feature", "properties": { "style": "solid", "thickness": 1 }, "geometry": { "type": "LineString", "coordinates": [ [ -82.27806116666666, 28.10307102777778 ], [ -82.281224222222221, 28.10244502777778 ], [ -82.284107055555552, 28.10113202777778 ], [ -82.286523388888881, 28.099216888888886 ], [ -82.288317083333325, 28.096823416666666 ], [ -82.289372277777773, 28.094106222222219 ], [ -82.289636777777773, 28.091719583333333 ] ] } },
{ "type": "Feature", "properties": { "style": "solid", "thickness": 1 }, "geometry": { "type": "LineString", "coordinates": [ [ -82.289636777777773, 28.091719583333333 ], [ -82.29034297222222, 28.094524333333332 ], [ -82.291823805555552, 28.097080555555554 ], [ -82.293983611111116, 28.099223111111108 ], [ -82.296682888888881, 28.100813555555558 ], [ -82.299747222222223, 28.101749083333335 ], [ -82.30243872222222, 28.10198341666667 ] ] } },
{ "type": "Feature", "properties": { "style": "solid", "thickness": 1 }, "geometry": { "type": "LineString", "coordinates": [ [ -82.290863333333334, 28.113335944444447 ], [ -82.291248555555555, 28.1104825 ], [ -82.292432638888883, 28.107807361111114 ], [ -82.294339055555554, 28.105483305555556 ], [ -82.296844611111112, 28.103660444444447 ], [ -82.299787416666661, 28.102456555555555 ], [ -82.30243872222222, 28.10198341666667 ] ] } },
{ "type": "Feature", "properties": { "style": "solid", "thickness": 1 }, "geometry": { "type": "LineString", "coordinates": [ [ -82.290863333333334, 28.113335944444447 ], [ -82.290157, 28.110531194444444 ], [ -82.288676027777782, 28.107974972222223 ], [ -82.286516138888885, 28.105832333333336 ], [ -82.283816888888893, 28.104241694444447 ], [ -82.280752638888885, 28.103305805555557 ], [ -82.27806116666666, 28.10307102777778 ] ] } },
{ "type": "Feature", "properties": { "style": "solid", "thickness": 1 }, "geometry": { "type": "LineString", "coordinates": [ [ -82.247373055555556, 28.180162111111112 ], [ -82.244085916666663, 28.18792875 ], [ -82.240144583333333, 28.180481916666668 ] ] } },
{ "type": "Feature", "properties": { "style": "solid", "thickness": 1 }, "geometry": { "type": "LineString", "coordinates": [ [ -82.246295416666669, 28.182670194444444 ], [ -82.241431277777778, 28.182885388888891 ] ] } },
{ "type": "Feature", "properties": { "style": "solid", "thickness": 1 }, "geometry": { "type": "LineString", "coordinates": [ [ -82.237307222222228, 28.180607361111111 ], [ -82.23773519444444, 28.188209583333332 ] ] } },
{ "type": "Feature", "properties": { "style": "solid", "thickness": 1 }, "geometry": { "type": "LineString", "coordinates": [ [ -82.233794305555563, 28.180762583333333 ], [ -82.231924944444444, 28.188466277777778 ], [ -82.22866, 28.18098927777778 ], [ -82.22672272222222, 28.18869586111111 ], [ -82.223795916666674, 28.181203861111111 ] ] } },
{ "type": "Feature", "properties": { "style": "solid", "thickness": 1 }, "geometry": { "type": "LineString", "coordinates": [ [ -82.217264083333333, 28.189112833333333 ], [ -82.221385361111118, 28.18893125 ], [ -82.220958527777782, 28.181328972222225 ], [ -82.216769972222224, 28.181513527777778 ] ] } },
{ "type": "Feature", "properties": { "style": "solid", "thickness": 1 }, "geometry": { "type": "LineString", "coordinates": [ [ -82.22117025, 28.185100166666668 ], [ -82.21718425, 28.185275805555555 ] ] } },
{ "type": "Feature", "properties": { "style": "solid", "thickness": 1 }, "geometry": { "type": "LineString", "coordinates": [ [ -82.211982138888885, 28.185504861111113 ], [ -82.208730638888895, 28.18186741666667 ] ] } },
{ "type": "Feature", "properties": { "style": "solid", "thickness": 1 }, "geometry": { "type": "LineString", "coordinates": [ [ -82.214202805555558, 28.181626583333333 ], [ -82.214629166666668, 28.189228888888888 ], [ -82.211251055555564, 28.189377583333332 ], [ -82.21097408333334, 28.18926975 ], [ -82.210352611111119, 28.189057055555555 ], [ -82.209711, 28.188485194444446 ], [ -82.209407222222225, 28.187898472222223 ], [ -82.209366944444454, 28.187180166666668 ], [ -82.209603666666666, 28.186569666666667 ], [ -82.210178138888892, 28.185944305555555 ], [ -82.210772777777777, 28.185678111111113 ], [ -82.211036305555552, 28.1855465 ], [ -82.214414305555565, 28.185397805555557 ] ] } },
{ "type": "Feature", "properties": { "style": "solid", "thickness": 1 }, "geometry": { "type": "LineString", "coordinates": [ [ -82.343250777777769, 28.085996916666666 ], [ -82.343685833333325, 28.093598972222221 ], [ -82.340850861111107, 28.093726527777775 ], [ -82.340243388888879, 28.093753861111111 ], [ -82.339750333333328, 28.093415972222221 ], [ -82.339388888888891, 28.093012138888888 ], [ -82.339375194444443, 28.092772694444442 ], [ -82.339306722222219, 28.091575527777778 ], [ -82.339363944444443, 28.091392916666667 ], [ -82.339539055555548, 28.090904944444443 ], [ -82.34017980555555, 28.090276 ], [ -82.339484277777771, 28.089947194444445 ], [ -82.339136527777768, 28.089782805555554 ], [ -82.338781944444435, 28.089498694444444 ], [ -82.338548638888881, 28.088969055555555 ], [ -82.338459638888878, 28.08741275 ], [ -82.338638166666655, 28.086984611111109 ], [ -82.339090083333332, 28.086604222222221 ], [ -82.339413888888885, 28.08634961111111 ], [ -82.339741083333323, 28.086154861111108 ], [ -82.343250777777769, 28.085996916666666 ] ] } },
{ "type": "Feature", "properties": { "style": "solid", "thickness": 1 }, "geometry": { "type": "LineString", "coordinates": [ [ -82.343487138888889, 28.090127166666665 ], [ -82.34017980555555, 28.090276 ] ] } },
{ "type": "Feature", "properties": { "style": "solid", "thickness": 1 }, "geometry": { "type": "LineString", "coordinates": [ [ -82.333342055555548, 28.090223333333331 ], [ -82.330089333333333, 28.086588666666664 ] ] } },
{ "type": "Feature", "properties": { "style": "solid", "thickness": 1 }, "geometry": { "type": "LineString", "coordinates": [ [ -82.335556416666662, 28.086343027777776 ], [ -82.33599091666666, 28.093945083333331 ], [ -82.332615972222214, 28.09409675 ], [ -82.332339111111111, 28.093989166666667 ], [ -82.331717944444435, 28.093777027777776 ], [ -82.331076277777768, 28.093205722222223 ], [ -82.330772083333329, 28.09261925 ], [ -82.330731055555546, 28.091900944444443 ], [ -82.330966861111108, 28.09129025 ], [ -82.331540166666656, 28.090664361111109 ], [ -82.332133944444436, 28.090397638888888 ], [ -82.332397111111106, 28.090265805555553 ], [ -82.335771944444446, 28.090114138888886 ] ] } },
{ "type": "Feature", "properties": { "style": "solid", "thickness": 1 }, "geometry": { "type": "LineString", "coordinates": [ [ -82.327755972222221, 28.094315027777778 ], [ -82.327410888888892, 28.088269277777776 ], [ -82.327326305555559, 28.087973 ], [ -82.326819666666665, 28.087395638888889 ], [ -82.326461694444447, 28.087051611111111 ], [ -82.325908055555558, 28.086836416666664 ], [ -82.325162194444445, 28.086809888888887 ], [ -82.324082277777777, 28.086858333333332 ], [ -82.32347825, 28.086945444444442 ], [ -82.322685361111112, 28.08728108333333 ], [ -82.322236805555548, 28.087721305555554 ], [ -82.321987305555552, 28.088092555555555 ], [ -82.321883027777773, 28.088637333333331 ], [ -82.322221, 28.094563388888886 ] ] } },
{ "type": "Feature", "properties": { "style": "solid", "thickness": 1 }, "geometry": { "type": "LineString", "coordinates": [ [ -82.318952638888888, 28.087088416666667 ], [ -82.319386, 28.0946905 ], [ -82.311325611111101, 28.087430138888887 ], [ -82.311758444444436, 28.09503225 ] ] } },
{ "type": "Feature", "properties": { "style": "solid", "thickness": 1 }, "geometry": { "type": "LineString", "coordinates": [ [ -82.308990916666659, 28.095156138888889 ], [ -82.304130833333332, 28.09537358333333 ] ] } },
{ "type": "Feature", "properties": { "style": "solid", "thickness": 1 }, "geometry": { "type": "LineString", "coordinates": [ [ -82.306628388888882, 28.095261861111108 ], [ -82.306195916666667, 28.08765972222222 ] ] } },
{ "type": "Feature", "properties": { "style": "solid", "thickness": 1 }, "geometry": { "type": "LineString", "coordinates": [ [ -82.3291615, 28.082189444444445 ], [ -82.329182, 28.082548583333335 ], [ -82.329070944444439, 28.082973666666668 ], [ -82.328831722222219, 28.083524527777776 ], [ -82.32858225, 28.083895777777776 ], [ -82.328190944444444, 28.084153416666666 ], [ -82.327657833333333, 28.084297361111108 ], [ -82.326645444444438, 28.084342833333331 ], [ -82.325896166666666, 28.084256416666666 ], [ -82.325548472222223, 28.084092 ], [ -82.325052111111106, 28.083694194444444 ], [ -82.324900027777772, 28.083400944444442 ], [ -82.324737722222224, 28.082928138888889 ], [ -82.324683083333326, 28.081970388888887 ], [ -82.324797583333336, 28.081605166666666 ], [ -82.325333305555546, 28.080320888888888 ], [ -82.326095361111101, 28.0794465 ], [ -82.327312777777777, 28.07825161111111 ], [ -82.328779611111102, 28.076685444444443 ], [ -82.324527805555547, 28.076876305555555 ] ] } },
{ "type": "Feature", "properties": { "style": "solid", "thickness": 1 }, "geometry": { "type": "LineString", "coordinates": [ [ -82.317200222222212, 28.080085527777779 ], [ -82.317302555555557, 28.081881305555555 ], [ -82.317563, 28.082889833333333 ], [ -82.317725277777768, 28.083362666666666 ], [ -82.31794825, 28.08371275 ], [ -82.318799111111105, 28.08439475 ], [ -82.319626083333333, 28.084657722222222 ], [ -82.319896055555546, 28.084645638888887 ], [ -82.320688916666668, 28.08431 ], [ -82.321390388888886, 28.083558416666666 ], [ -82.321639888888882, 28.083187138888889 ], [ -82.321747555555547, 28.08270222222222 ], [ -82.321892027777778, 28.081675527777776 ], [ -82.3217896111111, 28.07987975 ], [ -82.321529111111104, 28.078871222222222 ], [ -82.321366833333329, 28.078398416666666 ], [ -82.321076388888883, 28.078051361111111 ], [ -82.320293055555553, 28.07736636111111 ], [ -82.319466111111112, 28.07710336111111 ], [ -82.319196166666657, 28.077115472222221 ], [ -82.318403361111109, 28.077451083333333 ], [ -82.317634416666664, 28.078205694444446 ], [ -82.317452416666669, 28.078573944444443 ], [ -82.317344722222217, 28.079058861111111 ], [ -82.317200222222212, 28.080085527777779 ] ] } },
{ "type": "Feature", "properties": { "style": "solid", "thickness": 1 }, "geometry": { "type": "LineString", "coordinates": [ [ -82.24137844444445, 28.021239944444442 ], [ -82.24180608333333, 28.028842388888886 ], [ -82.238837777777775, 28.028973833333332 ], [ -82.2380215, 28.028889944444444 ], [ -82.237674111111119, 28.028725277777777 ], [ -82.237110861111105, 28.028330138888887 ], [ -82.236264305555551, 28.0277075 ], [ -82.235680888888893, 28.026953166666665 ], [ -82.235512333333332, 28.026360527777776 ], [ -82.235401333333328, 28.024385083333332 ], [ -82.235505972222228, 28.023840361111109 ], [ -82.235870361111111, 28.02310411111111 ], [ -82.236319, 28.022664166666665 ], [ -82.236760916666668, 28.022104527777778 ], [ -82.237411944444446, 28.021655638888888 ], [ -82.238211333333339, 28.021440222222221 ], [ -82.238680166666668, 28.021359444444442 ], [ -82.24137844444445, 28.021239944444442 ] ] } },
{ "type": "Feature", "properties": { "style": "solid", "thickness": 1 }, "geometry": { "type": "LineString", "coordinates": [ [ -82.23254158333333, 28.021631083333332 ], [ -82.229258194444441, 28.029397611111111 ], [ -82.225323638888895, 28.021950138888887 ] ] } },
{ "type": "Feature", "properties": { "style": "solid", "thickness": 1 }, "geometry": { "type": "LineString", "coordinates": [ [ -82.231465166666666, 28.024139111111111 ], [ -82.226608138888892, 28.024353805555556 ] ] } },
{ "type": "Feature", "properties": { "style": "solid", "thickness": 1 }, "geometry": { "type": "LineString", "coordinates": [ [ -82.220273333333338, 28.025953805555556 ], [ -82.217026333333337, 28.022316444444442 ] ] } },
{ "type": "Feature", "properties": { "style": "solid", "thickness": 1 }, "geometry": { "type": "LineString", "coordinates": [ [ -82.222490416666673, 28.022075277777777 ], [ -82.22291675, 28.02967775 ], [ -82.219543611111106, 28.029826666666665 ], [ -82.219267055555562, 28.029718833333334 ], [ -82.218646472222218, 28.029506194444444 ], [ -82.218005777777776, 28.028934361111109 ], [ -82.217702388888895, 28.028347638888889 ], [ -82.217662138888898, 28.027629305555553 ], [ -82.217898444444444, 28.027018777777776 ], [ -82.218472027777779, 28.026393361111111 ], [ -82.219065777777786, 28.026127111111109 ], [ -82.219328888888896, 28.02599547222222 ], [ -82.222701888888892, 28.025846583333333 ] ] } },
{ "type": "Feature", "properties": { "style": "solid", "thickness": 1 }, "geometry": { "type": "LineString", "coordinates": [ [ -82.214260555555555, 28.022438416666667 ], [ -82.21468630555556, 28.030040944444444 ], [ -82.21131316666667, 28.030189638888888 ], [ -82.211036611111112, 28.030081805555554 ], [ -82.210416055555555, 28.029869111111111 ], [ -82.209775388888886, 28.02929725 ], [ -82.209472027777778, 28.0287105 ], [ -82.20943183333334, 28.027992166666667 ], [ -82.209668194444447, 28.027381638888887 ], [ -82.210241833333342, 28.026756277777778 ], [ -82.210835583333335, 28.026490055555556 ], [ -82.211098722222232, 28.026358444444444 ], [ -82.21447175, 28.02620975 ] ] } },
{ "type": "Feature", "properties": { "style": "solid", "thickness": 1 }, "geometry": { "type": "LineString", "coordinates": [ [ -82.202610416666673, 28.030572888888887 ], [ -82.206725666666671, 28.03039172222222 ], [ -82.206300472222225, 28.022789194444442 ], [ -82.202118055555559, 28.022973333333333 ] ] } },
{ "type": "Feature", "properties": { "style": "solid", "thickness": 1 }, "geometry": { "type": "LineString", "coordinates": [ [ -82.206511388888899, 28.026560527777775 ], [ -82.202531194444447, 28.026735777777777 ] ] } },
{ "type": "Feature", "properties": { "style": "solid", "thickness": 1 }, "geometry": { "type": "LineString", "coordinates": [ [ -82.415026111111118, 28.17164675 ], [ -82.415445277777778, 28.17186775 ], [ -82.415925027777789, 28.171965944444445 ], [ -82.417546111111122, 28.17189216666667 ], [ -82.418147083333338, 28.171744777777779 ], [ -82.41834625, 28.171675694444446 ], [ -82.419328222222234, 28.171090888888891 ], [ -82.419901416666676, 28.170464638888891 ], [ -82.420069333333345, 28.169856861111111 ], [ -82.420479666666665, 28.168757916666667 ], [ -82.420399861111122, 28.16738125 ], [ -82.420226583333331, 28.166728972222224 ], [ -82.419992722222233, 28.1661995 ], [ -82.419687861111115, 28.16561325 ], [ -82.418974277777778, 28.164985583333333 ], [ -82.417656305555553, 28.164445444444443 ], [ -82.416767861111111, 28.164305833333334 ], [ -82.416024916666672, 28.164339666666667 ], [ -82.415089722222234, 28.16456225 ], [ -82.414762416666676, 28.164757194444444 ], [ -82.414499194444446, 28.164889194444442 ] ] } },
{ "type": "Feature", "properties": { "style": "solid", "thickness": 1 }, "geometry": { "type": "LineString", "coordinates": [ [ -82.411769805555565, 28.164533222222222 ], [ -82.408494972222229, 28.172303805555558 ], [ -82.404542888888898, 28.164861666666667 ] ] } },
{ "type": "Feature", "properties": { "style": "solid", "thickness": 1 }, "geometry": { "type": "LineString", "coordinates": [ [ -82.410696138888895, 28.167042611111114 ], [ -82.405833055555561, 28.167263611111114 ] ] } },
{ "type": "Feature", "properties": { "style": "solid", "thickness": 1 }, "geometry": { "type": "LineString", "coordinates": [ [ -82.40170611111111, 28.1649905 ], [ -82.402145611111123, 28.172592222222224 ], [ -82.394073888888897, 28.165336805555555 ], [ -82.394512833333337, 28.172938555555557 ] ] } },
{ "type": "Feature", "properties": { "style": "solid", "thickness": 1 }, "geometry": { "type": "LineString", "coordinates": [ [ -82.387915861111111, 28.172457361111114 ], [ -82.388558305555563, 28.173028388888891 ], [ -82.388696861111114, 28.173082138888891 ], [ -82.389581888888898, 28.173162055555558 ], [ -82.390318, 28.173008694444444 ], [ -82.390709472222227, 28.172750888888888 ], [ -82.391097472222228, 28.17243325 ], [ -82.391404111111115, 28.171879222222223 ], [ -82.391324638888889, 28.170502527777778 ], [ -82.39088827777779, 28.169982194444447 ], [ -82.390604277777783, 28.169755 ], [ -82.389570388888899, 28.169441777777777 ], [ -82.388404861111113, 28.16919452777778 ], [ -82.387573611111122, 28.168872111111114 ], [ -82.387282722222224, 28.168525194444445 ], [ -82.387099305555566, 28.167693333333336 ], [ -82.3871895, 28.166909083333334 ], [ -82.387499611111124, 28.166414916666664 ], [ -82.38782350000001, 28.166160194444444 ], [ -82.388083305555568, 28.165968388888889 ], [ -82.388410666666672, 28.165773527777777 ], [ -82.389143277777791, 28.165560305555555 ], [ -82.389548527777791, 28.165541944444442 ], [ -82.389960694444454, 28.165643277777775 ], [ -82.390514861111114, 28.165858222222219 ], [ -82.390866388888895, 28.166082333333332 ], [ -82.391366833333336, 28.16653975 ] ] } },
{ "type": "Feature", "properties": { "style": "solid", "thickness": 1 }, "geometry": { "type": "LineString", "coordinates": [ [ -82.38421266666667, 28.16578361111111 ], [ -82.380935805555552, 28.173553555555557 ], [ -82.376985583333322, 28.166110611111108 ] ] } },
{ "type": "Feature", "properties": { "style": "solid", "thickness": 1 }, "geometry": { "type": "LineString", "coordinates": [ [ -82.383138361111108, 28.168292777777779 ], [ -82.378275138888881, 28.168512833333335 ] ] } }
]
}
