{
"type": "FeatureCollection",
"name": "tpa232sgp",
"features": [
{ "type": "Feature", "properties": { "style": "solid", "thickness": 1 }, "geometry": { "type": "LineString", "coordinates": [ [ -82.353310722222218, 27.148175555555554 ], [ -82.340056638888882, 27.159924944444445 ] ] } },
{ "type": "Feature", "properties": { "style": "solid", "thickness": 1 }, "geometry": { "type": "LineString", "coordinates": [ [ -82.326799694444446, 27.171673027777778 ], [ -82.264186361111115, 27.22710875 ] ] } },
{ "type": "Feature", "properties": { "style": "solid", "thickness": 1 }, "geometry": { "type": "LineString", "coordinates": [ [ -82.521223194444445, 27.986027333333336 ], [ -82.521223194444445, 27.987861555555558 ] ] } },
{ "type": "Feature", "properties": { "style": "solid", "thickness": 1 }, "geometry": { "type": "LineString", "coordinates": [ [ -82.520706611111109, 27.985843888888891 ], [ -82.520706638888882, 27.988045 ] ] } },
{ "type": "Feature", "properties": { "style": "solid", "thickness": 1 }, "geometry": { "type": "LineString", "coordinates": [ [ -82.52019005555556, 27.985843888888891 ], [ -82.52019005555556, 27.988045 ] ] } },
{ "type": "Feature", "properties": { "style": "solid", "thickness": 1 }, "geometry": { "type": "LineString", "coordinates": [ [ -82.519673472222223, 27.986027305555556 ], [ -82.519673472222223, 27.987861555555558 ] ] } },
{ "type": "Feature", "properties": { "style": "solid", "thickness": 1 }, "geometry": { "type": "LineString", "coordinates": [ [ -82.519156888888887, 27.986944444444447 ], [ -82.519164916666668, 27.987074472222222 ], [ -82.51919075, 27.98721038888889 ], [ -82.519236861111111, 27.987349666666667 ], [ -82.519305138888882, 27.987488916666667 ], [ -82.519396611111105, 27.987624222222223 ], [ -82.519511083333327, 27.987751194444446 ], [ -82.519646944444446, 27.987865333333335 ], [ -82.519801222222227, 27.987962638888892 ], [ -82.519969666666668, 27.988039833333335 ], [ -82.520147166666661, 27.988094833333335 ], [ -82.52032825, 27.988126916666669 ], [ -82.520507638888887, 27.988136694444446 ], [ -82.520680666666664, 27.988125861111111 ], [ -82.520843583333331, 27.98809702777778 ], [ -82.52099375, 27.988053222222224 ], [ -82.521129583333334, 27.987997583333335 ], [ -82.521253638888894, 27.987931305555556 ], [ -82.52137477777778, 27.98784913888889 ], [ -82.52149030555556, 27.987749833333336 ], [ -82.521596222222215, 27.987633305555555 ], [ -82.521688111111104, 27.987500416666666 ], [ -82.521761722222223, 27.987353111111112 ], [ -82.521813222222221, 27.9871945 ], [ -82.52183975, 27.987028611111111 ], [ -82.521839722222225, 27.98686025 ], [ -82.521813222222221, 27.986694388888889 ], [ -82.521761722222223, 27.986535777777778 ], [ -82.521688111111104, 27.986388472222224 ], [ -82.521596194444442, 27.986255555555555 ], [ -82.52149030555556, 27.986139027777778 ], [ -82.52137475, 27.98603975 ], [ -82.521253611111106, 27.985957555555558 ], [ -82.521129583333334, 27.985891305555558 ], [ -82.52099375, 27.985835666666667 ], [ -82.520843583333331, 27.985791861111114 ], [ -82.520680666666664, 27.985763027777779 ], [ -82.520507638888887, 27.985752194444444 ], [ -82.52032825, 27.985761972222225 ], [ -82.520147166666661, 27.985794055555555 ], [ -82.519969666666668, 27.985849055555555 ], [ -82.519801222222227, 27.98592625 ], [ -82.519646944444446, 27.986023527777778 ], [ -82.519511083333327, 27.986137694444444 ], [ -82.519396611111105, 27.98626463888889 ], [ -82.519305138888882, 27.986399944444447 ], [ -82.519236861111111, 27.986539222222223 ], [ -82.51919075, 27.986678472222223 ], [ -82.519164916666668, 27.986814388888888 ], [ -82.519156888888887, 27.986944444444447 ] ] } },
{ "type": "Feature", "properties": { "style": "solid", "thickness": 1 }, "geometry": { "type": "LineString", "coordinates": [ [ -82.25524675, 27.230384388888886 ], [ -82.255648638888886, 27.232190944444444 ], [ -82.256800555555557, 27.233718194444446 ], [ -82.258523472222222, 27.234728583333336 ], [ -82.260549416666663, 27.235065055555555 ], [ -82.262563361111106, 27.23467525 ], [ -82.264252111111105, 27.233619777777779 ], [ -82.265353055555551, 27.232062805555554 ], [ -82.265695055555554, 27.230246416666667 ], [ -82.265224972222228, 27.228453055555555 ], [ -82.264015888888892, 27.226961583333331 ], [ -82.262255833333327, 27.22600386111111 ], [ -82.2602185, 27.225728833333331 ], [ -82.25822058333334, 27.226179222222221 ], [ -82.25657275, 27.227285027777775 ], [ -82.255531222222217, 27.22887433333333 ], [ -82.25524675, 27.230384388888886 ] ] } },
{ "type": "Feature", "properties": { "style": "solid", "thickness": 1 }, "geometry": { "type": "LineString", "coordinates": [ [ -82.24838069444445, 27.230935111111108 ], [ -82.251518777777775, 27.230309694444443 ], [ -82.254379, 27.228997166666666 ], [ -82.256776583333334, 27.227082361111108 ], [ -82.258556555555558, 27.224689 ], [ -82.259603972222223, 27.221971777777775 ], [ -82.259866861111107, 27.21958572222222 ] ] } },
{ "type": "Feature", "properties": { "style": "solid", "thickness": 1 }, "geometry": { "type": "LineString", "coordinates": [ [ -82.259866861111107, 27.21958572222222 ], [ -82.260566694444449, 27.222390833333332 ], [ -82.26203508333333, 27.224947583333332 ], [ -82.264177222222216, 27.227090722222222 ], [ -82.266854638888887, 27.228681777777776 ], [ -82.269894416666659, 27.229617916666665 ], [ -82.272563638888883, 27.22985275 ] ] } },
{ "type": "Feature", "properties": { "style": "solid", "thickness": 1 }, "geometry": { "type": "LineString", "coordinates": [ [ -82.261077694444438, 27.241203166666669 ], [ -82.261460638888892, 27.238349583333335 ], [ -82.262636111111107, 27.2356745 ], [ -82.264528055555559, 27.233350694444447 ], [ -82.26701425, 27.231528333333333 ], [ -82.269934083333339, 27.23032511111111 ], [ -82.272563638888883, 27.22985275 ] ] } },
{ "type": "Feature", "properties": { "style": "solid", "thickness": 1 }, "geometry": { "type": "LineString", "coordinates": [ [ -82.261077694444438, 27.241203166666669 ], [ -82.260377722222216, 27.238398055555557 ], [ -82.258909194444442, 27.235841305555557 ], [ -82.256767, 27.233698055555557 ], [ -82.254089583333339, 27.232106805555553 ], [ -82.251049916666673, 27.231170305555555 ], [ -82.24838069444445, 27.230935111111108 ] ] } },
{ "type": "Feature", "properties": { "style": "solid", "thickness": 1 }, "geometry": { "type": "LineString", "coordinates": [ [ -82.232276138888892, 27.210954444444443 ], [ -82.232296277777778, 27.211315777777777 ], [ -82.232185055555561, 27.211743333333331 ], [ -82.231945833333342, 27.212297333333332 ], [ -82.231696555555558, 27.212670666666664 ], [ -82.231305833333337, 27.212929583333331 ], [ -82.230773666666664, 27.213074027777775 ], [ -82.229763277777778, 27.213119027777775 ], [ -82.229015611111109, 27.213031583333333 ], [ -82.22866875, 27.212865916666665 ], [ -82.22817375, 27.212465361111111 ], [ -82.228022277777782, 27.21217025 ], [ -82.227860722222218, 27.21169447222222 ], [ -82.227807027777786, 27.210730916666666 ], [ -82.227921611111114, 27.210363583333333 ], [ -82.228457388888884, 27.209071916666666 ], [ -82.229218694444441, 27.208192805555555 ], [ -82.230434666666667, 27.206991555555554 ], [ -82.231899916666663, 27.205416972222221 ], [ -82.227656611111115, 27.205606 ] ] } },
{ "type": "Feature", "properties": { "style": "solid", "thickness": 1 }, "geometry": { "type": "LineString", "coordinates": [ [ -82.223281916666664, 27.205861111111112 ], [ -82.222389222222219, 27.206806416666666 ], [ -82.221627861111116, 27.2076855 ], [ -82.220997888888888, 27.208498361111111 ], [ -82.220620555555556, 27.208998111111111 ], [ -82.220317277777781, 27.209615305555555 ], [ -82.220216055555554, 27.210223527777778 ], [ -82.220178861111108, 27.210768527777777 ], [ -82.220239166666673, 27.211852527777776 ], [ -82.220464694444445, 27.212265111111112 ], [ -82.22075425, 27.212614472222221 ], [ -82.221047138888892, 27.213024027777777 ], [ -82.2224885, 27.213442888888888 ], [ -82.223296805555563, 27.213406916666667 ], [ -82.224149, 27.212946388888888 ], [ -82.224277027777774, 27.212819972222221 ], [ -82.224789055555561, 27.212314194444442 ], [ -82.224849722222231, 27.21219075 ], [ -82.225072194444451, 27.211335638888887 ], [ -82.225038666666663, 27.210733416666667 ], [ -82.224880472222225, 27.210317861111111 ], [ -82.224725638888884, 27.209962527777776 ], [ -82.22443275, 27.209552944444443 ], [ -82.223870416666671, 27.209155361111112 ], [ -82.223318166666672, 27.208938472222222 ], [ -82.222978027777785, 27.208893222222223 ], [ -82.222506527777782, 27.208914194444443 ], [ -82.222173111111118, 27.208989416666665 ], [ -82.221054833333341, 27.209522138888889 ], [ -82.220212722222229, 27.210163305555554 ] ] } },
{ "type": "Feature", "properties": { "style": "solid", "thickness": 1 }, "geometry": { "type": "LineString", "coordinates": [ [ -82.245883416666672, 27.224669333333331 ], [ -82.241302555555563, 27.224873805555553 ], [ -82.241272277777782, 27.224331805555554 ], [ -82.245930972222226, 27.217060277777776 ], [ -82.245927611111114, 27.217000055555555 ], [ -82.240606083333333, 27.217237611111109 ] ] } },
{ "type": "Feature", "properties": { "style": "solid", "thickness": 1 }, "geometry": { "type": "LineString", "coordinates": [ [ -82.238113722222224, 27.217348805555552 ], [ -82.234835388888897, 27.22516225 ], [ -82.230906027777777, 27.217670083333331 ] ] } },
{ "type": "Feature", "properties": { "style": "solid", "thickness": 1 }, "geometry": { "type": "LineString", "coordinates": [ [ -82.237038972222223, 27.219872 ], [ -82.232188833333339, 27.220088194444443 ] ] } },
{ "type": "Feature", "properties": { "style": "solid", "thickness": 1 }, "geometry": { "type": "LineString", "coordinates": [ [ -82.228502944444443, 27.225444361111109 ], [ -82.22365255555556, 27.22566025 ] ] } },
{ "type": "Feature", "properties": { "style": "solid", "thickness": 1 }, "geometry": { "type": "LineString", "coordinates": [ [ -82.226145111111109, 27.225549333333333 ], [ -82.225719138888891, 27.217901055555554 ] ] } },
{ "type": "Feature", "properties": { "style": "solid", "thickness": 1 }, "geometry": { "type": "LineString", "coordinates": [ [ -82.220823138888889, 27.225786138888886 ], [ -82.220484666666664, 27.219703638888888 ], [ -82.220400555555557, 27.219405527777777 ], [ -82.2198955, 27.21882425 ], [ -82.219538583333332, 27.218477888888888 ], [ -82.218986277777773, 27.218260972222222 ], [ -82.218241944444443, 27.218233694444443 ], [ -82.21716413888889, 27.218281611111109 ], [ -82.216561222222225, 27.218368777777776 ], [ -82.215769611111114, 27.218705805555555 ], [ -82.2153215, 27.219148333333333 ], [ -82.215072138888885, 27.219521638888889 ], [ -82.21496755555556, 27.220069638888887 ], [ -82.215299027777775, 27.226031694444444 ] ] } },
{ "type": "Feature", "properties": { "style": "solid", "thickness": 1 }, "geometry": { "type": "LineString", "coordinates": [ [ -82.212044583333338, 27.218509083333331 ], [ -82.212469611111118, 27.226157388888886 ], [ -82.209640166666674, 27.226283027777775 ], [ -82.209033861111109, 27.226309944444441 ], [ -82.208542222222221, 27.225969527777774 ], [ -82.208181972222221, 27.225562916666664 ], [ -82.20816861111112, 27.225322027777775 ], [ -82.208101694444451, 27.224117555555555 ], [ -82.208159027777782, 27.223933916666667 ], [ -82.208334388888886, 27.223443166666666 ], [ -82.20897458333333, 27.222811027777777 ], [ -82.20828086111112, 27.222479583333332 ], [ -82.207934, 27.222313861111111 ], [ -82.207580472222219, 27.222027694444442 ], [ -82.207348277777783, 27.221494666666665 ], [ -82.207261333333335, 27.219928861111111 ], [ -82.20744, 27.21949833333333 ], [ -82.207891472222229, 27.219116083333333 ], [ -82.208214916666662, 27.218860222222222 ], [ -82.208541694444449, 27.218664611111109 ], [ -82.212044583333338, 27.218509083333331 ] ] } },
{ "type": "Feature", "properties": { "style": "solid", "thickness": 1 }, "geometry": { "type": "LineString", "coordinates": [ [ -82.2122755, 27.22266447222222 ], [ -82.20897458333333, 27.222811027777777 ] ] } },
{ "type": "Feature", "properties": { "style": "solid", "thickness": 1 }, "geometry": { "type": "LineString", "coordinates": [ [ -82.361481805555556, 27.136294 ], [ -82.361885083333334, 27.13810025 ], [ -82.36303755555555, 27.139626583333332 ], [ -82.364759972222217, 27.140635638888888 ], [ -82.366784527777767, 27.1409705 ], [ -82.368796361111109, 27.140579083333332 ], [ -82.3704826111111, 27.139522277777779 ], [ -82.371581083333325, 27.137964416666666 ], [ -82.371920972222213, 27.136147777777776 ], [ -82.371449444444437, 27.134354777777776 ], [ -82.370239888888875, 27.132864277777777 ], [ -82.368480388888884, 27.131908 ], [ -82.366444472222213, 27.13163463888889 ], [ -82.36444875, 27.132086694444446 ], [ -82.362803472222211, 27.13319386111111 ], [ -82.361764444444432, 27.134784 ], [ -82.361481805555556, 27.136294 ] ] } },
{ "type": "Feature", "properties": { "style": "solid", "thickness": 1 }, "geometry": { "type": "LineString", "coordinates": [ [ -82.354622194444445, 27.136850055555556 ], [ -82.357757, 27.136222194444443 ], [ -82.3606135, 27.134907444444444 ], [ -82.363007166666662, 27.13299075 ], [ -82.364783277777775, 27.130596 ], [ -82.365827111111102, 27.127877944444446 ], [ -82.366087444444432, 27.125491861111112 ] ] } },
{ "type": "Feature", "properties": { "style": "solid", "thickness": 1 }, "geometry": { "type": "LineString", "coordinates": [ [ -82.366087444444432, 27.125491861111112 ], [ -82.366789388888876, 27.128296416666668 ], [ -82.368259027777768, 27.130852 ], [ -82.370401416666667, 27.132993472222221 ], [ -82.373078138888886, 27.134582444444444 ], [ -82.376116222222223, 27.135516194444445 ], [ -82.37878325, 27.135748888888887 ] ] } },
{ "type": "Feature", "properties": { "style": "solid", "thickness": 1 }, "geometry": { "type": "LineString", "coordinates": [ [ -82.36731822222221, 27.147108138888889 ], [ -82.367698083333323, 27.14425425 ], [ -82.368869944444441, 27.14157825 ], [ -82.370758055555555, 27.139253 ], [ -82.373240388888888, 27.137428722222221 ], [ -82.376156555555553, 27.136223277777777 ], [ -82.37878325, 27.135748888888887 ] ] } },
{ "type": "Feature", "properties": { "style": "solid", "thickness": 1 }, "geometry": { "type": "LineString", "coordinates": [ [ -82.36731822222221, 27.147108138888889 ], [ -82.366616138888887, 27.144303583333333 ], [ -82.365146361111101, 27.141747972222223 ], [ -82.363003888888883, 27.139606416666666 ], [ -82.360327194444437, 27.138017277777777 ], [ -82.357289194444434, 27.137083166666667 ], [ -82.354622194444445, 27.136850055555556 ] ] } },
{ "type": "Feature", "properties": { "style": "solid", "thickness": 1 }, "geometry": { "type": "LineString", "coordinates": [ [ -82.336399888888877, 27.133959916666665 ], [ -82.336817388888889, 27.134182472222221 ], [ -82.337295361111103, 27.134281527777777 ], [ -82.33891075, 27.13420825 ], [ -82.339509694444445, 27.134060305555554 ], [ -82.339708194444441, 27.133990944444445 ], [ -82.340687055555549, 27.133403138888887 ], [ -82.341258666666661, 27.132773444444446 ], [ -82.341426444444437, 27.132162083333334 ], [ -82.341836111111107, 27.13105675 ], [ -82.341757583333333, 27.129671722222223 ], [ -82.341585388888888, 27.129015416666668 ], [ -82.34135275, 27.12848261111111 ], [ -82.341049388888891, 27.127892638888888 ], [ -82.340338805555547, 27.127260777777778 ], [ -82.339025916666657, 27.12671661111111 ], [ -82.338140722222221, 27.126575666666668 ], [ -82.337400416666668, 27.12660925 ], [ -82.336468416666662, 27.126832666666669 ], [ -82.336142111111101, 27.127028583333335 ], [ -82.335879749999989, 27.127161222222224 ] ] } },
{ "type": "Feature", "properties": { "style": "solid", "thickness": 1 }, "geometry": { "type": "LineString", "coordinates": [ [ -82.333526166666658, 27.134452472222222 ], [ -82.333181694444434, 27.128370305555556 ], [ -82.333097333333328, 27.128072277777779 ], [ -82.332592111111111, 27.127491416666668 ], [ -82.33223513888889, 27.127145361111111 ], [ -82.331683083333331, 27.126928888888891 ], [ -82.330939333333333, 27.126902222222224 ], [ -82.329862472222217, 27.126951027777778 ], [ -82.329260166666657, 27.127038694444444 ], [ -82.328469555555557, 27.127376388888891 ], [ -82.328022277777777, 27.127819277777778 ], [ -82.327773527777779, 27.128192777777777 ], [ -82.327669583333332, 27.128740861111112 ], [ -82.328006916666666, 27.134702583333333 ] ] } },
{ "type": "Feature", "properties": { "style": "solid", "thickness": 1 }, "geometry": { "type": "LineString", "coordinates": [ [ -82.32518, 27.134830611111109 ], [ -82.324747444444441, 27.127182722222223 ] ] } },
{ "type": "Feature", "properties": { "style": "solid", "thickness": 1 }, "geometry": { "type": "LineString", "coordinates": [ [ -82.320532333333333, 27.134980583333334 ], [ -82.324962, 27.130976555555556 ], [ -82.320036194444441, 27.127395944444444 ] ] } },
{ "type": "Feature", "properties": { "style": "solid", "thickness": 1 }, "geometry": { "type": "LineString", "coordinates": [ [ -82.317209444444444, 27.127523805555555 ], [ -82.317641472222221, 27.135171722222221 ], [ -82.31481452777777, 27.135299527777779 ], [ -82.31420875, 27.135326916666667 ], [ -82.313717194444436, 27.134986888888889 ], [ -82.31335683333333, 27.134580555555555 ], [ -82.31334325, 27.134339666666666 ], [ -82.31327525, 27.133135277777779 ], [ -82.313332361111108, 27.132951583333334 ], [ -82.313507083333334, 27.132460694444443 ], [ -82.314146138888887, 27.131828083333335 ], [ -82.313452694444436, 27.131497166666666 ], [ -82.313105944444445, 27.131331722222221 ], [ -82.312752416666669, 27.131045833333335 ], [ -82.312519916666659, 27.130512972222224 ], [ -82.312431527777775, 27.12894725 ], [ -82.31260966666666, 27.128516611111113 ], [ -82.313060388888886, 27.128134 ], [ -82.313383305555547, 27.127877916666666 ], [ -82.313709638888881, 27.127682027777777 ], [ -82.317209444444444, 27.127523805555555 ] ] } },
{ "type": "Feature", "properties": { "style": "solid", "thickness": 1 }, "geometry": { "type": "LineString", "coordinates": [ [ -82.317444166666661, 27.131678972222222 ], [ -82.314146138888887, 27.131828083333335 ] ] } },
{ "type": "Feature", "properties": { "style": "solid", "thickness": 1 }, "geometry": { "type": "LineString", "coordinates": [ [ -82.309968305555557, 27.1355185 ], [ -82.309625111111103, 27.129436277777778 ], [ -82.30954083333333, 27.129138222222224 ], [ -82.30903572222222, 27.128557305555557 ], [ -82.308678805555559, 27.128211194444447 ], [ -82.308126777777773, 27.127994611111113 ], [ -82.307383055555547, 27.127967833333333 ], [ -82.306306166666658, 27.128016444444444 ], [ -82.305703833333325, 27.128104 ], [ -82.304913166666665, 27.128441555555558 ], [ -82.304465777777779, 27.128884361111112 ], [ -82.304216944444448, 27.129257833333334 ], [ -82.304112861111108, 27.129805888888889 ], [ -82.304448972222218, 27.135767666666666 ] ] } }
]
}
