{
"type": "FeatureCollection",
"name": "tpa148sgp",
"features": [
{ "type": "Feature", "properties": { "style": "solid", "thickness": 1 }, "geometry": { "type": "LineString", "coordinates": [ [ -82.590642666666668, 28.685799111111113 ], [ -82.691021388888899, 29.402228888888889 ] ] } },
{ "type": "Feature", "properties": { "style": "solid", "thickness": 1 }, "geometry": { "type": "LineString", "coordinates": [ [ -82.581146833333335, 28.3786165 ], [ -82.588073222222221, 28.65444311111111 ] ] } },
{ "type": "Feature", "properties": { "style": "solid", "thickness": 1 }, "geometry": { "type": "LineString", "coordinates": [ [ -82.576400638888884, 28.213904611111111 ], [ -82.580292527777772, 28.347145944444442 ] ] } },
{ "type": "Feature", "properties": { "style": "solid", "thickness": 1 }, "geometry": { "type": "LineString", "coordinates": [ [ -82.693126861111111, 29.433578416666666 ], [ -82.691751555555555, 29.653689 ] ] } },
{ "type": "Feature", "properties": { "style": "solid", "thickness": 1 }, "geometry": { "type": "LineString", "coordinates": [ [ -82.670878972222226, 28.0174065 ], [ -82.674555555555557, 28.051704833333336 ] ] } },
{ "type": "Feature", "properties": { "style": "solid", "thickness": 1 }, "geometry": { "type": "LineString", "coordinates": [ [ -82.687682805555554, 28.118998972222222 ], [ -82.675947055555554, 28.12016088888889 ] ] } },
{ "type": "Feature", "properties": { "style": "solid", "thickness": 1 }, "geometry": { "type": "LineString", "coordinates": [ [ -82.684140583333331, 28.126532888888889 ], [ -82.681279305555563, 28.127141138888888 ] ] } },
{ "type": "Feature", "properties": { "style": "solid", "thickness": 1 }, "geometry": { "type": "LineString", "coordinates": [ [ -82.683502583333336, 28.12785225 ], [ -82.68225725, 28.127825194444444 ] ] } },
{ "type": "Feature", "properties": { "style": "solid", "thickness": 1 }, "geometry": { "type": "LineString", "coordinates": [ [ -82.686060611111117, 28.122666305555555 ], [ -82.678224388888893, 28.12325786111111 ] ] } },
{ "type": "Feature", "properties": { "style": "solid", "thickness": 1 }, "geometry": { "type": "LineString", "coordinates": [ [ -82.685617027777781, 28.123791833333335 ], [ -82.678910666666667, 28.124232722222224 ] ] } },
{ "type": "Feature", "properties": { "style": "solid", "thickness": 1 }, "geometry": { "type": "LineString", "coordinates": [ [ -82.68483333333333, 28.124475722222222 ], [ -82.679694138888891, 28.125110638888888 ] ] } },
{ "type": "Feature", "properties": { "style": "solid", "thickness": 1 }, "geometry": { "type": "LineString", "coordinates": [ [ -82.687956194444453, 28.1184335 ], [ -82.675285083333335, 28.11955225 ] ] } },
{ "type": "Feature", "properties": { "style": "solid", "thickness": 1 }, "geometry": { "type": "LineString", "coordinates": [ [ -82.687233222222233, 28.120032944444446 ], [ -82.676633277777782, 28.121135777777777 ] ] } },
{ "type": "Feature", "properties": { "style": "solid", "thickness": 1 }, "geometry": { "type": "LineString", "coordinates": [ [ -82.6867715, 28.120883805555557 ], [ -82.677076638888892, 28.121572055555557 ] ] } },
{ "type": "Feature", "properties": { "style": "solid", "thickness": 1 }, "geometry": { "type": "LineString", "coordinates": [ [ -82.684596305555559, 28.125590472222221 ], [ -82.680799555555566, 28.126155555555556 ] ] } },
{ "type": "Feature", "properties": { "style": "solid", "thickness": 1 }, "geometry": { "type": "LineString", "coordinates": [ [ -82.686601361111116, 28.121443861111111 ], [ -82.677768916666665, 28.122638472222224 ] ] } },
{ "type": "Feature", "properties": { "style": "solid", "thickness": 1 }, "geometry": { "type": "LineString", "coordinates": [ [ -82.688624444444443, 28.117571888888889 ], [ -82.674926833333345, 28.118835916666669 ] ] } },
{ "type": "Feature", "properties": { "style": "solid", "thickness": 1 }, "geometry": { "type": "LineString", "coordinates": [ [ -82.688806694444452, 28.117194916666666 ], [ -82.6828585, 28.129080055555555 ], [ -82.674477444444449, 28.118308083333332 ], [ -82.688806694444452, 28.117194916666666 ] ] } },
{ "type": "Feature", "properties": { "style": "solid", "thickness": 1 }, "geometry": { "type": "LineString", "coordinates": [ [ -82.677917138888887, 28.083045083333332 ], [ -82.681642111111117, 28.117751694444443 ] ] } },
{ "type": "Feature", "properties": { "style": "solid", "thickness": 1 }, "geometry": { "type": "LineString", "coordinates": [ [ -82.55875391666666, 28.366645805555557 ], [ -82.559205277777778, 28.374246666666668 ], [ -82.556363222222217, 28.374378666666669 ], [ -82.555754194444447, 28.374406944444445 ], [ -82.555259222222219, 28.37406986111111 ], [ -82.554896, 28.373666611111112 ], [ -82.554881805555553, 28.373427222222222 ], [ -82.55481075, 28.372230222222221 ], [ -82.554867777777773, 28.372047527777777 ], [ -82.555042361111106, 28.371559305555557 ], [ -82.5556835, 28.370929388888889 ], [ -82.554985527777774, 28.370601722222222 ], [ -82.554636555555547, 28.37043788888889 ], [ -82.554280444444444, 28.370154333333335 ], [ -82.5540455, 28.369625111111112 ], [ -82.553953166666659, 28.368069027777779 ], [ -82.554131305555558, 28.367640666666667 ], [ -82.554583638888886, 28.367259555555556 ], [ -82.55490775, 28.367004472222224 ], [ -82.555235416666662, 28.366809194444446 ], [ -82.55875391666666, 28.366645805555557 ] ] } },
{ "type": "Feature", "properties": { "style": "solid", "thickness": 1 }, "geometry": { "type": "LineString", "coordinates": [ [ -82.558999138888879, 28.370775416666667 ], [ -82.5556835, 28.370929388888889 ] ] } },
{ "type": "Feature", "properties": { "style": "solid", "thickness": 1 }, "geometry": { "type": "LineString", "coordinates": [ [ -82.551107916666666, 28.367000777777779 ], [ -82.547836972222214, 28.374774333333335 ], [ -82.54386786111111, 28.367336527777777 ] ] } },
{ "type": "Feature", "properties": { "style": "solid", "thickness": 1 }, "geometry": { "type": "LineString", "coordinates": [ [ -82.55003547222222, 28.369511138888889 ], [ -82.545163555555547, 28.369737055555557 ] ] } },
{ "type": "Feature", "properties": { "style": "solid", "thickness": 1 }, "geometry": { "type": "LineString", "coordinates": [ [ -82.541476083333336, 28.375069166666666 ], [ -82.538286416666665, 28.370475777777777 ], [ -82.535724166666668, 28.3753355 ] ] } },
{ "type": "Feature", "properties": { "style": "solid", "thickness": 1 }, "geometry": { "type": "LineString", "coordinates": [ [ -82.538286416666665, 28.370475777777777 ], [ -82.538119916666659, 28.367662833333334 ] ] } },
{ "type": "Feature", "properties": { "style": "solid", "thickness": 1 }, "geometry": { "type": "LineString", "coordinates": [ [ -82.532500194444438, 28.367862916666667 ], [ -82.532949722222227, 28.375463888888888 ], [ -82.529566222222215, 28.37562038888889 ], [ -82.52928847222222, 28.375513194444444 ], [ -82.528665277777776, 28.375301944444445 ], [ -82.528020888888889, 28.374731611111113 ], [ -82.527714833333334, 28.374145611111111 ], [ -82.527672388888888, 28.373427416666669 ], [ -82.527907694444437, 28.372816416666666 ], [ -82.528481333333332, 28.37218975 ], [ -82.529076194444443, 28.371922194444444 ], [ -82.529339805555551, 28.371789972222224 ], [ -82.532723166666671, 28.371633472222221 ] ] } },
{ "type": "Feature", "properties": { "style": "solid", "thickness": 1 }, "geometry": { "type": "LineString", "coordinates": [ [ -82.52016005555555, 28.376055 ], [ -82.521378111111105, 28.37599875 ], [ -82.521983611111111, 28.375910777777779 ], [ -82.523169888888887, 28.375315861111112 ], [ -82.524260166666664, 28.37424525 ], [ -82.524620222222225, 28.373448444444445 ], [ -82.524766666666665, 28.372481472222223 ], [ -82.524720722222227, 28.371703416666666 ], [ -82.524542972222221, 28.370991472222222 ], [ -82.524158666666665, 28.370229027777778 ], [ -82.523357805555548, 28.369305833333335 ], [ -82.523069472222218, 28.369019083333335 ], [ -82.522506916666671, 28.368684972222223 ], [ -82.521335416666659, 28.368379 ], [ -82.519914416666666, 28.368444611111112 ], [ -82.519244833333332, 28.368595555555554 ], [ -82.518582305555555, 28.368866194444443 ], [ -82.518186888888891, 28.3690645 ], [ -82.5175385, 28.369574527777779 ], [ -82.516971861111116, 28.370320861111111 ], [ -82.516797111111117, 28.370809027777778 ], [ -82.516647055555552, 28.371716138888889 ], [ -82.516731805555551, 28.373152555555556 ], [ -82.517425555555548, 28.37456086111111 ], [ -82.517859833333333, 28.375020916666667 ], [ -82.518358222222219, 28.37541802777778 ], [ -82.518849583333335, 28.375695416666666 ], [ -82.518988472222219, 28.375749 ], [ -82.52016005555555, 28.376055 ] ] } },
{ "type": "Feature", "properties": { "style": "solid", "thickness": 1 }, "geometry": { "type": "LineString", "coordinates": [ [ -82.623304944444442, 28.20142425 ], [ -82.619454111111111, 28.201605166666667 ] ] } },
{ "type": "Feature", "properties": { "style": "solid", "thickness": 1 }, "geometry": { "type": "LineString", "coordinates": [ [ -82.619480694444434, 28.205445111111111 ], [ -82.623534333333325, 28.205254638888889 ], [ -82.623079138888883, 28.197653694444444 ] ] } },
{ "type": "Feature", "properties": { "style": "solid", "thickness": 1 }, "geometry": { "type": "LineString", "coordinates": [ [ -82.616458666666659, 28.197964666666667 ], [ -82.616913361111102, 28.205565666666665 ] ] } },
{ "type": "Feature", "properties": { "style": "solid", "thickness": 1 }, "geometry": { "type": "LineString", "coordinates": [ [ -82.612945722222221, 28.198129555555557 ], [ -82.613400194444438, 28.205730555555554 ], [ -82.605311833333332, 28.198487583333332 ], [ -82.605765749999989, 28.20608861111111 ] ] } },
{ "type": "Feature", "properties": { "style": "solid", "thickness": 1 }, "geometry": { "type": "LineString", "coordinates": [ [ -82.602995722222218, 28.206218388888889 ], [ -82.602542, 28.198617361111111 ] ] } },
{ "type": "Feature", "properties": { "style": "solid", "thickness": 1 }, "geometry": { "type": "LineString", "coordinates": [ [ -82.598330388888883, 28.20637686111111 ], [ -82.602767055555546, 28.202387972222223 ], [ -82.597813, 28.198838833333333 ] ] } },
{ "type": "Feature", "properties": { "style": "solid", "thickness": 1 }, "geometry": { "type": "LineString", "coordinates": [ [ -82.594975583333323, 28.198971638888889 ], [ -82.595428777777769, 28.206572694444443 ] ] } },
{ "type": "Feature", "properties": { "style": "solid", "thickness": 1 }, "geometry": { "type": "LineString", "coordinates": [ [ -82.564119916666669, 28.688155111111111 ], [ -82.568259694444436, 28.687963166666666 ], [ -82.567806416666656, 28.680363055555556 ], [ -82.563599055555557, 28.680558111111111 ] ] } },
{ "type": "Feature", "properties": { "style": "solid", "thickness": 1 }, "geometry": { "type": "LineString", "coordinates": [ [ -82.56803125, 28.684133194444446 ], [ -82.564027333333328, 28.684318833333332 ] ] } },
{ "type": "Feature", "properties": { "style": "solid", "thickness": 1 }, "geometry": { "type": "LineString", "coordinates": [ [ -82.555818888888879, 28.688179555555557 ], [ -82.556240333333335, 28.688400083333335 ], [ -82.556722527777779, 28.688497777777776 ], [ -82.558351305555547, 28.688422361111112 ], [ -82.558954972222224, 28.688274388888889 ], [ -82.559155, 28.68820511111111 ], [ -82.560140916666668, 28.687619361111111 ], [ -82.560716055555559, 28.686992638888889 ], [ -82.560884, 28.686384777777779 ], [ -82.561294861111108, 28.685285583333332 ], [ -82.561212861111102, 28.683909166666666 ], [ -82.561037916666663, 28.683257194444444 ], [ -82.56080225, 28.682728027777777 ], [ -82.560495138888882, 28.682142166666669 ], [ -82.559777305555556, 28.681515305555557 ], [ -82.558452305555548, 28.680976583333333 ], [ -82.557559416666663, 28.680837916666668 ], [ -82.556812944444445, 28.680872472222223 ], [ -82.555873583333337, 28.681096 ], [ -82.555544944444435, 28.681291222222224 ], [ -82.555280638888888, 28.681423472222225 ] ] } },
{ "type": "Feature", "properties": { "style": "solid", "thickness": 1 }, "geometry": { "type": "LineString", "coordinates": [ [ -82.552537694444439, 28.681070361111111 ], [ -82.54925725, 28.688843166666668 ], [ -82.545276472222227, 28.681406111111112 ] ] } },
{ "type": "Feature", "properties": { "style": "solid", "thickness": 1 }, "geometry": { "type": "LineString", "coordinates": [ [ -82.55146213888888, 28.683580472222221 ], [ -82.546575972222215, 28.683806416666666 ] ] } },
{ "type": "Feature", "properties": { "style": "solid", "thickness": 1 }, "geometry": { "type": "LineString", "coordinates": [ [ -82.542877777777775, 28.689138027777776 ], [ -82.542426277777778, 28.681537805555557 ] ] } },
{ "type": "Feature", "properties": { "style": "solid", "thickness": 1 }, "geometry": { "type": "LineString", "coordinates": [ [ -82.53819138888889, 28.689294416666666 ], [ -82.54265025, 28.685308 ], [ -82.537675944444445, 28.681757166666667 ] ] } },
{ "type": "Feature", "properties": { "style": "solid", "thickness": 1 }, "geometry": { "type": "LineString", "coordinates": [ [ -82.53113675, 28.68967988888889 ], [ -82.535276666666661, 28.689488944444445 ], [ -82.534825722222223, 28.681888694444446 ], [ -82.530618222222216, 28.68208275 ] ] } },
{ "type": "Feature", "properties": { "style": "solid", "thickness": 1 }, "geometry": { "type": "LineString", "coordinates": [ [ -82.535049416666666, 28.685658888888888 ], [ -82.531045361111111, 28.685843583333334 ] ] } },
{ "type": "Feature", "properties": { "style": "solid", "thickness": 1 }, "geometry": { "type": "LineString", "coordinates": [ [ -82.583174083333333, 28.670180277777778 ], [ -82.583259666666663, 28.671014138888889 ], [ -82.583512694444437, 28.671821111111111 ], [ -82.583925055555554, 28.672575305555558 ], [ -82.584483472222217, 28.673252416666667 ], [ -82.585170027777778, 28.673830694444444 ], [ -82.585962638888887, 28.674291583333336 ], [ -82.586835805555552, 28.674620222222224 ], [ -82.587761527777772, 28.674806111111113 ], [ -82.588709972222219, 28.674843194444446 ], [ -82.589650694444444, 28.674730333333333 ], [ -82.590553444444438, 28.674471166666667 ], [ -82.591389222222219, 28.674073972222224 ], [ -82.592131111111101, 28.673551555555555 ], [ -82.592755333333329, 28.672920722222223 ], [ -82.593241777777777, 28.672201694444446 ], [ -82.593574833333335, 28.67141763888889 ], [ -82.593743777777775, 28.670593722222222 ], [ -82.593743222222216, 28.669756444444445 ], [ -82.593573138888885, 28.668932722222223 ], [ -82.593239055555557, 28.668149 ], [ -82.592751638888885, 28.6674305 ], [ -82.592126638888885, 28.666800305555558 ], [ -82.591384083333324, 28.666278666666667 ], [ -82.590547861111105, 28.665882333333332 ], [ -82.589644861111111, 28.665624055555554 ], [ -82.588704055555553, 28.665512111111109 ], [ -82.58775575, 28.665550138888886 ], [ -82.586830361111112, 28.665736888888887 ], [ -82.585957638888885, 28.666066388888886 ], [ -82.585165638888881, 28.666528 ], [ -82.584479833333333, 28.667106944444445 ], [ -82.583922222222213, 28.667784555555556 ], [ -82.583510777777775, 28.668539111111112 ], [ -82.583258694444439, 28.669346333333333 ], [ -82.583174083333333, 28.670180277777778 ] ] } },
{ "type": "Feature", "properties": { "style": "solid", "thickness": 1 }, "geometry": { "type": "LineString", "coordinates": [ [ -82.576217861111104, 28.670747361111111 ], [ -82.578554972222221, 28.670356222222225 ], [ -82.580769861111108, 28.669590916666667 ], [ -82.582786222222225, 28.668477777777778 ], [ -82.584534583333323, 28.667055166666668 ], [ -82.585954722222212, 28.665372083333331 ], [ -82.58699775, 28.663486555555554 ], [ -82.58762775, 28.66146347222222 ], [ -82.587823055555546, 28.659372555555553 ] ] } },
{ "type": "Feature", "properties": { "style": "solid", "thickness": 1 }, "geometry": { "type": "LineString", "coordinates": [ [ -82.587823055555546, 28.659372555555553 ], [ -82.588266722222215, 28.66143375 ], [ -82.589134583333333, 28.66338711111111 ], [ -82.590396777777769, 28.665165388888887 ], [ -82.592009861111109, 28.666707277777778 ], [ -82.59391825, 28.667959722222225 ], [ -82.596056222222217, 28.668879527777779 ], [ -82.598350111111102, 28.669435055555557 ], [ -82.600720888888887, 28.669607083333336 ] ] } },
{ "type": "Feature", "properties": { "style": "solid", "thickness": 1 }, "geometry": { "type": "LineString", "coordinates": [ [ -82.589115972222217, 28.680982972222225 ], [ -82.58931125, 28.678892055555558 ], [ -82.589941305555556, 28.676868972222223 ], [ -82.590984388888884, 28.674983416666667 ], [ -82.592404527777774, 28.673300277777781 ], [ -82.594152833333325, 28.671877555555557 ], [ -82.596169111111109, 28.670764222222225 ], [ -82.59838388888889, 28.669998611111112 ], [ -82.600720888888887, 28.669607083333336 ] ] } },
{ "type": "Feature", "properties": { "style": "solid", "thickness": 1 }, "geometry": { "type": "LineString", "coordinates": [ [ -82.589115972222217, 28.680982972222225 ], [ -82.588672194444442, 28.678921805555557 ], [ -82.587804222222218, 28.676968444444444 ], [ -82.586541916666661, 28.67519013888889 ], [ -82.584928805555549, 28.673648166666666 ], [ -82.583020416666656, 28.672395611111114 ], [ -82.5808825, 28.671475583333333 ], [ -82.578588638888888, 28.670919805555556 ], [ -82.576217861111104, 28.670747361111111 ] ] } },
{ "type": "Feature", "properties": { "style": "solid", "thickness": 1 }, "geometry": { "type": "LineString", "coordinates": [ [ -82.572734333333329, 28.359275305555556 ], [ -82.58828475, 28.358537666666667 ], [ -82.58123925, 28.370828222222222 ], [ -82.572734333333329, 28.359275305555556 ] ] } },
{ "type": "Feature", "properties": { "style": "solid", "thickness": 1 }, "geometry": { "type": "LineString", "coordinates": [ [ -82.570669416666661, 28.198171472222221 ], [ -82.57075452777778, 28.199005472222222 ], [ -82.571006361111102, 28.199812583333333 ], [ -82.57141683333333, 28.20056688888889 ], [ -82.57197275, 28.201244138888889 ], [ -82.57265625, 28.201822555555555 ], [ -82.573445333333325, 28.202283555555553 ], [ -82.574314666666666, 28.202612333333331 ], [ -82.575236305555549, 28.202798305555554 ], [ -82.576180611111113, 28.2028355 ], [ -82.57711725, 28.202722722222223 ], [ -82.578016083333324, 28.202463583333333 ], [ -82.57884825, 28.202066416666668 ], [ -82.579586972222216, 28.201544 ], [ -82.580208527777771, 28.20091311111111 ], [ -82.580692944444436, 28.200194055555556 ], [ -82.581024611111104, 28.199409916666667 ], [ -82.581192916666666, 28.198585916666666 ], [ -82.58119244444444, 28.19774852777778 ], [ -82.581023222222214, 28.196924666666668 ], [ -82.580690666666669, 28.196140833333335 ], [ -82.580205472222218, 28.195422194444443 ], [ -82.579583277777772, 28.19479186111111 ], [ -82.578844027777777, 28.194270055555556 ], [ -82.5780115, 28.193873611111112 ], [ -82.577112444444438, 28.193615222222224 ], [ -82.576175777777777, 28.193503194444446 ], [ -82.575231583333334, 28.193541138888889 ], [ -82.574310222222223, 28.193727833333334 ], [ -82.573441277777775, 28.194057305555557 ], [ -82.572652694444443, 28.194518916666667 ], [ -82.571969805555554, 28.195097861111112 ], [ -82.571414583333336, 28.195775527777776 ], [ -82.571004833333333, 28.196530138888889 ], [ -82.57075375, 28.197337444444443 ], [ -82.570669416666661, 28.198171472222221 ] ] } },
{ "type": "Feature", "properties": { "style": "solid", "thickness": 1 }, "geometry": { "type": "LineString", "coordinates": [ [ -82.5637435, 28.198738 ], [ -82.566070472222222, 28.198347027777778 ], [ -82.568275777777771, 28.197581805555554 ], [ -82.570283444444442, 28.196468694444444 ], [ -82.572024361111104, 28.195046055555554 ], [ -82.5734385, 28.193362888888888 ], [ -82.574477194444441, 28.191477194444445 ], [ -82.575104666666661, 28.189453916666668 ], [ -82.575299361111107, 28.18736275 ] ] } },
{ "type": "Feature", "properties": { "style": "solid", "thickness": 1 }, "geometry": { "type": "LineString", "coordinates": [ [ -82.575299361111107, 28.18736275 ], [ -82.575740833333327, 28.18942425 ], [ -82.576604694444441, 28.191377944444444 ], [ -82.577861166666665, 28.193156555555557 ], [ -82.579467027777767, 28.194698833333334 ], [ -82.58136694444444, 28.195951611111113 ], [ -82.583495472222211, 28.196871722222223 ], [ -82.585779277777775, 28.197427527777776 ], [ -82.588139694444436, 28.197599805555555 ] ] } },
{ "type": "Feature", "properties": { "style": "solid", "thickness": 1 }, "geometry": { "type": "LineString", "coordinates": [ [ -82.576584111111103, 28.208976111111109 ], [ -82.576778805555549, 28.206884944444443 ], [ -82.577406333333329, 28.204861666666666 ], [ -82.578445055555548, 28.202975944444443 ], [ -82.579859222222225, 28.20129272222222 ], [ -82.581600055555555, 28.199869972222224 ], [ -82.583607638888878, 28.198756666666668 ], [ -82.585812833333335, 28.197991166666668 ], [ -82.588139694444436, 28.197599805555555 ] ] } },
{ "type": "Feature", "properties": { "style": "solid", "thickness": 1 }, "geometry": { "type": "LineString", "coordinates": [ [ -82.576584111111103, 28.208976111111109 ], [ -82.576142527777776, 28.20691463888889 ], [ -82.575278555555556, 28.204960944444444 ], [ -82.574021972222212, 28.203182305555554 ], [ -82.572416083333323, 28.201639972222221 ], [ -82.570516166666664, 28.200387083333332 ], [ -82.568387694444439, 28.19946675 ], [ -82.566103916666663, 28.198910666666666 ], [ -82.5637435, 28.198738 ] ] } },
{ "type": "Feature", "properties": { "style": "solid", "thickness": 1 }, "geometry": { "type": "LineString", "coordinates": [ [ -82.672764055555561, 27.849558694444443 ], [ -82.672849694444452, 27.850392666666668 ], [ -82.673101472222228, 27.85119963888889 ], [ -82.673511333333337, 27.851953694444447 ], [ -82.674066111111117, 27.852630583333333 ], [ -82.674747944444448, 27.853208555555558 ], [ -82.675534944444451, 27.85366902777778 ], [ -82.676401805555557, 27.853997166666669 ], [ -82.677320666666674, 27.854182472222224 ], [ -82.678261972222231, 27.854218972222224 ], [ -82.6791955, 27.8541055 ], [ -82.680091222222231, 27.853845666666668 ], [ -82.68092036111112, 27.853447861111114 ], [ -82.68165625, 27.852924888888889 ], [ -82.682275222222231, 27.8522935 ], [ -82.682757388888888, 27.851574027777779 ], [ -82.68308730555556, 27.850789611111111 ], [ -82.683254305555565, 27.849965416666667 ], [ -82.683253055555554, 27.84912797222222 ], [ -82.683083583333342, 27.848304194444442 ], [ -82.682751361111116, 27.847520527777778 ], [ -82.682267055555556, 27.846802194444443 ], [ -82.68164625, 27.846172277777775 ], [ -82.680908888888894, 27.845651 ], [ -82.680078638888887, 27.845255138888888 ], [ -82.679182250000011, 27.844997388888888 ], [ -82.678248472222222, 27.844886027777775 ], [ -82.677307333333331, 27.844924694444444 ], [ -82.676389083333333, 27.845112083333333 ], [ -82.675523222222225, 27.845442194444445 ], [ -82.674737583333339, 27.845904416666666 ], [ -82.674057444444443, 27.846483888888887 ], [ -82.673504611111113, 27.847162027777777 ], [ -82.673096861111119, 27.847916972222222 ], [ -82.67284736111111, 27.848724527777776 ], [ -82.672764055555561, 27.849558694444443 ] ] } },
{ "type": "Feature", "properties": { "style": "solid", "thickness": 1 }, "geometry": { "type": "LineString", "coordinates": [ [ -82.66586083333334, 27.850130333333336 ], [ -82.66818, 27.849737611111109 ], [ -82.670377527777788, 27.848970722222219 ], [ -82.67237775000001, 27.847856055555553 ], [ -82.67411175, 27.846432055555553 ], [ -82.675519805555567, 27.84474775 ], [ -82.676553416666678, 27.842861166666665 ], [ -82.677177, 27.840837277777776 ], [ -82.677369111111119, 27.838745833333331 ] ] } },
{ "type": "Feature", "properties": { "style": "solid", "thickness": 1 }, "geometry": { "type": "LineString", "coordinates": [ [ -82.677369111111119, 27.838745833333331 ], [ -82.677811111111112, 27.840807138888888 ], [ -82.678674027777788, 27.842760333333331 ], [ -82.679928138888897, 27.844538138888886 ], [ -82.681530305555555, 27.846079333333332 ], [ -82.683425305555559, 27.847330805555554 ], [ -82.685547861111118, 27.848249444444445 ], [ -82.687824888888898, 27.848803583333332 ], [ -82.69017791666667, 27.848974166666665 ] ] } },
{ "type": "Feature", "properties": { "style": "solid", "thickness": 1 }, "geometry": { "type": "LineString", "coordinates": [ [ -82.678669888888891, 27.860359722222224 ], [ -82.678862027777782, 27.85826825 ], [ -82.679485666666665, 27.856244388888889 ], [ -82.680519305555563, 27.85435775 ], [ -82.681927361111121, 27.852673388888892 ], [ -82.68366130555556, 27.85124925 ], [ -82.685661444444449, 27.85013441666667 ], [ -82.68785886111111, 27.84936725 ], [ -82.69017791666667, 27.848974166666665 ] ] } },
{ "type": "Feature", "properties": { "style": "solid", "thickness": 1 }, "geometry": { "type": "LineString", "coordinates": [ [ -82.678669888888891, 27.860359722222224 ], [ -82.678227805555565, 27.858298416666667 ], [ -82.677364777777782, 27.856345222222224 ], [ -82.67611058333334, 27.854567388888892 ], [ -82.674508361111123, 27.85302613888889 ], [ -82.672613388888891, 27.851774555555558 ], [ -82.670490833333332, 27.850855722222224 ], [ -82.668213861111113, 27.850301277777778 ], [ -82.66586083333334, 27.850130333333336 ] ] } },
{ "type": "Feature", "properties": { "style": "solid", "thickness": 1 }, "geometry": { "type": "LineString", "coordinates": [ [ -82.670970222222223, 28.067380861111111 ], [ -82.671056, 28.068214805555556 ], [ -82.671308277777783, 28.06902175 ], [ -82.67171894444445, 28.069775777777778 ], [ -82.672274833333333, 28.070452638888888 ], [ -82.672958027777781, 28.071030583333332 ], [ -82.67374658333334, 28.071491055555555 ], [ -82.674615166666669, 28.071819194444444 ], [ -82.675535888888888, 28.0720045 ], [ -82.676479083333334, 28.072041 ], [ -82.677414472222225, 28.071927527777778 ], [ -82.678312, 28.07166775 ], [ -82.679142777777784, 28.071269972222222 ], [ -82.67988013888889, 28.070747 ], [ -82.680500361111115, 28.07011563888889 ], [ -82.680983527777784, 28.06939622222222 ], [ -82.681314083333334, 28.068611833333332 ], [ -82.681481416666671, 28.067787666666668 ], [ -82.681480194444447, 28.066950277777778 ], [ -82.681310388888889, 28.0661265 ], [ -82.680977527777785, 28.065342888888889 ], [ -82.68049225, 28.064624583333334 ], [ -82.67987022222222, 28.063994666666666 ], [ -82.679131361111118, 28.063473416666668 ], [ -82.678299472222221, 28.063077555555555 ], [ -82.677401277777776, 28.062819805555556 ], [ -82.676465638888899, 28.062708444444446 ], [ -82.675522638888893, 28.062747083333335 ], [ -82.674602555555566, 28.062934472222224 ], [ -82.673734944444448, 28.063264555555556 ], [ -82.67294775, 28.06372675 ], [ -82.672266222222234, 28.064306194444445 ], [ -82.671712277777786, 28.064984305555555 ], [ -82.671303722222234, 28.065739222222224 ], [ -82.671053694444453, 28.066546722222224 ], [ -82.670970222222223, 28.067380861111111 ] ] } },
{ "type": "Feature", "properties": { "style": "solid", "thickness": 1 }, "geometry": { "type": "LineString", "coordinates": [ [ -82.664053194444449, 28.067952416666667 ], [ -82.666376972222224, 28.067559722222221 ], [ -82.668578916666675, 28.066792888888887 ], [ -82.670583166666674, 28.065678305555558 ], [ -82.672320638888891, 28.064254361111111 ], [ -82.67373152777779, 28.062570138888891 ], [ -82.674767222222229, 28.060683638888889 ], [ -82.675392083333335, 28.058659861111114 ], [ -82.67558461111112, 28.056568472222224 ] ] } },
{ "type": "Feature", "properties": { "style": "solid", "thickness": 1 }, "geometry": { "type": "LineString", "coordinates": [ [ -82.67558461111112, 28.056568472222224 ], [ -82.676027472222231, 28.058629694444445 ], [ -82.676892083333342, 28.060582833333335 ], [ -82.678148694444445, 28.062360583333334 ], [ -82.679754027777776, 28.063901722222223 ], [ -82.681652805555558, 28.065153166666668 ], [ -82.68377961111112, 28.066071777777779 ], [ -82.686061166666676, 28.066625916666666 ], [ -82.688418916666677, 28.0667965 ] ] } },
{ "type": "Feature", "properties": { "style": "solid", "thickness": 1 }, "geometry": { "type": "LineString", "coordinates": [ [ -82.67688775, 28.0781815 ], [ -82.677080277777776, 28.07609013888889 ], [ -82.677705166666669, 28.074066333333334 ], [ -82.678740916666669, 28.072179805555557 ], [ -82.680151805555553, 28.070495527777776 ], [ -82.681889250000012, 28.069071472222223 ], [ -82.68389338888889, 28.067956694444444 ], [ -82.686095222222221, 28.067189555555554 ], [ -82.688418916666677, 28.0667965 ] ] } },
{ "type": "Feature", "properties": { "style": "solid", "thickness": 1 }, "geometry": { "type": "LineString", "coordinates": [ [ -82.67688775, 28.0781815 ], [ -82.676444777777789, 28.076120277777779 ], [ -82.675580055555557, 28.074167138888889 ], [ -82.674323361111121, 28.07238938888889 ], [ -82.67271797222223, 28.070848166666668 ], [ -82.670819194444448, 28.069596611111113 ], [ -82.668692444444446, 28.068677805555556 ], [ -82.666410916666678, 28.068123388888889 ], [ -82.664053194444449, 28.067952416666667 ] ] } },
{ "type": "Feature", "properties": { "style": "solid", "thickness": 1 }, "geometry": { "type": "LineString", "coordinates": [ [ -82.685122805555565, 29.414247138888886 ], [ -82.700827333333336, 29.413496805555553 ], [ -82.693724861111122, 29.425788916666669 ], [ -82.685122805555565, 29.414247138888886 ] ] } },
{ "type": "Feature", "properties": { "style": "solid", "thickness": 1 }, "geometry": { "type": "LineString", "coordinates": [ [ -82.67095919444445, 29.429354333333336 ], [ -82.668171861111119, 29.421865222222223 ], [ -82.6657653888889, 29.429597305555557 ], [ -82.662910083333344, 29.42211127777778 ], [ -82.660844916666676, 29.429827305555555 ] ] } },
{ "type": "Feature", "properties": { "style": "solid", "thickness": 1 }, "geometry": { "type": "LineString", "coordinates": [ [ -82.657511611111119, 29.4223635 ], [ -82.657974611111115, 29.429961388888891 ] ] } },
{ "type": "Feature", "properties": { "style": "solid", "thickness": 1 }, "geometry": { "type": "LineString", "coordinates": [ [ -82.654420916666666, 29.430127333333335 ], [ -82.653958166666669, 29.422529416666666 ], [ -82.650609722222228, 29.422685694444446 ] ] } },
{ "type": "Feature", "properties": { "style": "solid", "thickness": 1 }, "geometry": { "type": "LineString", "coordinates": [ [ -82.643418055555557, 29.430640472222223 ], [ -82.644648194444457, 29.430583138888888 ], [ -82.645259611111115, 29.430494638888892 ], [ -82.646457, 29.429898861111113 ], [ -82.647556916666673, 29.428827666666667 ], [ -82.647919611111121, 29.428030805555558 ], [ -82.648066388888893, 29.427064027777778 ], [ -82.648019083333338, 29.42628627777778 ], [ -82.647838722222232, 29.42557475 ], [ -82.647449694444447, 29.424812944444447 ], [ -82.646639777777779, 29.423890777777778 ], [ -82.64634822222223, 29.42360438888889 ], [ -82.645779694444457, 29.423270916666667 ], [ -82.6445961388889, 29.422966111111112 ], [ -82.643161083333339, 29.423032972222224 ], [ -82.642485, 29.423184472222225 ], [ -82.641816194444445, 29.423455611111113 ], [ -82.641417083333337, 29.423654194444445 ], [ -82.640762805555568, 29.42416463888889 ], [ -82.640191388888894, 29.424911222222224 ], [ -82.640015472222231, 29.425399361111111 ], [ -82.639864972222227, 29.426306305555556 ], [ -82.63995225, 29.427742138888892 ], [ -82.640654555555557, 29.429149333333335 ], [ -82.64109369444445, 29.429608833333333 ], [ -82.64159752777779, 29.430005333333334 ], [ -82.64209411111112, 29.430282194444445 ], [ -82.642234416666668, 29.430335638888891 ], [ -82.643418055555557, 29.430640472222223 ] ] } },
{ "type": "Feature", "properties": { "style": "solid", "thickness": 1 }, "geometry": { "type": "LineString", "coordinates": [ [ -82.636874138888899, 29.423325805555557 ], [ -82.637335666666672, 29.43092375 ], [ -82.629152083333324, 29.423685055555556 ], [ -82.629613027777765, 29.431283055555557 ] ] } },
{ "type": "Feature", "properties": { "style": "solid", "thickness": 1 }, "geometry": { "type": "LineString", "coordinates": [ [ -82.521501472222226, 27.986257 ], [ -82.51949883333333, 27.986256666666666 ] ] } },
{ "type": "Feature", "properties": { "style": "solid", "thickness": 1 }, "geometry": { "type": "LineString", "coordinates": [ [ -82.521739388888889, 27.986715444444446 ], [ -82.519260694444441, 27.98671502777778 ] ] } },
{ "type": "Feature", "properties": { "style": "solid", "thickness": 1 }, "geometry": { "type": "LineString", "coordinates": [ [ -82.521739305555556, 27.987173861111113 ], [ -82.519260583333335, 27.987173416666668 ] ] } },
{ "type": "Feature", "properties": { "style": "solid", "thickness": 1 }, "geometry": { "type": "LineString", "coordinates": [ [ -82.521501166666667, 27.987632222222224 ], [ -82.5194985, 27.987631861111112 ] ] } },
{ "type": "Feature", "properties": { "style": "solid", "thickness": 1 }, "geometry": { "type": "LineString", "coordinates": [ [ -82.520499722222226, 27.988136305555557 ], [ -82.520739472222218, 27.988117194444445 ], [ -82.520971527777775, 27.98806038888889 ], [ -82.521188416666661, 27.987967694444446 ], [ -82.521383166666666, 27.98784213888889 ], [ -82.521549555555552, 27.987687722222223 ], [ -82.521682194444438, 27.987509416666668 ], [ -82.521776833333334, 27.987312972222224 ], [ -82.521830444444447, 27.987104666666667 ], [ -82.521841277777781, 27.986891194444446 ], [ -82.521809027777778, 27.986679444444444 ], [ -82.521734694444447, 27.986476222222223 ], [ -82.521620666666664, 27.986288055555555 ], [ -82.521470611111113, 27.986120972222224 ], [ -82.521289388888889, 27.98598036111111 ], [ -82.521082777777778, 27.985870722222224 ], [ -82.520857444444445, 27.985795611111111 ], [ -82.520620611111113, 27.985757416666669 ], [ -82.52037991666667, 27.985757361111112 ], [ -82.52014305555555, 27.985795472222222 ], [ -82.519917694444445, 27.985870527777777 ], [ -82.519711027777774, 27.985980083333335 ], [ -82.51952975, 27.986120611111112 ], [ -82.519379611111106, 27.986287638888889 ], [ -82.519265527777776, 27.98647577777778 ], [ -82.519191083333325, 27.986679 ], [ -82.519158722222215, 27.986890722222224 ], [ -82.519169472222217, 27.987104194444445 ], [ -82.519223, 27.9873125 ], [ -82.51931755555556, 27.987509 ], [ -82.519450111111112, 27.987687361111114 ], [ -82.519616416666665, 27.987841833333334 ], [ -82.51981111111111, 27.987967472222223 ], [ -82.520027972222223, 27.988060222222224 ], [ -82.52026, 27.988117111111112 ], [ -82.520499722222226, 27.988136305555557 ] ] } },
{ "type": "Feature", "properties": { "style": "solid", "thickness": 1 }, "geometry": { "type": "LineString", "coordinates": [ [ -82.663937277777777, 28.001741694444444 ], [ -82.664022944444454, 28.002575638888889 ], [ -82.664275027777776, 28.00338263888889 ], [ -82.664685416666671, 28.004136694444444 ], [ -82.665240888888889, 28.004813583333334 ], [ -82.665923638888898, 28.005391583333335 ], [ -82.666711694444444, 28.005852083333334 ], [ -82.66757975, 28.006180277777776 ], [ -82.668499888888888, 28.006365638888887 ], [ -82.66944252777779, 28.006402194444444 ], [ -82.670377361111122, 28.006288777777776 ], [ -82.671274361111116, 28.006029027777778 ], [ -82.672104666666669, 28.005631277777777 ], [ -82.67284161111111, 28.005108333333332 ], [ -82.6734615, 28.004477027777778 ], [ -82.673944416666671, 28.003757611111112 ], [ -82.674274833333342, 28.002973222222224 ], [ -82.674442138888892, 28.002149055555556 ], [ -82.674440944444456, 28.00131163888889 ], [ -82.674271305555564, 28.000487861111111 ], [ -82.673938666666672, 27.999704222222224 ], [ -82.67345375, 27.998985888888889 ], [ -82.672832138888893, 27.998355916666668 ], [ -82.672093777777789, 27.997834611111113 ], [ -82.671262416666664, 27.997438694444444 ], [ -82.670364777777777, 27.997180916666668 ], [ -82.669429694444446, 27.9970695 ], [ -82.66848725, 27.99710811111111 ], [ -82.66756772222223, 27.997295416666667 ], [ -82.666700611111111, 27.997625472222222 ], [ -82.665913861111122, 27.99808763888889 ], [ -82.665232694444455, 27.998667083333334 ], [ -82.66467902777778, 27.999345138888891 ], [ -82.664270694444454, 28.000100055555556 ], [ -82.66402075, 28.000907555555557 ], [ -82.663937277777777, 28.001741694444444 ] ] } },
{ "type": "Feature", "properties": { "style": "solid", "thickness": 1 }, "geometry": { "type": "LineString", "coordinates": [ [ -82.6570243888889, 28.002312888888888 ], [ -82.659346805555558, 28.001920333333334 ], [ -82.661547472222225, 28.001153611111111 ], [ -82.66355055555556, 28.000039111111111 ], [ -82.66528708333334, 27.998615222222224 ], [ -82.66669725, 27.996931055555557 ], [ -82.667732444444454, 27.995044583333335 ], [ -82.66835705555556, 27.993020805555556 ], [ -82.668549611111118, 27.990929416666667 ] ] } },
{ "type": "Feature", "properties": { "style": "solid", "thickness": 1 }, "geometry": { "type": "LineString", "coordinates": [ [ -82.668549611111118, 27.990929416666667 ], [ -82.668992055555563, 27.992990694444444 ], [ -82.669856027777783, 27.994943888888891 ], [ -82.67111175, 27.996721722222222 ], [ -82.672716027777781, 27.998262972222225 ], [ -82.674613555555567, 27.99951452777778 ], [ -82.676739027777785, 28.00043325 ], [ -82.67901919444445, 28.000987527777777 ], [ -82.6813755, 28.00115825 ] ] } },
{ "type": "Feature", "properties": { "style": "solid", "thickness": 1 }, "geometry": { "type": "LineString", "coordinates": [ [ -82.669850527777783, 28.012542777777778 ], [ -82.67004308333334, 28.010451388888889 ], [ -82.67066775, 28.008427611111109 ], [ -82.671702972222221, 28.006541111111112 ], [ -82.673113138888894, 28.004856888888888 ], [ -82.674849611111114, 28.003432888888888 ], [ -82.676852611111116, 28.002318194444445 ], [ -82.679053166666677, 28.001551194444446 ], [ -82.6813755, 28.00115825 ] ] } },
{ "type": "Feature", "properties": { "style": "solid", "thickness": 1 }, "geometry": { "type": "LineString", "coordinates": [ [ -82.669850527777783, 28.012542777777778 ], [ -82.669407972222231, 28.010481527777777 ], [ -82.668543888888891, 28.008528333333334 ], [ -82.667288083333332, 28.006750444444446 ], [ -82.66568375, 28.005209166666667 ], [ -82.663786222222228, 28.003957472222222 ], [ -82.661660777777783, 28.003038555555555 ], [ -82.659380666666678, 28.002484 ], [ -82.6570243888889, 28.002312888888888 ] ] } },
{ "type": "Feature", "properties": { "style": "solid", "thickness": 1 }, "geometry": { "type": "LineString", "coordinates": [ [ -82.715374361111117, 27.866296416666668 ], [ -82.71546033333334, 27.867130361111112 ], [ -82.715712472222222, 27.867937277777777 ], [ -82.716122694444451, 27.868691194444445 ], [ -82.716677805555562, 27.869367916666668 ], [ -82.717359972222226, 27.869945666666666 ], [ -82.718147277777774, 27.870405888888889 ], [ -82.719014388888894, 27.870733777777779 ], [ -82.719933472222223, 27.870918777777778 ], [ -82.720874944444446, 27.870955 ], [ -82.721808583333342, 27.870841222222221 ], [ -82.72270433333334, 27.870581138888891 ], [ -82.723533444444442, 27.870183083333334 ], [ -82.724269222222219, 27.86965986111111 ], [ -82.724888055555553, 27.86902827777778 ], [ -82.725370027777785, 27.868308666666668 ], [ -82.725699666666671, 27.867524138888889 ], [ -82.725866361111116, 27.866699916666668 ], [ -82.725864777777787, 27.865862472222222 ], [ -82.725694972222229, 27.86503875 ], [ -82.725362388888897, 27.864255194444446 ], [ -82.72487775, 27.863537027777781 ], [ -82.724256583333329, 27.862907277777779 ], [ -82.723518916666663, 27.86238625 ], [ -82.722688388888898, 27.861990611111114 ], [ -82.72179175, 27.861733138888891 ], [ -82.720857805555553, 27.861622083333334 ], [ -82.719916527777784, 27.861661027777778 ], [ -82.718998222222226, 27.861848694444447 ], [ -82.718132361111117, 27.862179083333334 ], [ -82.717346777777777, 27.862641555555555 ], [ -82.71666675, 27.86322125 ], [ -82.716114083333338, 27.863899527777779 ], [ -82.715706583333329, 27.864654611111114 ], [ -82.71545736111112, 27.865462222222224 ], [ -82.715374361111117, 27.866296416666668 ] ] } },
{ "type": "Feature", "properties": { "style": "solid", "thickness": 1 }, "geometry": { "type": "LineString", "coordinates": [ [ -82.708470333333338, 27.866870194444445 ], [ -82.71078966666667, 27.86647675 ], [ -82.71298725, 27.865709194444445 ], [ -82.71498733333334, 27.864593916666667 ], [ -82.716721055555553, 27.863169388888892 ], [ -82.718128666666672, 27.861484638888889 ], [ -82.719161694444452, 27.85959775 ], [ -82.719784583333336, 27.857573666666667 ], [ -82.719975916666669, 27.855482166666668 ] ] } },
{ "type": "Feature", "properties": { "style": "solid", "thickness": 1 }, "geometry": { "type": "LineString", "coordinates": [ [ -82.719975916666669, 27.855482166666668 ], [ -82.72041877777778, 27.857543333333336 ], [ -82.721282583333334, 27.85949625 ], [ -82.722537583333335, 27.861273694444446 ], [ -82.724140583333337, 27.862814361111113 ], [ -82.726036361111113, 27.86406525 ], [ -82.72815961111111, 27.864983222222225 ], [ -82.730437194444448, 27.865536666666667 ], [ -82.732790666666673, 27.865706527777778 ] ] } },
{ "type": "Feature", "properties": { "style": "solid", "thickness": 1 }, "geometry": { "type": "LineString", "coordinates": [ [ -82.721285333333341, 27.877095583333332 ], [ -82.721476666666675, 27.875004083333334 ], [ -82.722099611111119, 27.87298 ], [ -82.723132666666672, 27.871093083333335 ], [ -82.724540277777777, 27.869408277777779 ], [ -82.726273944444443, 27.867983638888891 ], [ -82.728273944444453, 27.866868166666666 ], [ -82.730471388888887, 27.866100305555555 ], [ -82.732790666666673, 27.865706527777778 ] ] } },
{ "type": "Feature", "properties": { "style": "solid", "thickness": 1 }, "geometry": { "type": "LineString", "coordinates": [ [ -82.721285333333341, 27.877095583333332 ], [ -82.72084236111111, 27.875034416666669 ], [ -82.71997844444445, 27.8730815 ], [ -82.718723361111117, 27.871304055555555 ], [ -82.717120305555554, 27.869763305555555 ], [ -82.715224527777778, 27.868512305555555 ], [ -82.713101305555554, 27.86759413888889 ], [ -82.710823777777776, 27.867040416666669 ], [ -82.708470333333338, 27.866870194444445 ] ] } },
{ "type": "Feature", "properties": { "style": "solid", "thickness": 1 }, "geometry": { "type": "LineString", "coordinates": [ [ -82.765410027777776, 27.868806444444445 ], [ -82.765873666666664, 27.876407472222223 ], [ -82.762910138888884, 27.876550194444444 ], [ -82.76209461111111, 27.876469388888889 ], [ -82.761746916666667, 27.876306055555556 ], [ -82.76118255555555, 27.875913027777777 ], [ -82.76033419444444, 27.875293583333335 ], [ -82.759747944444442, 27.874541444444446 ], [ -82.759576777777781, 27.873949444444445 ], [ -82.759456388888893, 27.871974361111111 ], [ -82.759558277777771, 27.871429222222222 ], [ -82.759918611111118, 27.870691555555556 ], [ -82.760364527777782, 27.870249916666666 ], [ -82.760803138888889, 27.869688555555555 ], [ -82.761451083333327, 27.869237194444445 ], [ -82.762248305555559, 27.869018722222222 ], [ -82.762716083333331, 27.868936166666668 ], [ -82.765410027777776, 27.868806444444445 ] ] } },
{ "type": "Feature", "properties": { "style": "solid", "thickness": 1 }, "geometry": { "type": "LineString", "coordinates": [ [ -82.752874527777777, 27.877033027777777 ], [ -82.756983083333338, 27.876835444444445 ], [ -82.756520055555555, 27.869234388888888 ], [ -82.752344416666674, 27.869435194444446 ] ] } },
{ "type": "Feature", "properties": { "style": "solid", "thickness": 1 }, "geometry": { "type": "LineString", "coordinates": [ [ -82.756749722222224, 27.873004972222223 ], [ -82.752776027777784, 27.873196083333333 ] ] } },
{ "type": "Feature", "properties": { "style": "solid", "thickness": 1 }, "geometry": { "type": "LineString", "coordinates": [ [ -82.749785166666669, 27.869558194444444 ], [ -82.750247722222227, 27.877159277777778 ], [ -82.74688005555555, 27.877321055555555 ], [ -82.746603361111113, 27.877214305555555 ], [ -82.745982611111117, 27.87700402777778 ], [ -82.745340027777772, 27.876434611111112 ], [ -82.745034222222216, 27.875849055555555 ], [ -82.744990527777773, 27.875130833333333 ], [ -82.745223555555555, 27.874519388888888 ], [ -82.745793333333339, 27.87389175 ], [ -82.746384916666671, 27.87362325 ], [ -82.746647055555556, 27.873490611111112 ], [ -82.750014611111112, 27.873328805555555 ] ] } },
{ "type": "Feature", "properties": { "style": "solid", "thickness": 1 }, "geometry": { "type": "LineString", "coordinates": [ [ -82.741837972222228, 27.86993986111111 ], [ -82.742299972222227, 27.877540972222224 ], [ -82.73893225, 27.877702583333335 ], [ -82.73865558333334, 27.877595805555558 ], [ -82.73803483333333, 27.877385472222223 ], [ -82.737392305555559, 27.876816055555555 ], [ -82.737086527777777, 27.876230444444445 ], [ -82.737042916666667, 27.875512222222223 ], [ -82.737275972222221, 27.874900805555555 ], [ -82.737845777777778, 27.874273222222222 ], [ -82.73843741666667, 27.874004722222224 ], [ -82.738699555555556, 27.873872111111112 ], [ -82.742067138888885, 27.8737105 ] ] } },
{ "type": "Feature", "properties": { "style": "solid", "thickness": 1 }, "geometry": { "type": "LineString", "coordinates": [ [ -82.73389069444444, 27.87032111111111 ], [ -82.734352166666667, 27.877922222222221 ], [ -82.730984416666672, 27.878083638888889 ], [ -82.73070775, 27.877976861111112 ], [ -82.730087027777785, 27.8777665 ], [ -82.729444527777773, 27.877197 ], [ -82.729138777777777, 27.876611416666666 ], [ -82.729095222222227, 27.875893194444444 ], [ -82.729328333333342, 27.87528175 ], [ -82.729898194444445, 27.874654194444446 ], [ -82.730489833333337, 27.87438575 ], [ -82.730751972222222, 27.874253138888889 ], [ -82.734119611111112, 27.87409175 ] ] } },
{ "type": "Feature", "properties": { "style": "solid", "thickness": 1 }, "geometry": { "type": "LineString", "coordinates": [ [ -82.6748175, 27.863890805555556 ], [ -82.67163722222223, 27.859299972222225 ], [ -82.669092916666671, 27.864162694444445 ] ] } },
{ "type": "Feature", "properties": { "style": "solid", "thickness": 1 }, "geometry": { "type": "LineString", "coordinates": [ [ -82.67163722222223, 27.859299972222225 ], [ -82.671468083333338, 27.856486861111112 ] ] } },
{ "type": "Feature", "properties": { "style": "solid", "thickness": 1 }, "geometry": { "type": "LineString", "coordinates": [ [ -82.661549888888899, 27.864520583333334 ], [ -82.662762166666667, 27.864463083333334 ], [ -82.663364722222227, 27.864374472222224 ], [ -82.664544638888898, 27.863778305555556 ], [ -82.665628416666678, 27.862706472222225 ], [ -82.66598575, 27.861909194444447 ], [ -82.66613025, 27.860941972222225 ], [ -82.666083527777786, 27.860163861111111 ], [ -82.665905666666674, 27.859452027777778 ], [ -82.665522194444449, 27.85868988888889 ], [ -82.664723888888901, 27.857767388888892 ], [ -82.664436527777781, 27.857480916666667 ], [ -82.663876222222228, 27.857147333333334 ], [ -82.662709805555565, 27.856842527777779 ], [ -82.661295583333342, 27.856909583333334 ], [ -82.660629333333333, 27.857061222222224 ], [ -82.65997025, 27.857332583333335 ], [ -82.659576972222226, 27.857531305555558 ], [ -82.65893227777778, 27.858042055555558 ], [ -82.65836925, 27.858789027777778 ], [ -82.658195944444444, 27.859277416666668 ], [ -82.658047777777782, 27.860184805555559 ], [ -82.658134, 27.861621305555555 ], [ -82.658826305555564, 27.863029055555558 ], [ -82.659259138888899, 27.863488722222225 ], [ -82.659755722222229, 27.863885361111112 ], [ -82.660245111111124, 27.86416227777778 ], [ -82.660383416666676, 27.86421575 ], [ -82.661549888888899, 27.864520583333334 ] ] } },
{ "type": "Feature", "properties": { "style": "solid", "thickness": 1 }, "geometry": { "type": "LineString", "coordinates": [ [ -82.655555861111111, 27.864804666666668 ], [ -82.650706722222225, 27.865034305555557 ] ] } },
{ "type": "Feature", "properties": { "style": "solid", "thickness": 1 }, "geometry": { "type": "LineString", "coordinates": [ [ -82.653198638888895, 27.864916333333333 ], [ -82.652742888888895, 27.85731488888889 ] ] } },
{ "type": "Feature", "properties": { "style": "solid", "thickness": 1 }, "geometry": { "type": "LineString", "coordinates": [ [ -82.647878055555566, 27.865168194444447 ], [ -82.647422666666671, 27.85756675 ], [ -82.64412275, 27.857722861111114 ] ] } },
{ "type": "Feature", "properties": { "style": "solid", "thickness": 1 }, "geometry": { "type": "LineString", "coordinates": [ [ -82.639162805555557, 27.861738833333334 ], [ -82.635906638888898, 27.858111194444447 ] ] } },
{ "type": "Feature", "properties": { "style": "solid", "thickness": 1 }, "geometry": { "type": "LineString", "coordinates": [ [ -82.641361611111122, 27.857853416666668 ], [ -82.641816583333338, 27.865454888888891 ], [ -82.638449083333342, 27.865614055555557 ], [ -82.638172527777783, 27.865507055555558 ], [ -82.63755205555556, 27.86529627777778 ], [ -82.636910111111121, 27.86472638888889 ], [ -82.63660491666667, 27.864140555555558 ], [ -82.636561972222225, 27.863422305555556 ], [ -82.636795555555565, 27.862811055555557 ], [ -82.637365888888894, 27.862183861111113 ], [ -82.637957694444452, 27.861915805555558 ], [ -82.638219916666671, 27.861783388888892 ], [ -82.641587305555561, 27.861624222222222 ] ] } },
{ "type": "Feature", "properties": { "style": "solid", "thickness": 1 }, "geometry": { "type": "LineString", "coordinates": [ [ -82.667503944444448, 28.053550722222223 ], [ -82.667961583333337, 28.061151805555557 ], [ -82.664588083333342, 28.061311611111112 ], [ -82.664311, 28.061204694444445 ], [ -82.663689361111111, 28.060994027777777 ], [ -82.663046111111115, 28.060424277777777 ], [ -82.662740222222226, 28.059838527777778 ], [ -82.662697027777781, 28.059120333333333 ], [ -82.662930888888894, 28.058509027777777 ], [ -82.663502083333341, 28.05788177777778 ], [ -82.66409491666667, 28.057613611111112 ], [ -82.664357583333341, 28.057481138888889 ], [ -82.667730944444443, 28.057321333333334 ] ] } },
{ "type": "Feature", "properties": { "style": "solid", "thickness": 1 }, "geometry": { "type": "LineString", "coordinates": [ [ -82.659543027777787, 28.053927666666667 ], [ -82.660000111111117, 28.061528805555557 ], [ -82.656626583333335, 28.061688416666666 ], [ -82.6563495, 28.061581472222223 ], [ -82.655727861111117, 28.061370777777778 ], [ -82.655084666666667, 28.060800972222221 ], [ -82.654778833333339, 28.060215222222222 ], [ -82.654735666666667, 28.059497 ], [ -82.65496958333334, 28.058885722222222 ], [ -82.655540833333333, 28.0582585 ], [ -82.656133666666676, 28.057990388888889 ], [ -82.656396333333333, 28.057857916666666 ], [ -82.65976975, 28.057698305555558 ] ] } },
{ "type": "Feature", "properties": { "style": "solid", "thickness": 1 }, "geometry": { "type": "LineString", "coordinates": [ [ -82.647248111111111, 28.062131666666666 ], [ -82.648462611111114, 28.062074305555555 ], [ -82.64906625, 28.061985777777778 ], [ -82.650248388888897, 28.061389722222223 ], [ -82.651334277777778, 28.060318027777779 ], [ -82.651692361111117, 28.059520833333334 ], [ -82.65183725, 28.058553638888888 ], [ -82.651790527777777, 28.057775583333335 ], [ -82.651612444444453, 28.057063722222225 ], [ -82.651228388888896, 28.056301611111113 ], [ -82.65042872222223, 28.055379055555555 ], [ -82.650140888888899, 28.055092555555557 ], [ -82.649579611111122, 28.054758944444444 ], [ -82.648411111111116, 28.05445402777778 ], [ -82.646994333333339, 28.054520944444445 ], [ -82.646326833333333, 28.0546725 ], [ -82.645666527777777, 28.05494377777778 ], [ -82.6452725, 28.055142444444446 ], [ -82.644626555555561, 28.055653111111113 ], [ -82.644062444444458, 28.0564 ], [ -82.64388875, 28.05688838888889 ], [ -82.643740222222235, 28.057795694444444 ], [ -82.643826388888897, 28.059232138888891 ], [ -82.644519777777788, 28.060639916666666 ], [ -82.644953333333333, 28.061099638888891 ], [ -82.645450777777782, 28.061496277777778 ], [ -82.645941027777781, 28.06177325 ], [ -82.646079555555559, 28.061826722222222 ], [ -82.647248111111111, 28.062131666666666 ] ] } },
{ "type": "Feature", "properties": { "style": "solid", "thickness": 1 }, "geometry": { "type": "LineString", "coordinates": [ [ -82.641243166666669, 28.062415138888891 ], [ -82.640787388888896, 28.054813972222224 ], [ -82.6374815, 28.054969916666668 ] ] } },
{ "type": "Feature", "properties": { "style": "solid", "thickness": 1 }, "geometry": { "type": "LineString", "coordinates": [ [ -82.631054916666656, 28.06289552777778 ], [ -82.635170694444454, 28.062701555555556 ], [ -82.63471536111112, 28.055100333333336 ], [ -82.630532388888881, 28.055297472222222 ] ] } },
{ "type": "Feature", "properties": { "style": "solid", "thickness": 1 }, "geometry": { "type": "LineString", "coordinates": [ [ -82.634941222222224, 28.05887102777778 ], [ -82.630960527777773, 28.059058638888889 ] ] } },
{ "type": "Feature", "properties": { "style": "solid", "thickness": 1 }, "geometry": { "type": "LineString", "coordinates": [ [ -82.664141805555559, 27.986279611111112 ], [ -82.660298638888889, 27.986461666666667 ] ] } },
{ "type": "Feature", "properties": { "style": "solid", "thickness": 1 }, "geometry": { "type": "LineString", "coordinates": [ [ -82.660326583333344, 27.990301777777781 ], [ -82.664372138888893, 27.990110138888891 ], [ -82.663915055555563, 27.982508916666664 ] ] } },
{ "type": "Feature", "properties": { "style": "solid", "thickness": 1 }, "geometry": { "type": "LineString", "coordinates": [ [ -82.65297708333334, 27.99064963888889 ], [ -82.654190777777785, 27.990592222222222 ], [ -82.654794027777783, 27.990503638888889 ], [ -82.655975333333345, 27.989907555555558 ], [ -82.657060472222227, 27.988835805555556 ], [ -82.657418277777779, 27.988038583333335 ], [ -82.657563027777783, 27.987071361111113 ], [ -82.657516277777788, 27.986293305555556 ], [ -82.657338277777782, 27.985581444444446 ], [ -82.656954444444452, 27.984819333333334 ], [ -82.656155277777785, 27.98389677777778 ], [ -82.65586761111112, 27.983610305555555 ], [ -82.655306666666675, 27.983276694444442 ], [ -82.654138916666668, 27.98297183333333 ], [ -82.652723055555555, 27.983038805555555 ], [ -82.652056027777789, 27.983190416666666 ], [ -82.651396166666672, 27.983461694444447 ], [ -82.651002416666671, 27.98366038888889 ], [ -82.650356916666667, 27.984171083333333 ], [ -82.649793222222229, 27.98491802777778 ], [ -82.649619666666666, 27.98540638888889 ], [ -82.64947125, 27.98631375 ], [ -82.649557444444454, 27.987750222222225 ], [ -82.650250472222226, 27.989157972222223 ], [ -82.65068375, 27.989617666666668 ], [ -82.651180888888888, 27.990014305555558 ], [ -82.651670833333341, 27.99029125 ], [ -82.651809277777787, 27.990344722222222 ], [ -82.65297708333334, 27.99064963888889 ] ] } },
{ "type": "Feature", "properties": { "style": "solid", "thickness": 1 }, "geometry": { "type": "LineString", "coordinates": [ [ -82.64672250000001, 27.983322527777776 ], [ -82.641312194444453, 27.991200916666667 ] ] } },
{ "type": "Feature", "properties": { "style": "solid", "thickness": 1 }, "geometry": { "type": "LineString", "coordinates": [ [ -82.646976083333342, 27.990933361111111 ], [ -82.640587027777784, 27.983612361111113 ] ] } },
{ "type": "Feature", "properties": { "style": "solid", "thickness": 1 }, "geometry": { "type": "LineString", "coordinates": [ [ -82.638092388888893, 27.983730111111111 ], [ -82.634839138888893, 27.99150638888889 ], [ -82.630878111111102, 27.984070416666668 ] ] } },
{ "type": "Feature", "properties": { "style": "solid", "thickness": 1 }, "geometry": { "type": "LineString", "coordinates": [ [ -82.637025722222234, 27.986241361111112 ], [ -82.632171138888879, 27.986470361111113 ] ] } },
{ "type": "Feature", "properties": { "style": "solid", "thickness": 1 }, "geometry": { "type": "LineString", "coordinates": [ [ -82.6258445, 27.988089 ], [ -82.622585027777774, 27.984461138888889 ] ] } },
{ "type": "Feature", "properties": { "style": "solid", "thickness": 1 }, "geometry": { "type": "LineString", "coordinates": [ [ -82.62804633333333, 27.984203888888889 ], [ -82.628500916666667, 27.991805222222222 ], [ -82.6251295, 27.991964055555556 ], [ -82.624852638888882, 27.991857055555556 ], [ -82.62423147222222, 27.991646222222222 ], [ -82.623588861111102, 27.991076277777779 ], [ -82.623283361111106, 27.990490444444447 ], [ -82.623240444444434, 27.989772222222225 ], [ -82.62347438888888, 27.989160972222223 ], [ -82.624045444444434, 27.988533861111112 ], [ -82.624637972222217, 27.98826588888889 ], [ -82.624900527777768, 27.988133472222223 ], [ -82.628271833333329, 27.98797463888889 ] ] } }
]
}
