{
"type": "FeatureCollection",
"name": "tpa197sgp",
"features": [
{ "type": "Feature", "properties": { "style": "solid", "thickness": 1 }, "geometry": { "type": "LineString", "coordinates": [ [ -82.473451694444449, 27.485687083333335 ], [ -82.461923694444451, 27.498795833333336 ] ] } },
{ "type": "Feature", "properties": { "style": "solid", "thickness": 1 }, "geometry": { "type": "LineString", "coordinates": [ [ -82.450392916666672, 27.511903638888889 ], [ -82.418359861111114, 27.548288694444445 ] ] } },
{ "type": "Feature", "properties": { "style": "solid", "thickness": 1 }, "geometry": { "type": "LineString", "coordinates": [ [ -82.521223194444445, 27.986027333333336 ], [ -82.521223194444445, 27.987861555555558 ] ] } },
{ "type": "Feature", "properties": { "style": "solid", "thickness": 1 }, "geometry": { "type": "LineString", "coordinates": [ [ -82.520706611111109, 27.985843888888891 ], [ -82.520706638888882, 27.988045 ] ] } },
{ "type": "Feature", "properties": { "style": "solid", "thickness": 1 }, "geometry": { "type": "LineString", "coordinates": [ [ -82.52019005555556, 27.985843888888891 ], [ -82.52019005555556, 27.988045 ] ] } },
{ "type": "Feature", "properties": { "style": "solid", "thickness": 1 }, "geometry": { "type": "LineString", "coordinates": [ [ -82.519673472222223, 27.986027305555556 ], [ -82.519673472222223, 27.987861555555558 ] ] } },
{ "type": "Feature", "properties": { "style": "solid", "thickness": 1 }, "geometry": { "type": "LineString", "coordinates": [ [ -82.519156888888887, 27.986944444444447 ], [ -82.519164916666668, 27.987074472222222 ], [ -82.51919075, 27.98721038888889 ], [ -82.519236861111111, 27.987349666666667 ], [ -82.519305138888882, 27.987488916666667 ], [ -82.519396611111105, 27.987624222222223 ], [ -82.519511083333327, 27.987751194444446 ], [ -82.519646944444446, 27.987865333333335 ], [ -82.519801222222227, 27.987962638888892 ], [ -82.519969666666668, 27.988039833333335 ], [ -82.520147166666661, 27.988094833333335 ], [ -82.52032825, 27.988126916666669 ], [ -82.520507638888887, 27.988136694444446 ], [ -82.520680666666664, 27.988125861111111 ], [ -82.520843583333331, 27.98809702777778 ], [ -82.52099375, 27.988053222222224 ], [ -82.521129583333334, 27.987997583333335 ], [ -82.521253638888894, 27.987931305555556 ], [ -82.52137477777778, 27.98784913888889 ], [ -82.52149030555556, 27.987749833333336 ], [ -82.521596222222215, 27.987633305555555 ], [ -82.521688111111104, 27.987500416666666 ], [ -82.521761722222223, 27.987353111111112 ], [ -82.521813222222221, 27.9871945 ], [ -82.52183975, 27.987028611111111 ], [ -82.521839722222225, 27.98686025 ], [ -82.521813222222221, 27.986694388888889 ], [ -82.521761722222223, 27.986535777777778 ], [ -82.521688111111104, 27.986388472222224 ], [ -82.521596194444442, 27.986255555555555 ], [ -82.52149030555556, 27.986139027777778 ], [ -82.52137475, 27.98603975 ], [ -82.521253611111106, 27.985957555555558 ], [ -82.521129583333334, 27.985891305555558 ], [ -82.52099375, 27.985835666666667 ], [ -82.520843583333331, 27.985791861111114 ], [ -82.520680666666664, 27.985763027777779 ], [ -82.520507638888887, 27.985752194444444 ], [ -82.52032825, 27.985761972222225 ], [ -82.520147166666661, 27.985794055555555 ], [ -82.519969666666668, 27.985849055555555 ], [ -82.519801222222227, 27.98592625 ], [ -82.519646944444446, 27.986023527777778 ], [ -82.519511083333327, 27.986137694444444 ], [ -82.519396611111105, 27.98626463888889 ], [ -82.519305138888882, 27.986399944444447 ], [ -82.519236861111111, 27.986539222222223 ], [ -82.51919075, 27.986678472222223 ], [ -82.519164916666668, 27.986814388888888 ], [ -82.519156888888887, 27.986944444444447 ] ] } },
{ "type": "Feature", "properties": { "style": "solid", "thickness": 1 }, "geometry": { "type": "LineString", "coordinates": [ [ -82.470078861111119, 27.45541925 ], [ -82.47052022222222, 27.46302125 ], [ -82.467567638888895, 27.463157611111111 ], [ -82.466755444444445, 27.463075083333333 ], [ -82.4664095, 27.462911 ], [ -82.465848361111114, 27.462516777777775 ], [ -82.465004916666672, 27.461895527777777 ], [ -82.464422944444451, 27.461142138888889 ], [ -82.464254, 27.46054975 ], [ -82.464139416666669, 27.458574416666664 ], [ -82.464242388888891, 27.4580295 ], [ -82.464603333333329, 27.457292611111111 ], [ -82.465048722222221, 27.456851916666665 ], [ -82.465487166666676, 27.456291527777775 ], [ -82.466133861111118, 27.455841527777778 ], [ -82.466928638888888, 27.455624777777778 ], [ -82.467394861111117, 27.455543222222222 ], [ -82.470078861111119, 27.45541925 ] ] } },
{ "type": "Feature", "properties": { "style": "solid", "thickness": 1 }, "geometry": { "type": "LineString", "coordinates": [ [ -82.461221666666674, 27.455828166666667 ], [ -82.461662444444443, 27.463430194444445 ] ] } },
{ "type": "Feature", "properties": { "style": "solid", "thickness": 1 }, "geometry": { "type": "LineString", "coordinates": [ [ -82.455535277777784, 27.459871583333332 ], [ -82.452297333333334, 27.456239638888889 ] ] } },
{ "type": "Feature", "properties": { "style": "solid", "thickness": 1 }, "geometry": { "type": "LineString", "coordinates": [ [ -82.457732472222219, 27.455989111111112 ], [ -82.458173, 27.463591138888887 ], [ -82.45481775, 27.463745833333334 ], [ -82.454542388888896, 27.463638472222222 ], [ -82.453924583333333, 27.46342686111111 ], [ -82.453285972222218, 27.462856111111112 ], [ -82.452982888888897, 27.462269888888887 ], [ -82.452941277777782, 27.461551583333332 ], [ -82.453175055555562, 27.460940638888889 ], [ -82.45374430555556, 27.460314222222223 ], [ -82.454334361111108, 27.460046972222223 ], [ -82.454595861111116, 27.459914888888889 ], [ -82.457950972222221, 27.459760194444442 ] ] } },
{ "type": "Feature", "properties": { "style": "solid", "thickness": 1 }, "geometry": { "type": "LineString", "coordinates": [ [ -82.449613305555559, 27.456363277777776 ], [ -82.446362472222219, 27.46413525 ], [ -82.4424335, 27.45669375 ] ] } },
{ "type": "Feature", "properties": { "style": "solid", "thickness": 1 }, "geometry": { "type": "LineString", "coordinates": [ [ -82.448547472222231, 27.45887311111111 ], [ -82.443716111111115, 27.45909547222222 ] ] } },
{ "type": "Feature", "properties": { "style": "solid", "thickness": 1 }, "geometry": { "type": "LineString", "coordinates": [ [ -82.440054527777775, 27.464425444444444 ], [ -82.436895833333338, 27.459829222222222 ], [ -82.4343505, 27.464687583333333 ] ] } },
{ "type": "Feature", "properties": { "style": "solid", "thickness": 1 }, "geometry": { "type": "LineString", "coordinates": [ [ -82.436895833333338, 27.459829222222222 ], [ -82.436733333333336, 27.45701586111111 ] ] } },
{ "type": "Feature", "properties": { "style": "solid", "thickness": 1 }, "geometry": { "type": "LineString", "coordinates": [ [ -82.409821805555566, 27.55194913888889 ], [ -82.410227027777779, 27.553755305555555 ], [ -82.411384138888891, 27.555281444444446 ], [ -82.413113277777782, 27.556290222222223 ], [ -82.415145555555554, 27.556624805555558 ], [ -82.417164972222224, 27.556233166666669 ], [ -82.418857472222228, 27.555176166666666 ], [ -82.419959888888897, 27.553618194444446 ], [ -82.420300861111116, 27.55180152777778 ], [ -82.419827361111118, 27.550008583333334 ], [ -82.418613083333341, 27.548518194444448 ], [ -82.416846833333338, 27.547562027777779 ], [ -82.414803194444445, 27.54728875 ], [ -82.412799916666671, 27.547740888888889 ], [ -82.41114844444445, 27.548848083333336 ], [ -82.410105527777787, 27.55043825 ], [ -82.409821805555566, 27.55194913888889 ] ] } },
{ "type": "Feature", "properties": { "style": "solid", "thickness": 1 }, "geometry": { "type": "LineString", "coordinates": [ [ -82.402936222222223, 27.552508555555555 ], [ -82.40608263888889, 27.551879611111112 ], [ -82.408949416666673, 27.550563888888888 ], [ -82.411351333333343, 27.548646416666667 ], [ -82.413133194444455, 27.546251083333335 ], [ -82.414179888888896, 27.543532722222224 ], [ -82.414440222222225, 27.541146027777778 ] ] } },
{ "type": "Feature", "properties": { "style": "solid", "thickness": 1 }, "geometry": { "type": "LineString", "coordinates": [ [ -82.414440222222225, 27.541146027777778 ], [ -82.41514608333334, 27.543950333333335 ], [ -82.416622416666669, 27.546505416666669 ], [ -82.418773833333333, 27.548646138888891 ], [ -82.421461361111113, 27.550234194444446 ], [ -82.424511333333342, 27.551166944444446 ], [ -82.427189111111119, 27.551398805555557 ] ] } },
{ "type": "Feature", "properties": { "style": "solid", "thickness": 1 }, "geometry": { "type": "LineString", "coordinates": [ [ -82.415685361111116, 27.562762361111112 ], [ -82.416065388888896, 27.559908388888889 ], [ -82.417240444444445, 27.557231972222223 ], [ -82.419134638888892, 27.554906055555556 ], [ -82.4216255, 27.553080833333333 ], [ -82.424552138888899, 27.55187425 ], [ -82.427189111111119, 27.551398805555557 ] ] } },
{ "type": "Feature", "properties": { "style": "solid", "thickness": 1 }, "geometry": { "type": "LineString", "coordinates": [ [ -82.415685361111116, 27.562762361111112 ], [ -82.414979361111122, 27.559958083333335 ], [ -82.413502916666673, 27.557403 ], [ -82.411351416666676, 27.555262194444445 ], [ -82.408663916666669, 27.553673944444444 ], [ -82.405614, 27.552740833333335 ], [ -82.402936222222223, 27.552508555555555 ] ] } },
{ "type": "Feature", "properties": { "style": "solid", "thickness": 1 }, "geometry": { "type": "LineString", "coordinates": [ [ -82.387523722222227, 27.563111888888891 ], [ -82.391621, 27.562925166666666 ], [ -82.391184722222235, 27.555322944444445 ], [ -82.387020583333339, 27.555512666666669 ] ] } },
{ "type": "Feature", "properties": { "style": "solid", "thickness": 1 }, "geometry": { "type": "LineString", "coordinates": [ [ -82.391401138888895, 27.559094138888888 ], [ -82.387438361111123, 27.559274694444444 ] ] } },
{ "type": "Feature", "properties": { "style": "solid", "thickness": 1 }, "geometry": { "type": "LineString", "coordinates": [ [ -82.382266555555546, 27.559510194444446 ], [ -82.379028083333324, 27.55587652777778 ] ] } },
{ "type": "Feature", "properties": { "style": "solid", "thickness": 1 }, "geometry": { "type": "LineString", "coordinates": [ [ -82.384468361111118, 27.555628916666667 ], [ -82.384904166666672, 27.563231166666668 ], [ -82.381545722222214, 27.563384055555556 ], [ -82.38127019444444, 27.563276555555557 ], [ -82.380651972222211, 27.563064638888889 ], [ -82.380013166666657, 27.562493527777779 ], [ -82.379710194444442, 27.561907138888891 ], [ -82.379669055555553, 27.561188833333333 ], [ -82.379903416666664, 27.560578 ], [ -82.380473638888887, 27.559951888888889 ], [ -82.381064416666661, 27.559684944444445 ], [ -82.381326222222214, 27.559553 ], [ -82.384684527777779, 27.559400111111113 ] ] } },
{ "type": "Feature", "properties": { "style": "solid", "thickness": 1 }, "geometry": { "type": "LineString", "coordinates": [ [ -82.376274333333328, 27.55600177777778 ], [ -82.376709583333323, 27.563604055555555 ] ] } },
{ "type": "Feature", "properties": { "style": "solid", "thickness": 1 }, "geometry": { "type": "LineString", "coordinates": [ [ -82.367621194444439, 27.563656944444446 ], [ -82.368037916666665, 27.563878083333336 ], [ -82.368514944444442, 27.563976444444446 ], [ -82.370127, 27.563903222222223 ], [ -82.370724694444434, 27.563756055555555 ], [ -82.370922777777764, 27.563687027777778 ], [ -82.371899472222211, 27.5631025 ], [ -82.37246975, 27.562476444444446 ], [ -82.372637, 27.561868666666669 ], [ -82.373045527777776, 27.560769805555555 ], [ -82.372966749999989, 27.55939302777778 ], [ -82.37279475, 27.558740666666669 ], [ -82.372562416666653, 27.558211055555557 ], [ -82.3722595, 27.557624666666669 ], [ -82.371550194444438, 27.556996722222223 ], [ -82.370239805555542, 27.556456083333334 ], [ -82.369356388888889, 27.556316166666669 ], [ -82.368617583333332, 27.556349722222222 ], [ -82.367687555555548, 27.556572027777779 ], [ -82.367362, 27.556766861111111 ], [ -82.36710016666666, 27.556898777777779 ] ] } },
{ "type": "Feature", "properties": { "style": "solid", "thickness": 1 }, "geometry": { "type": "LineString", "coordinates": [ [ -82.35998438888889, 27.564363583333336 ], [ -82.361193472222212, 27.56430875 ], [ -82.361794555555548, 27.564221472222222 ], [ -82.36297283333333, 27.563627861111112 ], [ -82.364056583333323, 27.562558416666668 ], [ -82.3644151111111, 27.561761944444445 ], [ -82.364561888888886, 27.560795027777779 ], [ -82.364517416666658, 27.560016833333336 ], [ -82.364342055555554, 27.559304583333333 ], [ -82.36396175, 27.55854163888889 ], [ -82.363168194444441, 27.55761738888889 ], [ -82.362882444444438, 27.55733027777778 ], [ -82.362324611111106, 27.5569955 ], [ -82.361162277777765, 27.556688138888891 ], [ -82.359751805555547, 27.556752111111113 ], [ -82.359087, 27.556902305555557 ], [ -82.358429, 27.557172194444444 ], [ -82.358036277777771, 27.557370055555555 ], [ -82.357391944444444, 27.557879388888889 ], [ -82.356828444444446, 27.558625138888889 ], [ -82.356654277777778, 27.55911313888889 ], [ -82.356504027777774, 27.560020194444444 ], [ -82.356586, 27.561456861111111 ], [ -82.357272527777766, 27.562866138888889 ], [ -82.357702861111107, 27.56332675 ], [ -82.358196972222217, 27.563724444444446 ], [ -82.35868425, 27.564002444444444 ], [ -82.358822, 27.564056194444444 ], [ -82.35998438888889, 27.564363583333336 ] ] } },
{ "type": "Feature", "properties": { "style": "solid", "thickness": 1 }, "geometry": { "type": "LineString", "coordinates": [ [ -82.379236333333324, 27.5492565 ], [ -82.379256916666662, 27.549615666666668 ], [ -82.379146583333323, 27.550040805555557 ], [ -82.378908805555554, 27.550591777777779 ], [ -82.378660722222222, 27.550963166666666 ], [ -82.37827147222221, 27.551220916666669 ], [ -82.377741027777773, 27.551365083333334 ], [ -82.376733611111106, 27.551410916666669 ], [ -82.375987972222219, 27.551324777777779 ], [ -82.375641888888879, 27.551160472222222 ], [ -82.375147777777769, 27.550762833333334 ], [ -82.374996333333328, 27.550469638888888 ], [ -82.374834611111098, 27.549996861111111 ], [ -82.374779777777775, 27.549039083333334 ], [ -82.374893555555545, 27.548673805555556 ], [ -82.375426027777777, 27.54738925 ], [ -82.376183972222222, 27.546514555555557 ], [ -82.3773948611111, 27.545319166666669 ], [ -82.378853805555551, 27.54375238888889 ], [ -82.374622916666667, 27.543944833333335 ] ] } },
{ "type": "Feature", "properties": { "style": "solid", "thickness": 1 }, "geometry": { "type": "LineString", "coordinates": [ [ -82.367332722222216, 27.547156861111112 ], [ -82.367435361111106, 27.548952694444445 ], [ -82.367695027777771, 27.549961166666669 ], [ -82.367856722222214, 27.550433944444446 ], [ -82.368078722222222, 27.550783972222224 ], [ -82.368925749999988, 27.551465694444445 ], [ -82.369748805555545, 27.55172838888889 ], [ -82.370017444444443, 27.551716194444445 ], [ -82.370806277777774, 27.551380277777778 ], [ -82.371503944444441, 27.550628361111112 ], [ -82.371752055555547, 27.550257 ], [ -82.371858972222213, 27.549772 ], [ -82.37200225, 27.548745222222223 ], [ -82.371899527777771, 27.546949388888891 ], [ -82.371639833333333, 27.54594091666667 ], [ -82.371478138888875, 27.545468138888889 ], [ -82.371188944444441, 27.545121194444445 ], [ -82.370409138888888, 27.544436416666667 ], [ -82.369586138888877, 27.544173722222222 ], [ -82.3693175, 27.544185944444447 ], [ -82.368528722222209, 27.544521861111114 ], [ -82.367763916666661, 27.545276777777779 ], [ -82.367582972222209, 27.545645083333334 ], [ -82.367476027777769, 27.546130083333335 ], [ -82.367332722222216, 27.547156861111112 ] ] } },
{ "type": "Feature", "properties": { "style": "solid", "thickness": 1 }, "geometry": { "type": "LineString", "coordinates": [ [ -82.480460111111114, 27.47174983333333 ], [ -82.480866194444445, 27.473555805555552 ], [ -82.482023444444451, 27.475081361111108 ], [ -82.483752, 27.47608925 ], [ -82.485783, 27.476422777777778 ], [ -82.487800666666672, 27.476030055555555 ], [ -82.48949125, 27.474972166666664 ], [ -82.49059183333334, 27.473413611111109 ], [ -82.490931333333336, 27.47159675 ], [ -82.490456972222219, 27.469804055555553 ], [ -82.489242583333336, 27.468314305555555 ], [ -82.487476972222225, 27.467359083333331 ], [ -82.485434666666663, 27.467086916666666 ], [ -82.483433138888884, 27.467540111111109 ], [ -82.481783638888885, 27.468648222222221 ], [ -82.480742555555551, 27.470238944444443 ], [ -82.480460111111114, 27.47174983333333 ] ] } },
{ "type": "Feature", "properties": { "style": "solid", "thickness": 1 }, "geometry": { "type": "LineString", "coordinates": [ [ -82.473579944444452, 27.47231283333333 ], [ -82.476723638888885, 27.47168225 ], [ -82.479587472222221, 27.470365027777778 ], [ -82.481986388888885, 27.468446305555553 ], [ -82.483765361111111, 27.466050027777776 ], [ -82.484809527777784, 27.46333111111111 ], [ -82.485068111111119, 27.46094436111111 ] ] } },
{ "type": "Feature", "properties": { "style": "solid", "thickness": 1 }, "geometry": { "type": "LineString", "coordinates": [ [ -82.485068111111119, 27.46094436111111 ], [ -82.485775277777776, 27.463748305555555 ], [ -82.487252166666664, 27.466302638888887 ], [ -82.489403416666661, 27.46844225 ], [ -82.492090027777778, 27.470028916666664 ], [ -82.495138361111117, 27.470960111111108 ], [ -82.49781425, 27.471190555555555 ] ] } },
{ "type": "Feature", "properties": { "style": "solid", "thickness": 1 }, "geometry": { "type": "LineString", "coordinates": [ [ -82.486326333333338, 27.482560055555552 ], [ -82.48670422222223, 27.47970586111111 ], [ -82.487876722222225, 27.477028833333332 ], [ -82.489768, 27.474701916666664 ], [ -82.492255861111119, 27.472875416666664 ], [ -82.495179611111112, 27.471667333333333 ], [ -82.49781425, 27.471190555555555 ] ] } },
{ "type": "Feature", "properties": { "style": "solid", "thickness": 1 }, "geometry": { "type": "LineString", "coordinates": [ [ -82.486326333333338, 27.482560055555552 ], [ -82.485619027777773, 27.479756111111108 ], [ -82.484142, 27.477201777777776 ], [ -82.481990694444448, 27.475062083333331 ], [ -82.479304111111119, 27.47347522222222 ], [ -82.47625583333334, 27.472543694444443 ], [ -82.473579944444452, 27.47231283333333 ] ] } }
]
}
