{
"type": "FeatureCollection",
"name": "tpa813sgp",
"features": [
{ "type": "Feature", "properties": { "style": "solid", "thickness": 1 }, "geometry": { "type": "LineString", "coordinates": [ [ -82.521223194444445, 27.986027333333336 ], [ -82.521223194444445, 27.987861555555558 ] ] } },
{ "type": "Feature", "properties": { "style": "solid", "thickness": 1 }, "geometry": { "type": "LineString", "coordinates": [ [ -82.520706611111109, 27.985843888888891 ], [ -82.520706638888882, 27.988045 ] ] } },
{ "type": "Feature", "properties": { "style": "solid", "thickness": 1 }, "geometry": { "type": "LineString", "coordinates": [ [ -82.52019005555556, 27.985843888888891 ], [ -82.52019005555556, 27.988045 ] ] } },
{ "type": "Feature", "properties": { "style": "solid", "thickness": 1 }, "geometry": { "type": "LineString", "coordinates": [ [ -82.519673472222223, 27.986027305555556 ], [ -82.519673472222223, 27.987861555555558 ] ] } },
{ "type": "Feature", "properties": { "style": "solid", "thickness": 1 }, "geometry": { "type": "LineString", "coordinates": [ [ -82.519156888888887, 27.986944444444447 ], [ -82.519164916666668, 27.987074472222222 ], [ -82.51919075, 27.98721038888889 ], [ -82.519236861111111, 27.987349666666667 ], [ -82.519305138888882, 27.987488916666667 ], [ -82.519396611111105, 27.987624222222223 ], [ -82.519511083333327, 27.987751194444446 ], [ -82.519646944444446, 27.987865333333335 ], [ -82.519801222222227, 27.987962638888892 ], [ -82.519969666666668, 27.988039833333335 ], [ -82.520147166666661, 27.988094833333335 ], [ -82.52032825, 27.988126916666669 ], [ -82.520507638888887, 27.988136694444446 ], [ -82.520680666666664, 27.988125861111111 ], [ -82.520843583333331, 27.98809702777778 ], [ -82.52099375, 27.988053222222224 ], [ -82.521129583333334, 27.987997583333335 ], [ -82.521253638888894, 27.987931305555556 ], [ -82.52137477777778, 27.98784913888889 ], [ -82.52149030555556, 27.987749833333336 ], [ -82.521596222222215, 27.987633305555555 ], [ -82.521688111111104, 27.987500416666666 ], [ -82.521761722222223, 27.987353111111112 ], [ -82.521813222222221, 27.9871945 ], [ -82.52183975, 27.987028611111111 ], [ -82.521839722222225, 27.98686025 ], [ -82.521813222222221, 27.986694388888889 ], [ -82.521761722222223, 27.986535777777778 ], [ -82.521688111111104, 27.986388472222224 ], [ -82.521596194444442, 27.986255555555555 ], [ -82.52149030555556, 27.986139027777778 ], [ -82.52137475, 27.98603975 ], [ -82.521253611111106, 27.985957555555558 ], [ -82.521129583333334, 27.985891305555558 ], [ -82.52099375, 27.985835666666667 ], [ -82.520843583333331, 27.985791861111114 ], [ -82.520680666666664, 27.985763027777779 ], [ -82.520507638888887, 27.985752194444444 ], [ -82.52032825, 27.985761972222225 ], [ -82.520147166666661, 27.985794055555555 ], [ -82.519969666666668, 27.985849055555555 ], [ -82.519801222222227, 27.98592625 ], [ -82.519646944444446, 27.986023527777778 ], [ -82.519511083333327, 27.986137694444444 ], [ -82.519396611111105, 27.98626463888889 ], [ -82.519305138888882, 27.986399944444447 ], [ -82.519236861111111, 27.986539222222223 ], [ -82.51919075, 27.986678472222223 ], [ -82.519164916666668, 27.986814388888888 ], [ -82.519156888888887, 27.986944444444447 ] ] } },
{ "type": "Feature", "properties": { "style": "solid", "thickness": 1 }, "geometry": { "type": "LineString", "coordinates": [ [ -82.162064444444454, 28.033061444444442 ], [ -82.16410344444445, 28.04398216666667 ], [ -82.166953305555566, 28.05475911111111 ], [ -82.170601777777776, 28.065344916666668 ], [ -82.175033055555559, 28.075693083333334 ], [ -82.180227888888894, 28.085758138888888 ], [ -82.1861636388889, 28.095495861111111 ], [ -82.192814444444451, 28.104863388888891 ], [ -82.200151194444445, 28.113819555555558 ], [ -82.208141777777783, 28.122324972222223 ], [ -82.216751222222229, 28.130342166666669 ], [ -82.225941722222231, 28.137835916666667 ], [ -82.235672944444445, 28.144773166666667 ], [ -82.245902138888894, 28.151123416666664 ], [ -82.256584388888882, 28.156858694444445 ], [ -82.267672638888882, 28.161953722222222 ], [ -82.279118111111117, 28.166386055555556 ], [ -82.290870444444437, 28.170136194444446 ], [ -82.302877888888887, 28.173187583333334 ], [ -82.315087472222217, 28.17552677777778 ], [ -82.327445472222223, 28.1771435 ], [ -82.339897416666659, 28.178030583333335 ], [ -82.340838916666655, 28.17806777777778 ] ] } },
{ "type": "Feature", "properties": { "style": "solid", "thickness": 1 }, "geometry": { "type": "LineString", "coordinates": [ [ -82.06276480555556, 28.17284775 ], [ -82.07210775, 28.185178166666667 ], [ -82.08212833333333, 28.197084194444443 ], [ -82.092802222222218, 28.208536694444444 ], [ -82.1041035, 28.219507583333332 ], [ -82.116004638888882, 28.229969972222221 ], [ -82.128476583333324, 28.239898194444446 ], [ -82.141488944444447, 28.249267888888891 ], [ -82.155009916666671, 28.258056111111109 ], [ -82.169006444444449, 28.266241277777777 ], [ -82.183444277777781, 28.273803305555553 ], [ -82.192357944444453, 28.278058388888887 ] ] } },
{ "type": "Feature", "properties": { "style": "solid", "thickness": 1 }, "geometry": { "type": "LineString", "coordinates": [ [ -82.323229527777769, 28.185105055555557 ], [ -82.325663944444443, 28.168533444444446 ] ] } },
{ "type": "Feature", "properties": { "style": "solid", "thickness": 1 }, "geometry": { "type": "LineString", "coordinates": [ [ -82.155725194444443, 28.049228138888889 ], [ -82.174114805555561, 28.045608472222224 ] ] } },
{ "type": "Feature", "properties": { "style": "solid", "thickness": 1 }, "geometry": { "type": "LineString", "coordinates": [ [ -82.22798680555556, 28.12827475 ], [ -82.21525922222223, 28.140602722222223 ] ] } },
{ "type": "Feature", "properties": { "style": "solid", "thickness": 1 }, "geometry": { "type": "LineString", "coordinates": [ [ -82.126085, 28.226864527777778 ], [ -82.11333425, 28.23918275 ] ] } },
{ "type": "Feature", "properties": { "style": "solid", "thickness": 1 }, "geometry": { "type": "LineString", "coordinates": [ [ -82.34123525, 28.169719444444446 ], [ -82.340442555555555, 28.186416111111111 ] ] } },
{ "type": "Feature", "properties": { "style": "solid", "thickness": 1 }, "geometry": { "type": "LineString", "coordinates": [ [ -82.17140075, 28.031969333333333 ], [ -82.152727972222223, 28.034152916666667 ] ] } },
{ "type": "Feature", "properties": { "style": "solid", "thickness": 1 }, "geometry": { "type": "LineString", "coordinates": [ [ -82.171753777777781, 28.257896111111112 ], [ -82.161615055555558, 28.271991472222222 ] ] } },
{ "type": "Feature", "properties": { "style": "solid", "thickness": 1 }, "geometry": { "type": "LineString", "coordinates": [ [ -82.19671272222223, 28.27064547222222 ], [ -82.188002555555556, 28.285471138888891 ] ] } },
{ "type": "Feature", "properties": { "style": "solid", "thickness": 1 }, "geometry": { "type": "LineString", "coordinates": [ [ -82.087221944444437, 28.189269583333335 ], [ -82.072251305555554, 28.199435472222223 ] ] } },
{ "type": "Feature", "properties": { "style": "solid", "thickness": 1 }, "geometry": { "type": "LineString", "coordinates": [ [ -82.07072047222222, 28.168362833333333 ], [ -82.0548085, 28.17733216666667 ] ] } },
{ "type": "Feature", "properties": { "style": "solid", "thickness": 1 }, "geometry": { "type": "LineString", "coordinates": [ [ -82.359567, 28.01986347222222 ], [ -82.358224083333326, 28.019507055555554 ], [ -82.356887388888879, 28.01909511111111 ], [ -82.355561111111101, 28.018627305555555 ], [ -82.354249638888888, 28.018103722222222 ], [ -82.352957305555549, 28.017524777777776 ], [ -82.351688472222222, 28.01689125 ], [ -82.350447472222214, 28.01620425 ], [ -82.349238555555544, 28.015465277777778 ], [ -82.348065777777776, 28.014676111111111 ], [ -82.346933055555553, 28.013838972222221 ], [ -82.345844083333333, 28.012956305555555 ], [ -82.344802222222214, 28.012030861111111 ], [ -82.343810638888883, 28.011065694444444 ], [ -82.342872083333333, 28.010064027777776 ], [ -82.341988972222211, 28.009029361111111 ], [ -82.341163333333327, 28.00796525 ], [ -82.340396861111103, 28.006875416666666 ], [ -82.339690749999988, 28.005763694444443 ], [ -82.33904588888889, 28.00463386111111 ], [ -82.33846275, 28.00348975 ], [ -82.337941388888879, 28.002335111111112 ] ] } },
{ "type": "Feature", "properties": { "style": "solid", "thickness": 1 }, "geometry": { "type": "LineString", "coordinates": [ [ -82.359567, 28.01986347222222 ], [ -82.359045, 28.018709055555554 ], [ -82.358461277777778, 28.017565166666667 ], [ -82.357815916666667, 28.016435583333333 ], [ -82.3571093611111, 28.015324083333333 ], [ -82.3563425, 28.014234527777777 ], [ -82.355516555555553, 28.013170666666667 ], [ -82.354633222222219, 28.012136194444444 ], [ -82.353694499999989, 28.01113475 ], [ -82.352702861111112, 28.01016975 ], [ -82.351661027777766, 28.009244444444445 ], [ -82.350572111111106, 28.008361861111112 ], [ -82.349439527777776, 28.007524777777778 ], [ -82.34826697222222, 28.006735611111111 ], [ -82.347058305555549, 28.005996555555555 ], [ -82.345817638888889, 28.005309444444446 ], [ -82.34454913888888, 28.00467572222222 ], [ -82.343257194444433, 28.004096527777779 ], [ -82.341946083333326, 28.00357263888889 ], [ -82.34062025, 28.003104444444446 ], [ -82.339283916666659, 28.002692027777776 ], [ -82.337941388888879, 28.002335111111112 ] ] } },
{ "type": "Feature", "properties": { "style": "solid", "thickness": 1 }, "geometry": { "type": "LineString", "coordinates": [ [ -82.100642361111099, 28.254715722222222 ], [ -82.096698916666668, 28.254885916666666 ], [ -82.094553222222217, 28.253047444444444 ], [ -82.094241527777768, 28.252336722222221 ], [ -82.093936444444438, 28.251746444444443 ], [ -82.093856972222213, 28.250301555555556 ], [ -82.094341277777772, 28.249194472222221 ], [ -82.0950975, 28.248075611111112 ], [ -82.095886833333324, 28.247558805555556 ], [ -82.096410833333323, 28.247174111111111 ], [ -82.09747872222222, 28.246765972222224 ], [ -82.099926194444436, 28.246660305555558 ], [ -82.101033861111105, 28.246974555555557 ], [ -82.101882833333335, 28.247541361111111 ], [ -82.102609111111107, 28.248354833333334 ], [ -82.103070111111109, 28.249300444444444 ], [ -82.1032525, 28.250137416666668 ], [ -82.103318833333333, 28.251341444444446 ], [ -82.103216027777776, 28.251949361111112 ], [ -82.102847888888888, 28.252689416666666 ], [ -82.10232388888889, 28.253074111111111 ], [ -82.100642361111099, 28.254715722222222 ], [ -82.10191925, 28.255626111111113 ], [ -82.102652222222218, 28.256559972222224 ], [ -82.102957333333322, 28.25715025 ], [ -82.103063472222217, 28.25907675 ], [ -82.102463138888879, 28.260550972222223 ], [ -82.102075083333332, 28.260929805555556 ], [ -82.100877722222222, 28.261464277777776 ], [ -82.100081666666668, 28.261860694444444 ], [ -82.098313805555549, 28.261937 ], [ -82.09707, 28.26162861111111 ], [ -82.095229277777776, 28.260380416666667 ], [ -82.094924166666658, 28.259790138888889 ], [ -82.094804944444434, 28.257622833333333 ], [ -82.095146638888878, 28.256401194444443 ], [ -82.095276, 28.256274916666666 ], [ -82.095929416666664, 28.255763972222223 ], [ -82.096698916666668, 28.254885916666666 ] ] } },
{ "type": "Feature", "properties": { "style": "solid", "thickness": 1 }, "geometry": { "type": "LineString", "coordinates": [ [ -82.077610166666659, 28.2622255 ], [ -82.078452555555558, 28.262672027777779 ], [ -82.079417694444444, 28.262871888888888 ], [ -82.0826815, 28.262731444444444 ], [ -82.083892194444445, 28.262437944444443 ], [ -82.084293555555547, 28.262299972222223 ], [ -82.086273888888883, 28.2611285 ], [ -82.087431638888887, 28.259871722222222 ], [ -82.087773416666664, 28.258650083333333 ], [ -82.088606222222211, 28.256441777777777 ], [ -82.088454, 28.253672444444444 ], [ -82.088109277777775, 28.252359694444444 ], [ -82.087641777777776, 28.251293638888889 ], [ -82.087031722222221, 28.250113 ], [ -82.085599222222214, 28.248847111111111 ], [ -82.082949611111104, 28.247754305555556 ], [ -82.081162138888885, 28.247469166666669 ], [ -82.079666444444442, 28.247533527777779 ], [ -82.077782638888891, 28.24797663888889 ], [ -82.077122583333335, 28.248367111111111 ], [ -82.076591888888885, 28.248631305555556 ] ] } },
{ "type": "Feature", "properties": { "style": "solid", "thickness": 1 }, "geometry": { "type": "LineString", "coordinates": [ [ -82.195889277777781, 28.024660611111109 ], [ -82.196091, 28.028272833333332 ], [ -82.196612416666667, 28.030301833333333 ], [ -82.19693761111111, 28.031253166666666 ], [ -82.197385055555557, 28.031957694444444 ], [ -82.199094138888896, 28.033330944444444 ], [ -82.200756166666665, 28.033861333333334 ], [ -82.201298972222219, 28.033837444444448 ], [ -82.202893694444441, 28.03316375 ], [ -82.204305583333337, 28.031653138888888 ], [ -82.204807944444454, 28.030906805555556 ], [ -82.205025472222232, 28.02993161111111 ], [ -82.205318055555551, 28.027866777777778 ], [ -82.205116027777777, 28.024254583333331 ], [ -82.2045945, 28.022225583333331 ], [ -82.204269277777783, 28.021274277777778 ], [ -82.203686138888898, 28.02057575 ], [ -82.202112861111118, 28.019196583333333 ], [ -82.200451055555561, 28.018666194444442 ], [ -82.19990833333334, 28.018690083333333 ], [ -82.198313805555557, 28.01936375 ], [ -82.196766305555556, 28.02088025 ], [ -82.196399611111119, 28.021620611111111 ], [ -82.19618202777778, 28.022595805555554 ], [ -82.195889277777781, 28.024660611111109 ] ] } },
{ "type": "Feature", "properties": { "style": "solid", "thickness": 1 }, "geometry": { "type": "LineString", "coordinates": [ [ -82.137379305555555, 28.052796333333333 ], [ -82.137579138888896, 28.056408583333333 ], [ -82.138099583333343, 28.058437805555556 ], [ -82.138424333333333, 28.05938925 ], [ -82.1388715, 28.060093972222223 ], [ -82.140580305555559, 28.061467944444445 ], [ -82.142242472222222, 28.06199902777778 ], [ -82.142785416666669, 28.061975361111113 ], [ -82.144380916666677, 28.06130236111111 ], [ -82.145793972222222, 28.059792361111111 ], [ -82.146296888888898, 28.05904625 ], [ -82.146514972222235, 28.058071138888888 ], [ -82.146808777777778, 28.056006444444446 ], [ -82.146608638888893, 28.052394194444446 ], [ -82.146088055555566, 28.050365027777779 ], [ -82.14576325, 28.049413583333337 ], [ -82.145180361111116, 28.048714805555559 ], [ -82.143607416666669, 28.047334972222224 ], [ -82.141945472222233, 28.046803888888892 ], [ -82.141402611111118, 28.046827555555556 ], [ -82.139807305555564, 28.047500555555558 ], [ -82.138258611111112, 28.049016388888891 ], [ -82.137891416666676, 28.049756555555557 ], [ -82.13767325, 28.050731638888891 ], [ -82.137379305555555, 28.052796333333333 ] ] } },
{ "type": "Feature", "properties": { "style": "solid", "thickness": 1 }, "geometry": { "type": "LineString", "coordinates": [ [ -82.201942888888894, 28.152098527777778 ], [ -82.202145027777775, 28.155710611111111 ], [ -82.202667138888899, 28.157739555555555 ], [ -82.20299275, 28.158690833333331 ], [ -82.203440777777786, 28.159395333333332 ], [ -82.205151944444452, 28.1607685 ], [ -82.206815944444443, 28.161298805555553 ], [ -82.207359388888889, 28.161274888888887 ], [ -82.20895594444444, 28.160601138888886 ], [ -82.210369388888893, 28.159090527777778 ], [ -82.210872333333342, 28.158344194444442 ], [ -82.211090055555559, 28.157369027777776 ], [ -82.211382888888892, 28.15530422222222 ], [ -82.211180444444452, 28.151692138888887 ], [ -82.210658194444449, 28.149663222222223 ], [ -82.210332555555553, 28.148711944444443 ], [ -82.209748694444443, 28.148013444444445 ], [ -82.2081735, 28.146634388888888 ], [ -82.206509722222222, 28.146104083333334 ], [ -82.205966361111109, 28.146128 ], [ -82.20437, 28.146801722222222 ], [ -82.202820777777774, 28.148318222222223 ], [ -82.202453666666671, 28.149058583333332 ], [ -82.202235888888893, 28.15003375 ], [ -82.201942888888894, 28.152098527777778 ] ] } },
{ "type": "Feature", "properties": { "style": "solid", "thickness": 1 }, "geometry": { "type": "LineString", "coordinates": [ [ -82.185452444444451, 28.161633444444444 ], [ -82.18629447222223, 28.162079333333331 ], [ -82.187258944444451, 28.162278444444443 ], [ -82.190519583333341, 28.162135416666665 ], [ -82.191728861111116, 28.161840972222222 ], [ -82.192129722222219, 28.161702666666667 ], [ -82.194107055555563, 28.160529611111109 ], [ -82.195262472222225, 28.159271888888888 ], [ -82.195602722222219, 28.158049944444443 ], [ -82.196432527777787, 28.155840916666666 ], [ -82.196277694444447, 28.153071638888889 ], [ -82.195931972222226, 28.151759138888888 ], [ -82.195463833333335, 28.150693388888886 ], [ -82.194853166666675, 28.149513222222222 ], [ -82.193420722222228, 28.148248416666664 ], [ -82.190772444444448, 28.147157638888888 ], [ -82.18898636111112, 28.146873916666667 ], [ -82.187492111111112, 28.146939444444445 ], [ -82.185610472222223, 28.147384055555555 ], [ -82.184951416666664, 28.147775055555556 ], [ -82.1844215, 28.148039694444442 ] ] } },
{ "type": "Feature", "properties": { "style": "solid", "thickness": 1 }, "geometry": { "type": "LineString", "coordinates": [ [ -82.320753638888888, 28.201433638888886 ], [ -82.320959833333333, 28.205045555555554 ], [ -82.321484416666664, 28.207074027777779 ], [ -82.321811222222223, 28.208025027777776 ], [ -82.322260194444439, 28.208729138888888 ], [ -82.32397366666666, 28.210100805555555 ], [ -82.325639, 28.210629666666666 ], [ -82.326182666666668, 28.210605305555553 ], [ -82.327779222222219, 28.209930194444443 ], [ -82.329191666666659, 28.208418388888887 ], [ -82.329694027777776, 28.20767161111111 ], [ -82.329910777777769, 28.20669625 ], [ -82.3302015, 28.204631222222222 ], [ -82.329995, 28.201019333333331 ], [ -82.329470305555546, 28.19899088888889 ], [ -82.329143444444441, 28.198039888888889 ], [ -82.328558555555546, 28.197341916666666 ], [ -82.326981138888883, 28.195964194444446 ], [ -82.325316027777774, 28.195435333333332 ], [ -82.324772444444434, 28.195459722222221 ], [ -82.32317605555555, 28.196134805555555 ], [ -82.321627805555551, 28.19765263888889 ], [ -82.321261333333325, 28.198393277777779 ], [ -82.321044527777772, 28.199368638888888 ], [ -82.320753638888888, 28.201433638888886 ] ] } },
{ "type": "Feature", "properties": { "style": "solid", "thickness": 1 }, "geometry": { "type": "LineString", "coordinates": [ [ -82.31471616666667, 28.195910166666668 ], [ -82.315588194444445, 28.21120061111111 ], [ -82.309607916666664, 28.21146813888889 ], [ -82.307963222222213, 28.21130025 ], [ -82.307263055555552, 28.210969444444444 ], [ -82.30612775, 28.21017525 ], [ -82.30442136111111, 28.208923777777777 ], [ -82.303244972222217, 28.207407166666666 ], [ -82.302904611111103, 28.206215333333333 ], [ -82.302678472222226, 28.202242222222221 ], [ -82.302888611111115, 28.2011465 ], [ -82.303621777777778, 28.199665305555556 ], [ -82.304525111111104, 28.198780027777779 ], [ -82.305414722222224, 28.197653916666667 ], [ -82.306725694444438, 28.196750416666667 ], [ -82.308335888888891, 28.196316305555555 ], [ -82.309280305555546, 28.196153361111111 ], [ -82.31471616666667, 28.195910166666668 ] ] } },
{ "type": "Feature", "properties": { "style": "solid", "thickness": 1 }, "geometry": { "type": "LineString", "coordinates": [ [ -82.219560222222228, 28.25246225 ], [ -82.215617027777782, 28.252635861111113 ], [ -82.213469333333336, 28.250799194444443 ], [ -82.213156861111116, 28.250088777777776 ], [ -82.212851138888894, 28.249498722222224 ], [ -82.212770083333339, 28.248053916666667 ], [ -82.213253138888888, 28.24694638888889 ], [ -82.214008138888886, 28.245826888888889 ], [ -82.214796888888898, 28.245309388888892 ], [ -82.215320472222231, 28.24492425 ], [ -82.216387888888889, 28.244515166666666 ], [ -82.218835194444452, 28.244407416666668 ], [ -82.21994319444444, 28.244720722222223 ], [ -82.220792777777774, 28.245286777777778 ], [ -82.221519944444452, 28.246099638888889 ], [ -82.221981972222224, 28.247044861111114 ], [ -82.222165277777776, 28.247881666666668 ], [ -82.222232944444443, 28.249085666666666 ], [ -82.222130805555551, 28.249693666666669 ], [ -82.2217635, 28.250434027777779 ], [ -82.221239916666676, 28.250819194444443 ], [ -82.219560222222228, 28.25246225 ], [ -82.220838083333334, 28.253371555555557 ], [ -82.221572055555555, 28.254304805555556 ], [ -82.221877833333338, 28.254894805555555 ], [ -82.221986083333334, 28.256821222222221 ], [ -82.221387388888886, 28.258295972222221 ], [ -82.22099975, 28.25867513888889 ], [ -82.219802972222226, 28.259210638888888 ], [ -82.219007388888897, 28.25960775 ], [ -82.217239638888884, 28.259685583333333 ], [ -82.215995527777778, 28.25937825 ], [ -82.214153444444449, 28.258131638888887 ], [ -82.213847694444453, 28.257541611111112 ], [ -82.213726083333341, 28.255374416666665 ], [ -82.214066444444441, 28.254152472222223 ], [ -82.214195638888896, 28.254026083333333 ], [ -82.2148485, 28.253514555555554 ], [ -82.215617027777782, 28.252635861111113 ] ] } },
{ "type": "Feature", "properties": { "style": "solid", "thickness": 1 }, "geometry": { "type": "LineString", "coordinates": [ [ -82.15812461111112, 28.289191861111114 ], [ -82.154179972222224, 28.289363722222223 ], [ -82.15203261111111, 28.287526111111113 ], [ -82.15172044444445, 28.286815555555556 ], [ -82.151414972222227, 28.286225388888891 ], [ -82.151334694444444, 28.284780555555557 ], [ -82.151818555555565, 28.28367325 ], [ -82.152574444444454, 28.282554111111111 ], [ -82.153363750000011, 28.282036972222222 ], [ -82.153887722222223, 28.281652055555554 ], [ -82.15495575, 28.281243472222222 ], [ -82.157403944444454, 28.281136805555555 ], [ -82.158512111111122, 28.281450583333331 ], [ -82.159361666666669, 28.282017027777776 ], [ -82.160088611111121, 28.282830194444443 ], [ -82.16055025, 28.283775611111114 ], [ -82.160733166666674, 28.2846125 ], [ -82.160800166666675, 28.285816527777779 ], [ -82.160697638888891, 28.286424444444446 ], [ -82.16032977777779, 28.287164666666669 ], [ -82.159805805555564, 28.287549583333334 ], [ -82.15812461111112, 28.289191861111114 ], [ -82.15940236111112, 28.290101722222225 ], [ -82.160136083333342, 28.291035305555557 ], [ -82.160441611111111, 28.291625444444445 ], [ -82.160548805555564, 28.293551861111112 ], [ -82.159949055555558, 28.295026333333336 ], [ -82.159561083333344, 28.295405333333335 ], [ -82.158363611111113, 28.295940277777781 ], [ -82.1575675, 28.296337055555558 ], [ -82.155799111111122, 28.296414083333335 ], [ -82.15455477777779, 28.296106194444445 ], [ -82.152712777777779, 28.29485877777778 ], [ -82.15240725000001, 28.294268638888891 ], [ -82.152286833333335, 28.292101388888891 ], [ -82.152628, 28.290879611111112 ], [ -82.152757333333341, 28.290753277777778 ], [ -82.153410694444446, 28.290242055555556 ], [ -82.154179972222224, 28.289363722222223 ] ] } },
{ "type": "Feature", "properties": { "style": "solid", "thickness": 1 }, "geometry": { "type": "LineString", "coordinates": [ [ -82.145570916666671, 28.281651944444445 ], [ -82.146419666666674, 28.296943027777779 ], [ -82.140434277777786, 28.297203194444446 ], [ -82.138788527777791, 28.297033305555559 ], [ -82.138088361111116, 28.296701638888891 ], [ -82.136953388888898, 28.295906083333335 ], [ -82.135247638888899, 28.2946525 ], [ -82.134072694444455, 28.293134527777781 ], [ -82.133733944444458, 28.291942305555558 ], [ -82.133513861111112, 28.287969 ], [ -82.133725861111117, 28.286873583333335 ], [ -82.134461944444453, 28.285393333333335 ], [ -82.135367361111122, 28.28450916666667 ], [ -82.136259444444448, 28.283384194444444 ], [ -82.137572861111124, 28.282482305555554 ], [ -82.139185, 28.282050222222221 ], [ -82.140130416666679, 28.281888444444444 ], [ -82.145570916666671, 28.281651944444445 ] ] } },
{ "type": "Feature", "properties": { "style": "solid", "thickness": 1 }, "geometry": { "type": "LineString", "coordinates": [ [ -82.05863725, 28.213672166666665 ], [ -82.054695222222222, 28.213841166666665 ], [ -82.052551055555554, 28.212002027777778 ], [ -82.05223975, 28.211291222222222 ], [ -82.051935027777773, 28.210700833333334 ], [ -82.05185613888888, 28.209255916666667 ], [ -82.052340666666666, 28.208148944444442 ], [ -82.053097027777781, 28.207030333333332 ], [ -82.053886277777778, 28.20651375 ], [ -82.054410222222216, 28.20612922222222 ], [ -82.055477861111115, 28.20572138888889 ], [ -82.057924444444438, 28.205616472222221 ], [ -82.059031555555549, 28.205931055555556 ], [ -82.05988, 28.206498111111109 ], [ -82.060605694444448, 28.207311805555555 ], [ -82.06106613888889, 28.208257583333332 ], [ -82.061248138888885, 28.209094611111109 ], [ -82.061314, 28.210298666666667 ], [ -82.061211, 28.210906555555553 ], [ -82.060842722222219, 28.2116465 ], [ -82.06031875, 28.212031055555556 ], [ -82.05863725, 28.213672166666665 ], [ -82.059913277777781, 28.214582944444444 ], [ -82.060645611111113, 28.215517055555555 ], [ -82.060950416666657, 28.216107416666667 ], [ -82.06105575, 28.218033944444443 ], [ -82.060455083333324, 28.219508 ], [ -82.060067027777777, 28.21988672222222 ], [ -82.058869888888893, 28.220420833333332 ], [ -82.058074, 28.220817027777777 ], [ -82.056306777777777, 28.220892805555554 ], [ -82.055063583333336, 28.220584027777775 ], [ -82.053224027777773, 28.219335277777777 ], [ -82.052919277777775, 28.218744888888889 ], [ -82.052800916666669, 28.216577527777776 ], [ -82.053142972222219, 28.21535597222222 ], [ -82.053272333333325, 28.21522975 ], [ -82.053925694444445, 28.214718972222222 ], [ -82.054695222222222, 28.213841166666665 ] ] } },
{ "type": "Feature", "properties": { "style": "solid", "thickness": 1 }, "geometry": { "type": "LineString", "coordinates": [ [ -82.098259472222225, 28.157240638888887 ], [ -82.094319555555558, 28.157410777777777 ], [ -82.092175833333329, 28.155572222222222 ], [ -82.091864416666667, 28.1548615 ], [ -82.091559638888882, 28.154271194444444 ], [ -82.091480249999989, 28.152826305555553 ], [ -82.09196411111111, 28.151719166666666 ], [ -82.09271969444444, 28.150600305555553 ], [ -82.093508305555545, 28.1500835 ], [ -82.094031861111105, 28.149698805555555 ], [ -82.095098805555551, 28.149290666666666 ], [ -82.097544055555545, 28.149185027777776 ], [ -82.098650722222217, 28.149499305555555 ], [ -82.099498944444434, 28.150066111111109 ], [ -82.100224555555556, 28.150879611111108 ], [ -82.100685111111105, 28.151825277777775 ], [ -82.100867333333326, 28.15266225 ], [ -82.10093358333333, 28.153866333333333 ], [ -82.100830861111106, 28.15447422222222 ], [ -82.100463055555551, 28.155214305555553 ], [ -82.0999395, 28.155599 ], [ -82.098259472222225, 28.157240638888887 ], [ -82.099535194444442, 28.158151055555553 ], [ -82.100267472222214, 28.159084972222221 ], [ -82.100572333333332, 28.15967525 ], [ -82.100678333333335, 28.161601777777776 ], [ -82.100078527777768, 28.163076027777777 ], [ -82.099690805555554, 28.163454861111109 ], [ -82.0984945, 28.163989333333333 ], [ -82.097699166666658, 28.164385777777778 ], [ -82.095932888888882, 28.164462055555553 ], [ -82.094690222222212, 28.164153638888887 ], [ -82.092851166666662, 28.162905388888888 ], [ -82.092546333333331, 28.162315083333333 ], [ -82.09242725, 28.16014775 ], [ -82.092768666666657, 28.158926055555554 ], [ -82.092897916666658, 28.158799805555553 ], [ -82.09355075, 28.158288833333334 ], [ -82.094319555555558, 28.157410777777777 ] ] } },
{ "type": "Feature", "properties": { "style": "solid", "thickness": 1 }, "geometry": { "type": "LineString", "coordinates": [ [ -82.353957833333325, 28.149995805555555 ], [ -82.354165027777768, 28.153607722222223 ], [ -82.354689972222218, 28.155636083333331 ], [ -82.355016916666656, 28.156587 ], [ -82.355465888888887, 28.157291027777777 ], [ -82.357178972222215, 28.158662305555556 ], [ -82.358843694444445, 28.159190777777777 ], [ -82.359387083333331, 28.159166277777775 ], [ -82.360982694444445, 28.15849075 ], [ -82.362394, 28.156978583333331 ], [ -82.362895888888886, 28.156231694444443 ], [ -82.363112222222213, 28.155256277777777 ], [ -82.36340216666666, 28.153191138888886 ], [ -82.363194666666658, 28.14957925 ], [ -82.362669583333329, 28.147550916666667 ], [ -82.362342611111103, 28.1466 ], [ -82.361757777777768, 28.145902138888889 ], [ -82.360180694444438, 28.144524805555555 ], [ -82.358516166666661, 28.143996333333334 ], [ -82.357972861111108, 28.144020833333332 ], [ -82.356377472222221, 28.144696305555556 ], [ -82.354830388888885, 28.146214555555556 ], [ -82.354464333333325, 28.146955277777778 ], [ -82.354247916666665, 28.147930694444444 ], [ -82.353957833333325, 28.149995805555555 ] ] } },
{ "type": "Feature", "properties": { "style": "solid", "thickness": 1 }, "geometry": { "type": "LineString", "coordinates": [ [ -82.404875361111124, 28.000157833333333 ], [ -82.397482222222223, 27.985163333333336 ], [ -82.392124527777781, 28.00073738888889 ] ] } },
{ "type": "Feature", "properties": { "style": "solid", "thickness": 1 }, "geometry": { "type": "LineString", "coordinates": [ [ -82.385546888888896, 27.985705305555555 ], [ -82.386427305555557, 28.000995972222221 ], [ -82.380458749999988, 28.001266611111109 ], [ -82.378817111111104, 28.001099583333332 ], [ -82.378118083333334, 28.000769111111111 ], [ -82.376984416666659, 27.9999755 ], [ -82.375280527777775, 27.998724833333334 ], [ -82.374105388888879, 27.997208777777779 ], [ -82.373764916666659, 27.996017055555555 ], [ -82.373536611111106, 27.992043861111114 ], [ -82.373745611111104, 27.990948 ], [ -82.37447638888888, 27.989466333333333 ], [ -82.375377388888879, 27.988580555555558 ], [ -82.376264527777778, 27.987453944444447 ], [ -82.377572416666666, 27.986549694444445 ], [ -82.379179194444433, 27.98611475 ], [ -82.380121694444441, 27.985951333333333 ], [ -82.385546888888896, 27.985705305555555 ] ] } },
{ "type": "Feature", "properties": { "style": "solid", "thickness": 1 }, "geometry": { "type": "LineString", "coordinates": [ [ -82.190003638888896, 28.019125583333331 ], [ -82.183393277777782, 28.034744972222224 ], [ -82.175485638888887, 28.019762638888889 ] ] } },
{ "type": "Feature", "properties": { "style": "solid", "thickness": 1 }, "geometry": { "type": "LineString", "coordinates": [ [ -82.187836666666669, 28.024169555555556 ], [ -82.178067111111119, 28.02459825 ] ] } },
{ "type": "Feature", "properties": { "style": "solid", "thickness": 1 }, "geometry": { "type": "LineString", "coordinates": [ [ -82.131359416666655, 28.04726475 ], [ -82.132204555555546, 28.062556694444446 ], [ -82.126503527777771, 28.062804527777779 ], [ -82.125281888888878, 28.062857611111113 ], [ -82.124291833333331, 28.062176444444447 ], [ -82.123566611111102, 28.061363055555557 ], [ -82.123540027777764, 28.060881416666668 ], [ -82.123407111111106, 28.058473222222222 ], [ -82.123522916666658, 28.058106111111112 ], [ -82.123876944444433, 28.057125138888889 ], [ -82.125167777777776, 28.055862083333334 ], [ -82.123770611111098, 28.055198583333333 ], [ -82.123072027777766, 28.054866833333335 ], [ -82.122360166666667, 28.054294277777778 ], [ -82.121893194444439, 28.05322827777778 ], [ -82.121720444444435, 28.050097611111113 ], [ -82.1220811111111, 28.049237083333335 ], [ -82.122991305555544, 28.048473361111114 ], [ -82.123643333333334, 28.04796225 ], [ -82.124302, 28.04757152777778 ], [ -82.131359416666655, 28.04726475 ] ] } },
{ "type": "Feature", "properties": { "style": "solid", "thickness": 1 }, "geometry": { "type": "LineString", "coordinates": [ [ -82.131818555555554, 28.055572972222222 ], [ -82.125167777777776, 28.055862083333334 ] ] } },
{ "type": "Feature", "properties": { "style": "solid", "thickness": 1 }, "geometry": { "type": "LineString", "coordinates": [ [ -82.199568694444451, 28.260583055555557 ], [ -82.207863638888895, 28.260218722222223 ], [ -82.207006472222218, 28.244927833333335 ], [ -82.198576722222228, 28.245298111111111 ] ] } },
{ "type": "Feature", "properties": { "style": "solid", "thickness": 1 }, "geometry": { "type": "LineString", "coordinates": [ [ -82.207431666666665, 28.252513083333334 ], [ -82.19940925, 28.252865472222222 ] ] } },
{ "type": "Feature", "properties": { "style": "solid", "thickness": 1 }, "geometry": { "type": "LineString", "coordinates": [ [ -82.04609927777777, 28.206123138888888 ], [ -82.046933444444448, 28.221415 ], [ -82.041223916666667, 28.221659277777775 ], [ -82.040000444444445, 28.221711583333331 ], [ -82.039009472222219, 28.221029805555553 ], [ -82.038283861111111, 28.220216 ], [ -82.038257611111106, 28.219734361111108 ], [ -82.038126444444444, 28.217326194444443 ], [ -82.038242694444449, 28.216959166666665 ], [ -82.03859802777778, 28.215978444444445 ], [ -82.03989175, 28.21471625 ], [ -82.038493083333336, 28.214051916666666 ], [ -82.03779375, 28.21371975 ], [ -82.037081277777773, 28.21314675 ], [ -82.036614472222226, 28.2120805 ], [ -82.036444, 28.208949861111112 ], [ -82.036805861111105, 28.208089583333333 ], [ -82.037718, 28.207326444444444 ], [ -82.038371388888891, 28.206815777777777 ], [ -82.039031305555554, 28.2064255 ], [ -82.04609927777777, 28.206123138888888 ] ] } },
{ "type": "Feature", "properties": { "style": "solid", "thickness": 1 }, "geometry": { "type": "LineString", "coordinates": [ [ -82.046552472222217, 28.214431333333334 ], [ -82.03989175, 28.21471625 ] ] } },
{ "type": "Feature", "properties": { "style": "solid", "thickness": 1 }, "geometry": { "type": "LineString", "coordinates": [ [ -82.085861055555554, 28.149689277777778 ], [ -82.079227694444441, 28.165303138888888 ], [ -82.071325083333335, 28.150315277777775 ] ] } },
{ "type": "Feature", "properties": { "style": "solid", "thickness": 1 }, "geometry": { "type": "LineString", "coordinates": [ [ -82.083686638888878, 28.154731444444444 ], [ -82.073904972222223, 28.155152694444443 ] ] } },
{ "type": "Feature", "properties": { "style": "solid", "thickness": 1 }, "geometry": { "type": "LineString", "coordinates": [ [ -82.340511, 28.160136972222222 ], [ -82.348797833333322, 28.159764138888889 ], [ -82.3479215, 28.14447375 ], [ -82.339500027777774, 28.144852638888889 ] ] } },
{ "type": "Feature", "properties": { "style": "solid", "thickness": 1 }, "geometry": { "type": "LineString", "coordinates": [ [ -82.348356194444435, 28.15205875 ], [ -82.340341638888887, 28.152419333333331 ] ] } },
{ "type": "Feature", "properties": { "style": "solid", "thickness": 1 }, "geometry": { "type": "LineString", "coordinates": [ [ -82.368079111111101, 27.994101555555556 ], [ -82.360347555555549, 27.994451083333335 ] ] } },
{ "type": "Feature", "properties": { "style": "solid", "thickness": 1 }, "geometry": { "type": "LineString", "coordinates": [ [ -82.360382472222213, 28.002175055555554 ], [ -82.368521555555546, 28.001807138888889 ], [ -82.367643638888879, 27.986516361111111 ] ] } }
]
}
