{
"type": "FeatureCollection",
"name": "tpa176sgp",
"features": [
{ "type": "Feature", "properties": { "style": "solid", "thickness": 1 }, "geometry": { "type": "LineString", "coordinates": [ [ -82.686270972222232, 28.55039288888889 ], [ -82.68576763888889, 28.48308447222222 ] ] } },
{ "type": "Feature", "properties": { "style": "solid", "thickness": 1 }, "geometry": { "type": "LineString", "coordinates": [ [ -82.685347777777778, 28.399726333333334 ], [ -82.685746083333342, 28.466578 ] ] } },
{ "type": "Feature", "properties": { "style": "solid", "thickness": 1 }, "geometry": { "type": "LineString", "coordinates": [ [ -82.676520555555555, 28.475115444444445 ], [ -82.625044444444441, 28.475338277777777 ] ] } },
{ "type": "Feature", "properties": { "style": "solid", "thickness": 1 }, "geometry": { "type": "LineString", "coordinates": [ [ -82.606155944444438, 28.475347916666664 ], [ -82.5872675, 28.475446694444443 ] ] } },
{ "type": "Feature", "properties": { "style": "solid", "thickness": 1 }, "geometry": { "type": "LineString", "coordinates": [ [ -82.521223194444445, 27.986027333333336 ], [ -82.521223194444445, 27.987861555555558 ] ] } },
{ "type": "Feature", "properties": { "style": "solid", "thickness": 1 }, "geometry": { "type": "LineString", "coordinates": [ [ -82.520706611111109, 27.985843888888891 ], [ -82.520706638888882, 27.988045 ] ] } },
{ "type": "Feature", "properties": { "style": "solid", "thickness": 1 }, "geometry": { "type": "LineString", "coordinates": [ [ -82.52019005555556, 27.985843888888891 ], [ -82.52019005555556, 27.988045 ] ] } },
{ "type": "Feature", "properties": { "style": "solid", "thickness": 1 }, "geometry": { "type": "LineString", "coordinates": [ [ -82.519673472222223, 27.986027305555556 ], [ -82.519673472222223, 27.987861555555558 ] ] } },
{ "type": "Feature", "properties": { "style": "solid", "thickness": 1 }, "geometry": { "type": "LineString", "coordinates": [ [ -82.519156888888887, 27.986944444444447 ], [ -82.519164916666668, 27.987074472222222 ], [ -82.51919075, 27.98721038888889 ], [ -82.519236861111111, 27.987349666666667 ], [ -82.519305138888882, 27.987488916666667 ], [ -82.519396611111105, 27.987624222222223 ], [ -82.519511083333327, 27.987751194444446 ], [ -82.519646944444446, 27.987865333333335 ], [ -82.519801222222227, 27.987962638888892 ], [ -82.519969666666668, 27.988039833333335 ], [ -82.520147166666661, 27.988094833333335 ], [ -82.52032825, 27.988126916666669 ], [ -82.520507638888887, 27.988136694444446 ], [ -82.520680666666664, 27.988125861111111 ], [ -82.520843583333331, 27.98809702777778 ], [ -82.52099375, 27.988053222222224 ], [ -82.521129583333334, 27.987997583333335 ], [ -82.521253638888894, 27.987931305555556 ], [ -82.52137477777778, 27.98784913888889 ], [ -82.52149030555556, 27.987749833333336 ], [ -82.521596222222215, 27.987633305555555 ], [ -82.521688111111104, 27.987500416666666 ], [ -82.521761722222223, 27.987353111111112 ], [ -82.521813222222221, 27.9871945 ], [ -82.52183975, 27.987028611111111 ], [ -82.521839722222225, 27.98686025 ], [ -82.521813222222221, 27.986694388888889 ], [ -82.521761722222223, 27.986535777777778 ], [ -82.521688111111104, 27.986388472222224 ], [ -82.521596194444442, 27.986255555555555 ], [ -82.52149030555556, 27.986139027777778 ], [ -82.52137475, 27.98603975 ], [ -82.521253611111106, 27.985957555555558 ], [ -82.521129583333334, 27.985891305555558 ], [ -82.52099375, 27.985835666666667 ], [ -82.520843583333331, 27.985791861111114 ], [ -82.520680666666664, 27.985763027777779 ], [ -82.520507638888887, 27.985752194444444 ], [ -82.52032825, 27.985761972222225 ], [ -82.520147166666661, 27.985794055555555 ], [ -82.519969666666668, 27.985849055555555 ], [ -82.519801222222227, 27.98592625 ], [ -82.519646944444446, 27.986023527777778 ], [ -82.519511083333327, 27.986137694444444 ], [ -82.519396611111105, 27.98626463888889 ], [ -82.519305138888882, 27.986399944444447 ], [ -82.519236861111111, 27.986539222222223 ], [ -82.51919075, 27.986678472222223 ], [ -82.519164916666668, 27.986814388888888 ], [ -82.519156888888887, 27.986944444444447 ] ] } },
{ "type": "Feature", "properties": { "style": "solid", "thickness": 1 }, "geometry": { "type": "LineString", "coordinates": [ [ -82.750567444444442, 28.555630861111112 ], [ -82.751033138888886, 28.563230694444446 ], [ -82.74805075, 28.563373111111112 ], [ -82.747230055555562, 28.56329225 ], [ -82.746880138888883, 28.563128916666667 ], [ -82.74631225, 28.562735888888891 ], [ -82.745458555555558, 28.562116472222222 ], [ -82.744868694444449, 28.561364416666667 ], [ -82.7446965, 28.560772472222222 ], [ -82.744575611111117, 28.558797694444443 ], [ -82.744678194444447, 28.558252666666668 ], [ -82.745040888888894, 28.557515166666668 ], [ -82.745489694444444, 28.557073611111111 ], [ -82.745931166666665, 28.556512416666667 ], [ -82.746583277777773, 28.556061166666666 ], [ -82.747385611111113, 28.555842805555557 ], [ -82.747856388888891, 28.555760333333335 ], [ -82.750567444444442, 28.555630861111112 ] ] } },
{ "type": "Feature", "properties": { "style": "solid", "thickness": 1 }, "geometry": { "type": "LineString", "coordinates": [ [ -82.737951277777782, 28.563854916666667 ], [ -82.742085972222227, 28.56365775 ], [ -82.741620916666662, 28.556057888888891 ], [ -82.737418722222216, 28.556258277777779 ] ] } },
{ "type": "Feature", "properties": { "style": "solid", "thickness": 1 }, "geometry": { "type": "LineString", "coordinates": [ [ -82.741851611111116, 28.55982788888889 ], [ -82.737852611111109, 28.560018583333335 ] ] } },
{ "type": "Feature", "properties": { "style": "solid", "thickness": 1 }, "geometry": { "type": "LineString", "coordinates": [ [ -82.735307777777777, 28.563980888888889 ], [ -82.73253875, 28.556490805555555 ], [ -82.730156305555553, 28.564226277777777 ], [ -82.727319861111113, 28.556739305555556 ], [ -82.725275972222221, 28.564458555555557 ] ] } },
{ "type": "Feature", "properties": { "style": "solid", "thickness": 1 }, "geometry": { "type": "LineString", "coordinates": [ [ -82.721965416666663, 28.55699402777778 ], [ -82.722429083333338, 28.564593972222223 ] ] } },
{ "type": "Feature", "properties": { "style": "solid", "thickness": 1 }, "geometry": { "type": "LineString", "coordinates": [ [ -82.718644277777784, 28.557151944444445 ], [ -82.713210555555563, 28.565032055555555 ] ] } },
{ "type": "Feature", "properties": { "style": "solid", "thickness": 1 }, "geometry": { "type": "LineString", "coordinates": [ [ -82.718904361111115, 28.56476152777778 ], [ -82.712476416666675, 28.557444972222221 ] ] } },
{ "type": "Feature", "properties": { "style": "solid", "thickness": 1 }, "geometry": { "type": "LineString", "coordinates": [ [ -82.748330666666661, 28.395939416666668 ], [ -82.747939083333335, 28.389536083333333 ], [ -82.747984805555561, 28.389173777777778 ], [ -82.748301194444451, 28.388798555555557 ], [ -82.748688944444439, 28.388479916666665 ], [ -82.748952305555562, 28.388347277777779 ], [ -82.749354666666662, 28.388268 ], [ -82.750031388888885, 28.38823563888889 ], [ -82.750441055555555, 28.388276055555554 ], [ -82.75107575, 28.388665833333334 ], [ -82.751222055555559, 28.388838888888888 ] ] } },
{ "type": "Feature", "properties": { "style": "solid", "thickness": 1 }, "geometry": { "type": "LineString", "coordinates": [ [ -82.745555944444448, 28.396072083333333 ], [ -82.74518647222223, 28.390027805555555 ], [ -82.7451005, 28.389731833333332 ], [ -82.744590222222229, 28.389156027777776 ], [ -82.744229916666669, 28.388813138888889 ], [ -82.743673916666665, 28.388599638888888 ], [ -82.742925861111118, 28.388575361111112 ], [ -82.741843111111109, 28.388627083333333 ], [ -82.741237722222223, 28.388716027777779 ], [ -82.740443944444451, 28.389054055555555 ], [ -82.739995833333339, 28.389495583333332 ], [ -82.739747055555554, 28.389867583333334 ], [ -82.739644611111117, 28.39041263888889 ], [ -82.74000647222222, 28.396337222222222 ] ] } },
{ "type": "Feature", "properties": { "style": "solid", "thickness": 1 }, "geometry": { "type": "LineString", "coordinates": [ [ -82.736700055555559, 28.388872722222221 ], [ -82.73716402777778, 28.39647297222222 ], [ -82.729053055555553, 28.389237555555557 ], [ -82.729516527777776, 28.396837833333333 ] ] } },
{ "type": "Feature", "properties": { "style": "solid", "thickness": 1 }, "geometry": { "type": "LineString", "coordinates": [ [ -82.726346166666673, 28.389366611111111 ], [ -82.723087166666673, 28.397144277777777 ], [ -82.719105138888892, 28.389711555555554 ] ] } },
{ "type": "Feature", "properties": { "style": "solid", "thickness": 1 }, "geometry": { "type": "LineString", "coordinates": [ [ -82.725277583333337, 28.391878305555554 ], [ -82.720405, 28.392110416666664 ] ] } },
{ "type": "Feature", "properties": { "style": "solid", "thickness": 1 }, "geometry": { "type": "LineString", "coordinates": [ [ -82.716725416666662, 28.397447166666666 ], [ -82.71301455555556, 28.390001416666667 ], [ -82.710363666666666, 28.397749777777776 ] ] } },
{ "type": "Feature", "properties": { "style": "solid", "thickness": 1 }, "geometry": { "type": "LineString", "coordinates": [ [ -82.59039125, 28.498124861111112 ], [ -82.591610666666668, 28.498068 ], [ -82.592216777777779, 28.497979722222222 ], [ -82.593404, 28.497384222222223 ], [ -82.594494833333329, 28.496313083333334 ], [ -82.594854777777769, 28.495516138888888 ], [ -82.59500075, 28.494549111111112 ], [ -82.59495425, 28.493771083333336 ], [ -82.59477583333333, 28.49305925 ], [ -82.594390611111109, 28.492297055555557 ], [ -82.593588222222223, 28.49137427777778 ], [ -82.593299361111107, 28.491087694444445 ], [ -82.592735972222215, 28.490753888888889 ], [ -82.591562944444433, 28.490448527777779 ], [ -82.590140388888884, 28.490514861111112 ], [ -82.589470138888885, 28.490666138888891 ], [ -82.588807027777776, 28.490937111111112 ], [ -82.588411305555553, 28.491135611111112 ], [ -82.5877625, 28.491645944444446 ], [ -82.587195722222219, 28.492392527777778 ], [ -82.587021083333326, 28.492880777777778 ], [ -82.586871444444441, 28.493787944444446 ], [ -82.586957222222225, 28.49522427777778 ], [ -82.587652694444444, 28.496632166666668 ], [ -82.58808775, 28.497092 ], [ -82.588586972222217, 28.497488805555555 ], [ -82.589079083333331, 28.497765944444446 ], [ -82.589218138888882, 28.497819472222222 ], [ -82.59039125, 28.498124861111112 ] ] } },
{ "type": "Feature", "properties": { "style": "solid", "thickness": 1 }, "geometry": { "type": "LineString", "coordinates": [ [ -82.584361916666666, 28.498405861111113 ], [ -82.581605083333329, 28.490912611111114 ], [ -82.57921325, 28.498645611111112 ], [ -82.576389027777779, 28.491155388888888 ], [ -82.57433555555555, 28.498872555555558 ] ] } },
{ "type": "Feature", "properties": { "style": "solid", "thickness": 1 }, "geometry": { "type": "LineString", "coordinates": [ [ -82.571105222222215, 28.491401138888889 ], [ -82.567831916666663, 28.499174888888891 ], [ -82.563856861111105, 28.491737944444445 ] ] } },
{ "type": "Feature", "properties": { "style": "solid", "thickness": 1 }, "geometry": { "type": "LineString", "coordinates": [ [ -82.570032, 28.493911555555556 ], [ -82.565154472222218, 28.494138194444446 ] ] } },
{ "type": "Feature", "properties": { "style": "solid", "thickness": 1 }, "geometry": { "type": "LineString", "coordinates": [ [ -82.554831833333324, 28.498758111111112 ], [ -82.555124166666658, 28.499104611111111 ], [ -82.555755222222217, 28.499435416666667 ], [ -82.556168805555558, 28.499536277777779 ], [ -82.557331166666657, 28.49966238888889 ], [ -82.557737666666668, 28.499643527777778 ], [ -82.5585435, 28.499486138888891 ], [ -82.559210305555553, 28.499275166666667 ], [ -82.55934225, 28.499209027777777 ], [ -82.559798666666666, 28.498887777777778 ], [ -82.56025152777778, 28.498506694444444 ], [ -82.561003972222224, 28.497451555555557 ], [ -82.56128575, 28.496478277777779 ], [ -82.561207444444435, 28.495161638888892 ], [ -82.56102925, 28.49444975 ], [ -82.56072625, 28.493923694444444 ], [ -82.560291305555552, 28.493463805555557 ], [ -82.55992769444444, 28.493060583333335 ], [ -82.559353722222212, 28.492547111111111 ], [ -82.558797555555557, 28.492332861111112 ], [ -82.558241388888888, 28.492118611111113 ], [ -82.557760083333335, 28.492020916666668 ], [ -82.556540722222223, 28.4920775 ], [ -82.555870416666664, 28.492228611111113 ], [ -82.555342694444448, 28.492493138888889 ], [ -82.55475077777777, 28.49282063888889 ], [ -82.554362111111104, 28.493138722222223 ], [ -82.553727333333327, 28.493888305555558 ], [ -82.553352861111108, 28.494445777777777 ], [ -82.553238722222218, 28.494811138888888 ], [ -82.553295583333338, 28.495768694444447 ], [ -82.556140861111103, 28.495636777777779 ] ] } },
{ "type": "Feature", "properties": { "style": "solid", "thickness": 1 }, "geometry": { "type": "LineString", "coordinates": [ [ -82.545949611111112, 28.50018986111111 ], [ -82.54716908333333, 28.500133416666667 ], [ -82.54777525, 28.500045305555556 ], [ -82.54896275, 28.499450194444446 ], [ -82.550054027777776, 28.498379444444446 ], [ -82.550414305555549, 28.497582583333333 ], [ -82.550560694444442, 28.49661561111111 ], [ -82.5505145, 28.495837583333333 ], [ -82.550336361111107, 28.495125694444447 ], [ -82.549951472222219, 28.494363361111112 ], [ -82.549149444444438, 28.493440333333336 ], [ -82.548860694444443, 28.493153638888892 ], [ -82.548297444444444, 28.492819666666669 ], [ -82.5471245, 28.492513916666667 ], [ -82.545701888888885, 28.492579805555557 ], [ -82.545031583333326, 28.492730861111113 ], [ -82.544368333333338, 28.493001638888892 ], [ -82.543972527777782, 28.493199972222222 ], [ -82.5433235, 28.49371013888889 ], [ -82.54275638888889, 28.494456527777778 ], [ -82.542581555555557, 28.494944694444445 ], [ -82.542431555555552, 28.495851833333333 ], [ -82.542516722222217, 28.497288166666667 ], [ -82.543211611111104, 28.498696305555555 ], [ -82.5436465, 28.499156277777779 ], [ -82.544145583333332, 28.49955325 ], [ -82.544637555555553, 28.499830527777778 ], [ -82.544776611111104, 28.499884111111111 ], [ -82.545949611111112, 28.50018986111111 ] ] } },
{ "type": "Feature", "properties": { "style": "solid", "thickness": 1 }, "geometry": { "type": "LineString", "coordinates": [ [ -82.680055361111116, 28.391478194444446 ], [ -82.680468222222231, 28.393283305555556 ], [ -82.681638111111113, 28.39480697222222 ], [ -82.6833831388889, 28.39581225 ], [ -82.685432027777779, 28.396142805555556 ], [ -82.687466111111121, 28.395747305555556 ], [ -82.689169166666673, 28.394687194444444 ], [ -82.690276333333344, 28.393127333333332 ], [ -82.69061552777778, 28.39131025 ], [ -82.690134027777788, 28.389518472222221 ], [ -82.68890675, 28.388030583333332 ], [ -82.68712450000001, 28.387077888888889 ], [ -82.68506438888889, 28.3868085 ], [ -82.683046638888896, 28.387264305555554 ], [ -82.681384972222233, 28.388374444444445 ], [ -82.680337722222234, 28.389966305555554 ], [ -82.680055361111116, 28.391478194444446 ] ] } },
{ "type": "Feature", "properties": { "style": "solid", "thickness": 1 }, "geometry": { "type": "LineString", "coordinates": [ [ -82.67311761111111, 28.392051138888888 ], [ -82.676286861111109, 28.391416083333333 ], [ -82.67917258333334, 28.390094916666666 ], [ -82.68158836111111, 28.388173 ], [ -82.683378083333338, 28.385774527777777 ], [ -82.684426166666668, 28.383054472222224 ], [ -82.684682638888887, 28.38066725 ] ] } },
{ "type": "Feature", "properties": { "style": "solid", "thickness": 1 }, "geometry": { "type": "LineString", "coordinates": [ [ -82.684682638888887, 28.38066725 ], [ -82.685400972222226, 28.38346975 ], [ -82.686895111111113, 28.386021583333331 ], [ -82.689068527777778, 28.388157777777778 ], [ -82.69178083333334, 28.389740361111112 ], [ -82.694856777777787, 28.390667027777777 ], [ -82.697556333333338, 28.390893638888887 ] ] } },
{ "type": "Feature", "properties": { "style": "solid", "thickness": 1 }, "geometry": { "type": "LineString", "coordinates": [ [ -82.685991583333333, 28.402278583333331 ], [ -82.686367388888897, 28.39942425 ], [ -82.687544861111121, 28.396745888888887 ], [ -82.689447833333332, 28.394416527777778 ], [ -82.691953416666664, 28.39258661111111 ], [ -82.694899666666672, 28.391374333333331 ], [ -82.697556333333338, 28.390893638888887 ] ] } },
{ "type": "Feature", "properties": { "style": "solid", "thickness": 1 }, "geometry": { "type": "LineString", "coordinates": [ [ -82.685991583333333, 28.402278583333331 ], [ -82.685273111111115, 28.399476083333333 ], [ -82.683778805555562, 28.396924277777778 ], [ -82.681605333333337, 28.394787972222222 ], [ -82.678893027777789, 28.393205194444445 ], [ -82.675817166666675, 28.392278166666667 ], [ -82.67311761111111, 28.392051138888888 ] ] } },
{ "type": "Feature", "properties": { "style": "solid", "thickness": 1 }, "geometry": { "type": "LineString", "coordinates": [ [ -82.680575222222231, 28.475111527777777 ], [ -82.680988388888892, 28.476916611111111 ], [ -82.682159222222225, 28.478440222222222 ], [ -82.683905611111115, 28.479445444444444 ], [ -82.685956083333338, 28.479776027777778 ], [ -82.68799175, 28.4793805 ], [ -82.689696111111118, 28.478320416666666 ], [ -82.690804138888893, 28.476760583333331 ], [ -82.691143583333343, 28.474943527777775 ], [ -82.690661694444444, 28.473151805555553 ], [ -82.689433444444447, 28.471663944444444 ], [ -82.687649805555566, 28.470711305555554 ], [ -82.685588083333343, 28.470441916666665 ], [ -82.683568777777779, 28.470897722222219 ], [ -82.681905833333332, 28.472007861111109 ], [ -82.680857777777788, 28.473599694444442 ], [ -82.680575222222231, 28.475111527777777 ] ] } },
{ "type": "Feature", "properties": { "style": "solid", "thickness": 1 }, "geometry": { "type": "LineString", "coordinates": [ [ -82.673632111111118, 28.4756845 ], [ -82.676803777777778, 28.475049444444444 ], [ -82.67969175, 28.473728277777777 ], [ -82.68210938888889, 28.471806388888886 ], [ -82.6839005, 28.469407972222221 ], [ -82.684949361111109, 28.466687972222221 ], [ -82.685206027777781, 28.464300805555556 ] ] } },
{ "type": "Feature", "properties": { "style": "solid", "thickness": 1 }, "geometry": { "type": "LineString", "coordinates": [ [ -82.685206027777781, 28.464300805555556 ], [ -82.685924944444452, 28.46710325 ], [ -82.68742025, 28.469655 ], [ -82.689595361111117, 28.471791166666666 ], [ -82.692309805555553, 28.473373694444444 ], [ -82.695388111111114, 28.474300333333332 ], [ -82.698089777777781, 28.474526888888889 ] ] } },
{ "type": "Feature", "properties": { "style": "solid", "thickness": 1 }, "geometry": { "type": "LineString", "coordinates": [ [ -82.686516111111118, 28.48591163888889 ], [ -82.686892194444454, 28.483057361111108 ], [ -82.688070555555555, 28.480379055555552 ], [ -82.689975, 28.47804975 ], [ -82.6924825, 28.476219861111108 ], [ -82.695431055555559, 28.47500761111111 ], [ -82.698089777777781, 28.474526888888889 ] ] } },
{ "type": "Feature", "properties": { "style": "solid", "thickness": 1 }, "geometry": { "type": "LineString", "coordinates": [ [ -82.686516111111118, 28.48591163888889 ], [ -82.685797055555554, 28.483109194444442 ], [ -82.684301583333337, 28.480557444444443 ], [ -82.682126388888889, 28.47842122222222 ], [ -82.679412, 28.4768385 ], [ -82.67633375, 28.4759115 ], [ -82.673632111111118, 28.4756845 ] ] } },
{ "type": "Feature", "properties": { "style": "solid", "thickness": 1 }, "geometry": { "type": "LineString", "coordinates": [ [ -82.563093166666661, 28.475543666666663 ], [ -82.563504388888887, 28.47734911111111 ], [ -82.564673555555558, 28.478873722222222 ], [ -82.566418861111103, 28.479880444444444 ], [ -82.56846897222222, 28.48021275 ], [ -82.570505111111103, 28.479818944444443 ], [ -82.572210611111103, 28.478760305555554 ], [ -82.573320333333328, 28.477201416666666 ], [ -82.573661777777772, 28.475384666666663 ], [ -82.573181833333336, 28.473592527777775 ], [ -82.571955194444442, 28.472103638888886 ], [ -82.570172583333331, 28.471149472222219 ], [ -82.568111138888881, 28.470878333333332 ], [ -82.566091333333333, 28.471332444444442 ], [ -82.564427166666661, 28.472441138888886 ], [ -82.563377388888881, 28.474032083333331 ], [ -82.563093166666661, 28.475543666666663 ] ] } },
{ "type": "Feature", "properties": { "style": "solid", "thickness": 1 }, "geometry": { "type": "LineString", "coordinates": [ [ -82.556149416666671, 28.47611072222222 ], [ -82.559321805555555, 28.475478361111108 ], [ -82.562211222222217, 28.474159666666665 ], [ -82.564630972222218, 28.472239833333333 ], [ -82.566424694444436, 28.469842944444444 ], [ -82.567476527777771, 28.467123861111109 ], [ -82.56773577777777, 28.46473688888889 ] ] } },
{ "type": "Feature", "properties": { "style": "solid", "thickness": 1 }, "geometry": { "type": "LineString", "coordinates": [ [ -82.56773577777777, 28.46473688888889 ], [ -82.568451666666661, 28.46753997222222 ], [ -82.569944194444446, 28.470092972222222 ], [ -82.572117, 28.472230972222221 ], [ -82.574829694444446, 28.473815833333333 ], [ -82.577907027777769, 28.474745083333332 ], [ -82.580608444444437, 28.474973944444443 ] ] } },
{ "type": "Feature", "properties": { "style": "solid", "thickness": 1 }, "geometry": { "type": "LineString", "coordinates": [ [ -82.569022333333336, 28.486348833333334 ], [ -82.569401527777771, 28.483494888888888 ], [ -82.570582805555546, 28.48081758333333 ], [ -82.572489805555549, 28.478489888888888 ], [ -82.574999305555551, 28.476662138888887 ], [ -82.577949194444443, 28.475452388888886 ], [ -82.580608444444437, 28.474973944444443 ] ] } },
{ "type": "Feature", "properties": { "style": "solid", "thickness": 1 }, "geometry": { "type": "LineString", "coordinates": [ [ -82.569022333333336, 28.486348833333334 ], [ -82.568306305555552, 28.483545777777778 ], [ -82.566813638888888, 28.48099275 ], [ -82.56464075, 28.478854666666663 ], [ -82.561928055555555, 28.477269638888888 ], [ -82.558850805555551, 28.476340027777777 ], [ -82.556149416666671, 28.47611072222222 ] ] } },
{ "type": "Feature", "properties": { "style": "solid", "thickness": 1 }, "geometry": { "type": "LineString", "coordinates": [ [ -82.680991888888897, 28.558651222222224 ], [ -82.681405416666678, 28.56045625 ], [ -82.682577138888888, 28.561979833333336 ], [ -82.684324916666668, 28.562985027777778 ], [ -82.68637697222222, 28.563315583333335 ], [ -82.688414222222221, 28.562920055555555 ], [ -82.690119888888887, 28.561859972222223 ], [ -82.691228777777781, 28.560300194444444 ], [ -82.69156847222223, 28.558483194444445 ], [ -82.691086194444452, 28.5566915 ], [ -82.689856972222231, 28.555203694444444 ], [ -82.688071944444445, 28.554251083333334 ], [ -82.68600861111112, 28.553981722222222 ], [ -82.68398775, 28.554437555555555 ], [ -82.682323527777783, 28.555547638888889 ], [ -82.681274666666667, 28.557139444444445 ], [ -82.680991888888897, 28.558651222222224 ] ] } },
{ "type": "Feature", "properties": { "style": "solid", "thickness": 1 }, "geometry": { "type": "LineString", "coordinates": [ [ -82.674043416666677, 28.559224194444447 ], [ -82.677217555555558, 28.558589138888891 ], [ -82.680107777777778, 28.557268 ], [ -82.68252727777778, 28.555346166666666 ], [ -82.68431975, 28.552947777777778 ], [ -82.685369416666674, 28.550227861111111 ], [ -82.685626277777786, 28.54784075 ] ] } },
{ "type": "Feature", "properties": { "style": "solid", "thickness": 1 }, "geometry": { "type": "LineString", "coordinates": [ [ -82.685626277777786, 28.54784075 ], [ -82.68634575, 28.550643138888891 ], [ -82.68784222222223, 28.553194833333333 ], [ -82.690019055555553, 28.555330916666666 ], [ -82.692735583333331, 28.556913388888891 ], [ -82.695816305555553, 28.55784 ], [ -82.698520027777775, 28.558066555555556 ] ] } },
{ "type": "Feature", "properties": { "style": "solid", "thickness": 1 }, "geometry": { "type": "LineString", "coordinates": [ [ -82.686937444444453, 28.569451055555554 ], [ -82.687313805555561, 28.566596833333335 ], [ -82.688493083333341, 28.563918611111113 ], [ -82.690399, 28.561589333333334 ], [ -82.692908444444441, 28.559759472222222 ], [ -82.695859277777785, 28.55854725 ], [ -82.698520027777775, 28.558066555555556 ] ] } },
{ "type": "Feature", "properties": { "style": "solid", "thickness": 1 }, "geometry": { "type": "LineString", "coordinates": [ [ -82.686937444444453, 28.569451055555554 ], [ -82.686217805555557, 28.566648666666666 ], [ -82.68472119444445, 28.564097 ], [ -82.682544305555567, 28.561960833333334 ], [ -82.679827777777788, 28.56037813888889 ], [ -82.676747111111112, 28.559451194444446 ], [ -82.674043416666677, 28.559224194444447 ] ] } },
{ "type": "Feature", "properties": { "style": "solid", "thickness": 1 }, "geometry": { "type": "LineString", "coordinates": [ [ -82.748936055555561, 28.480985055555553 ], [ -82.74567591666667, 28.488763027777779 ], [ -82.741688944444448, 28.481331166666664 ] ] } },
{ "type": "Feature", "properties": { "style": "solid", "thickness": 1 }, "geometry": { "type": "LineString", "coordinates": [ [ -82.747867083333333, 28.483496861111114 ], [ -82.742990416666672, 28.48372975 ] ] } },
{ "type": "Feature", "properties": { "style": "solid", "thickness": 1 }, "geometry": { "type": "LineString", "coordinates": [ [ -82.735468138888891, 28.488469944444446 ], [ -82.73611430555556, 28.489039305555558 ], [ -82.736253444444444, 28.489092694444444 ], [ -82.737141305555554, 28.48917036111111 ], [ -82.73787908333334, 28.489015138888888 ], [ -82.738270861111118, 28.488756388888891 ], [ -82.738658972222225, 28.488437777777779 ], [ -82.73896475, 28.487883055555557 ], [ -82.738880611111114, 28.486506666666667 ], [ -82.738441277777781, 28.485987472222224 ], [ -82.738155722222217, 28.48576102777778 ], [ -82.737117805555556, 28.485450416666669 ], [ -82.735948055555554, 28.485206138888891 ], [ -82.735113333333331, 28.484885833333333 ], [ -82.734820472222225, 28.484539694444447 ], [ -82.734633833333334, 28.483708361111113 ], [ -82.734721777777779, 28.482923944444444 ], [ -82.735031194444446, 28.482429027777776 ], [ -82.735355222222225, 28.482173527777775 ], [ -82.735615166666662, 28.481981083333331 ], [ -82.735942861111113, 28.481785388888888 ], [ -82.736676916666667, 28.48157033333333 ], [ -82.737083305555558, 28.481550944444443 ], [ -82.737497, 28.48165125 ], [ -82.738053472222219, 28.481864777777776 ], [ -82.73840675, 28.482087972222221 ], [ -82.738910138888883, 28.48254411111111 ] ] } },
{ "type": "Feature", "properties": { "style": "solid", "thickness": 1 }, "geometry": { "type": "LineString", "coordinates": [ [ -82.732128916666667, 28.489409361111111 ], [ -82.731664861111113, 28.481809305555554 ] ] } },
{ "type": "Feature", "properties": { "style": "solid", "thickness": 1 }, "geometry": { "type": "LineString", "coordinates": [ [ -82.7274515, 28.489572194444445 ], [ -82.731895055555555, 28.485579416666667 ], [ -82.726923722222224, 28.482035194444443 ] ] } },
{ "type": "Feature", "properties": { "style": "solid", "thickness": 1 }, "geometry": { "type": "LineString", "coordinates": [ [ -82.720410611111106, 28.489967361111113 ], [ -82.7245425, 28.489770722222222 ], [ -82.724079, 28.482170638888888 ], [ -82.719879666666671, 28.482370472222222 ] ] } },
{ "type": "Feature", "properties": { "style": "solid", "thickness": 1 }, "geometry": { "type": "LineString", "coordinates": [ [ -82.724308916666672, 28.48594075 ], [ -82.720312638888885, 28.486130944444444 ] ] } },
{ "type": "Feature", "properties": { "style": "solid", "thickness": 1 }, "geometry": { "type": "LineString", "coordinates": [ [ -82.71776525, 28.490033166666667 ], [ -82.717305888888887, 28.482492916666665 ] ] } },
{ "type": "Feature", "properties": { "style": "solid", "thickness": 1 }, "geometry": { "type": "LineString", "coordinates": [ [ -82.712007666666665, 28.490306861111112 ], [ -82.711548694444446, 28.482766583333333 ] ] } },
{ "type": "Feature", "properties": { "style": "solid", "thickness": 1 }, "geometry": { "type": "LineString", "coordinates": [ [ -82.717550138888896, 28.486502416666667 ], [ -82.71179275, 28.486776083333336 ] ] } },
{ "type": "Feature", "properties": { "style": "solid", "thickness": 1 }, "geometry": { "type": "LineString", "coordinates": [ [ -82.735759305555561, 28.474863666666664 ], [ -82.735781222222229, 28.47522272222222 ], [ -82.735671361111116, 28.475648083333333 ], [ -82.735433361111106, 28.476199583333333 ], [ -82.735184388888896, 28.476571555555555 ], [ -82.734792638888891, 28.476830305555556 ], [ -82.73425813888889, 28.476975833333331 ], [ -82.733242222222231, 28.477024277777776 ], [ -82.732489916666665, 28.476940111111109 ], [ -82.732140305555561, 28.476776722222219 ], [ -82.731640638888891, 28.476380416666665 ], [ -82.731486916666668, 28.476087666666665 ], [ -82.73132225, 28.47561536111111 ], [ -82.731263805555557, 28.474657861111108 ], [ -82.731377333333342, 28.474292361111111 ], [ -82.731910138888892, 28.47300661111111 ], [ -82.732671694444448, 28.472130055555553 ], [ -82.733889027777778, 28.470931694444442 ], [ -82.735355277777785, 28.469361333333332 ], [ -82.73108875, 28.46956475 ] ] } },
{ "type": "Feature", "properties": { "style": "solid", "thickness": 1 }, "geometry": { "type": "LineString", "coordinates": [ [ -82.72374661111111, 28.472795305555554 ], [ -82.723856083333331, 28.474590611111111 ], [ -82.724121277777783, 28.475598277777777 ], [ -82.724285944444446, 28.476070583333332 ], [ -82.72451102777778, 28.476419972222221 ], [ -82.725367555555565, 28.477099388888888 ], [ -82.726198527777782, 28.477359888888888 ], [ -82.726469444444447, 28.477347 ], [ -82.727263916666672, 28.477009083333332 ], [ -82.727965111111118, 28.476255472222221 ], [ -82.728214111111114, 28.4758835 ], [ -82.728320361111116, 28.475398305555554 ], [ -82.728461444444449, 28.474371277777777 ], [ -82.728351916666668, 28.472576 ], [ -82.72808666666667, 28.47156833333333 ], [ -82.727922, 28.471096027777776 ], [ -82.727629194444447, 28.470749888888886 ], [ -82.726840444444449, 28.47006725 ], [ -82.7260095, 28.46980672222222 ], [ -82.725738611111112, 28.469819638888886 ], [ -82.724944194444447, 28.470157555555552 ], [ -82.724175277777775, 28.47091436111111 ], [ -82.723994, 28.471283111111109 ], [ -82.72388775, 28.471768305555553 ], [ -82.72374661111111, 28.472795305555554 ] ] } }
]
}
