{
"type": "FeatureCollection",
"name": "tpa181sgp",
"features": [
{ "type": "Feature", "properties": { "style": "solid", "thickness": 1 }, "geometry": { "type": "LineString", "coordinates": [ [ -81.5753468611111, 28.028169638888887 ], [ -81.588263777777769, 28.040183 ] ] } },
{ "type": "Feature", "properties": { "style": "solid", "thickness": 1 }, "geometry": { "type": "LineString", "coordinates": [ [ -81.6013895, 28.05228825 ], [ -81.614415555555553, 28.064299805555557 ] ] } },
{ "type": "Feature", "properties": { "style": "solid", "thickness": 1 }, "geometry": { "type": "LineString", "coordinates": [ [ -81.640579, 28.088411527777776 ], [ -81.653613, 28.100511027777777 ] ] } },
{ "type": "Feature", "properties": { "style": "solid", "thickness": 1 }, "geometry": { "type": "LineString", "coordinates": [ [ -81.666650638888896, 28.112517527777779 ], [ -81.679691194444445, 28.124522777777777 ] ] } },
{ "type": "Feature", "properties": { "style": "solid", "thickness": 1 }, "geometry": { "type": "LineString", "coordinates": [ [ -81.696773944444445, 28.017232861111111 ], [ -81.68324613888889, 28.028888138888888 ] ] } },
{ "type": "Feature", "properties": { "style": "solid", "thickness": 1 }, "geometry": { "type": "LineString", "coordinates": [ [ -81.669715444444449, 28.040542083333335 ], [ -81.656079944444457, 28.052010555555555 ] ] } },
{ "type": "Feature", "properties": { "style": "solid", "thickness": 1 }, "geometry": { "type": "LineString", "coordinates": [ [ -81.642543444444456, 28.063661777777778 ], [ -81.63129408333333, 28.07319013888889 ] ] } },
{ "type": "Feature", "properties": { "style": "solid", "thickness": 1 }, "geometry": { "type": "LineString", "coordinates": [ [ -82.521223194444445, 27.986027333333336 ], [ -82.521223194444445, 27.987861555555558 ] ] } },
{ "type": "Feature", "properties": { "style": "solid", "thickness": 1 }, "geometry": { "type": "LineString", "coordinates": [ [ -82.520706611111109, 27.985843888888891 ], [ -82.520706638888882, 27.988045 ] ] } },
{ "type": "Feature", "properties": { "style": "solid", "thickness": 1 }, "geometry": { "type": "LineString", "coordinates": [ [ -82.52019005555556, 27.985843888888891 ], [ -82.52019005555556, 27.988045 ] ] } },
{ "type": "Feature", "properties": { "style": "solid", "thickness": 1 }, "geometry": { "type": "LineString", "coordinates": [ [ -82.519673472222223, 27.986027305555556 ], [ -82.519673472222223, 27.987861555555558 ] ] } },
{ "type": "Feature", "properties": { "style": "solid", "thickness": 1 }, "geometry": { "type": "LineString", "coordinates": [ [ -82.519156888888887, 27.986944444444447 ], [ -82.519164916666668, 27.987074472222222 ], [ -82.51919075, 27.98721038888889 ], [ -82.519236861111111, 27.987349666666667 ], [ -82.519305138888882, 27.987488916666667 ], [ -82.519396611111105, 27.987624222222223 ], [ -82.519511083333327, 27.987751194444446 ], [ -82.519646944444446, 27.987865333333335 ], [ -82.519801222222227, 27.987962638888892 ], [ -82.519969666666668, 27.988039833333335 ], [ -82.520147166666661, 27.988094833333335 ], [ -82.52032825, 27.988126916666669 ], [ -82.520507638888887, 27.988136694444446 ], [ -82.520680666666664, 27.988125861111111 ], [ -82.520843583333331, 27.98809702777778 ], [ -82.52099375, 27.988053222222224 ], [ -82.521129583333334, 27.987997583333335 ], [ -82.521253638888894, 27.987931305555556 ], [ -82.52137477777778, 27.98784913888889 ], [ -82.52149030555556, 27.987749833333336 ], [ -82.521596222222215, 27.987633305555555 ], [ -82.521688111111104, 27.987500416666666 ], [ -82.521761722222223, 27.987353111111112 ], [ -82.521813222222221, 27.9871945 ], [ -82.52183975, 27.987028611111111 ], [ -82.521839722222225, 27.98686025 ], [ -82.521813222222221, 27.986694388888889 ], [ -82.521761722222223, 27.986535777777778 ], [ -82.521688111111104, 27.986388472222224 ], [ -82.521596194444442, 27.986255555555555 ], [ -82.52149030555556, 27.986139027777778 ], [ -82.52137475, 27.98603975 ], [ -82.521253611111106, 27.985957555555558 ], [ -82.521129583333334, 27.985891305555558 ], [ -82.52099375, 27.985835666666667 ], [ -82.520843583333331, 27.985791861111114 ], [ -82.520680666666664, 27.985763027777779 ], [ -82.520507638888887, 27.985752194444444 ], [ -82.52032825, 27.985761972222225 ], [ -82.520147166666661, 27.985794055555555 ], [ -82.519969666666668, 27.985849055555555 ], [ -82.519801222222227, 27.98592625 ], [ -82.519646944444446, 27.986023527777778 ], [ -82.519511083333327, 27.986137694444444 ], [ -82.519396611111105, 27.98626463888889 ], [ -82.519305138888882, 27.986399944444447 ], [ -82.519236861111111, 27.986539222222223 ], [ -82.51919075, 27.986678472222223 ], [ -82.519164916666668, 27.986814388888888 ], [ -82.519156888888887, 27.986944444444447 ] ] } },
{ "type": "Feature", "properties": { "style": "solid", "thickness": 1 }, "geometry": { "type": "LineString", "coordinates": [ [ -81.74610225, 28.022019138888886 ], [ -81.74278725, 28.029775055555554 ], [ -81.738883027777774, 28.022315027777775 ] ] } },
{ "type": "Feature", "properties": { "style": "solid", "thickness": 1 }, "geometry": { "type": "LineString", "coordinates": [ [ -81.745015638888887, 28.024523694444444 ], [ -81.740157722222222, 28.024722805555555 ] ] } },
{ "type": "Feature", "properties": { "style": "solid", "thickness": 1 }, "geometry": { "type": "LineString", "coordinates": [ [ -81.736444666666671, 28.030034888888888 ], [ -81.736049305555554, 28.022431083333334 ] ] } },
{ "type": "Feature", "properties": { "style": "solid", "thickness": 1 }, "geometry": { "type": "LineString", "coordinates": [ [ -81.73178580555556, 28.030165527777775 ], [ -81.736245416666662, 28.026203055555555 ], [ -81.731326416666676, 28.022624361111109 ] ] } },
{ "type": "Feature", "properties": { "style": "solid", "thickness": 1 }, "geometry": { "type": "LineString", "coordinates": [ [ -81.728560166666668, 28.0227375 ], [ -81.725243888888897, 28.030493 ], [ -81.721340861111116, 28.0230325 ] ] } },
{ "type": "Feature", "properties": { "style": "solid", "thickness": 1 }, "geometry": { "type": "LineString", "coordinates": [ [ -81.727473138888897, 28.025241916666666 ], [ -81.722615166666671, 28.025440416666665 ] ] } },
{ "type": "Feature", "properties": { "style": "solid", "thickness": 1 }, "geometry": { "type": "LineString", "coordinates": [ [ -81.713282194444446, 28.03062125 ], [ -81.713699444444444, 28.030844222222221 ], [ -81.714177972222231, 28.030944694444443 ], [ -81.715797361111115, 28.030878666666666 ], [ -81.716398444444451, 28.030734138888889 ], [ -81.716597777777778, 28.030666 ], [ -81.71758197222222, 28.030085861111111 ], [ -81.718158222222229, 28.029462361111111 ], [ -81.718329611111116, 28.028855361111109 ], [ -81.718746055555556, 28.027758388888888 ], [ -81.718674666666672, 28.026381305555553 ], [ -81.718505583333339, 28.02572822222222 ], [ -81.71827525, 28.025197611111111 ], [ -81.717974333333331, 28.024609916666666 ], [ -81.7172655, 28.023978833333331 ], [ -81.715952527777787, 28.023432416666665 ], [ -81.715066111111113, 28.023288583333333 ], [ -81.714323916666672, 28.023318861111111 ], [ -81.713388638888887, 28.023537 ], [ -81.713060583333331, 28.023730361111109 ], [ -81.712796916666676, 28.02386111111111 ] ] } },
{ "type": "Feature", "properties": { "style": "solid", "thickness": 1 }, "geometry": { "type": "LineString", "coordinates": [ [ -81.710073277777781, 28.023492138888887 ], [ -81.706755666666666, 28.031247194444443 ], [ -81.702853888888896, 28.023786166666667 ] ] } },
{ "type": "Feature", "properties": { "style": "solid", "thickness": 1 }, "geometry": { "type": "LineString", "coordinates": [ [ -81.708985805555557, 28.025996416666665 ], [ -81.704127805555558, 28.026194277777776 ] ] } },
{ "type": "Feature", "properties": { "style": "solid", "thickness": 1 }, "geometry": { "type": "LineString", "coordinates": [ [ -81.70503463888889, 28.005727583333332 ], [ -81.70542975, 28.007535666666666 ], [ -81.706581694444452, 28.00906763888889 ], [ -81.708311361111114, 28.010085305555556 ], [ -81.710349861111112, 28.010430416666665 ], [ -81.712380194444449, 28.010049333333335 ], [ -81.714086666666674, 28.009001277777777 ], [ -81.715203972222227, 28.007449222222224 ], [ -81.715558416666667, 28.0056345 ], [ -81.715094888888885, 28.00383925 ], [ -81.713885527777776, 28.002342555555554 ], [ -81.712118361111109, 28.001377138888888 ], [ -81.710068138888886, 28.001093055555554 ], [ -81.708053527777778, 28.001534472222222 ], [ -81.70638775, 28.00263275 ], [ -81.705329777777777, 28.004217194444443 ], [ -81.70503463888889, 28.005727583333332 ] ] } },
{ "type": "Feature", "properties": { "style": "solid", "thickness": 1 }, "geometry": { "type": "LineString", "coordinates": [ [ -81.698116694444451, 28.006251555555554 ], [ -81.70128019444445, 28.005638861111112 ], [ -81.704167416666664, 28.004338055555557 ], [ -81.706591805555561, 28.002433166666666 ], [ -81.708396694444446, 28.000047277777778 ], [ -81.70946552777778, 27.997334583333334 ], [ -81.70974261111111, 27.994948805555556 ] ] } },
{ "type": "Feature", "properties": { "style": "solid", "thickness": 1 }, "geometry": { "type": "LineString", "coordinates": [ [ -81.70974261111111, 27.994948805555556 ], [ -81.710433138888888, 27.9977565 ], [ -81.711898888888896, 28.000318944444444 ], [ -81.714045222222225, 28.002470611111111 ], [ -81.716733472222231, 28.004072444444443 ], [ -81.719789944444443, 28.005020944444443 ], [ -81.722478027777782, 28.005266666666667 ] ] } },
{ "type": "Feature", "properties": { "style": "solid", "thickness": 1 }, "geometry": { "type": "LineString", "coordinates": [ [ -81.710852305555562, 28.016570444444444 ], [ -81.71125244444444, 28.013718666666666 ], [ -81.71244975, 28.011048527777778 ], [ -81.71436683333333, 28.008732527777777 ], [ -81.716879805555564, 28.006920222222224 ], [ -81.71982633333333, 28.005728694444443 ], [ -81.722478027777782, 28.005266666666667 ] ] } },
{ "type": "Feature", "properties": { "style": "solid", "thickness": 1 }, "geometry": { "type": "LineString", "coordinates": [ [ -81.710852305555562, 28.016570444444444 ], [ -81.710161638888891, 28.013762777777778 ], [ -81.70869575, 28.011200305555555 ], [ -81.706549361111115, 28.009048555555555 ], [ -81.70386116666667, 28.007446527777777 ], [ -81.70080475, 28.006497694444445 ], [ -81.698116694444451, 28.006251555555554 ] ] } },
{ "type": "Feature", "properties": { "style": "solid", "thickness": 1 }, "geometry": { "type": "LineString", "coordinates": [ [ -81.622177555555552, 28.076366583333332 ], [ -81.622571527777765, 28.078174888888888 ], [ -81.623723027777771, 28.079707527777778 ], [ -81.625453055555553, 28.080726222222221 ], [ -81.627492583333321, 28.081072583333334 ], [ -81.629524527777775, 28.080692722222221 ], [ -81.631232944444434, 28.079645722222221 ], [ -81.632352166666664, 28.078094388888889 ], [ -81.63270825, 28.076279916666667 ], [ -81.632245861111102, 28.074484416666667 ], [ -81.631036888888886, 28.072987 ], [ -81.629269361111099, 28.0720205 ], [ -81.627218027777772, 28.07173513888889 ], [ -81.625201749999988, 28.072175277777777 ], [ -81.623534027777765, 28.0732725 ], [ -81.62247408333333, 28.074856222222223 ], [ -81.622177555555552, 28.076366583333332 ] ] } },
{ "type": "Feature", "properties": { "style": "solid", "thickness": 1 }, "geometry": { "type": "LineString", "coordinates": [ [ -81.615254694444445, 28.076886361111111 ], [ -81.618420694444438, 28.076275611111111 ], [ -81.621310805555552, 28.074976555555555 ], [ -81.623738194444442, 28.073073166666667 ], [ -81.625546111111106, 28.070688444444443 ], [ -81.626617722222221, 28.067976444444444 ], [ -81.626896833333333, 28.065590777777778 ] ] } },
{ "type": "Feature", "properties": { "style": "solid", "thickness": 1 }, "geometry": { "type": "LineString", "coordinates": [ [ -81.626896833333333, 28.065590777777778 ], [ -81.627585666666661, 28.068398833333333 ], [ -81.629050388888885, 28.070962111111111 ], [ -81.631196472222214, 28.073115055555554 ], [ -81.633885194444446, 28.074718472222223 ], [ -81.636942916666669, 28.075668805555555 ], [ -81.639632666666671, 28.075916166666666 ] ] } },
{ "type": "Feature", "properties": { "style": "solid", "thickness": 1 }, "geometry": { "type": "LineString", "coordinates": [ [ -81.627990694444435, 28.087212833333332 ], [ -81.628393277777775, 28.084361333333334 ], [ -81.629593416666665, 28.08169197222222 ], [ -81.63151347222221, 28.079377138888887 ], [ -81.634029444444451, 28.07756638888889 ], [ -81.636978805555557, 28.076376638888888 ], [ -81.639632666666671, 28.075916166666666 ] ] } },
{ "type": "Feature", "properties": { "style": "solid", "thickness": 1 }, "geometry": { "type": "LineString", "coordinates": [ [ -81.627990694444435, 28.087212833333332 ], [ -81.627301749999987, 28.084404777777777 ], [ -81.625836888888884, 28.081841472222223 ], [ -81.62369075, 28.079688472222223 ], [ -81.62100205555555, 28.078084833333332 ], [ -81.61794441666666, 28.077134166666667 ], [ -81.615254694444445, 28.076886361111111 ] ] } },
{ "type": "Feature", "properties": { "style": "solid", "thickness": 1 }, "geometry": { "type": "LineString", "coordinates": [ [ -81.687464805555564, 28.136585777777778 ], [ -81.687860111111121, 28.138393861111112 ], [ -81.689013166666669, 28.139925944444443 ], [ -81.69074477777778, 28.140943805555555 ], [ -81.692785666666666, 28.141289166666667 ], [ -81.694818500000011, 28.140908361111112 ], [ -81.69652722222223, 28.139860555555554 ], [ -81.697646138888899, 28.138308694444444 ], [ -81.698001305555564, 28.136494083333332 ], [ -81.697537555555556, 28.134698805555555 ], [ -81.696327, 28.133202 ], [ -81.694557888888895, 28.132236333333335 ], [ -81.692505222222223, 28.131951972222222 ], [ -81.690488111111108, 28.132393083333334 ], [ -81.688820138888886, 28.133491111111109 ], [ -81.687760583333343, 28.135075333333333 ], [ -81.687464805555564, 28.136585777777778 ] ] } },
{ "type": "Feature", "properties": { "style": "solid", "thickness": 1 }, "geometry": { "type": "LineString", "coordinates": [ [ -81.680538388888891, 28.137108833333333 ], [ -81.683705833333335, 28.136496555555556 ], [ -81.68659675, 28.135196166666667 ], [ -81.689024361111109, 28.133291638888888 ], [ -81.690831833333334, 28.130906055555556 ], [ -81.691902388888892, 28.128193555555555 ], [ -81.69218022222222, 28.125807833333333 ] ] } },
{ "type": "Feature", "properties": { "style": "solid", "thickness": 1 }, "geometry": { "type": "LineString", "coordinates": [ [ -81.69218022222222, 28.125807833333333 ], [ -81.69287113888889, 28.128615527777779 ], [ -81.694338222222228, 28.131178111111112 ], [ -81.696486777777778, 28.13333 ], [ -81.699178027777776, 28.134932138888889 ], [ -81.702238027777781, 28.135881 ], [ -81.704929361111112, 28.136127083333331 ] ] } },
{ "type": "Feature", "properties": { "style": "solid", "thickness": 1 }, "geometry": { "type": "LineString", "coordinates": [ [ -81.69328775000001, 28.147429111111112 ], [ -81.69368883333334, 28.14457747222222 ], [ -81.694888, 28.141907555555555 ], [ -81.696807777777778, 28.139591833333334 ], [ -81.699324055555564, 28.137779916666666 ], [ -81.702274333333335, 28.136588777777778 ], [ -81.704929361111112, 28.136127083333331 ] ] } },
{ "type": "Feature", "properties": { "style": "solid", "thickness": 1 }, "geometry": { "type": "LineString", "coordinates": [ [ -81.69328775000001, 28.147429111111112 ], [ -81.69259672222222, 28.144621444444443 ], [ -81.691129472222229, 28.142058833333333 ], [ -81.688980861111119, 28.139906888888888 ], [ -81.686289666666667, 28.138304555555553 ], [ -81.683229722222222, 28.137355333333332 ], [ -81.680538388888891, 28.137108833333333 ] ] } },
{ "type": "Feature", "properties": { "style": "solid", "thickness": 1 }, "geometry": { "type": "LineString", "coordinates": [ [ -81.55696375, 28.016024138888888 ], [ -81.557356416666664, 28.017832638888887 ], [ -81.558506361111114, 28.019365833333332 ], [ -81.560234777777779, 28.02038536111111 ], [ -81.562272972222218, 28.020732694444444 ], [ -81.564304, 28.020353805555555 ], [ -81.566012083333334, 28.019307638888886 ], [ -81.567131666666668, 28.017756833333333 ], [ -81.567488638888889, 28.0159425 ], [ -81.567027611111101, 28.014146777777778 ], [ -81.56582025, 28.012648777777777 ], [ -81.564054277777771, 28.011681388888888 ], [ -81.562004277777774, 28.011395027777777 ], [ -81.559988861111108, 28.011834194444443 ], [ -81.558321388888885, 28.012930611111113 ], [ -81.55726108333333, 28.014513861111112 ], [ -81.55696375, 28.016024138888888 ] ] } },
{ "type": "Feature", "properties": { "style": "solid", "thickness": 1 }, "geometry": { "type": "LineString", "coordinates": [ [ -81.550044444444438, 28.016540638888888 ], [ -81.553209055555556, 28.015931388888887 ], [ -81.556098305555551, 28.014633694444445 ], [ -81.5585255, 28.012731444444444 ], [ -81.560333833333331, 28.010347555555555 ], [ -81.5614065, 28.007636055555555 ], [ -81.561686916666659, 28.005250472222222 ] ] } },
{ "type": "Feature", "properties": { "style": "solid", "thickness": 1 }, "geometry": { "type": "LineString", "coordinates": [ [ -81.561686916666659, 28.005250472222222 ], [ -81.562373666666659, 28.00805886111111 ], [ -81.563836027777768, 28.010622888888889 ], [ -81.565979583333331, 28.012776833333334 ], [ -81.568665861111114, 28.014381555555556 ], [ -81.571721277777769, 28.015333361111111 ], [ -81.574409416666668, 28.015582 ] ] } },
{ "type": "Feature", "properties": { "style": "solid", "thickness": 1 }, "geometry": { "type": "LineString", "coordinates": [ [ -81.562767138888887, 28.02687325 ], [ -81.563171194444436, 28.024021916666666 ], [ -81.56437225, 28.021353111111111 ], [ -81.566292666666669, 28.019039166666666 ], [ -81.56880830555555, 28.017229583333332 ], [ -81.571756722222219, 28.016041222222221 ], [ -81.574409416666668, 28.015582 ] ] } },
{ "type": "Feature", "properties": { "style": "solid", "thickness": 1 }, "geometry": { "type": "LineString", "coordinates": [ [ -81.562767138888887, 28.02687325 ], [ -81.56208025, 28.024064861111111 ], [ -81.56061775, 28.021500833333331 ], [ -81.558474138888883, 28.019346805555553 ], [ -81.555787888888887, 28.017741861111109 ], [ -81.552732555555551, 28.016789722222221 ], [ -81.550044444444438, 28.016540638888888 ] ] } },
{ "type": "Feature", "properties": { "style": "solid", "thickness": 1 }, "geometry": { "type": "LineString", "coordinates": [ [ -81.635411972222229, 28.105536055555557 ], [ -81.63082025, 28.105718944444448 ], [ -81.63079297222221, 28.105180055555557 ], [ -81.635502333333335, 28.09797297222222 ], [ -81.635499305555555, 28.097913083333331 ], [ -81.630165166666657, 28.098125555555555 ] ] } },
{ "type": "Feature", "properties": { "style": "solid", "thickness": 1 }, "geometry": { "type": "LineString", "coordinates": [ [ -81.623189861111101, 28.1060225 ], [ -81.624405333333328, 28.10597416666667 ], [ -81.625010027777776, 28.105890111111112 ], [ -81.626198222222214, 28.10530291666667 ], [ -81.627294666666657, 28.104239361111112 ], [ -81.627660416666657, 28.103444861111111 ], [ -81.6278145, 28.102478805555556 ], [ -81.627775111111106, 28.101700416666667 ], [ -81.627603722222219, 28.100987305555556 ], [ -81.627226722222218, 28.100222361111111 ], [ -81.6264355, 28.099293916666664 ], [ -81.626150277777768, 28.099005277777778 ], [ -81.625591916666664, 28.0986675 ], [ -81.624425888888879, 28.098353916666664 ], [ -81.623007944444439, 28.098410305555554 ], [ -81.622338805555543, 28.098556888888886 ], [ -81.621675694444434, 28.098823222222222 ], [ -81.621279638888879, 28.099018944444442 ], [ -81.620628638888888, 28.099524777777777 ], [ -81.620057249999988, 28.100267444444444 ], [ -81.619878888888877, 28.1007545 ], [ -81.619721694444436, 28.101660666666668 ], [ -81.619794305555544, 28.103097666666667 ], [ -81.620474666666667, 28.10451052777778 ], [ -81.620904027777769, 28.104973444444447 ], [ -81.621397888888879, 28.105373777777778 ], [ -81.621885694444444, 28.105654361111114 ], [ -81.62202377777777, 28.105708861111111 ], [ -81.623189861111101, 28.1060225 ] ] } },
{ "type": "Feature", "properties": { "style": "solid", "thickness": 1 }, "geometry": { "type": "LineString", "coordinates": [ [ -81.616796, 28.098657111111109 ], [ -81.614884166666656, 28.106352444444447 ], [ -81.611664388888883, 28.098860805555553 ], [ -81.609684666666666, 28.106558722222225 ], [ -81.606802833333333, 28.09905361111111 ] ] } },
{ "type": "Feature", "properties": { "style": "solid", "thickness": 1 }, "geometry": { "type": "LineString", "coordinates": [ [ -81.59955566666666, 28.106960055555557 ], [ -81.600771166666661, 28.106911916666668 ], [ -81.601375888888882, 28.106828 ], [ -81.602564222222213, 28.106240972222224 ], [ -81.603660888888882, 28.10517763888889 ], [ -81.604026805555549, 28.104383194444445 ], [ -81.604181111111103, 28.103417166666667 ], [ -81.60414188888889, 28.102638777777781 ], [ -81.603970638888882, 28.10192563888889 ], [ -81.603593805555548, 28.101160611111112 ], [ -81.602802805555555, 28.100232027777778 ], [ -81.602517638888884, 28.099943361111109 ], [ -81.601959361111099, 28.0996055 ], [ -81.600793388888889, 28.099291694444442 ], [ -81.59937541666666, 28.099347833333333 ], [ -81.598706222222219, 28.099494305555556 ], [ -81.59804305555555, 28.099760555555555 ], [ -81.597646972222222, 28.099956194444442 ], [ -81.596995861111111, 28.100461916666667 ], [ -81.596424305555544, 28.101204472222225 ], [ -81.596245833333327, 28.1016915 ], [ -81.596088444444433, 28.102597638888891 ], [ -81.59616075, 28.104034666666667 ], [ -81.596840777777771, 28.10544763888889 ], [ -81.597270027777768, 28.105910611111113 ], [ -81.597763805555545, 28.106311027777778 ], [ -81.598251583333322, 28.106591694444447 ], [ -81.598389638888889, 28.106646222222224 ], [ -81.59955566666666, 28.106960055555557 ] ] } },
{ "type": "Feature", "properties": { "style": "solid", "thickness": 1 }, "geometry": { "type": "LineString", "coordinates": [ [ -81.593545777777777, 28.107197805555558 ], [ -81.589922305555547, 28.09972172222222 ], [ -81.587198222222213, 28.10744863888889 ] ] } },
{ "type": "Feature", "properties": { "style": "solid", "thickness": 1 }, "geometry": { "type": "LineString", "coordinates": [ [ -81.616741916666655, 28.09201375 ], [ -81.616760083333332, 28.092373027777775 ], [ -81.616646194444442, 28.0927975 ], [ -81.616403333333324, 28.093347111111111 ], [ -81.616151416666668, 28.093717083333331 ], [ -81.615758388888878, 28.093972666666666 ], [ -81.61522427777777, 28.094113861111111 ], [ -81.6142115, 28.094154083333333 ], [ -81.613462777777769, 28.094063805555553 ], [ -81.613116111111111, 28.093897583333334 ], [ -81.612622333333334, 28.093497194444442 ], [ -81.612472194444436, 28.093203194444442 ], [ -81.612312972222213, 28.092729555555554 ], [ -81.612264638888888, 28.091771527777777 ], [ -81.612381555555544, 28.091406916666667 ], [ -81.612925749999988, 28.090125416666666 ], [ -81.61369363888889, 28.089255 ], [ -81.614919, 28.088066444444443 ], [ -81.61639625, 28.086507888888889 ], [ -81.612142888888883, 28.08667675 ] ] } },
{ "type": "Feature", "properties": { "style": "solid", "thickness": 1 }, "geometry": { "type": "LineString", "coordinates": [ [ -81.609585083333329, 28.092297805555553 ], [ -81.609603222222219, 28.092657055555556 ], [ -81.609489305555556, 28.093081555555553 ], [ -81.609246416666664, 28.093631138888888 ], [ -81.608994472222221, 28.094001111111108 ], [ -81.608601416666659, 28.094256666666666 ], [ -81.608067305555551, 28.094397833333332 ], [ -81.607054527777777, 28.094438 ], [ -81.606305777777777, 28.094347666666664 ], [ -81.605959138888878, 28.094181444444445 ], [ -81.605465388888888, 28.093781027777776 ], [ -81.605315277777777, 28.093487 ], [ -81.605156083333327, 28.093013361111112 ], [ -81.605107805555548, 28.092055333333331 ], [ -81.60522475, 28.09169075 ], [ -81.605769027777768, 28.090409277777777 ], [ -81.606536972222216, 28.089538888888889 ], [ -81.60776241666666, 28.088350388888887 ], [ -81.609239777777773, 28.086791916666666 ], [ -81.604986388888889, 28.086960555555553 ] ] } },
{ "type": "Feature", "properties": { "style": "solid", "thickness": 1 }, "geometry": { "type": "LineString", "coordinates": [ [ -81.687282166666677, 28.154190222222219 ], [ -81.683955638888889, 28.161943472222219 ], [ -81.680053861111119, 28.154480638888888 ] ] } },
{ "type": "Feature", "properties": { "style": "solid", "thickness": 1 }, "geometry": { "type": "LineString", "coordinates": [ [ -81.686191805555566, 28.156693916666665 ], [ -81.681327777777781, 28.156889333333332 ] ] } },
{ "type": "Feature", "properties": { "style": "solid", "thickness": 1 }, "geometry": { "type": "LineString", "coordinates": [ [ -81.67721655555556, 28.154594527777775 ], [ -81.67760505555556, 28.162198444444442 ], [ -81.66958286111111, 28.154900666666666 ], [ -81.669970805555565, 28.16250461111111 ] ] } },
{ "type": "Feature", "properties": { "style": "solid", "thickness": 1 }, "geometry": { "type": "LineString", "coordinates": [ [ -81.667200861111112, 28.162615583333331 ], [ -81.662336555555555, 28.162810333333333 ] ] } },
{ "type": "Feature", "properties": { "style": "solid", "thickness": 1 }, "geometry": { "type": "LineString", "coordinates": [ [ -81.664836277777781, 28.162710277777776 ], [ -81.664448666666672, 28.155106333333332 ] ] } },
{ "type": "Feature", "properties": { "style": "solid", "thickness": 1 }, "geometry": { "type": "LineString", "coordinates": [ [ -81.659111777777781, 28.155319916666667 ], [ -81.659499027777784, 28.162923861111111 ] ] } },
{ "type": "Feature", "properties": { "style": "solid", "thickness": 1 }, "geometry": { "type": "LineString", "coordinates": [ [ -81.655598888888889, 28.155460388888887 ], [ -81.655985888888893, 28.163064361111111 ] ] } },
{ "type": "Feature", "properties": { "style": "solid", "thickness": 1 }, "geometry": { "type": "LineString", "coordinates": [ [ -81.560624333333337, 28.033201055555555 ], [ -81.561004194444436, 28.040805472222225 ], [ -81.55816975, 28.040916916666667 ], [ -81.55756236111111, 28.040940777777781 ], [ -81.557072027777778, 28.040600083333334 ], [ -81.556713666666667, 28.040194194444446 ], [ -81.556701722222215, 28.039954694444447 ], [ -81.556641944444436, 28.03875713888889 ], [ -81.556700472222218, 28.038574861111112 ], [ -81.556879, 28.038087888888892 ], [ -81.557523972222214, 28.037462583333333 ], [ -81.556831194444442, 28.037129861111111 ], [ -81.556484805555556, 28.036963472222222 ], [ -81.556132416666671, 28.036677361111114 ], [ -81.555903083333334, 28.036146416666668 ], [ -81.555825388888891, 28.034589611111112 ], [ -81.556006916666661, 28.0341625 ], [ -81.556461361111104, 28.033784666666669 ], [ -81.556786805555546, 28.033531916666668 ], [ -81.55711525, 28.033339027777778 ], [ -81.560624333333337, 28.033201055555555 ] ] } },
{ "type": "Feature", "properties": { "style": "solid", "thickness": 1 }, "geometry": { "type": "LineString", "coordinates": [ [ -81.560830722222221, 28.037332583333335 ], [ -81.557523972222214, 28.037462583333333 ] ] } },
{ "type": "Feature", "properties": { "style": "solid", "thickness": 1 }, "geometry": { "type": "LineString", "coordinates": [ [ -81.548519111111105, 28.041295888888889 ], [ -81.549733888888881, 28.041248222222222 ], [ -81.550338277777769, 28.041164527777781 ], [ -81.551526166666662, 28.040577944444447 ], [ -81.552622666666664, 28.039514972222225 ], [ -81.55298875, 28.03872066666667 ], [ -81.553143416666657, 28.037754694444445 ], [ -81.553104583333337, 28.036976277777779 ], [ -81.552933777777781, 28.036263055555558 ], [ -81.552557527777779, 28.035497888888891 ], [ -81.551767444444437, 28.034569 ], [ -81.551482583333325, 28.034280222222225 ], [ -81.550924805555553, 28.033942138888889 ], [ -81.549759694444447, 28.033627916666667 ], [ -81.54834255555555, 28.033683527777779 ], [ -81.547673694444441, 28.03382975 ], [ -81.547010805555558, 28.034095722222222 ], [ -81.546614861111109, 28.03429125 ], [ -81.545963888888892, 28.03479675 ], [ -81.545392333333325, 28.035539083333337 ], [ -81.54521375, 28.036026055555556 ], [ -81.545056027777775, 28.03693213888889 ], [ -81.545127611111113, 28.038369194444446 ], [ -81.545806555555558, 28.039782444444445 ], [ -81.546235333333328, 28.040245583333334 ], [ -81.546728638888894, 28.040646194444445 ], [ -81.547215972222219, 28.040927055555557 ], [ -81.547353916666665, 28.040981638888891 ], [ -81.548519111111105, 28.041295888888889 ] ] } },
{ "type": "Feature", "properties": { "style": "solid", "thickness": 1 }, "geometry": { "type": "LineString", "coordinates": [ [ -81.537721111111111, 28.04171913888889 ], [ -81.538935888888886, 28.041671555555556 ], [ -81.539540305555548, 28.041587888888891 ], [ -81.54072825, 28.041001416666667 ], [ -81.54182486111111, 28.039938527777778 ], [ -81.542191027777776, 28.03914427777778 ], [ -81.542345805555556, 28.038178277777778 ], [ -81.542307055555554, 28.037399888888892 ], [ -81.542136305555559, 28.036686638888892 ], [ -81.54176013888889, 28.035921444444448 ], [ -81.540970138888881, 28.0349925 ], [ -81.540685305555556, 28.034703694444445 ], [ -81.540127555555557, 28.034365583333337 ], [ -81.538962472222224, 28.03405125 ], [ -81.537545333333327, 28.03410675 ], [ -81.536876444444445, 28.034252944444447 ], [ -81.536213527777775, 28.034518861111113 ], [ -81.535817555555553, 28.034714361111114 ], [ -81.535166527777776, 28.03521977777778 ], [ -81.534594916666663, 28.035962083333335 ], [ -81.53441627777778, 28.036449027777781 ], [ -81.53425847222222, 28.037355111111111 ], [ -81.534329888888891, 28.038792194444447 ], [ -81.535008722222216, 28.040205472222222 ], [ -81.53543744444444, 28.040668638888892 ], [ -81.535930694444446, 28.041069305555556 ], [ -81.536418, 28.041350194444448 ], [ -81.536555944444444, 28.041404805555558 ], [ -81.537721111111111, 28.04171913888889 ] ] } },
{ "type": "Feature", "properties": { "style": "solid", "thickness": 1 }, "geometry": { "type": "LineString", "coordinates": [ [ -81.531336888888887, 28.034349722222224 ], [ -81.531714694444446, 28.041954194444447 ], [ -81.52371125, 28.034647805555558 ], [ -81.524088555555551, 28.042252277777781 ] ] } },
{ "type": "Feature", "properties": { "style": "solid", "thickness": 1 }, "geometry": { "type": "LineString", "coordinates": [ [ -81.520944444444439, 28.034755833333335 ], [ -81.521321527777772, 28.042360305555558 ], [ -81.513318777777783, 28.035053305555557 ], [ -81.513695333333331, 28.042657805555557 ] ] } }
]
}
