{
"type": "FeatureCollection",
"name": "tpa239sgp",
"features": [
{ "type": "Feature", "properties": { "style": "solid", "thickness": 1 }, "geometry": { "type": "LineString", "coordinates": [ [ -82.494084805555559, 27.915509555555555 ], [ -82.484338805555552, 27.917179305555557 ] ] } },
{ "type": "Feature", "properties": { "style": "solid", "thickness": 1 }, "geometry": { "type": "LineString", "coordinates": [ [ -82.504987694444438, 27.904303277777775 ], [ -82.47109705555556, 27.910109833333333 ] ] } },
{ "type": "Feature", "properties": { "style": "solid", "thickness": 1 }, "geometry": { "type": "LineString", "coordinates": [ [ -82.515888361111109, 27.89309613888889 ], [ -82.461103916666673, 27.902483472222222 ] ] } },
{ "type": "Feature", "properties": { "style": "solid", "thickness": 1 }, "geometry": { "type": "LineString", "coordinates": [ [ -82.527176972222222, 27.881821111111112 ], [ -82.453336666666672, 27.894475833333331 ] ] } },
{ "type": "Feature", "properties": { "style": "solid", "thickness": 1 }, "geometry": { "type": "LineString", "coordinates": [ [ -82.538273944444441, 27.870577666666666 ], [ -82.447271916666665, 27.886176694444444 ] ] } },
{ "type": "Feature", "properties": { "style": "solid", "thickness": 1 }, "geometry": { "type": "LineString", "coordinates": [ [ -82.549174083333327, 27.85936677777778 ], [ -82.442664166666674, 27.87762825 ] ] } },
{ "type": "Feature", "properties": { "style": "solid", "thickness": 1 }, "geometry": { "type": "LineString", "coordinates": [ [ -82.560071944444445, 27.848154972222222 ], [ -82.439368, 27.868855444444446 ] ] } },
{ "type": "Feature", "properties": { "style": "solid", "thickness": 1 }, "geometry": { "type": "LineString", "coordinates": [ [ -82.57081488888889, 27.836968583333331 ], [ -82.43732108333333, 27.859869 ] ] } },
{ "type": "Feature", "properties": { "style": "solid", "thickness": 1 }, "geometry": { "type": "LineString", "coordinates": [ [ -82.581528222222218, 27.825786055555554 ], [ -82.436518277777779, 27.850669777777778 ] ] } },
{ "type": "Feature", "properties": { "style": "solid", "thickness": 1 }, "geometry": { "type": "LineString", "coordinates": [ [ -82.589203194444437, 27.81512563888889 ], [ -82.437012555555555, 27.841248666666665 ] ] } },
{ "type": "Feature", "properties": { "style": "solid", "thickness": 1 }, "geometry": { "type": "LineString", "coordinates": [ [ -82.581188972222222, 27.80716702777778 ], [ -82.43893936111111, 27.831582472222223 ] ] } },
{ "type": "Feature", "properties": { "style": "solid", "thickness": 1 }, "geometry": { "type": "LineString", "coordinates": [ [ -82.573175916666656, 27.799207944444447 ], [ -82.442519583333336, 27.82163325 ] ] } },
{ "type": "Feature", "properties": { "style": "solid", "thickness": 1 }, "geometry": { "type": "LineString", "coordinates": [ [ -82.565164, 27.791248388888892 ], [ -82.44820144444445, 27.811324055555556 ] ] } },
{ "type": "Feature", "properties": { "style": "solid", "thickness": 1 }, "geometry": { "type": "LineString", "coordinates": [ [ -82.557153277777772, 27.783288361111111 ], [ -82.456897138888891, 27.80049825 ] ] } },
{ "type": "Feature", "properties": { "style": "solid", "thickness": 1 }, "geometry": { "type": "LineString", "coordinates": [ [ -82.541945333333331, 27.776565777777776 ], [ -82.471259944444441, 27.788700416666668 ] ] } },
{ "type": "Feature", "properties": { "style": "solid", "thickness": 1 }, "geometry": { "type": "LineString", "coordinates": [ [ -82.490235777777784, 27.919464916666669 ], [ -82.489419416666664, 27.919182027777779 ], [ -82.487546166666661, 27.918486416666667 ], [ -82.485692277777773, 27.917751111111112 ], [ -82.483858777777783, 27.9169765 ], [ -82.48204675, 27.916163 ], [ -82.480257222222221, 27.915311138888889 ], [ -82.478491222222218, 27.914421388888886 ], [ -82.476749805555556, 27.91349425 ], [ -82.475033944444448, 27.91253025 ], [ -82.473344611111116, 27.911529972222223 ], [ -82.47168280555556, 27.91049397222222 ], [ -82.470049472222229, 27.909422833333331 ], [ -82.468445555555562, 27.90831722222222 ], [ -82.466872, 27.907177722222222 ], [ -82.465329666666676, 27.906005 ], [ -82.463819472222227, 27.904799777777775 ], [ -82.46234225, 27.903562694444442 ], [ -82.460898916666665, 27.90229447222222 ], [ -82.45949025, 27.900995888888886 ], [ -82.458117055555562, 27.899667611111109 ], [ -82.456780166666675, 27.898310472222221 ], [ -82.455480305555554, 27.896925222222222 ], [ -82.45421825, 27.895512694444445 ], [ -82.452994722222229, 27.894073638888887 ], [ -82.451810416666675, 27.892608944444444 ], [ -82.450666, 27.891119416666665 ], [ -82.449562138888894, 27.889605916666667 ], [ -82.4484995, 27.888069333333334 ], [ -82.447478638888896, 27.886510555555557 ], [ -82.446500194444454, 27.884930444444443 ], [ -82.445564666666669, 27.883329944444444 ], [ -82.444672666666676, 27.881709972222222 ], [ -82.443824638888898, 27.880071444444447 ], [ -82.443021111111122, 27.878415305555556 ], [ -82.442262527777785, 27.876742527777779 ], [ -82.441549305555554, 27.875054083333335 ], [ -82.440881888888896, 27.87335088888889 ], [ -82.440260666666674, 27.871633972222224 ], [ -82.439685944444449, 27.869904305555558 ], [ -82.439158083333339, 27.868162888888889 ], [ -82.438677361111118, 27.86641075 ], [ -82.438244083333331, 27.864648833333334 ], [ -82.4378585, 27.862878194444445 ], [ -82.437520805555565, 27.861099861111114 ], [ -82.43723119444445, 27.859314805555556 ], [ -82.436989833333342, 27.857524138888891 ], [ -82.436796861111119, 27.855728805555557 ], [ -82.436652388888888, 27.853929888888889 ], [ -82.4365565, 27.85212841666667 ], [ -82.43650925, 27.850325388888891 ], [ -82.43651063888889, 27.848521916666666 ], [ -82.436560694444452, 27.84671897222222 ], [ -82.436659361111111, 27.844917583333331 ], [ -82.436806611111109, 27.843118861111108 ], [ -82.437002333333339, 27.841323777777777 ], [ -82.437246388888894, 27.839533361111108 ], [ -82.437538694444441, 27.837748694444443 ], [ -82.437879027777782, 27.83597075 ], [ -82.438267222222223, 27.834200555555555 ], [ -82.438703055555564, 27.832439166666667 ], [ -82.43918625, 27.830687583333333 ], [ -82.439716527777776, 27.828946777777777 ], [ -82.440293583333343, 27.827217777777779 ], [ -82.440917111111119, 27.825501583333335 ], [ -82.441586722222226, 27.823799166666667 ], [ -82.442302027777785, 27.8221115 ], [ -82.443062611111117, 27.820439583333332 ], [ -82.443868083333342, 27.818784333333333 ], [ -82.444717916666676, 27.81714675 ], [ -82.445611638888892, 27.815527722222225 ], [ -82.44654875, 27.813928222222223 ], [ -82.447528722222231, 27.812349166666667 ], [ -82.448550944444449, 27.810791444444444 ], [ -82.449614861111115, 27.809255944444445 ], [ -82.450719861111111, 27.807743583333334 ], [ -82.451865277777785, 27.806255194444446 ], [ -82.45305047222223, 27.80479163888889 ], [ -82.454274777777783, 27.803353777777779 ], [ -82.455537472222218, 27.801942416666666 ], [ -82.456837833333338, 27.800558388888888 ], [ -82.45817508333333, 27.799202472222223 ], [ -82.4595485, 27.797875416666667 ], [ -82.46095727777778, 27.79657802777778 ], [ -82.462400583333334, 27.795311055555558 ], [ -82.463877611111116, 27.794075194444446 ], [ -82.465387527777779, 27.792871166666668 ], [ -82.466929416666673, 27.791699694444446 ], [ -82.468502416666666, 27.790561388888889 ], [ -82.470105638888896, 27.789456944444446 ], [ -82.471738138888895, 27.788387 ], [ -82.473399, 27.787352138888892 ], [ -82.475087222222228, 27.786352972222225 ], [ -82.476801888888886, 27.785390111111113 ], [ -82.478542, 27.78446402777778 ], [ -82.480306555555558, 27.783575333333335 ], [ -82.482094527777775, 27.78272447222222 ], [ -82.483904888888887, 27.781912 ], [ -82.485736611111108, 27.781138305555555 ], [ -82.487588666666667, 27.780403916666664 ], [ -82.489459944444448, 27.779709166666667 ], [ -82.491349388888892, 27.779054527777777 ], [ -82.493255916666669, 27.778440361111109 ], [ -82.495178444444448, 27.77786697222222 ], [ -82.497115861111112, 27.77733475 ], [ -82.499067055555557, 27.77684397222222 ], [ -82.501030888888891, 27.776394916666664 ], [ -82.50300625, 27.775987861111108 ], [ -82.504992027777774, 27.775623 ], [ -82.506987027777782, 27.775300583333333 ], [ -82.50899013888889, 27.775020777777776 ], [ -82.511000222222222, 27.77478375 ], [ -82.513016111111114, 27.774589638888887 ], [ -82.515036638888887, 27.774438527777775 ], [ -82.517060666666666, 27.774330527777778 ], [ -82.519087, 27.774265722222221 ], [ -82.521114527777783, 27.774244111111109 ], [ -82.52314202777778, 27.774265722222221 ], [ -82.525168388888886, 27.774330527777778 ], [ -82.527192388888892, 27.774438527777775 ], [ -82.529212916666665, 27.774589638888887 ], [ -82.531228805555557, 27.77478375 ], [ -82.533238888888889, 27.775020777777776 ], [ -82.535242, 27.775300583333333 ], [ -82.537237027777778, 27.775623 ], [ -82.53922277777778, 27.775987861111108 ], [ -82.541198138888888, 27.776394916666664 ], [ -82.543162, 27.77684397222222 ], [ -82.545113166666667, 27.77733475 ], [ -82.547050583333331, 27.77786697222222 ], [ -82.54897311111111, 27.778440361111109 ], [ -82.550879638888887, 27.779054527777777 ], [ -82.552769111111104, 27.779709166666667 ], [ -82.554036277777769, 27.780179638888889 ] ] } },
{ "type": "Feature", "properties": { "style": "solid", "thickness": 1 }, "geometry": { "type": "LineString", "coordinates": [ [ -82.490235777777784, 27.919464916666669 ], [ -82.514369333333335, 27.894658055555556 ], [ -82.533683194444436, 27.87529838888889 ], [ -82.56173125, 27.846447583333333 ], [ -82.59050275, 27.816416027777777 ] ] } },
{ "type": "Feature", "properties": { "style": "solid", "thickness": 1 }, "geometry": { "type": "LineString", "coordinates": [ [ -82.554036277777769, 27.780179638888889 ], [ -82.554040333333333, 27.780194694444443 ], [ -82.59050275, 27.816416027777777 ] ] } }
]
}
