{
"type": "FeatureCollection",
"name": "tpa286sgp",
"features": [
{ "type": "Feature", "properties": { "style": "solid", "thickness": 1 }, "geometry": { "type": "LineString", "coordinates": [ [ -82.542355416666666, 27.963294333333334 ], [ -82.543939916666659, 27.916622138888886 ] ] } },
{ "type": "Feature", "properties": { "style": "solid", "thickness": 1 }, "geometry": { "type": "LineString", "coordinates": [ [ -82.54445438888888, 27.901455388888888 ], [ -82.546251444444437, 27.848433583333332 ] ] } },
{ "type": "Feature", "properties": { "style": "solid", "thickness": 1 }, "geometry": { "type": "LineString", "coordinates": [ [ -82.551401083333332, 27.826235166666667 ], [ -82.554461416666669, 27.822475777777779 ], [ -82.558141916666671, 27.819185111111111 ], [ -82.562353, 27.816443277777779 ], [ -82.566992277777771, 27.814316888888889 ], [ -82.571946861111101, 27.812857694444446 ] ] } },
{ "type": "Feature", "properties": { "style": "solid", "thickness": 1 }, "geometry": { "type": "LineString", "coordinates": [ [ -82.547125027777781, 27.822744777777778 ], [ -82.548475194444435, 27.783113611111109 ] ] } },
{ "type": "Feature", "properties": { "style": "solid", "thickness": 1 }, "geometry": { "type": "LineString", "coordinates": [ [ -82.548990388888882, 27.76795075 ], [ -82.550740444444443, 27.716296555555555 ] ] } },
{ "type": "Feature", "properties": { "style": "solid", "thickness": 1 }, "geometry": { "type": "LineString", "coordinates": [ [ -82.543032111111103, 27.825082805555557 ], [ -82.540512222222219, 27.820818722222221 ], [ -82.537378361111109, 27.816889638888888 ], [ -82.533685944444443, 27.813364944444444 ], [ -82.529500361111104, 27.810307 ], [ -82.524895583333333, 27.807769861111112 ], [ -82.519953083333334, 27.805798361111112 ], [ -82.514760166666662, 27.804427361111113 ], [ -82.509408666666673, 27.803681055555558 ], [ -82.503993138888887, 27.803572666666668 ], [ -82.498609305555561, 27.804104083333335 ], [ -82.493352305555561, 27.805265944444447 ], [ -82.48831505555556, 27.807037694444446 ], [ -82.483586583333334, 27.809388027777779 ], [ -82.479250527777779, 27.812275388888889 ], [ -82.4753835, 27.81564875 ], [ -82.472053972222227, 27.8194485 ] ] } },
{ "type": "Feature", "properties": { "style": "solid", "thickness": 1 }, "geometry": { "type": "LineString", "coordinates": [ [ -82.466850888888885, 27.828013166666665 ], [ -82.449362611111113, 27.859196333333333 ] ] } },
{ "type": "Feature", "properties": { "style": "solid", "thickness": 1 }, "geometry": { "type": "LineString", "coordinates": [ [ -82.444414972222219, 27.86801475 ], [ -82.419356694444446, 27.91265247222222 ] ] } },
{ "type": "Feature", "properties": { "style": "solid", "thickness": 1 }, "geometry": { "type": "LineString", "coordinates": [ [ -82.589575805555555, 27.812280444444447 ], [ -82.659407138888895, 27.814496527777777 ] ] } },
{ "type": "Feature", "properties": { "style": "solid", "thickness": 1 }, "geometry": { "type": "LineString", "coordinates": [ [ -82.676239722222221, 27.815022194444445 ], [ -82.725148888888896, 27.816528527777777 ] ] } },
{ "type": "Feature", "properties": { "style": "solid", "thickness": 1 }, "geometry": { "type": "LineString", "coordinates": [ [ -82.588358611111104, 27.812806805555557 ], [ -82.59408605555555, 27.81429138888889 ], [ -82.599513833333333, 27.816493083333334 ], [ -82.604529083333333, 27.819366055555555 ], [ -82.609027472222223, 27.822850611111111 ], [ -82.612915361111106, 27.82687425 ], [ -82.616111861111108, 27.831353305555556 ], [ -82.618550333333332, 27.836194555555554 ], [ -82.62018, 27.841297333333333 ] ] } },
{ "type": "Feature", "properties": { "style": "solid", "thickness": 1 }, "geometry": { "type": "LineString", "coordinates": [ [ -82.62072769444444, 27.85752341666667 ], [ -82.619372972222209, 27.892630333333333 ] ] } },
{ "type": "Feature", "properties": { "style": "solid", "thickness": 1 }, "geometry": { "type": "LineString", "coordinates": [ [ -82.521274388888884, 27.987833444444444 ], [ -82.521274777777776, 27.986055694444445 ] ] } },
{ "type": "Feature", "properties": { "style": "solid", "thickness": 1 }, "geometry": { "type": "LineString", "coordinates": [ [ -82.520757944444441, 27.988044666666667 ], [ -82.520758444444439, 27.985844305555556 ] ] } },
{ "type": "Feature", "properties": { "style": "solid", "thickness": 1 }, "geometry": { "type": "LineString", "coordinates": [ [ -82.520241555555558, 27.988044555555557 ], [ -82.520242055555556, 27.985844222222223 ] ] } },
{ "type": "Feature", "properties": { "style": "solid", "thickness": 1 }, "geometry": { "type": "LineString", "coordinates": [ [ -82.519725194444447, 27.987833194444445 ], [ -82.519725611111113, 27.986055416666666 ] ] } },
{ "type": "Feature", "properties": { "style": "solid", "thickness": 1 }, "geometry": { "type": "LineString", "coordinates": [ [ -82.519157361111112, 27.986944194444444 ], [ -82.519178888888888, 27.98715702777778 ], [ -82.51924286111111, 27.987363 ], [ -82.519347277777783, 27.987555527777779 ], [ -82.519488722222221, 27.987728416666666 ], [ -82.519662666666662, 27.987876111111113 ], [ -82.519863527777773, 27.987993861111111 ], [ -82.520084833333328, 27.988077888888888 ], [ -82.5203195, 27.988125472222222 ], [ -82.520559972222216, 27.988135111111113 ], [ -82.5207985, 27.988106472222224 ], [ -82.521027444444442, 27.988040472222224 ], [ -82.521239444444447, 27.98793925 ], [ -82.521427666666668, 27.987806055555556 ], [ -82.521586055555559, 27.987645194444447 ], [ -82.52170955555556, 27.987461777777778 ], [ -82.521794166666666, 27.98726175 ], [ -82.521837194444444, 27.9870515 ], [ -82.52183725, 27.986837833333333 ], [ -82.521794305555559, 27.986627583333334 ], [ -82.521709777777772, 27.986427527777778 ], [ -82.521586361111105, 27.986244083333336 ], [ -82.521428027777773, 27.98608313888889 ], [ -82.521239861111113, 27.985949888888889 ], [ -82.521027916666668, 27.985848583333333 ], [ -82.520799027777784, 27.985782527777779 ], [ -82.5205605, 27.985753805555557 ], [ -82.520320027777771, 27.985763333333335 ], [ -82.520085361111114, 27.985810861111112 ], [ -82.519864, 27.98589477777778 ], [ -82.519663083333327, 27.986012472222225 ], [ -82.519489083333326, 27.986160083333335 ], [ -82.519347555555555, 27.986332944444445 ], [ -82.519243083333336, 27.986525416666666 ], [ -82.519179, 27.986731388888892 ], [ -82.519157361111112, 27.986944194444444 ] ] } },
{ "type": "Feature", "properties": { "style": "solid", "thickness": 1 }, "geometry": { "type": "LineString", "coordinates": [ [ -82.541619361111103, 27.830569444444443 ], [ -82.541752777777774, 27.831398444444446 ], [ -82.542050555555548, 27.832192944444444 ], [ -82.542503111111102, 27.832927416666667 ], [ -82.543095944444445, 27.83357825 ], [ -82.54381, 27.834124527777778 ], [ -82.544622277777776, 27.834548666666667 ], [ -82.545506722222214, 27.834837055555553 ], [ -82.546434861111109, 27.834980416666667 ], [ -82.547376888888891, 27.834974138888889 ], [ -82.548302527777778, 27.834818416666664 ], [ -82.549182, 27.834518277777775 ], [ -82.549987055555547, 27.834083361111109 ], [ -82.550691805555559, 27.833527666666665 ], [ -82.551273583333327, 27.832869 ], [ -82.55171375, 27.832128583333333 ], [ -82.551998083333331, 27.831330194444444 ], [ -82.5521175, 27.8304995 ], [ -82.552068138888885, 27.829663194444443 ], [ -82.551851611111104, 27.828848166666667 ], [ -82.551474861111103, 27.828080611111112 ], [ -82.550950027777773, 27.827385194444446 ], [ -82.550293944444448, 27.826784277777776 ], [ -82.549527722222223, 27.82629713888889 ], [ -82.548675972222227, 27.825939444444444 ], [ -82.547766083333329, 27.825722722222221 ], [ -82.546827305555553, 27.825653916666667 ], [ -82.545889777777774, 27.825735222222221 ], [ -82.544983638888894, 27.825964055555556 ], [ -82.544138027777777, 27.826333027777778 ], [ -82.543380083333332, 27.826830333333334 ], [ -82.542734222222222, 27.827439944444443 ], [ -82.542221138888891, 27.828142277777779 ], [ -82.541857388888886, 27.82891475 ], [ -82.541654611111113, 27.829732583333332 ], [ -82.541619361111103, 27.830569444444443 ] ] } },
{ "type": "Feature", "properties": { "style": "solid", "thickness": 1 }, "geometry": { "type": "LineString", "coordinates": [ [ -82.534709444444445, 27.830891027777778 ], [ -82.537028666666671, 27.830500527777776 ], [ -82.53922675, 27.829735694444445 ], [ -82.541227972222217, 27.828622916666667 ], [ -82.542963388888893, 27.827200555555557 ], [ -82.54437322222222, 27.825517555555557 ], [ -82.545408916666659, 27.823631944444443 ], [ -82.546034833333337, 27.82160863888889 ], [ -82.546229416666662, 27.81951736111111 ] ] } },
{ "type": "Feature", "properties": { "style": "solid", "thickness": 1 }, "geometry": { "type": "LineString", "coordinates": [ [ -82.546229416666662, 27.81951736111111 ], [ -82.546668861111115, 27.821579083333333 ], [ -82.54752927777777, 27.823533111111111 ], [ -82.548781055555551, 27.82531213888889 ], [ -82.550381083333335, 27.826854861111112 ], [ -82.55227425, 27.82810813888889 ], [ -82.554395361111105, 27.829028777777779 ], [ -82.556671333333327, 27.829585083333335 ], [ -82.55902375, 27.829757888888889 ] ] } },
{ "type": "Feature", "properties": { "style": "solid", "thickness": 1 }, "geometry": { "type": "LineString", "coordinates": [ [ -82.547504055555549, 27.841132638888887 ], [ -82.547698638888889, 27.839041333333331 ], [ -82.548324611111113, 27.837018027777777 ], [ -82.549360333333325, 27.835132388888887 ], [ -82.550770166666666, 27.833449333333331 ], [ -82.552505527777768, 27.832026833333334 ], [ -82.554506666666668, 27.83091388888889 ], [ -82.556704611111115, 27.830148777777776 ], [ -82.55902375, 27.829757888888889 ] ] } },
{ "type": "Feature", "properties": { "style": "solid", "thickness": 1 }, "geometry": { "type": "LineString", "coordinates": [ [ -82.547504055555549, 27.841132638888887 ], [ -82.5470645, 27.839070888888887 ], [ -82.546203972222216, 27.83711686111111 ], [ -82.544952111111115, 27.835337833333334 ], [ -82.543352027777772, 27.833795055555555 ], [ -82.54145886111111, 27.832541666666668 ], [ -82.539337805555547, 27.831620805555556 ], [ -82.537061861111113, 27.831064222222221 ], [ -82.534709444444445, 27.830891027777778 ] ] } },
{ "type": "Feature", "properties": { "style": "solid", "thickness": 1 }, "geometry": { "type": "LineString", "coordinates": [ [ -82.411628805555566, 27.917300611111113 ], [ -82.411761333333345, 27.918129722222222 ], [ -82.412058388888894, 27.9189245 ], [ -82.41251044444445, 27.919659388888888 ], [ -82.413102972222234, 27.920310777777779 ], [ -82.413816944444449, 27.920857694444447 ], [ -82.41462936111111, 27.921282611111113 ], [ -82.415514166666668, 27.921571805555558 ], [ -82.416442861111122, 27.92171602777778 ], [ -82.417385666666675, 27.921710638888889 ], [ -82.418312194444454, 27.921555805555556 ], [ -82.41919275, 27.9212565 ], [ -82.419998944444444, 27.920822361111114 ], [ -82.420704916666665, 27.920267305555555 ], [ -82.421287944444444, 27.919609222222224 ], [ -82.421729333333332, 27.918869222222224 ], [ -82.422014833333336, 27.918071111111111 ], [ -82.422135333333344, 27.917240555555559 ], [ -82.422086944444445, 27.916404222222219 ], [ -82.421871194444449, 27.915589 ], [ -82.42149508333334, 27.91482111111111 ], [ -82.420970638888889, 27.914125194444441 ], [ -82.42031475, 27.913523666666666 ], [ -82.4195485, 27.913035805555555 ], [ -82.418696527777783, 27.912677333333331 ], [ -82.417786166666673, 27.91245975 ], [ -82.416846722222232, 27.912390055555555 ], [ -82.415908333333334, 27.9124705 ], [ -82.41500122222223, 27.912698472222221 ], [ -82.4141545, 27.913066638888889 ], [ -82.413395388888901, 27.913563222222219 ], [ -82.41274825, 27.914172194444443 ], [ -82.412233944444452, 27.914874055555554 ], [ -82.411868972222223, 27.915646194444442 ], [ -82.411665083333332, 27.916463805555555 ], [ -82.411628805555566, 27.917300611111113 ] ] } },
{ "type": "Feature", "properties": { "style": "solid", "thickness": 1 }, "geometry": { "type": "LineString", "coordinates": [ [ -82.404713027777788, 27.917615694444446 ], [ -82.407034555555555, 27.917227361111113 ], [ -82.409235305555555, 27.916464638888886 ], [ -82.411239416666675, 27.915353777777778 ], [ -82.412977888888889, 27.913933055555553 ], [ -82.414390861111116, 27.912251416666667 ], [ -82.415429611111122, 27.910366777777778 ], [ -82.416058444444445, 27.908344111111109 ], [ -82.416255666666672, 27.906253027777776 ] ] } },
{ "type": "Feature", "properties": { "style": "solid", "thickness": 1 }, "geometry": { "type": "LineString", "coordinates": [ [ -82.416255666666672, 27.906253027777776 ], [ -82.416693, 27.908315166666664 ], [ -82.417551777777788, 27.910269972222221 ], [ -82.418802416666665, 27.912050138888887 ], [ -82.42040188888889, 27.913594333333332 ], [ -82.422295083333339, 27.914849361111109 ], [ -82.42441675, 27.915772 ], [ -82.426693861111119, 27.916330444444444 ], [ -82.429047944444449, 27.916505444444443 ] ] } },
{ "type": "Feature", "properties": { "style": "solid", "thickness": 1 }, "geometry": { "type": "LineString", "coordinates": [ [ -82.417505555555564, 27.927869166666667 ], [ -82.417702805555564, 27.925778083333334 ], [ -82.418331666666674, 27.923755416666669 ], [ -82.419370472222226, 27.92187077777778 ], [ -82.420783444444453, 27.920189055555557 ], [ -82.422521861111122, 27.918768222222223 ], [ -82.424525888888894, 27.917657166666668 ], [ -82.426726527777788, 27.916894138888889 ], [ -82.429047944444449, 27.916505444444443 ] ] } },
{ "type": "Feature", "properties": { "style": "solid", "thickness": 1 }, "geometry": { "type": "LineString", "coordinates": [ [ -82.417505555555564, 27.927869166666667 ], [ -82.417068138888894, 27.925807055555556 ], [ -82.41620925, 27.92385225 ], [ -82.414958500000012, 27.922072055555557 ], [ -82.413359, 27.920527805555558 ], [ -82.411465833333338, 27.919272638888891 ], [ -82.409344166666671, 27.918349833333334 ], [ -82.407067111111118, 27.917791083333334 ], [ -82.404713027777788, 27.917615694444446 ] ] } },
{ "type": "Feature", "properties": { "style": "solid", "thickness": 1 }, "geometry": { "type": "LineString", "coordinates": [ [ -82.538946138888889, 27.909283222222221 ], [ -82.539079611111106, 27.910112222222221 ], [ -82.539377583333334, 27.910906722222222 ], [ -82.539830472222221, 27.911641194444442 ], [ -82.540423722222215, 27.912292027777777 ], [ -82.54113825, 27.912838305555553 ], [ -82.541951111111104, 27.913262444444442 ], [ -82.542836194444448, 27.913550861111109 ], [ -82.543765, 27.913694222222222 ], [ -82.544707722222213, 27.91368797222222 ], [ -82.545634, 27.913532277777776 ], [ -82.546514138888881, 27.913232166666667 ], [ -82.547319777777773, 27.912797277777777 ], [ -82.548025027777783, 27.912241583333333 ], [ -82.548607277777776, 27.911582944444444 ], [ -82.54904775, 27.910842527777778 ], [ -82.549332305555552, 27.910044166666665 ], [ -82.549451833333336, 27.90921347222222 ], [ -82.549402472222226, 27.908377194444444 ], [ -82.549185805555553, 27.907562166666665 ], [ -82.548808805555552, 27.906794638888886 ], [ -82.54828358333333, 27.906099194444444 ], [ -82.547627055555552, 27.905498277777777 ], [ -82.546860277777782, 27.905011138888888 ], [ -82.54600794444444, 27.904653444444442 ], [ -82.545097388888891, 27.904436694444442 ], [ -82.544157944444436, 27.904367861111108 ], [ -82.543219722222219, 27.904449166666666 ], [ -82.542312944444447, 27.90467797222222 ], [ -82.541466694444438, 27.905046944444443 ], [ -82.540708222222221, 27.905544194444442 ], [ -82.540061861111113, 27.906153777777778 ], [ -82.539548416666662, 27.906856083333331 ], [ -82.539184361111111, 27.907628555555554 ], [ -82.538981444444445, 27.90844636111111 ], [ -82.538946138888889, 27.909283222222221 ] ] } },
{ "type": "Feature", "properties": { "style": "solid", "thickness": 1 }, "geometry": { "type": "LineString", "coordinates": [ [ -82.53203125, 27.909604694444443 ], [ -82.534352138888892, 27.909214222222221 ], [ -82.536551833333334, 27.908449444444443 ], [ -82.5385545, 27.907336722222222 ], [ -82.540291194444436, 27.905914416666665 ], [ -82.541702083333334, 27.904231472222222 ], [ -82.542738583333332, 27.902345888888888 ], [ -82.543365, 27.900322638888888 ], [ -82.543559777777773, 27.898231361111112 ] ] } },
{ "type": "Feature", "properties": { "style": "solid", "thickness": 1 }, "geometry": { "type": "LineString", "coordinates": [ [ -82.543559777777773, 27.898231361111112 ], [ -82.543999472222225, 27.900293083333331 ], [ -82.544860472222226, 27.902247111111109 ], [ -82.546113111111111, 27.904026138888888 ], [ -82.54771425, 27.90556886111111 ], [ -82.54960875, 27.906822138888888 ], [ -82.551731361111109, 27.90774283333333 ], [ -82.554008972222221, 27.908299166666666 ], [ -82.556363083333324, 27.908472027777776 ] ] } },
{ "type": "Feature", "properties": { "style": "solid", "thickness": 1 }, "geometry": { "type": "LineString", "coordinates": [ [ -82.544834805555553, 27.919846388888889 ], [ -82.545029583333331, 27.917755138888889 ], [ -82.545656055555554, 27.915731861111109 ], [ -82.546692583333325, 27.91384625 ], [ -82.548103472222223, 27.91216325 ], [ -82.549840111111109, 27.910740805555555 ], [ -82.551842694444446, 27.909627916666665 ], [ -82.554042277777782, 27.90886286111111 ], [ -82.556363083333324, 27.908472027777776 ] ] } },
{ "type": "Feature", "properties": { "style": "solid", "thickness": 1 }, "geometry": { "type": "LineString", "coordinates": [ [ -82.544834805555553, 27.919846388888889 ], [ -82.544395, 27.91778466666667 ], [ -82.543533888888888, 27.915830638888888 ], [ -82.542281166666669, 27.914051611111109 ], [ -82.540679972222222, 27.91250883333333 ], [ -82.538785472222216, 27.911255416666666 ], [ -82.536662888888884, 27.910334527777778 ], [ -82.534385333333333, 27.909777916666666 ], [ -82.53203125, 27.909604694444443 ] ] } },
{ "type": "Feature", "properties": { "style": "solid", "thickness": 1 }, "geometry": { "type": "LineString", "coordinates": [ [ -82.575917555555549, 27.812256861111113 ], [ -82.576051194444446, 27.813085833333336 ], [ -82.57634916666666, 27.813880277777777 ], [ -82.57680188888888, 27.814614638888891 ], [ -82.577394833333329, 27.815265305555556 ], [ -82.578108916666665, 27.815811416666666 ], [ -82.578921194444447, 27.816235361111112 ], [ -82.579805583333325, 27.816523527777779 ], [ -82.580733611111114, 27.81666663888889 ], [ -82.5816755, 27.816660138888889 ], [ -82.582600916666664, 27.816504194444445 ], [ -82.583480166666661, 27.816203833333333 ], [ -82.584284944444434, 27.815768722222224 ], [ -82.584989388888886, 27.815212833333334 ], [ -82.585570888888881, 27.814554027777778 ], [ -82.586010722222213, 27.8138135 ], [ -82.58629475, 27.81301502777778 ], [ -82.586413888888885, 27.812184305555558 ], [ -82.586364277777776, 27.811348027777779 ], [ -82.586147527777769, 27.810533055555556 ], [ -82.585770611111101, 27.809765583333334 ], [ -82.585245638888878, 27.809070277777778 ], [ -82.58458947222222, 27.808469527777778 ], [ -82.583823222222222, 27.807982583333335 ], [ -82.582971527777772, 27.807625111111111 ], [ -82.582061722222221, 27.807408611111111 ], [ -82.581123055555551, 27.80734002777778 ], [ -82.580185722222225, 27.807421555555557 ], [ -82.579279805555558, 27.807650611111111 ], [ -82.57843444444444, 27.808019805555556 ], [ -82.577676805555555, 27.808517277777778 ], [ -82.577031222222217, 27.809127055555557 ], [ -82.576518472222219, 27.809829527777779 ], [ -82.576155, 27.810602111111113 ], [ -82.575952527777773, 27.811419972222222 ], [ -82.575917555555549, 27.812256861111113 ] ] } },
{ "type": "Feature", "properties": { "style": "solid", "thickness": 1 }, "geometry": { "type": "LineString", "coordinates": [ [ -82.569008888888888, 27.812580166666667 ], [ -82.571327611111101, 27.812189055555557 ], [ -82.573525083333323, 27.811423694444446 ], [ -82.575525611111104, 27.810310444444447 ], [ -82.577260277777768, 27.808887611111111 ], [ -82.578669333333323, 27.807204277777778 ], [ -82.579704277777779, 27.805318388888889 ], [ -82.580329444444445, 27.803294916666669 ], [ -82.580523361111105, 27.801203583333333 ] ] } },
{ "type": "Feature", "properties": { "style": "solid", "thickness": 1 }, "geometry": { "type": "LineString", "coordinates": [ [ -82.580523361111105, 27.801203583333333 ], [ -82.580963361111102, 27.803265222222223 ], [ -82.58182425, 27.805219055555558 ], [ -82.583076388888884, 27.80699775 ], [ -82.58467663888888, 27.808540083333334 ], [ -82.586569888888889, 27.809792888888889 ], [ -82.588690916666664, 27.81071302777778 ], [ -82.590966694444447, 27.81126877777778 ], [ -82.59331875, 27.811441 ] ] } },
{ "type": "Feature", "properties": { "style": "solid", "thickness": 1 }, "geometry": { "type": "LineString", "coordinates": [ [ -82.58180455555555, 27.82281861111111 ], [ -82.581998444444437, 27.820727277777777 ], [ -82.582623666666663, 27.818703805555554 ], [ -82.583658638888878, 27.816817888888888 ], [ -82.58506772222222, 27.8151345 ], [ -82.586802333333324, 27.813711555555557 ], [ -82.588802777777772, 27.812598111111111 ], [ -82.591000138888887, 27.811832472222221 ], [ -82.59331875, 27.811441 ] ] } },
{ "type": "Feature", "properties": { "style": "solid", "thickness": 1 }, "geometry": { "type": "LineString", "coordinates": [ [ -82.58180455555555, 27.82281861111111 ], [ -82.581364444444446, 27.820757 ], [ -82.580503444444446, 27.818803166666665 ], [ -82.579251222222211, 27.817024444444446 ], [ -82.57765091666667, 27.815482055555556 ], [ -82.575757694444434, 27.814229111111111 ], [ -82.573636694444446, 27.813308777777777 ], [ -82.571360972222223, 27.81275275 ], [ -82.569008888888888, 27.812580166666667 ] ] } },
{ "type": "Feature", "properties": { "style": "solid", "thickness": 1 }, "geometry": { "type": "LineString", "coordinates": [ [ -82.539913805555557, 27.830702694444444 ], [ -82.54004719444444, 27.831531722222223 ], [ -82.540344944444442, 27.832326222222221 ], [ -82.540797527777769, 27.833060722222221 ], [ -82.541390333333325, 27.833711555555553 ], [ -82.542104361111114, 27.834257833333332 ], [ -82.54291666666667, 27.834681972222221 ], [ -82.543801083333335, 27.834970361111111 ], [ -82.54472925, 27.83511375 ], [ -82.545671277777771, 27.835107472222219 ], [ -82.546596916666658, 27.834951777777775 ], [ -82.547476388888882, 27.834651666666666 ], [ -82.548281444444441, 27.83421675 ], [ -82.548986194444439, 27.833661027777776 ], [ -82.549568, 27.83300238888889 ], [ -82.550008166666657, 27.832261972222224 ], [ -82.550292527777771, 27.831463583333335 ], [ -82.550411944444448, 27.830632888888889 ], [ -82.550362611111112, 27.829796583333334 ], [ -82.550146083333331, 27.828981555555554 ], [ -82.549769361111103, 27.828214 ], [ -82.5492445, 27.827518583333333 ], [ -82.548588444444448, 27.82691763888889 ], [ -82.547822222222223, 27.8264305 ], [ -82.5469705, 27.826072805555555 ], [ -82.546060611111116, 27.825856083333335 ], [ -82.545121805555553, 27.82578725 ], [ -82.544184277777774, 27.825868555555555 ], [ -82.543278138888894, 27.82609736111111 ], [ -82.542432527777777, 27.826466333333332 ], [ -82.541674583333332, 27.826963611111111 ], [ -82.541028694444449, 27.82757322222222 ], [ -82.540515611111104, 27.828275555555557 ], [ -82.540151833333326, 27.829048027777777 ], [ -82.539949055555553, 27.829865833333333 ], [ -82.539913805555557, 27.830702694444444 ] ] } },
{ "type": "Feature", "properties": { "style": "solid", "thickness": 1 }, "geometry": { "type": "LineString", "coordinates": [ [ -82.533003888888885, 27.831024222222222 ], [ -82.535323111111111, 27.83063372222222 ], [ -82.537521194444437, 27.829868944444446 ], [ -82.539522444444444, 27.828756194444445 ], [ -82.541257861111106, 27.827333833333334 ], [ -82.54266772222222, 27.825650861111111 ], [ -82.543703444444446, 27.82376525 ], [ -82.54432941666667, 27.82174197222222 ], [ -82.544524027777783, 27.819650666666668 ] ] } },
{ "type": "Feature", "properties": { "style": "solid", "thickness": 1 }, "geometry": { "type": "LineString", "coordinates": [ [ -82.544524027777783, 27.819650666666668 ], [ -82.544963444444448, 27.821712416666667 ], [ -82.54582383333333, 27.823666472222222 ], [ -82.547075583333338, 27.8254455 ], [ -82.548675583333335, 27.826988222222223 ], [ -82.55056875, 27.828241527777777 ], [ -82.552689833333332, 27.829162194444443 ], [ -82.554965805555554, 27.829718555555555 ], [ -82.557318222222221, 27.829891388888889 ] ] } },
{ "type": "Feature", "properties": { "style": "solid", "thickness": 1 }, "geometry": { "type": "LineString", "coordinates": [ [ -82.545798333333337, 27.841265972222221 ], [ -82.545992944444436, 27.839174694444445 ], [ -82.546618944444447, 27.837151388888888 ], [ -82.547654722222219, 27.83526575 ], [ -82.549064583333333, 27.833582722222221 ], [ -82.550799972222222, 27.83216025 ], [ -82.552801111111108, 27.831047305555554 ], [ -82.554999083333328, 27.83028225 ], [ -82.557318222222221, 27.829891388888889 ] ] } },
{ "type": "Feature", "properties": { "style": "solid", "thickness": 1 }, "geometry": { "type": "LineString", "coordinates": [ [ -82.545798333333337, 27.841265972222221 ], [ -82.545358805555551, 27.839204222222222 ], [ -82.54449830555555, 27.837250194444444 ], [ -82.543246472222222, 27.835471138888888 ], [ -82.541646416666666, 27.833928333333333 ], [ -82.53975325, 27.832674916666665 ], [ -82.537632194444441, 27.831754055555557 ], [ -82.53535627777778, 27.831197416666665 ], [ -82.533003888888885, 27.831024222222222 ] ] } },
{ "type": "Feature", "properties": { "style": "solid", "thickness": 1 }, "geometry": { "type": "LineString", "coordinates": [ [ -82.54126052777778, 27.841094416666664 ], [ -82.541393944444437, 27.841923444444443 ], [ -82.54169175, 27.842717944444445 ], [ -82.542144361111113, 27.843452416666665 ], [ -82.54273725, 27.84410325 ], [ -82.54345136111111, 27.8446495 ], [ -82.544263722222226, 27.845073666666664 ], [ -82.54514825, 27.845362055555555 ], [ -82.546076472222225, 27.845505416666665 ], [ -82.547018611111113, 27.845499138888886 ], [ -82.547944333333334, 27.845343416666665 ], [ -82.54882388888889, 27.845043277777776 ], [ -82.549629, 27.844608388888886 ], [ -82.550333833333326, 27.844052666666666 ], [ -82.550915666666668, 27.843394 ], [ -82.551355861111105, 27.84265358333333 ], [ -82.55164025, 27.841855194444442 ], [ -82.551759666666669, 27.8410245 ], [ -82.551710305555559, 27.840188222222221 ], [ -82.55149375, 27.839373194444445 ], [ -82.551116972222218, 27.838605638888886 ], [ -82.550592083333328, 27.83791022222222 ], [ -82.549935944444442, 27.837309277777777 ], [ -82.549169638888884, 27.836822138888888 ], [ -82.548317833333329, 27.836464472222222 ], [ -82.547407861111111, 27.83624775 ], [ -82.546468972222215, 27.836178916666665 ], [ -82.545531361111102, 27.836260222222222 ], [ -82.54462513888889, 27.836489055555553 ], [ -82.543779444444439, 27.836858027777776 ], [ -82.543021444444449, 27.837355333333331 ], [ -82.5423755, 27.837964916666664 ], [ -82.541862388888887, 27.83866725 ], [ -82.541498583333336, 27.83943975 ], [ -82.541295777777776, 27.840257555555553 ], [ -82.54126052777778, 27.841094416666664 ] ] } },
{ "type": "Feature", "properties": { "style": "solid", "thickness": 1 }, "geometry": { "type": "LineString", "coordinates": [ [ -82.534349944444443, 27.841416 ], [ -82.536669388888882, 27.8410255 ], [ -82.538867694444448, 27.840260666666666 ], [ -82.540869111111107, 27.839147916666665 ], [ -82.542604694444449, 27.837725555555554 ], [ -82.544014666666669, 27.836042555555554 ], [ -82.545050472222215, 27.834156944444445 ], [ -82.545676444444439, 27.832133638888887 ], [ -82.545871055555551, 27.830042361111111 ] ] } },
{ "type": "Feature", "properties": { "style": "solid", "thickness": 1 }, "geometry": { "type": "LineString", "coordinates": [ [ -82.545871055555551, 27.830042361111111 ], [ -82.546310527777777, 27.832104111111111 ], [ -82.547171027777779, 27.834058138888889 ], [ -82.548422916666667, 27.835837138888888 ], [ -82.550023083333329, 27.83737986111111 ], [ -82.551916444444444, 27.838633138888888 ], [ -82.55403775, 27.839553805555553 ], [ -82.55631394444444, 27.840110111111109 ], [ -82.558666583333334, 27.840282916666666 ] ] } },
{ "type": "Feature", "properties": { "style": "solid", "thickness": 1 }, "geometry": { "type": "LineString", "coordinates": [ [ -82.54714575, 27.851657611111111 ], [ -82.547340361111111, 27.849566333333332 ], [ -82.547966388888881, 27.847543027777778 ], [ -82.549002222222214, 27.845657388888888 ], [ -82.550412194444448, 27.843974333333332 ], [ -82.55214775, 27.842551861111112 ], [ -82.554149055555555, 27.841438888888888 ], [ -82.55634725, 27.840673805555554 ], [ -82.558666583333334, 27.840282916666666 ] ] } },
{ "type": "Feature", "properties": { "style": "solid", "thickness": 1 }, "geometry": { "type": "LineString", "coordinates": [ [ -82.54714575, 27.851657611111111 ], [ -82.546706166666667, 27.849595888888889 ], [ -82.545845555555559, 27.847641861111111 ], [ -82.544593583333338, 27.845862805555555 ], [ -82.542993361111115, 27.844320027777776 ], [ -82.5411, 27.843066638888889 ], [ -82.538978722222225, 27.842145777777777 ], [ -82.536702583333337, 27.841589194444442 ], [ -82.534349944444443, 27.841416 ] ] } },
{ "type": "Feature", "properties": { "style": "solid", "thickness": 1 }, "geometry": { "type": "LineString", "coordinates": [ [ -82.72832322222223, 27.817037611111111 ], [ -82.728458027777776, 27.817866444444444 ], [ -82.728757111111108, 27.818660555555557 ], [ -82.729210888888886, 27.819394416666665 ], [ -82.72980475, 27.820044444444445 ], [ -82.730519638888893, 27.82058975 ], [ -82.731332555555554, 27.821012805555554 ], [ -82.732217361111111, 27.8213 ], [ -82.733145638888885, 27.821442111111111 ], [ -82.734087555555561, 27.821434555555555 ], [ -82.735012805555556, 27.82127761111111 ], [ -82.735891638888887, 27.820976277777778 ], [ -82.736695861111116, 27.820540277777777 ], [ -82.737399555555555, 27.819983611111113 ], [ -82.737980166666674, 27.819324166666668 ], [ -82.73841897222222, 27.81858313888889 ], [ -82.73870191666667, 27.817784388888889 ], [ -82.738819888888884, 27.816953527777777 ], [ -82.738769138888884, 27.816117305555558 ], [ -82.738551222222227, 27.815302555555558 ], [ -82.73817322222223, 27.814535527777778 ], [ -82.73764725, 27.813840805555557 ], [ -82.73699025, 27.81324075 ], [ -82.736223277777782, 27.812754666666667 ], [ -82.735371027777774, 27.812398138888888 ], [ -82.73446088888889, 27.812182638888888 ], [ -82.733522111111114, 27.812115083333335 ], [ -82.732584833333334, 27.812197666666666 ], [ -82.731679222222226, 27.812427722222225 ], [ -82.730834333333334, 27.812797833333335 ], [ -82.730077361111114, 27.813296138888891 ], [ -82.729432583333335, 27.813906611111111 ], [ -82.72892080555556, 27.814609638888889 ], [ -82.728558388888885, 27.815382611111112 ], [ -82.728357055555563, 27.816200722222224 ], [ -82.72832322222223, 27.817037611111111 ] ] } },
{ "type": "Feature", "properties": { "style": "solid", "thickness": 1 }, "geometry": { "type": "LineString", "coordinates": [ [ -82.72141475, 27.817368555555554 ], [ -82.723733, 27.81697488888889 ], [ -82.7259295, 27.816207111111112 ], [ -82.72792855555555, 27.815091638888891 ], [ -82.72966133333334, 27.813666916666666 ], [ -82.731068111111114, 27.811982027777777 ], [ -82.732100444444441, 27.810095027777777 ], [ -82.732722833333341, 27.808070888888889 ], [ -82.732913833333342, 27.805979333333333 ] ] } },
{ "type": "Feature", "properties": { "style": "solid", "thickness": 1 }, "geometry": { "type": "LineString", "coordinates": [ [ -82.732913833333342, 27.805979333333333 ], [ -82.73335675, 27.808040472222224 ], [ -82.734220388888886, 27.809993333333335 ], [ -82.735475027777781, 27.811770666666668 ], [ -82.7370775, 27.813311222222222 ], [ -82.738972555555563, 27.814561944444446 ], [ -82.741094972222228, 27.81547975 ], [ -82.743371611111115, 27.816032972222224 ], [ -82.745724027777783, 27.816202611111112 ] ] } },
{ "type": "Feature", "properties": { "style": "solid", "thickness": 1 }, "geometry": { "type": "LineString", "coordinates": [ [ -82.734225194444448, 27.827592861111111 ], [ -82.734416194444449, 27.825501333333332 ], [ -82.735038611111108, 27.823477166666667 ], [ -82.736071, 27.82159013888889 ], [ -82.737477777777784, 27.819905194444445 ], [ -82.7392105, 27.818480333333333 ], [ -82.741209472222224, 27.817364694444443 ], [ -82.743405861111114, 27.816596638888889 ], [ -82.745724027777783, 27.816202611111112 ] ] } },
{ "type": "Feature", "properties": { "style": "solid", "thickness": 1 }, "geometry": { "type": "LineString", "coordinates": [ [ -82.734225194444448, 27.827592861111111 ], [ -82.733782194444444, 27.825531722222223 ], [ -82.732918416666664, 27.823578861111113 ], [ -82.731663666666662, 27.821801527777776 ], [ -82.730061166666673, 27.820260888888889 ], [ -82.728166111111108, 27.819010055555555 ], [ -82.726043722222229, 27.818092083333333 ], [ -82.723767138888888, 27.817538555555554 ], [ -82.72141475, 27.817368555555554 ] ] } },
{ "type": "Feature", "properties": { "style": "solid", "thickness": 1 }, "geometry": { "type": "LineString", "coordinates": [ [ -82.543669361111114, 27.830875083333332 ], [ -82.543802777777771, 27.831704083333332 ], [ -82.544100555555559, 27.832498583333333 ], [ -82.54455316666666, 27.833233055555556 ], [ -82.545146, 27.833883861111111 ], [ -82.545860055555551, 27.834430138888887 ], [ -82.546672361111106, 27.83485425 ], [ -82.547556805555558, 27.835142638888886 ], [ -82.548484944444439, 27.83528597222222 ], [ -82.549427, 27.835279694444445 ], [ -82.550352611111109, 27.83512397222222 ], [ -82.551232083333332, 27.834823805555555 ], [ -82.552037138888892, 27.834388888888888 ], [ -82.552741861111102, 27.833833166666665 ], [ -82.553323666666657, 27.8331745 ], [ -82.553763777777775, 27.832434055555556 ], [ -82.554048111111115, 27.831635666666667 ], [ -82.5541675, 27.830804972222221 ], [ -82.554118138888882, 27.829968666666666 ], [ -82.553901583333328, 27.829153666666667 ], [ -82.553524833333327, 27.828386111111111 ], [ -82.552999972222224, 27.827690694444446 ], [ -82.552343888888885, 27.827089777777779 ], [ -82.551577638888887, 27.82660263888889 ], [ -82.550725888888891, 27.826244972222224 ], [ -82.549816, 27.826028277777777 ], [ -82.548877194444444, 27.825959472222223 ], [ -82.547939666666664, 27.826040805555554 ], [ -82.547033555555558, 27.826269638888888 ], [ -82.546187944444441, 27.826638638888888 ], [ -82.545430027777769, 27.827135944444443 ], [ -82.544784138888886, 27.827745555555556 ], [ -82.544271083333328, 27.828447888888888 ], [ -82.543907333333337, 27.829220388888888 ], [ -82.543704583333337, 27.830038194444445 ], [ -82.543669361111114, 27.830875083333332 ] ] } },
{ "type": "Feature", "properties": { "style": "solid", "thickness": 1 }, "geometry": { "type": "LineString", "coordinates": [ [ -82.536759444444442, 27.831196777777777 ], [ -82.539078666666668, 27.830806222222222 ], [ -82.541276722222221, 27.83004136111111 ], [ -82.543277916666668, 27.828928555555557 ], [ -82.545013305555557, 27.827506166666666 ], [ -82.54642311111111, 27.825823166666666 ], [ -82.547458777777777, 27.823937527777776 ], [ -82.548084666666668, 27.821914194444446 ], [ -82.548279194444447, 27.819822916666666 ] ] } },
{ "type": "Feature", "properties": { "style": "solid", "thickness": 1 }, "geometry": { "type": "LineString", "coordinates": [ [ -82.548279194444447, 27.819822916666666 ], [ -82.548718694444446, 27.821884638888889 ], [ -82.549579138888888, 27.823838666666667 ], [ -82.550830972222215, 27.825617666666666 ], [ -82.552431027777772, 27.827160361111112 ], [ -82.55432422222222, 27.82841361111111 ], [ -82.556445361111102, 27.829334222222222 ], [ -82.558721333333324, 27.8298905 ], [ -82.561073777777779, 27.830063277777779 ] ] } },
{ "type": "Feature", "properties": { "style": "solid", "thickness": 1 }, "geometry": { "type": "LineString", "coordinates": [ [ -82.54955425, 27.841438166666666 ], [ -82.549748805555552, 27.839346888888887 ], [ -82.550374722222216, 27.837323583333333 ], [ -82.551410444444443, 27.835437916666667 ], [ -82.55282025, 27.833754833333334 ], [ -82.554555583333325, 27.832332305555557 ], [ -82.556556694444438, 27.831219333333333 ], [ -82.558754638888885, 27.830454194444446 ], [ -82.561073777777779, 27.830063277777779 ] ] } },
{ "type": "Feature", "properties": { "style": "solid", "thickness": 1 }, "geometry": { "type": "LineString", "coordinates": [ [ -82.54955425, 27.841438166666666 ], [ -82.549114666666668, 27.839376444444444 ], [ -82.548254111111106, 27.837422444444442 ], [ -82.547002194444445, 27.835643416666667 ], [ -82.545402083333329, 27.834100666666664 ], [ -82.54350888888888, 27.832847305555557 ], [ -82.541387805555559, 27.831926472222221 ], [ -82.53911186111111, 27.831369916666667 ], [ -82.536759444444442, 27.831196777777777 ] ] } },
{ "type": "Feature", "properties": { "style": "solid", "thickness": 1 }, "geometry": { "type": "LineString", "coordinates": [ [ -82.543488666666661, 27.775777833333333 ], [ -82.543622027777772, 27.776606861111109 ], [ -82.543919666666667, 27.77740136111111 ], [ -82.544372027777783, 27.778135833333334 ], [ -82.544964555555552, 27.778786666666665 ], [ -82.54567825, 27.779332944444445 ], [ -82.546490138888885, 27.779757083333333 ], [ -82.547374138888884, 27.780045444444443 ], [ -82.548301833333326, 27.780188805555554 ], [ -82.549243388888883, 27.7801825 ], [ -82.550168555555558, 27.780026777777778 ], [ -82.551047583333329, 27.779726638888889 ], [ -82.551852222222223, 27.779291694444442 ], [ -82.552556611111115, 27.778735972222222 ], [ -82.55313811111111, 27.778077305555556 ], [ -82.553578, 27.77733686111111 ], [ -82.553862194444449, 27.776538472222221 ], [ -82.553981527777779, 27.77570775 ], [ -82.553932194444442, 27.774871444444443 ], [ -82.55371575, 27.774056416666667 ], [ -82.553339194444447, 27.773288861111109 ], [ -82.55281458333333, 27.772593444444443 ], [ -82.552158833333337, 27.771992527777776 ], [ -82.551392972222217, 27.771505388888887 ], [ -82.55054166666666, 27.771147722222221 ], [ -82.549632222222215, 27.770931 ], [ -82.548693888888891, 27.770862194444444 ], [ -82.547756833333338, 27.770943527777778 ], [ -82.54685116666667, 27.771172361111109 ], [ -82.546005972222218, 27.771541361111112 ], [ -82.545248444444439, 27.772038666666667 ], [ -82.544602888888889, 27.772648305555556 ], [ -82.544090111111103, 27.773350638888889 ], [ -82.543726527777778, 27.774123138888889 ], [ -82.543523888888885, 27.774940972222222 ], [ -82.543488666666661, 27.775777833333333 ] ] } },
{ "type": "Feature", "properties": { "style": "solid", "thickness": 1 }, "geometry": { "type": "LineString", "coordinates": [ [ -82.536582222222222, 27.776099527777777 ], [ -82.53890027777777, 27.775708972222223 ], [ -82.54109725, 27.774944138888888 ], [ -82.543097444444442, 27.773831333333334 ], [ -82.544831944444439, 27.772408916666667 ], [ -82.546241055555555, 27.770725888888887 ], [ -82.547276194444436, 27.76884022222222 ], [ -82.54790175, 27.766816888888886 ], [ -82.548096222222227, 27.764725583333334 ] ] } },
{ "type": "Feature", "properties": { "style": "solid", "thickness": 1 }, "geometry": { "type": "LineString", "coordinates": [ [ -82.548096222222227, 27.764725583333334 ], [ -82.548535472222227, 27.766787333333333 ], [ -82.5493955, 27.768741388888888 ], [ -82.550646666666665, 27.770520388888887 ], [ -82.552245916666664, 27.772063111111109 ], [ -82.554138166666661, 27.77331636111111 ], [ -82.55625825, 27.774237 ], [ -82.55853308333333, 27.774793277777778 ], [ -82.560884333333334, 27.774966055555556 ] ] } },
{ "type": "Feature", "properties": { "style": "solid", "thickness": 1 }, "geometry": { "type": "LineString", "coordinates": [ [ -82.549370583333328, 27.786341055555557 ], [ -82.549565027777774, 27.78424975 ], [ -82.550190638888893, 27.782226416666667 ], [ -82.551225833333334, 27.780340722222221 ], [ -82.552634944444435, 27.778657638888888 ], [ -82.55436941666666, 27.777235111111111 ], [ -82.5563695, 27.776122111111111 ], [ -82.558566361111104, 27.77535697222222 ], [ -82.560884333333334, 27.774966055555556 ] ] } },
{ "type": "Feature", "properties": { "style": "solid", "thickness": 1 }, "geometry": { "type": "LineString", "coordinates": [ [ -82.549370583333328, 27.786341055555557 ], [ -82.548931222222222, 27.784279305555557 ], [ -82.548071083333326, 27.782325277777776 ], [ -82.546819805555558, 27.78054622222222 ], [ -82.545220527777772, 27.779003472222222 ], [ -82.543328277777775, 27.777750083333331 ], [ -82.54120825, 27.77682925 ], [ -82.538933444444439, 27.776272694444444 ], [ -82.536582222222222, 27.776099527777777 ] ] } },
{ "type": "Feature", "properties": { "style": "solid", "thickness": 1 }, "geometry": { "type": "LineString", "coordinates": [ [ -82.44163977777778, 27.863846194444445 ], [ -82.441772472222226, 27.864675305555558 ], [ -82.442069611111108, 27.865470027777778 ], [ -82.442521638888891, 27.866204805555558 ], [ -82.443114055555554, 27.866856055555555 ], [ -82.443827805555557, 27.867402861111113 ], [ -82.44463997222222, 27.867827583333334 ], [ -82.445524388888899, 27.868116611111112 ], [ -82.446452694444446, 27.868260638888888 ], [ -82.447395027777787, 27.868255027777778 ], [ -82.44832108333334, 27.8681 ], [ -82.449201083333335, 27.8678005 ], [ -82.450006777777787, 27.867366166666667 ], [ -82.45071225, 27.866810944444445 ], [ -82.451294833333336, 27.866152722222225 ], [ -82.451735777777785, 27.865412638888891 ], [ -82.452020944444442, 27.864614444444445 ], [ -82.452141138888891, 27.863783833333336 ], [ -82.452092555555552, 27.862947527777781 ], [ -82.451876694444451, 27.862132333333335 ], [ -82.451500527777782, 27.861364527777781 ], [ -82.450976166666663, 27.860668722222222 ], [ -82.450320444444444, 27.860067333333333 ], [ -82.449554416666672, 27.859579638888889 ], [ -82.44870275000001, 27.859221361111114 ], [ -82.447792777777778, 27.859003972222222 ], [ -82.446853777777775, 27.858934472222224 ], [ -82.445915888888891, 27.859015111111113 ], [ -82.445009277777785, 27.859243277777779 ], [ -82.444163055555563, 27.859611638888889 ], [ -82.443404444444454, 27.860108388888889 ], [ -82.442757833333332, 27.86071752777778 ], [ -82.442243944444442, 27.861419472222224 ], [ -82.441879388888893, 27.862191694444444 ], [ -82.441675805555562, 27.863009361111114 ], [ -82.44163977777778, 27.863846194444445 ] ] } },
{ "type": "Feature", "properties": { "style": "solid", "thickness": 1 }, "geometry": { "type": "LineString", "coordinates": [ [ -82.434727472222221, 27.864162805555559 ], [ -82.43704775, 27.863773972222223 ], [ -82.439247194444448, 27.863010722222224 ], [ -82.441250027777784, 27.861899416666667 ], [ -82.442987277777775, 27.860478305555556 ], [ -82.444399083333337, 27.858796333333334 ], [ -82.445436805555559, 27.856911472222222 ], [ -82.446064777777778, 27.854888638888891 ], [ -82.446261333333339, 27.852797527777778 ] ] } },
{ "type": "Feature", "properties": { "style": "solid", "thickness": 1 }, "geometry": { "type": "LineString", "coordinates": [ [ -82.446261333333339, 27.852797527777778 ], [ -82.446699027777782, 27.854859555555556 ], [ -82.447557916666668, 27.856814194444446 ], [ -82.448808444444452, 27.858594111111113 ], [ -82.450407555555557, 27.860137972222223 ], [ -82.452300138888887, 27.861392611111114 ], [ -82.454421055555557, 27.86231477777778 ], [ -82.456697194444445, 27.862872722222225 ], [ -82.459050194444444, 27.86304725 ] ] } },
{ "type": "Feature", "properties": { "style": "solid", "thickness": 1 }, "geometry": { "type": "LineString", "coordinates": [ [ -82.447516583333339, 27.874413583333332 ], [ -82.447713138888886, 27.872322444444446 ], [ -82.448341138888892, 27.870299611111111 ], [ -82.449378916666674, 27.868414722222223 ], [ -82.450790722222223, 27.866732694444444 ], [ -82.452527916666668, 27.865311472222224 ], [ -82.45453066666667, 27.864199944444447 ], [ -82.45673, 27.863436444444446 ], [ -82.459050194444444, 27.86304725 ] ] } },
{ "type": "Feature", "properties": { "style": "solid", "thickness": 1 }, "geometry": { "type": "LineString", "coordinates": [ [ -82.447516583333339, 27.874413583333332 ], [ -82.447078777777776, 27.872351527777777 ], [ -82.446219777777785, 27.870396888888891 ], [ -82.444969166666667, 27.868616972222224 ], [ -82.44337, 27.867073055555554 ], [ -82.441477416666672, 27.865818305555557 ], [ -82.439356555555563, 27.864895916666669 ], [ -82.437080444444447, 27.864337666666668 ], [ -82.434727472222221, 27.864162805555559 ] ] } },
{ "type": "Feature", "properties": { "style": "solid", "thickness": 1 }, "geometry": { "type": "LineString", "coordinates": [ [ -82.54575575, 27.7089585 ], [ -82.545889027777775, 27.7097875 ], [ -82.546186527777778, 27.710582027777779 ], [ -82.546638611111106, 27.7113165 ], [ -82.547230805555557, 27.711967333333334 ], [ -82.547944083333334, 27.712513583333333 ], [ -82.5487555, 27.712937694444445 ], [ -82.549638944444439, 27.713226083333332 ], [ -82.550566083333337, 27.713369416666666 ], [ -82.551507055555547, 27.713363111111111 ], [ -82.552431666666664, 27.71320736111111 ], [ -82.553310138888889, 27.712907194444444 ], [ -82.554114277777771, 27.71247225 ], [ -82.554818222222224, 27.7119165 ], [ -82.555399361111114, 27.711257805555555 ], [ -82.555838972222219, 27.710517361111112 ], [ -82.556122972222212, 27.709718944444443 ], [ -82.556242222222224, 27.708888222222221 ], [ -82.556192888888887, 27.708051916666665 ], [ -82.555976583333333, 27.70723688888889 ], [ -82.555600222222225, 27.706469333333331 ], [ -82.55507594444444, 27.705773916666665 ], [ -82.554420555555552, 27.705172972222222 ], [ -82.553655166666658, 27.704685861111109 ], [ -82.552804361111114, 27.704328194444443 ], [ -82.551895472222213, 27.7041115 ], [ -82.550957722222222, 27.704042722222223 ], [ -82.550021222222213, 27.704124055555553 ], [ -82.549116111111104, 27.704352916666664 ], [ -82.548271444444438, 27.704721944444444 ], [ -82.547514388888885, 27.70521925 ], [ -82.54686925, 27.705828888888888 ], [ -82.546356777777774, 27.70653125 ], [ -82.545993444444449, 27.707303777777778 ], [ -82.545790944444448, 27.70812161111111 ], [ -82.54575575, 27.7089585 ] ] } },
{ "type": "Feature", "properties": { "style": "solid", "thickness": 1 }, "geometry": { "type": "LineString", "coordinates": [ [ -82.538853527777775, 27.709280305555556 ], [ -82.54117016666666, 27.708889694444444 ], [ -82.54336577777778, 27.708124805555556 ], [ -82.545364722222217, 27.707011944444442 ], [ -82.547098138888884, 27.7055895 ], [ -82.548506361111109, 27.703906444444442 ], [ -82.549540833333324, 27.70202075 ], [ -82.550165972222217, 27.699997388888889 ], [ -82.55036027777777, 27.697906055555556 ] ] } },
{ "type": "Feature", "properties": { "style": "solid", "thickness": 1 }, "geometry": { "type": "LineString", "coordinates": [ [ -82.55036027777777, 27.697906055555556 ], [ -82.550799305555557, 27.699967805555556 ], [ -82.551658833333335, 27.70192186111111 ], [ -82.552909305555559, 27.703700861111109 ], [ -82.554507611111106, 27.705243583333331 ], [ -82.556398722222212, 27.706496805555556 ], [ -82.558517527777781, 27.707417416666665 ], [ -82.560790972222222, 27.707973666666668 ], [ -82.563140805555548, 27.708146416666665 ] ] } },
{ "type": "Feature", "properties": { "style": "solid", "thickness": 1 }, "geometry": { "type": "LineString", "coordinates": [ [ -82.551634305555552, 27.719521722222222 ], [ -82.551828611111105, 27.717430388888886 ], [ -82.552453777777771, 27.715407027777776 ], [ -82.553488305555547, 27.713521305555556 ], [ -82.554896527777771, 27.711838166666666 ], [ -82.556629888888892, 27.710415583333333 ], [ -82.55862875, 27.709302555555556 ], [ -82.56082425, 27.708537388888889 ], [ -82.563140805555548, 27.708146416666665 ] ] } },
{ "type": "Feature", "properties": { "style": "solid", "thickness": 1 }, "geometry": { "type": "LineString", "coordinates": [ [ -82.551634305555552, 27.719521722222222 ], [ -82.551195166666659, 27.717459944444442 ], [ -82.550335527777776, 27.715505916666665 ], [ -82.549084972222218, 27.713726861111109 ], [ -82.547486611111111, 27.71218411111111 ], [ -82.5455955, 27.71093075 ], [ -82.54347675, 27.710009944444444 ], [ -82.541203333333328, 27.709453416666666 ], [ -82.538853527777775, 27.709280305555556 ] ] } },
{ "type": "Feature", "properties": { "style": "solid", "thickness": 1 }, "geometry": { "type": "LineString", "coordinates": [ [ -82.464075083333341, 27.823844277777777 ], [ -82.464207888888893, 27.82467336111111 ], [ -82.464505083333336, 27.825468027777777 ], [ -82.464957111111119, 27.826202777777777 ], [ -82.465549444444449, 27.826853916666668 ], [ -82.466263055555558, 27.827400583333333 ], [ -82.467074972222221, 27.827825194444443 ], [ -82.467959166666674, 27.828114083333332 ], [ -82.468887138888888, 27.828257944444445 ], [ -82.469829138888898, 27.828252194444445 ], [ -82.470754805555558, 27.828097 ], [ -82.471634444444447, 27.827797361111109 ], [ -82.47243975, 27.827362888888889 ], [ -82.473144861111109, 27.826807583333334 ], [ -82.47372708333333, 27.82614925 ], [ -82.474167722222219, 27.825409083333334 ], [ -82.474452611111118, 27.824610833333335 ], [ -82.474572611111114, 27.823780222222222 ], [ -82.474523833333336, 27.82294388888889 ], [ -82.474307888888887, 27.82212875 ], [ -82.473931722222218, 27.821360972222223 ], [ -82.473407416666674, 27.82066525 ], [ -82.472751777777773, 27.820063972222222 ], [ -82.471985972222228, 27.819576388888887 ], [ -82.471134527777778, 27.81921825 ], [ -82.470224833333333, 27.819001 ], [ -82.469286166666663, 27.818931666666668 ], [ -82.468348638888884, 27.819012444444443 ], [ -82.467442388888884, 27.819240777777779 ], [ -82.466596555555554, 27.819609277777779 ], [ -82.465838333333338, 27.820106138888889 ], [ -82.465192083333335, 27.820715388888889 ], [ -82.464678527777778, 27.821417444444446 ], [ -82.46431425, 27.822189722222223 ], [ -82.464110916666669, 27.823007444444443 ], [ -82.464075083333341, 27.823844277777777 ] ] } },
{ "type": "Feature", "properties": { "style": "solid", "thickness": 1 }, "geometry": { "type": "LineString", "coordinates": [ [ -82.457165361111109, 27.824162 ], [ -82.459484722222228, 27.823772777777776 ], [ -82.461683194444447, 27.823009194444445 ], [ -82.463685083333331, 27.821897555555555 ], [ -82.465421388888885, 27.820476138888889 ], [ -82.466832333333329, 27.818793944444444 ], [ -82.467869305555553, 27.816908888888889 ], [ -82.468496611111107, 27.814885944444445 ], [ -82.468692666666669, 27.81279475 ] ] } },
{ "type": "Feature", "properties": { "style": "solid", "thickness": 1 }, "geometry": { "type": "LineString", "coordinates": [ [ -82.468692666666669, 27.81279475 ], [ -82.469130611111112, 27.81485675 ], [ -82.469989611111117, 27.816811277777777 ], [ -82.471240027777782, 27.818590972222221 ], [ -82.472838888888887, 27.820134611111111 ], [ -82.474731055555552, 27.821388944444443 ], [ -82.476851361111116, 27.822310777777776 ], [ -82.479126805555552, 27.822868361111112 ], [ -82.481478944444447, 27.823042472222223 ] ] } },
{ "type": "Feature", "properties": { "style": "solid", "thickness": 1 }, "geometry": { "type": "LineString", "coordinates": [ [ -82.469951888888886, 27.834410777777777 ], [ -82.470147972222222, 27.832319583333334 ], [ -82.470775333333336, 27.830296638888889 ], [ -82.471812333333332, 27.828411555555554 ], [ -82.473223277777777, 27.826729305555556 ], [ -82.474959527777784, 27.825307777777777 ], [ -82.476961333333335, 27.824195944444444 ], [ -82.479159694444448, 27.823432083333334 ], [ -82.481478944444447, 27.823042472222223 ] ] } },
{ "type": "Feature", "properties": { "style": "solid", "thickness": 1 }, "geometry": { "type": "LineString", "coordinates": [ [ -82.469951888888886, 27.834410777777777 ], [ -82.46951386111111, 27.832348805555554 ], [ -82.46865475, 27.830394277777778 ], [ -82.467404222222228, 27.828614527777777 ], [ -82.465805333333336, 27.82707086111111 ], [ -82.463913166666671, 27.825816416666665 ], [ -82.461792888888894, 27.824894361111109 ], [ -82.4595175, 27.8243365 ], [ -82.457165361111109, 27.824162 ] ] } },
{ "type": "Feature", "properties": { "style": "solid", "thickness": 1 }, "geometry": { "type": "LineString", "coordinates": [ [ -82.662573166666675, 27.815010138888891 ], [ -82.662707472222223, 27.815839027777777 ], [ -82.663006083333343, 27.816633277777779 ], [ -82.663459388888896, 27.81736736111111 ], [ -82.664052861111116, 27.818017666666666 ], [ -82.664767416666677, 27.818563305555557 ], [ -82.665580055555566, 27.81898675 ], [ -82.66646466666667, 27.819274361111113 ], [ -82.667392861111111, 27.819416916666665 ], [ -82.66833475, 27.819409805555555 ], [ -82.669260083333342, 27.819253277777779 ], [ -82.670139083333339, 27.818952388888889 ], [ -82.67094352777778, 27.81851675 ], [ -82.671647583333339, 27.817960416666665 ], [ -82.672228555555563, 27.817301277777776 ], [ -82.672667805555562, 27.816560444444445 ], [ -82.672951222222224, 27.815761833333333 ], [ -82.673069722222223, 27.814931027777778 ], [ -82.673019444444449, 27.814094777777779 ], [ -82.672802027777777, 27.813279916666666 ], [ -82.6724245, 27.812512694444447 ], [ -82.671898972222223, 27.81181775 ], [ -82.671242305555566, 27.811217388888888 ], [ -82.670475666666675, 27.810730916666667 ], [ -82.669623638888893, 27.810373972222223 ], [ -82.668713638888889, 27.810158055555558 ], [ -82.667774916666673, 27.810090055555555 ], [ -82.66683761111112, 27.810172194444444 ], [ -82.665931861111119, 27.810401805555557 ], [ -82.665086777777788, 27.810771527777778 ], [ -82.6643295, 27.811269472222222 ], [ -82.663684388888896, 27.81187963888889 ], [ -82.663172194444456, 27.812582444444445 ], [ -82.662809333333342, 27.81335525 ], [ -82.6626075, 27.81417325 ], [ -82.662573166666675, 27.815010138888891 ] ] } },
{ "type": "Feature", "properties": { "style": "solid", "thickness": 1 }, "geometry": { "type": "LineString", "coordinates": [ [ -82.655664611111121, 27.815337777777778 ], [ -82.657983055555562, 27.814945222222224 ], [ -82.660179972222224, 27.814178472222224 ], [ -82.662179666666674, 27.813063972222224 ], [ -82.66391327777778, 27.811640055555557 ], [ -82.665321027777779, 27.809955833333333 ], [ -82.666354500000011, 27.808069305555556 ], [ -82.666978083333333, 27.806045472222223 ], [ -82.667170333333331, 27.803954 ] ] } },
{ "type": "Feature", "properties": { "style": "solid", "thickness": 1 }, "geometry": { "type": "LineString", "coordinates": [ [ -82.667170333333331, 27.803954 ], [ -82.667612, 27.806015361111111 ], [ -82.668474444444456, 27.807968638888891 ], [ -82.669728027777779, 27.809746583333332 ], [ -82.671329527777786, 27.811287888888888 ], [ -82.673223805555565, 27.8125395 ], [ -82.675345638888899, 27.813458305555557 ], [ -82.677621888888893, 27.81401263888889 ], [ -82.679974166666668, 27.814183388888889 ] ] } },
{ "type": "Feature", "properties": { "style": "solid", "thickness": 1 }, "geometry": { "type": "LineString", "coordinates": [ [ -82.668468666666669, 27.825568194444443 ], [ -82.668660944444454, 27.82347675 ], [ -82.669284555555564, 27.821452888888889 ], [ -82.670318083333342, 27.819566333333334 ], [ -82.67172583333334, 27.817882055555554 ], [ -82.673459388888887, 27.816458027777777 ], [ -82.675459, 27.815343305555555 ], [ -82.67765580555556, 27.814576305555555 ], [ -82.679974166666668, 27.814183388888889 ] ] } },
{ "type": "Feature", "properties": { "style": "solid", "thickness": 1 }, "geometry": { "type": "LineString", "coordinates": [ [ -82.668468666666669, 27.825568194444443 ], [ -82.668026916666676, 27.82350686111111 ], [ -82.667164361111119, 27.821553555555557 ], [ -82.665910694444449, 27.819775611111112 ], [ -82.664309138888896, 27.81823425 ], [ -82.662414861111117, 27.8169825 ], [ -82.660293083333343, 27.8160635 ], [ -82.658016861111122, 27.815508888888889 ], [ -82.655664611111121, 27.815337777777778 ] ] } },
{ "type": "Feature", "properties": { "style": "solid", "thickness": 1 }, "geometry": { "type": "LineString", "coordinates": [ [ -82.615768583333335, 27.850266694444446 ], [ -82.615902583333323, 27.851095638888889 ], [ -82.616200944444444, 27.851889972222224 ], [ -82.616654111111103, 27.852624194444445 ], [ -82.617247472222218, 27.853274722222224 ], [ -82.617962027777764, 27.853820583333334 ], [ -82.61877475, 27.854244305555557 ], [ -82.61965952777777, 27.854532222222225 ], [ -82.620587944444438, 27.854675083333333 ], [ -82.621530138888886, 27.85466827777778 ], [ -82.622455833333333, 27.854512083333336 ], [ -82.62333527777777, 27.854211472222225 ], [ -82.624140166666663, 27.85377613888889 ], [ -82.624844666666661, 27.85322002777778 ], [ -82.625426111111111, 27.852561083333335 ], [ -82.625865833333322, 27.851820416666669 ], [ -82.626149694444436, 27.851021888888891 ], [ -82.626268555555555, 27.850191138888892 ], [ -82.626218638888886, 27.849354861111109 ], [ -82.626001499999987, 27.848539944444443 ], [ -82.625624166666654, 27.847772611111111 ], [ -82.62509875, 27.847077472222221 ], [ -82.624442166666654, 27.846476888888887 ], [ -82.623675472222217, 27.845990166666667 ], [ -82.622823333333329, 27.845632944444443 ], [ -82.621913138888885, 27.845416694444442 ], [ -82.62097411111111, 27.845348388888887 ], [ -82.62003647222221, 27.84543022222222 ], [ -82.619130333333331, 27.845659527777777 ], [ -82.618284805555547, 27.846028972222221 ], [ -82.617527083333329, 27.846526666666666 ], [ -82.616881527777778, 27.847136611111111 ], [ -82.616368833333325, 27.84783922222222 ], [ -82.616005527777773, 27.848611888888886 ], [ -82.615803277777772, 27.849429805555555 ], [ -82.615768583333335, 27.850266694444446 ] ] } },
{ "type": "Feature", "properties": { "style": "solid", "thickness": 1 }, "geometry": { "type": "LineString", "coordinates": [ [ -82.608857666666665, 27.850592 ], [ -82.611177027777771, 27.850200222222224 ], [ -82.613375, 27.84943425 ], [ -82.615375805555544, 27.848320388888887 ], [ -82.617110555555556, 27.846897111111112 ], [ -82.6185195, 27.84521336111111 ], [ -82.6195541111111, 27.843327194444445 ], [ -82.620178777777767, 27.841303555555555 ], [ -82.620371972222216, 27.839212166666666 ] ] } },
{ "type": "Feature", "properties": { "style": "solid", "thickness": 1 }, "geometry": { "type": "LineString", "coordinates": [ [ -82.620371972222216, 27.839212166666666 ], [ -82.620812888888878, 27.841273666666666 ], [ -82.62167477777777, 27.84322725 ], [ -82.622928, 27.845005583333332 ], [ -82.624529361111101, 27.846547416666667 ], [ -82.626423722222214, 27.847799694444443 ], [ -82.628545833333334, 27.848719194444442 ], [ -82.630822583333327, 27.849274277777777 ], [ -82.633175555555553, 27.849445833333331 ] ] } },
{ "type": "Feature", "properties": { "style": "solid", "thickness": 1 }, "geometry": { "type": "LineString", "coordinates": [ [ -82.621661499999988, 27.860826694444444 ], [ -82.621854694444437, 27.858735305555555 ], [ -82.622479388888877, 27.856711666666669 ], [ -82.623514055555546, 27.854825472222224 ], [ -82.624923, 27.853141666666669 ], [ -82.626657694444432, 27.85171825 ], [ -82.628658416666667, 27.850604222222223 ], [ -82.630856277777767, 27.849837944444442 ], [ -82.633175555555553, 27.849445833333331 ] ] } },
{ "type": "Feature", "properties": { "style": "solid", "thickness": 1 }, "geometry": { "type": "LineString", "coordinates": [ [ -82.621661499999988, 27.860826694444444 ], [ -82.62122047222222, 27.858765194444445 ], [ -82.620358472222222, 27.856811638888889 ], [ -82.619105166666657, 27.855033277777778 ], [ -82.61750375, 27.853491361111111 ], [ -82.615609388888885, 27.852239 ], [ -82.613487305555552, 27.85131927777778 ], [ -82.611210611111105, 27.850763916666669 ], [ -82.608857666666665, 27.850592 ] ] } },
{ "type": "Feature", "properties": { "style": "solid", "thickness": 1 }, "geometry": { "type": "LineString", "coordinates": [ [ -82.613832833333333, 27.9003805 ], [ -82.613966888888882, 27.901209444444444 ], [ -82.614265361111109, 27.902003777777775 ], [ -82.614718722222221, 27.902738 ], [ -82.615312361111108, 27.903388527777775 ], [ -82.616027222222215, 27.903934416666665 ], [ -82.616840305555556, 27.904358111111108 ], [ -82.6177255, 27.904646027777776 ], [ -82.618654333333325, 27.904788916666664 ], [ -82.619596972222212, 27.904782138888887 ], [ -82.620523083333325, 27.904625944444444 ], [ -82.621402916666653, 27.904325361111109 ], [ -82.62220819444444, 27.903890027777777 ], [ -82.62291302777777, 27.903333944444444 ], [ -82.62349475, 27.902675 ], [ -82.623934694444443, 27.90193436111111 ], [ -82.624218694444437, 27.901135833333331 ], [ -82.624337638888889, 27.900305083333333 ], [ -82.624287694444433, 27.899468833333334 ], [ -82.624070472222215, 27.898653916666667 ], [ -82.623693, 27.897886583333332 ], [ -82.623167333333328, 27.897191444444445 ], [ -82.622510444444444, 27.896590861111111 ], [ -82.621743416666661, 27.896104138888887 ], [ -82.62089088888888, 27.895746888888887 ], [ -82.619980277777771, 27.895530638888889 ], [ -82.619040833333329, 27.895462333333334 ], [ -82.618102777777764, 27.895544138888887 ], [ -82.617196222222219, 27.895773416666668 ], [ -82.616350305555557, 27.896142861111112 ], [ -82.615592222222219, 27.896640527777777 ], [ -82.614946333333322, 27.897250472222222 ], [ -82.614433416666657, 27.897953055555554 ], [ -82.614069916666665, 27.89872572222222 ], [ -82.613867555555544, 27.89954363888889 ], [ -82.613832833333333, 27.9003805 ] ] } },
{ "type": "Feature", "properties": { "style": "solid", "thickness": 1 }, "geometry": { "type": "LineString", "coordinates": [ [ -82.606918722222218, 27.90070572222222 ], [ -82.609239166666654, 27.900313972222222 ], [ -82.611438166666659, 27.899548027777776 ], [ -82.613439916666664, 27.898434222222221 ], [ -82.6151755, 27.897010972222223 ], [ -82.616585111111107, 27.89532725 ], [ -82.617620222222214, 27.893441111111109 ], [ -82.618245194444441, 27.891417527777776 ], [ -82.618438527777769, 27.889326138888887 ] ] } },
{ "type": "Feature", "properties": { "style": "solid", "thickness": 1 }, "geometry": { "type": "LineString", "coordinates": [ [ -82.618438527777769, 27.889326138888887 ], [ -82.618879611111097, 27.89138763888889 ], [ -82.619741861111109, 27.893341194444442 ], [ -82.620995638888886, 27.895119527777776 ], [ -82.622597694444437, 27.896661388888887 ], [ -82.624492916666654, 27.897913666666668 ], [ -82.626615972222211, 27.898833194444443 ], [ -82.628893777777776, 27.899388305555554 ], [ -82.631247805555546, 27.899559888888888 ] ] } },
{ "type": "Feature", "properties": { "style": "solid", "thickness": 1 }, "geometry": { "type": "LineString", "coordinates": [ [ -82.619728277777767, 27.9109405 ], [ -82.61992161111111, 27.908849138888886 ], [ -82.620546638888882, 27.906825527777777 ], [ -82.621581777777777, 27.904939361111111 ], [ -82.622991388888877, 27.903255583333333 ], [ -82.62472691666666, 27.901832194444442 ], [ -82.626728583333332, 27.900718222222221 ], [ -82.628927444444443, 27.899951972222222 ], [ -82.631247805555546, 27.899559888888888 ] ] } },
{ "type": "Feature", "properties": { "style": "solid", "thickness": 1 }, "geometry": { "type": "LineString", "coordinates": [ [ -82.619728277777767, 27.9109405 ], [ -82.619287083333333, 27.908879027777775 ], [ -82.618424722222215, 27.90692547222222 ], [ -82.617170861111106, 27.905147111111109 ], [ -82.61556875, 27.903605166666665 ], [ -82.613673527777777, 27.902352777777775 ], [ -82.6115505, 27.901433055555554 ], [ -82.609272749999988, 27.900877666666666 ], [ -82.606918722222218, 27.90070572222222 ] ] } }
]
}
