{
"type": "FeatureCollection",
"name": "tpa803sgp",
"features": [
{ "type": "Feature", "properties": { "style": "solid", "thickness": 1 }, "geometry": { "type": "LineString", "coordinates": [ [ -82.34965125, 27.856316527777778 ], [ -82.351524861111102, 27.867260583333334 ], [ -82.354210111111101, 27.878070333333334 ], [ -82.357695388888885, 27.888698305555554 ], [ -82.36196563888889, 27.899097777777776 ], [ -82.367002305555545, 27.90922311111111 ], [ -82.3727835, 27.91902975 ], [ -82.379283972222211, 27.928474583333333 ], [ -82.386475305555564, 27.937516111111112 ], [ -82.394326055555567, 27.9461145 ], [ -82.402801805555555, 27.954232 ], [ -82.411865416666672, 27.961832805555556 ], [ -82.421477083333343, 27.9688835 ], [ -82.431594583333336, 27.975353027777775 ], [ -82.442173472222223, 27.981212888888887 ], [ -82.45316722222222, 27.986437305555558 ], [ -82.464527444444442, 27.99100325 ], [ -82.476204111111116, 27.994890583333333 ], [ -82.488145833333334, 27.998082222222223 ], [ -82.5003, 28.000564055555557 ], [ -82.512613055555562, 28.002325194444445 ], [ -82.52503075, 28.003357805555556 ], [ -82.525970111111107, 28.003406027777778 ] ] } },
{ "type": "Feature", "properties": { "style": "solid", "thickness": 1 }, "geometry": { "type": "LineString", "coordinates": [ [ -82.248446916666666, 27.994936194444445 ], [ -82.257590666666673, 28.007375277777779 ], [ -82.267417194444448, 28.019397888888889 ], [ -82.277902611111116, 28.030974611111109 ], [ -82.289021444444444, 28.042077083333336 ], [ -82.300746638888882, 28.052678083333333 ], [ -82.313049583333324, 28.062751611111111 ], [ -82.325900333333323, 28.072272972222223 ], [ -82.339267444444445, 28.081218805555554 ], [ -82.35311825, 28.089567166666665 ], [ -82.367418861111105, 28.097297555555553 ], [ -82.376253972222216, 28.10165663888889 ] ] } },
{ "type": "Feature", "properties": { "style": "solid", "thickness": 1 }, "geometry": { "type": "LineString", "coordinates": [ [ -82.508285861111105, 28.010237083333333 ], [ -82.510962527777778, 27.993694694444446 ] ] } },
{ "type": "Feature", "properties": { "style": "solid", "thickness": 1 }, "geometry": { "type": "LineString", "coordinates": [ [ -82.343083111111113, 27.872408361111113 ], [ -82.361495111111111, 27.869003833333334 ] ] } },
{ "type": "Feature", "properties": { "style": "solid", "thickness": 1 }, "geometry": { "type": "LineString", "coordinates": [ [ -82.414049027777779, 27.95229597222222 ], [ -82.401159972222231, 27.964474638888888 ] ] } },
{ "type": "Feature", "properties": { "style": "solid", "thickness": 1 }, "geometry": { "type": "LineString", "coordinates": [ [ -82.310855916666668, 28.049690555555557 ], [ -82.297943805555548, 28.061859277777778 ] ] } },
{ "type": "Feature", "properties": { "style": "solid", "thickness": 1 }, "geometry": { "type": "LineString", "coordinates": [ [ -82.526489861111116, 27.995062694444446 ], [ -82.525450277777779, 28.011749305555554 ] ] } },
{ "type": "Feature", "properties": { "style": "solid", "thickness": 1 }, "geometry": { "type": "LineString", "coordinates": [ [ -82.358987888888876, 27.85533363888889 ], [ -82.340314444444445, 27.857298805555558 ] ] } },
{ "type": "Feature", "properties": { "style": "solid", "thickness": 1 }, "geometry": { "type": "LineString", "coordinates": [ [ -82.35598505555555, 28.081254444444443 ], [ -82.34565388888889, 28.09523075 ] ] } },
{ "type": "Feature", "properties": { "style": "solid", "thickness": 1 }, "geometry": { "type": "LineString", "coordinates": [ [ -82.380711638888883, 28.094294916666666 ], [ -82.371795666666657, 28.109018194444445 ] ] } },
{ "type": "Feature", "properties": { "style": "solid", "thickness": 1 }, "geometry": { "type": "LineString", "coordinates": [ [ -82.272618194444448, 28.011643111111113 ], [ -82.257522166666661, 28.021633666666666 ] ] } },
{ "type": "Feature", "properties": { "style": "solid", "thickness": 1 }, "geometry": { "type": "LineString", "coordinates": [ [ -82.256455555555561, 27.990544444444446 ], [ -82.240437638888892, 27.9993275 ] ] } },
{ "type": "Feature", "properties": { "style": "solid", "thickness": 1 }, "geometry": { "type": "LineString", "coordinates": [ [ -82.547015555555561, 27.845428666666667 ], [ -82.545680166666671, 27.845056555555555 ], [ -82.54435180555555, 27.844629 ], [ -82.543034722222217, 27.844145694444443 ], [ -82.541733194444447, 27.843606805555556 ], [ -82.540451611111109, 27.843012777777776 ], [ -82.539194333333327, 27.842364444444442 ], [ -82.537965611111105, 27.84166297222222 ], [ -82.536769694444445, 27.840909888888888 ], [ -82.535610583333337, 27.840107055555553 ], [ -82.534492166666666, 27.839256694444444 ], [ -82.533418111111104, 27.838361333333332 ], [ -82.53239175, 27.83742375 ], [ -82.531416138888886, 27.836447027777776 ], [ -82.530494, 27.835434472222222 ], [ -82.529627722222216, 27.8343895 ], [ -82.52881925, 27.833315805555554 ], [ -82.528070194444439, 27.832217083333333 ], [ -82.527381777777777, 27.831097138888889 ], [ -82.52675475, 27.829959805555557 ], [ -82.526189555555561, 27.828808944444443 ], [ -82.525686194444447, 27.827648277777776 ] ] } },
{ "type": "Feature", "properties": { "style": "solid", "thickness": 1 }, "geometry": { "type": "LineString", "coordinates": [ [ -82.547015555555561, 27.845428666666667 ], [ -82.546511527777781, 27.844268194444442 ], [ -82.54594575, 27.843117555555555 ], [ -82.545318222222221, 27.841980472222222 ], [ -82.544629333333333, 27.840860777777777 ], [ -82.543879916666668, 27.839762305555553 ], [ -82.543071138888891, 27.838688833333332 ], [ -82.54220463888889, 27.837644083333331 ], [ -82.541282333333328, 27.836631722222222 ], [ -82.540306666666666, 27.835655166666665 ], [ -82.53928030555555, 27.834717722222219 ], [ -82.538206305555548, 27.833822444444444 ], [ -82.537088055555557, 27.832972138888888 ], [ -82.535929166666662, 27.832169305555556 ], [ -82.534733472222214, 27.831416166666667 ], [ -82.533505083333338, 27.830714555555556 ], [ -82.532248138888889, 27.830066055555555 ], [ -82.530966916666671, 27.829471777777776 ], [ -82.529665805555553, 27.828932583333334 ], [ -82.528349111111112, 27.828448888888889 ], [ -82.527021166666671, 27.82802088888889 ], [ -82.525686194444447, 27.827648277777776 ] ] } },
{ "type": "Feature", "properties": { "style": "solid", "thickness": 1 }, "geometry": { "type": "LineString", "coordinates": [ [ -82.521223194444445, 27.986027333333336 ], [ -82.521223194444445, 27.987861555555558 ] ] } },
{ "type": "Feature", "properties": { "style": "solid", "thickness": 1 }, "geometry": { "type": "LineString", "coordinates": [ [ -82.520706611111109, 27.985843888888891 ], [ -82.520706638888882, 27.988045 ] ] } },
{ "type": "Feature", "properties": { "style": "solid", "thickness": 1 }, "geometry": { "type": "LineString", "coordinates": [ [ -82.52019005555556, 27.985843888888891 ], [ -82.52019005555556, 27.988045 ] ] } },
{ "type": "Feature", "properties": { "style": "solid", "thickness": 1 }, "geometry": { "type": "LineString", "coordinates": [ [ -82.519673472222223, 27.986027305555556 ], [ -82.519673472222223, 27.987861555555558 ] ] } },
{ "type": "Feature", "properties": { "style": "solid", "thickness": 1 }, "geometry": { "type": "LineString", "coordinates": [ [ -82.519156888888887, 27.986944444444447 ], [ -82.519164916666668, 27.987074472222222 ], [ -82.51919075, 27.98721038888889 ], [ -82.519236861111111, 27.987349666666667 ], [ -82.519305138888882, 27.987488916666667 ], [ -82.519396611111105, 27.987624222222223 ], [ -82.519511083333327, 27.987751194444446 ], [ -82.519646944444446, 27.987865333333335 ], [ -82.519801222222227, 27.987962638888892 ], [ -82.519969666666668, 27.988039833333335 ], [ -82.520147166666661, 27.988094833333335 ], [ -82.52032825, 27.988126916666669 ], [ -82.520507638888887, 27.988136694444446 ], [ -82.520680666666664, 27.988125861111111 ], [ -82.520843583333331, 27.98809702777778 ], [ -82.52099375, 27.988053222222224 ], [ -82.521129583333334, 27.987997583333335 ], [ -82.521253638888894, 27.987931305555556 ], [ -82.52137477777778, 27.98784913888889 ], [ -82.52149030555556, 27.987749833333336 ], [ -82.521596222222215, 27.987633305555555 ], [ -82.521688111111104, 27.987500416666666 ], [ -82.521761722222223, 27.987353111111112 ], [ -82.521813222222221, 27.9871945 ], [ -82.52183975, 27.987028611111111 ], [ -82.521839722222225, 27.98686025 ], [ -82.521813222222221, 27.986694388888889 ], [ -82.521761722222223, 27.986535777777778 ], [ -82.521688111111104, 27.986388472222224 ], [ -82.521596194444442, 27.986255555555555 ], [ -82.52149030555556, 27.986139027777778 ], [ -82.52137475, 27.98603975 ], [ -82.521253611111106, 27.985957555555558 ], [ -82.521129583333334, 27.985891305555558 ], [ -82.52099375, 27.985835666666667 ], [ -82.520843583333331, 27.985791861111114 ], [ -82.520680666666664, 27.985763027777779 ], [ -82.520507638888887, 27.985752194444444 ], [ -82.52032825, 27.985761972222225 ], [ -82.520147166666661, 27.985794055555555 ], [ -82.519969666666668, 27.985849055555555 ], [ -82.519801222222227, 27.98592625 ], [ -82.519646944444446, 27.986023527777778 ], [ -82.519511083333327, 27.986137694444444 ], [ -82.519396611111105, 27.98626463888889 ], [ -82.519305138888882, 27.986399944444447 ], [ -82.519236861111111, 27.986539222222223 ], [ -82.51919075, 27.986678472222223 ], [ -82.519164916666668, 27.986814388888888 ], [ -82.519156888888887, 27.986944444444447 ] ] } },
{ "type": "Feature", "properties": { "style": "solid", "thickness": 1 }, "geometry": { "type": "LineString", "coordinates": [ [ -82.290764055555556, 28.0843995 ], [ -82.286827083333336, 28.084575166666667 ], [ -82.2846815, 28.082739555555555 ], [ -82.284369027777771, 28.08202925 ], [ -82.284063388888882, 28.081439361111112 ], [ -82.2839815, 28.079994527777778 ], [ -82.284463083333335, 28.078886722222222 ], [ -82.285216166666672, 28.077766777777779 ], [ -82.286003333333326, 28.077248833333332 ], [ -82.286525861111116, 28.076863416666665 ], [ -82.287591361111112, 28.076453777777779 ], [ -82.290034833333337, 28.07634472222222 ], [ -82.291141305555556, 28.076657444444443 ], [ -82.291989944444438, 28.07722311111111 ], [ -82.29271652777777, 28.078035611111112 ], [ -82.293178472222223, 28.07898063888889 ], [ -82.293362055555548, 28.079817388888888 ], [ -82.293430416666666, 28.081021388888889 ], [ -82.293328833333334, 28.081629444444445 ], [ -82.292962583333335, 28.082370055555554 ], [ -82.292440055555559, 28.0827555 ], [ -82.290764055555556, 28.0843995 ], [ -82.292040555555559, 28.085308166666664 ], [ -82.292774027777781, 28.086241083333331 ], [ -82.293079722222217, 28.086830944444444 ], [ -82.293189083333331, 28.08875736111111 ], [ -82.292592277777771, 28.0902325 ], [ -82.292205472222221, 28.090611888888887 ], [ -82.291010916666664, 28.091148027777777 ], [ -82.290216833333332, 28.091545583333332 ], [ -82.288451861111113, 28.091624333333332 ], [ -82.287209472222216, 28.091317638888889 ], [ -82.285369416666668, 28.090071944444443 ], [ -82.28506375, 28.089482055555553 ], [ -82.28494086111111, 28.08731483333333 ], [ -82.28527988888888, 28.086092638888889 ], [ -82.285408833333335, 28.085966194444442 ], [ -82.286060305555552, 28.085454305555555 ], [ -82.286827083333336, 28.084575166666667 ] ] } },
{ "type": "Feature", "properties": { "style": "solid", "thickness": 1 }, "geometry": { "type": "LineString", "coordinates": [ [ -82.267781083333333, 28.091941472222221 ], [ -82.268622944444445, 28.092386861111109 ], [ -82.269586944444441, 28.092585388888889 ], [ -82.272845388888882, 28.092440444444442 ], [ -82.27405366666666, 28.09214525 ], [ -82.274454166666672, 28.092006722222219 ], [ -82.276429333333326, 28.090832444444445 ], [ -82.277583055555553, 28.089574 ], [ -82.27792216666667, 28.088351833333331 ], [ -82.27874975, 28.086142277777778 ], [ -82.278592916666668, 28.083373055555555 ], [ -82.278246388888888, 28.082060722222224 ], [ -82.277777777777771, 28.08099525 ], [ -82.277166583333326, 28.079815416666666 ], [ -82.275734083333333, 28.078551444444443 ], [ -82.273086694444444, 28.07746225 ], [ -82.2713015, 28.077179583333333 ], [ -82.26980825, 28.077246 ], [ -82.267928166666664, 28.07769175 ], [ -82.26726983333333, 28.078083138888889 ], [ -82.266740444444437, 28.078348083333331 ] ] } },
{ "type": "Feature", "properties": { "style": "solid", "thickness": 1 }, "geometry": { "type": "LineString", "coordinates": [ [ -82.584574555555548, 27.823560944444445 ], [ -82.58515905555555, 27.824257888888887 ], [ -82.586420694444442, 27.824923111111111 ], [ -82.587247472222217, 27.825125805555555 ], [ -82.589571055555552, 27.825378972222222 ], [ -82.590383555555547, 27.825340861111112 ], [ -82.591994277777772, 27.825023833333333 ], [ -82.593327027777775, 27.824599083333332 ], [ -82.593590694444444, 27.824465972222221 ], [ -82.59450286111111, 27.8238195 ], [ -82.595407861111113, 27.823052638888889 ], [ -82.59691125, 27.820929666666668 ], [ -82.597473833333325, 27.818971583333333 ], [ -82.597316444444445, 27.816322972222224 ], [ -82.596959777777769, 27.814890972222223 ], [ -82.596353777777779, 27.813832888888889 ], [ -82.595484138888878, 27.812907888888891 ], [ -82.594757055555547, 27.812096944444445 ], [ -82.5936095, 27.811064277777778 ], [ -82.592497694444447, 27.810633555555555 ], [ -82.59138588888888, 27.810202833333335 ], [ -82.590423805555545, 27.81000652777778 ], [ -82.587986611111106, 27.810120888888889 ], [ -82.586646888888879, 27.810425166666668 ], [ -82.58559225, 27.810957555555557 ], [ -82.584409333333326, 27.811616666666666 ], [ -82.583632611111113, 27.812256694444446 ], [ -82.582364222222225, 27.81376488888889 ], [ -82.58161602777777, 27.8148865 ], [ -82.581388027777777, 27.815621555555555 ], [ -82.581502222222213, 27.817547833333332 ], [ -82.587189416666661, 27.817281222222221 ] ] } },
{ "type": "Feature", "properties": { "style": "solid", "thickness": 1 }, "geometry": { "type": "LineString", "coordinates": [ [ -82.575529694444441, 27.810704666666666 ], [ -82.576435305555549, 27.82599461111111 ], [ -82.570747638888889, 27.826260805555556 ], [ -82.569528833333337, 27.826317805555554 ], [ -82.568538166666656, 27.825639777777777 ], [ -82.567811194444445, 27.824828694444445 ], [ -82.567782694444446, 27.824347111111109 ], [ -82.56764027777777, 27.82193925 ], [ -82.567754305555553, 27.82157172222222 ], [ -82.568103583333325, 27.820589583333334 ], [ -82.5693865, 27.819322305555556 ], [ -82.567989638888889, 27.818663277777777 ], [ -82.567291194444437, 27.81833375 ], [ -82.566578555555552, 27.817763444444445 ], [ -82.566108222222226, 27.81669888888889 ], [ -82.565923111111104, 27.813568666666669 ], [ -82.5662795, 27.812706916666667 ], [ -82.567184611111102, 27.811940222222223 ], [ -82.567833138888886, 27.811427 ], [ -82.568488805555546, 27.811034138888889 ], [ -82.575529694444441, 27.810704666666666 ] ] } },
{ "type": "Feature", "properties": { "style": "solid", "thickness": 1 }, "geometry": { "type": "LineString", "coordinates": [ [ -82.576021694444435, 27.819011833333334 ], [ -82.5693865, 27.819322305555556 ] ] } },
{ "type": "Feature", "properties": { "style": "solid", "thickness": 1 }, "geometry": { "type": "LineString", "coordinates": [ [ -82.560184722222218, 27.826754527777776 ], [ -82.550975972222219, 27.827184277777778 ], [ -82.55091202777777, 27.826100722222222 ], [ -82.560236333333336, 27.811540583333333 ], [ -82.560229194444446, 27.811420194444445 ], [ -82.549532277777772, 27.811919416666669 ] ] } },
{ "type": "Feature", "properties": { "style": "solid", "thickness": 1 }, "geometry": { "type": "LineString", "coordinates": [ [ -82.379076055555544, 27.839723138888889 ], [ -82.3792835, 27.843335194444442 ], [ -82.379807444444438, 27.845363611111111 ], [ -82.380133694444439, 27.846314527777775 ], [ -82.380581583333324, 27.8470185 ], [ -82.382290083333331, 27.848389527777776 ], [ -82.383950222222225, 27.848917722222222 ], [ -82.384492055555569, 27.84889311111111 ], [ -82.386082944444453, 27.848217277777778 ], [ -82.387489888888894, 27.84670475 ], [ -82.387990166666668, 27.84595772222222 ], [ -82.388205666666678, 27.844982166666664 ], [ -82.388494277777781, 27.84291686111111 ], [ -82.38828652777778, 27.839304805555553 ], [ -82.387762444444448, 27.837276444444445 ], [ -82.387436166666674, 27.836325527777777 ], [ -82.386852833333336, 27.83562775 ], [ -82.385279916666676, 27.834250611111109 ], [ -82.38362, 27.833722416666667 ], [ -82.38307825, 27.833747027777775 ], [ -82.381487527777765, 27.834422833333331 ], [ -82.379945222222219, 27.83594147222222 ], [ -82.379580388888883, 27.836682333333332 ], [ -82.379364833333327, 27.837657833333331 ], [ -82.379076055555544, 27.839723138888889 ] ] } },
{ "type": "Feature", "properties": { "style": "solid", "thickness": 1 }, "geometry": { "type": "LineString", "coordinates": [ [ -82.373191, 27.834195722222223 ], [ -82.366618138888882, 27.8498245 ], [ -82.358698611111109, 27.834852083333331 ] ] } },
{ "type": "Feature", "properties": { "style": "solid", "thickness": 1 }, "geometry": { "type": "LineString", "coordinates": [ [ -82.371036194444443, 27.83924275 ], [ -82.361283861111104, 27.839684444444444 ] ] } },
{ "type": "Feature", "properties": { "style": "solid", "thickness": 1 }, "geometry": { "type": "LineString", "coordinates": [ [ -82.325623527777779, 27.879552527777779 ], [ -82.325829305555558, 27.883164666666666 ], [ -82.326352444444439, 27.88519325 ], [ -82.326678333333334, 27.886144277777777 ], [ -82.32712602777778, 27.886848416666666 ], [ -82.3288345, 27.88822011111111 ], [ -82.330494972222212, 27.888748944444444 ], [ -82.331037027777768, 27.888724555555555 ], [ -82.332628833333331, 27.888049305555555 ], [ -82.334037027777768, 27.886537333333333 ], [ -82.334537833333329, 27.8857905 ], [ -82.334753916666656, 27.884815083333333 ], [ -82.335043638888891, 27.882749888888888 ], [ -82.334837555555552, 27.879137777777778 ], [ -82.334314305555552, 27.877109222222224 ], [ -82.333988361111111, 27.876158194444447 ], [ -82.333405166666665, 27.875460194444447 ], [ -82.331832333333324, 27.874082444444443 ], [ -82.330172083333323, 27.87355363888889 ], [ -82.329630111111101, 27.873578027777778 ], [ -82.3280385, 27.874253222222222 ], [ -82.326494888888888, 27.875771222222223 ], [ -82.326129555555553, 27.876511944444445 ], [ -82.325913444444438, 27.877487361111111 ], [ -82.325623527777779, 27.879552527777779 ] ] } },
{ "type": "Feature", "properties": { "style": "solid", "thickness": 1 }, "geometry": { "type": "LineString", "coordinates": [ [ -82.319603583333333, 27.874028972222224 ], [ -82.320473888888884, 27.889320333333334 ], [ -82.314782333333326, 27.889576 ], [ -82.313562694444443, 27.88963075 ], [ -82.312573027777773, 27.888950888888889 ], [ -82.311847555555559, 27.88813847222222 ], [ -82.311820166666664, 27.887656833333335 ], [ -82.311683305555547, 27.88524875 ], [ -82.311798277777768, 27.884881444444446 ], [ -82.312150055555549, 27.88389997222222 ], [ -82.313436666666661, 27.88263511111111 ], [ -82.312040527777782, 27.8819735 ], [ -82.311342472222222, 27.881642694444444 ], [ -82.31063075, 27.881071055555555 ], [ -82.31016266666667, 27.880005666666666 ], [ -82.309984777777771, 27.876875111111111 ], [ -82.310343388888882, 27.876014055555554 ], [ -82.311250805555559, 27.875249055555557 ], [ -82.311900916666659, 27.87473702777778 ], [ -82.312557861111102, 27.874345416666667 ], [ -82.319603583333333, 27.874028972222224 ] ] } },
{ "type": "Feature", "properties": { "style": "solid", "thickness": 1 }, "geometry": { "type": "LineString", "coordinates": [ [ -82.320076388888879, 27.88233688888889 ], [ -82.313436666666661, 27.88263511111111 ] ] } },
{ "type": "Feature", "properties": { "style": "solid", "thickness": 1 }, "geometry": { "type": "LineString", "coordinates": [ [ -82.385527472222222, 27.97801158333333 ], [ -82.385735416666677, 27.981623555555554 ], [ -82.3862601388889, 27.98365188888889 ], [ -82.38658683333334, 27.984602777777777 ], [ -82.387035333333344, 27.985306694444446 ], [ -82.388746083333345, 27.986677638888889 ], [ -82.39040833333334, 27.98720575 ], [ -82.390950861111122, 27.987181111111113 ], [ -82.39254375, 27.986505194444444 ], [ -82.393952388888891, 27.984992666666667 ], [ -82.394453250000012, 27.984245611111113 ], [ -82.394668972222235, 27.983270111111111 ], [ -82.394957861111124, 27.981204833333333 ], [ -82.394749611111123, 27.977592861111109 ], [ -82.394224777777779, 27.97556458333333 ], [ -82.393898, 27.974613694444443 ], [ -82.393313916666671, 27.973915944444443 ], [ -82.391738916666668, 27.972538916666664 ], [ -82.390076861111112, 27.972010833333332 ], [ -82.389534416666677, 27.972035444444444 ], [ -82.38794175000001, 27.972711333333333 ], [ -82.386397555555561, 27.974229972222222 ], [ -82.38603230555556, 27.97497083333333 ], [ -82.3858165, 27.975946333333333 ], [ -82.385527472222222, 27.97801158333333 ] ] } },
{ "type": "Feature", "properties": { "style": "solid", "thickness": 1 }, "geometry": { "type": "LineString", "coordinates": [ [ -82.3690795, 27.987568861111111 ], [ -82.369920944444445, 27.988013638888891 ], [ -82.370884222222216, 27.988211472222222 ], [ -82.374139416666665, 27.988064111111111 ], [ -82.375346277777766, 27.987768027777779 ], [ -82.37574625, 27.987629194444445 ], [ -82.377718416666653, 27.986453444444447 ], [ -82.378869861111099, 27.98519413888889 ], [ -82.3792075, 27.983971694444445 ], [ -82.38003225, 27.981761472222221 ], [ -82.379872972222216, 27.978992277777778 ], [ -82.379525555555546, 27.977680194444442 ], [ -82.379056388888884, 27.976615027777775 ], [ -82.37844469444444, 27.975435611111109 ], [ -82.377012388888886, 27.974172666666664 ], [ -82.3743665, 27.973085388888887 ], [ -82.37258275, 27.972804027777777 ], [ -82.371091, 27.972871583333333 ], [ -82.369213138888881, 27.973318694444444 ], [ -82.368555805555545, 27.973710583333332 ], [ -82.368027166666664, 27.973975944444444 ] ] } },
{ "type": "Feature", "properties": { "style": "solid", "thickness": 1 }, "geometry": { "type": "LineString", "coordinates": [ [ -82.499918777777779, 28.024177111111111 ], [ -82.50013058333333, 28.027788888888889 ], [ -82.500657638888896, 28.02981675 ], [ -82.5009855, 28.03076736111111 ], [ -82.501434916666668, 28.031470916666667 ], [ -82.50314783333333, 28.032840416666666 ], [ -82.504811361111109, 28.033367166666668 ], [ -82.50535408333333, 28.033342083333334 ], [ -82.506946916666664, 28.032664861111112 ], [ -82.508354583333329, 28.031151166666664 ], [ -82.508854888888891, 28.030403722222221 ], [ -82.509069666666662, 28.029428027777776 ], [ -82.5093565, 28.027362527777775 ], [ -82.509144361111112, 28.023750777777778 ], [ -82.508617166666667, 28.021722916666665 ], [ -82.508289277777777, 28.020772333333333 ], [ -82.507704194444443, 28.020075083333332 ], [ -82.50612708333334, 28.018699361111111 ], [ -82.504463777777772, 28.018172638888888 ], [ -82.503921138888884, 28.018197722222222 ], [ -82.502328472222217, 28.018874888888888 ], [ -82.50078525, 28.020394805555554 ], [ -82.50042061111111, 28.021135972222222 ], [ -82.50020575, 28.022111638888887 ], [ -82.499918777777779, 28.024177111111111 ] ] } },
{ "type": "Feature", "properties": { "style": "solid", "thickness": 1 }, "geometry": { "type": "LineString", "coordinates": [ [ -82.493882, 28.018661277777777 ], [ -82.494777861111118, 28.033951166666668 ], [ -82.48880777777778, 28.034226472222223 ], [ -82.487165472222216, 28.034060722222225 ], [ -82.486465916666674, 28.033730805555557 ], [ -82.485331111111108, 28.032938055555555 ], [ -82.483625444444442, 28.03168875 ], [ -82.482448472222231, 28.03017361111111 ], [ -82.48210669444444, 28.028982166666665 ], [ -82.48187436111111, 28.025009194444443 ], [ -82.482082333333338, 28.023913166666667 ], [ -82.482811888888889, 28.022430944444444 ], [ -82.483712277777784, 28.021544444444444 ], [ -82.48459855555555, 28.020417166666665 ], [ -82.485905916666667, 28.019511888888889 ], [ -82.487512777777781, 28.019075694444442 ], [ -82.488455388888895, 28.018911527777778 ], [ -82.493882, 28.018661277777777 ] ] } },
{ "type": "Feature", "properties": { "style": "solid", "thickness": 1 }, "geometry": { "type": "LineString", "coordinates": [ [ -82.407917611111117, 28.079754166666667 ], [ -82.403980972222229, 28.079933166666667 ], [ -82.4018335, 28.078099388888887 ], [ -82.401520277777777, 28.077389333333333 ], [ -82.401214027777783, 28.076799694444443 ], [ -82.401130583333341, 28.075354944444445 ], [ -82.401610944444457, 28.074246694444444 ], [ -82.402362777777782, 28.073126138888888 ], [ -82.403149388888892, 28.072607527777777 ], [ -82.403671472222229, 28.072221666666668 ], [ -82.404736472222226, 28.07181111111111 ], [ -82.407179722222224, 28.0717 ], [ -82.4082865, 28.072011777777778 ], [ -82.409135722222231, 28.072576694444443 ], [ -82.409863166666668, 28.07338861111111 ], [ -82.410326083333345, 28.074333222222222 ], [ -82.410510583333334, 28.075169833333334 ], [ -82.410580222222222, 28.076373777777778 ], [ -82.410479305555555, 28.076981944444444 ], [ -82.410113861111114, 28.077722861111109 ], [ -82.409591777777777, 28.07810875 ], [ -82.407917611111117, 28.079754166666667 ], [ -82.409195027777784, 28.08066175 ], [ -82.409929472222231, 28.081594027777779 ], [ -82.410235805555558, 28.082183666666666 ], [ -82.410347222222228, 28.08411 ], [ -82.409752055555558, 28.085585638888887 ], [ -82.409365666666673, 28.085965333333331 ], [ -82.40817175, 28.0865025 ], [ -82.407378111111115, 28.08690075 ], [ -82.405613305555562, 28.086981 ], [ -82.404370611111119, 28.086675361111109 ], [ -82.402529305555561, 28.085431194444443 ], [ -82.402223, 28.084841555555553 ], [ -82.402097805555556, 28.082674444444443 ], [ -82.40243550000001, 28.081451972222222 ], [ -82.402564277777785, 28.081325416666665 ], [ -82.403215194444456, 28.080812972222223 ], [ -82.403980972222229, 28.079933166666667 ] ] } },
{ "type": "Feature", "properties": { "style": "solid", "thickness": 1 }, "geometry": { "type": "LineString", "coordinates": [ [ -82.387971972222232, 28.087902666666665 ], [ -82.396253111111122, 28.087526972222221 ], [ -82.395370666666679, 28.072236611111112 ], [ -82.386954944444454, 28.072618416666668 ] ] } },
{ "type": "Feature", "properties": { "style": "solid", "thickness": 1 }, "geometry": { "type": "LineString", "coordinates": [ [ -82.395808388888895, 28.079821611111111 ], [ -82.387799333333334, 28.080184972222224 ] ] } },
{ "type": "Feature", "properties": { "style": "solid", "thickness": 1 }, "geometry": { "type": "LineString", "coordinates": [ [ -82.338119666666657, 28.114362388888889 ], [ -82.334181666666666, 28.11453941666667 ], [ -82.332034694444445, 28.112704555555556 ], [ -82.331721833333333, 28.111994361111112 ], [ -82.331415861111111, 28.111404555555556 ], [ -82.331333305555546, 28.109959777777778 ], [ -82.331814555555553, 28.10885177777778 ], [ -82.332567361111103, 28.107731611111113 ], [ -82.333354527777772, 28.107213388888891 ], [ -82.333877027777774, 28.106827805555557 ], [ -82.33494263888889, 28.106417777777779 ], [ -82.33738672222222, 28.106307916666669 ], [ -82.338493666666665, 28.10662025 ], [ -82.339342777777773, 28.107185611111113 ], [ -82.340069916666664, 28.107997861111112 ], [ -82.340532388888889, 28.108942722222224 ], [ -82.340716388888879, 28.109779416666669 ], [ -82.340785305555556, 28.11098338888889 ], [ -82.340683944444436, 28.1115915 ], [ -82.340317916666663, 28.112332194444445 ], [ -82.339795416666661, 28.112717833333335 ], [ -82.338119666666657, 28.114362388888889 ], [ -82.339396916666658, 28.115270611111111 ], [ -82.340130972222212, 28.116203277777778 ], [ -82.340437027777767, 28.116793055555554 ], [ -82.34054725, 28.118719416666668 ], [ -82.339950916666666, 28.120194722222223 ], [ -82.339564194444435, 28.12057425 ], [ -82.338369527777772, 28.121110805555556 ], [ -82.33757538888888, 28.121508638888891 ], [ -82.335809972222222, 28.121587972222223 ], [ -82.334567111111113, 28.121281722222221 ], [ -82.332726, 28.120036666666667 ], [ -82.33242, 28.119446861111111 ], [ -82.332296138888879, 28.117279694444445 ], [ -82.332634722222224, 28.116057416666667 ], [ -82.332763638888892, 28.115930916666667 ], [ -82.333415083333335, 28.115418805555557 ], [ -82.334181666666666, 28.11453941666667 ] ] } },
{ "type": "Feature", "properties": { "style": "solid", "thickness": 1 }, "geometry": { "type": "LineString", "coordinates": [ [ -82.325573583333323, 28.106838555555559 ], [ -82.326446472222216, 28.122129222222224 ], [ -82.320471138888891, 28.12239725 ], [ -82.31882775, 28.1222295 ], [ -82.318128138888881, 28.121898722222223 ], [ -82.316993666666662, 28.121104611111111 ], [ -82.315288555555554, 28.11985325 ], [ -82.314112972222219, 28.118336722222224 ], [ -82.313772777777771, 28.117144888888891 ], [ -82.313546416666668, 28.113171694444446 ], [ -82.31375627777777, 28.112075944444445 ], [ -82.314488694444435, 28.110594666666668 ], [ -82.315391194444445, 28.109709277777778 ], [ -82.316279944444446, 28.108583083333336 ], [ -82.31758975, 28.107679444444447 ], [ -82.319198583333332, 28.107245222222225 ], [ -82.320142222222216, 28.107082194444445 ], [ -82.325573583333323, 28.106838555555559 ] ] } },
{ "type": "Feature", "properties": { "style": "solid", "thickness": 1 }, "geometry": { "type": "LineString", "coordinates": [ [ -82.245992027777774, 28.036808666666669 ], [ -82.242056694444443, 28.036983055555556 ], [ -82.239912805555562, 28.03514675 ], [ -82.239600777777781, 28.034436333333336 ], [ -82.239295527777784, 28.033846333333337 ], [ -82.23921425, 28.032401472222222 ], [ -82.239696083333328, 28.031293805555556 ], [ -82.240449277777785, 28.030174111111108 ], [ -82.241236333333333, 28.029656416666665 ], [ -82.241758777777775, 28.029271166666664 ], [ -82.242823972222226, 28.028861833333334 ], [ -82.245266416666666, 28.028753583333334 ], [ -82.24637227777778, 28.029066666666665 ], [ -82.247220333333331, 28.029632611111111 ], [ -82.24794625, 28.030445361111109 ], [ -82.248407583333332, 28.031390527777777 ], [ -82.24859075, 28.032227333333331 ], [ -82.248658583333338, 28.033431388888889 ], [ -82.248556805555552, 28.034039416666669 ], [ -82.248190416666674, 28.034779916666668 ], [ -82.247667972222217, 28.035165194444446 ], [ -82.245992027777774, 28.036808666666669 ], [ -82.24726758333334, 28.03771775 ], [ -82.248000333333337, 28.038650888888892 ], [ -82.248305666666667, 28.039240888888891 ], [ -82.24841419444445, 28.041167361111114 ], [ -82.247817055555558, 28.042642305555557 ], [ -82.247430277777781, 28.043021555555558 ], [ -82.246236027777783, 28.043557333333336 ], [ -82.245442111111117, 28.043954638888891 ], [ -82.243677888888897, 28.044032805555556 ], [ -82.242436166666664, 28.043725722222224 ], [ -82.240597416666674, 28.042479416666669 ], [ -82.24029213888889, 28.041889416666667 ], [ -82.240170194444445, 28.039722138888891 ], [ -82.240509583333335, 28.038500055555556 ], [ -82.2406385, 28.038373638888892 ], [ -82.241289916666673, 28.037861972222224 ], [ -82.242056694444443, 28.036983055555556 ] ] } },
{ "type": "Feature", "properties": { "style": "solid", "thickness": 1 }, "geometry": { "type": "LineString", "coordinates": [ [ -82.233461277777778, 28.029276416666665 ], [ -82.234320638888889, 28.044567833333335 ], [ -82.228620777777778, 28.044819888888892 ], [ -82.227399361111111, 28.04487388888889 ], [ -82.226408833333338, 28.044193416666669 ], [ -82.225682972222231, 28.043380583333334 ], [ -82.225655944444441, 28.042898944444445 ], [ -82.225520777777774, 28.040490833333337 ], [ -82.225636222222221, 28.04012363888889 ], [ -82.225989277777785, 28.039142416666667 ], [ -82.227278722222223, 28.037878388888892 ], [ -82.225881138888894, 28.037215916666668 ], [ -82.225182361111109, 28.036884694444446 ], [ -82.22447008333333, 28.036312638888891 ], [ -82.224002166666665, 28.035246972222225 ], [ -82.223826527777774, 28.032116416666664 ], [ -82.224186333333336, 28.03125561111111 ], [ -82.225095666666675, 28.030491194444444 ], [ -82.225747083333331, 28.029979611111109 ], [ -82.226405277777786, 28.029588416666666 ], [ -82.233461277777778, 28.029276416666665 ] ] } },
{ "type": "Feature", "properties": { "style": "solid", "thickness": 1 }, "geometry": { "type": "LineString", "coordinates": [ [ -82.233928138888885, 28.037584361111112 ], [ -82.227278722222223, 28.037878388888892 ] ] } },
{ "type": "Feature", "properties": { "style": "solid", "thickness": 1 }, "geometry": { "type": "LineString", "coordinates": [ [ -82.278370055555555, 27.974450444444443 ], [ -82.274437027777779, 27.974625777777778 ], [ -82.272293833333336, 27.97278997222222 ], [ -82.27198175, 27.972079611111109 ], [ -82.2716765, 27.971489666666663 ], [ -82.271594833333339, 27.970044805555553 ], [ -82.272076055555559, 27.968937 ], [ -82.2728285, 27.96781711111111 ], [ -82.273614944444446, 27.96729922222222 ], [ -82.274136972222223, 27.966913833333333 ], [ -82.275201444444448, 27.966504277777776 ], [ -82.277642444444439, 27.966395444444444 ], [ -82.278747777777781, 27.966708277777776 ], [ -82.2795955, 27.967274 ], [ -82.280321277777773, 27.968086583333331 ], [ -82.280782638888894, 27.969031666666666 ], [ -82.280965944444446, 27.969868444444444 ], [ -82.281034083333338, 27.9710725 ], [ -82.280932555555552, 27.971680583333331 ], [ -82.280566583333339, 27.972421138888887 ], [ -82.280044555555548, 27.972806555555554 ], [ -82.278370055555555, 27.974450444444443 ], [ -82.279645166666668, 27.97535925 ], [ -82.280377777777773, 27.97629225 ], [ -82.280683111111117, 27.976882166666666 ], [ -82.280792166666672, 27.978808638888886 ], [ -82.28019580555555, 27.980283722222222 ], [ -82.279809361111106, 27.980663083333333 ], [ -82.278615944444439, 27.981199138888886 ], [ -82.277822611111105, 27.981596638888888 ], [ -82.276059416666669, 27.98167525 ], [ -82.274818305555556, 27.981368444444442 ], [ -82.27298025, 27.980122555555553 ], [ -82.272674944444447, 27.979532611111111 ], [ -82.272552444444443, 27.977365333333331 ], [ -82.27289125, 27.976143166666667 ], [ -82.273020083333336, 27.976016722222219 ], [ -82.27367097222222, 27.975504888888889 ], [ -82.274437027777779, 27.974625777777778 ] ] } },
{ "type": "Feature", "properties": { "style": "solid", "thickness": 1 }, "geometry": { "type": "LineString", "coordinates": [ [ -82.265979833333333, 27.966915027777777 ], [ -82.259383555555559, 27.98253825 ], [ -82.251469222222227, 27.967560083333332 ] ] } },
{ "type": "Feature", "properties": { "style": "solid", "thickness": 1 }, "geometry": { "type": "LineString", "coordinates": [ [ -82.263817416666669, 27.97196025 ], [ -82.254052833333333, 27.97239433333333 ] ] } },
{ "type": "Feature", "properties": { "style": "solid", "thickness": 1 }, "geometry": { "type": "LineString", "coordinates": [ [ -82.544618138888893, 27.976181 ], [ -82.544831333333335, 27.97979275 ], [ -82.545359027777778, 27.981820472222221 ], [ -82.545687111111107, 27.98277097222222 ], [ -82.546136611111109, 27.98347438888889 ], [ -82.547849361111105, 27.98484336111111 ], [ -82.549512361111113, 27.985369555555557 ], [ -82.550054833333334, 27.985344305555557 ], [ -82.551646694444443, 27.984666555555556 ], [ -82.553053111111112, 27.983152388888886 ], [ -82.553552861111115, 27.982404777777777 ], [ -82.55376716666666, 27.981429 ], [ -82.554053027777769, 27.979363416666665 ], [ -82.5538395, 27.975751694444444 ], [ -82.553311722222219, 27.973724 ], [ -82.552983583333329, 27.9727735 ], [ -82.552398472222222, 27.972076416666663 ], [ -82.550821472222225, 27.970701194444441 ], [ -82.549158694444444, 27.970175 ], [ -82.548616305555555, 27.97020025 ], [ -82.547024611111112, 27.970877972222219 ], [ -82.545482694444445, 27.972398388888887 ], [ -82.5451185, 27.973139666666665 ], [ -82.544904166666669, 27.974115416666663 ], [ -82.544618138888893, 27.976181 ] ] } },
{ "type": "Feature", "properties": { "style": "solid", "thickness": 1 }, "geometry": { "type": "LineString", "coordinates": [ [ -82.531210583333333, 27.986341111111113 ], [ -82.539483527777776, 27.985956805555556 ], [ -82.53858175, 27.970667055555555 ], [ -82.530174388888895, 27.97105761111111 ] ] } },
{ "type": "Feature", "properties": { "style": "solid", "thickness": 1 }, "geometry": { "type": "LineString", "coordinates": [ [ -82.539029055555559, 27.97825175 ], [ -82.531027944444446, 27.978623416666665 ] ] } }
]
}
