{
"type": "FeatureCollection",
"name": "tpa810sgp",
"features": [
{ "type": "Feature", "properties": { "style": "solid", "thickness": 1 }, "geometry": { "type": "LineString", "coordinates": [ [ -82.521223194444445, 27.986027333333336 ], [ -82.521223194444445, 27.987861555555558 ] ] } },
{ "type": "Feature", "properties": { "style": "solid", "thickness": 1 }, "geometry": { "type": "LineString", "coordinates": [ [ -82.520706611111109, 27.985843888888891 ], [ -82.520706638888882, 27.988045 ] ] } },
{ "type": "Feature", "properties": { "style": "solid", "thickness": 1 }, "geometry": { "type": "LineString", "coordinates": [ [ -82.52019005555556, 27.985843888888891 ], [ -82.52019005555556, 27.988045 ] ] } },
{ "type": "Feature", "properties": { "style": "solid", "thickness": 1 }, "geometry": { "type": "LineString", "coordinates": [ [ -82.519673472222223, 27.986027305555556 ], [ -82.519673472222223, 27.987861555555558 ] ] } },
{ "type": "Feature", "properties": { "style": "solid", "thickness": 1 }, "geometry": { "type": "LineString", "coordinates": [ [ -82.519156888888887, 27.986944444444447 ], [ -82.519164916666668, 27.987074472222222 ], [ -82.51919075, 27.98721038888889 ], [ -82.519236861111111, 27.987349666666667 ], [ -82.519305138888882, 27.987488916666667 ], [ -82.519396611111105, 27.987624222222223 ], [ -82.519511083333327, 27.987751194444446 ], [ -82.519646944444446, 27.987865333333335 ], [ -82.519801222222227, 27.987962638888892 ], [ -82.519969666666668, 27.988039833333335 ], [ -82.520147166666661, 27.988094833333335 ], [ -82.52032825, 27.988126916666669 ], [ -82.520507638888887, 27.988136694444446 ], [ -82.520680666666664, 27.988125861111111 ], [ -82.520843583333331, 27.98809702777778 ], [ -82.52099375, 27.988053222222224 ], [ -82.521129583333334, 27.987997583333335 ], [ -82.521253638888894, 27.987931305555556 ], [ -82.52137477777778, 27.98784913888889 ], [ -82.52149030555556, 27.987749833333336 ], [ -82.521596222222215, 27.987633305555555 ], [ -82.521688111111104, 27.987500416666666 ], [ -82.521761722222223, 27.987353111111112 ], [ -82.521813222222221, 27.9871945 ], [ -82.52183975, 27.987028611111111 ], [ -82.521839722222225, 27.98686025 ], [ -82.521813222222221, 27.986694388888889 ], [ -82.521761722222223, 27.986535777777778 ], [ -82.521688111111104, 27.986388472222224 ], [ -82.521596194444442, 27.986255555555555 ], [ -82.52149030555556, 27.986139027777778 ], [ -82.52137475, 27.98603975 ], [ -82.521253611111106, 27.985957555555558 ], [ -82.521129583333334, 27.985891305555558 ], [ -82.52099375, 27.985835666666667 ], [ -82.520843583333331, 27.985791861111114 ], [ -82.520680666666664, 27.985763027777779 ], [ -82.520507638888887, 27.985752194444444 ], [ -82.52032825, 27.985761972222225 ], [ -82.520147166666661, 27.985794055555555 ], [ -82.519969666666668, 27.985849055555555 ], [ -82.519801222222227, 27.98592625 ], [ -82.519646944444446, 27.986023527777778 ], [ -82.519511083333327, 27.986137694444444 ], [ -82.519396611111105, 27.98626463888889 ], [ -82.519305138888882, 27.986399944444447 ], [ -82.519236861111111, 27.986539222222223 ], [ -82.51919075, 27.986678472222223 ], [ -82.519164916666668, 27.986814388888888 ], [ -82.519156888888887, 27.986944444444447 ] ] } },
{ "type": "Feature", "properties": { "style": "solid", "thickness": 1 }, "geometry": { "type": "LineString", "coordinates": [ [ -82.417031416666674, 28.085067583333331 ], [ -82.426608694444454, 28.092166388888888 ], [ -82.436696138888891, 28.098686638888889 ], [ -82.447249361111119, 28.104599555555556 ], [ -82.458221972222219, 28.109879111111113 ], [ -82.469565694444441, 28.114502083333335 ], [ -82.481230555555555, 28.118448083333334 ], [ -82.49316525, 28.121699722222221 ], [ -82.505317166666671, 28.124242666666667 ], [ -82.517632777777777, 28.126065722222222 ], [ -82.53005777777777, 28.127160833333335 ], [ -82.542537444444449, 28.127523194444446 ], [ -82.55501675, 28.127151194444444 ], [ -82.56744066666667, 28.1260465 ], [ -82.57975447222222, 28.124213944444445 ], [ -82.591903888888879, 28.121661638888888 ], [ -82.603835388888882, 28.118400805555556 ], [ -82.615496388888886, 28.114445805555558 ], [ -82.626835555555544, 28.109814083333333 ], [ -82.637802972222232, 28.104526055555556 ], [ -82.6483503888889, 28.098605 ], [ -82.658431416666673, 28.09207697222222 ], [ -82.659171638888893, 28.09156075 ] ] } },
{ "type": "Feature", "properties": { "style": "solid", "thickness": 1 }, "geometry": { "type": "LineString", "coordinates": [ [ -82.444672027777784, 28.24844788888889 ], [ -82.460845416666672, 28.252381194444446 ], [ -82.477219388888898, 28.255600888888889 ], [ -82.49375369444445, 28.258099055555554 ], [ -82.510407694444439, 28.259869527777777 ], [ -82.527140472222214, 28.260908 ], [ -82.543910916666661, 28.261211888888887 ], [ -82.560677777777769, 28.260780444444446 ], [ -82.577399833333331, 28.259614722222221 ], [ -82.594036027777776, 28.257717638888888 ], [ -82.61054538888888, 28.255093777777777 ], [ -82.620432305555553, 28.253160916666666 ] ] } },
{ "type": "Feature", "properties": { "style": "solid", "thickness": 1 }, "geometry": { "type": "LineString", "coordinates": [ [ -82.651017527777782, 28.107075611111114 ], [ -82.640665555555557, 28.09311075 ] ] } },
{ "type": "Feature", "properties": { "style": "solid", "thickness": 1 }, "geometry": { "type": "LineString", "coordinates": [ [ -82.424113027777778, 28.100991 ], [ -82.435397055555555, 28.087606333333333 ] ] } },
{ "type": "Feature", "properties": { "style": "solid", "thickness": 1 }, "geometry": { "type": "LineString", "coordinates": [ [ -82.537049944444448, 28.119094916666668 ], [ -82.53648, 28.135798944444446 ] ] } },
{ "type": "Feature", "properties": { "style": "solid", "thickness": 1 }, "geometry": { "type": "LineString", "coordinates": [ [ -82.5324855, 28.252725416666667 ], [ -82.531914138888894, 28.269428916666666 ] ] } },
{ "type": "Feature", "properties": { "style": "solid", "thickness": 1 }, "geometry": { "type": "LineString", "coordinates": [ [ -82.653329083333333, 28.085005333333331 ], [ -82.665014916666678, 28.098115888888888 ] ] } },
{ "type": "Feature", "properties": { "style": "solid", "thickness": 1 }, "geometry": { "type": "LineString", "coordinates": [ [ -82.4233095, 28.078837194444443 ], [ -82.410752583333334, 28.091297666666666 ] ] } },
{ "type": "Feature", "properties": { "style": "solid", "thickness": 1 }, "geometry": { "type": "LineString", "coordinates": [ [ -82.589960027777778, 28.24980975 ], [ -82.59268225, 28.266346166666668 ] ] } },
{ "type": "Feature", "properties": { "style": "solid", "thickness": 1 }, "geometry": { "type": "LineString", "coordinates": [ [ -82.618260583333324, 28.245029611111111 ], [ -82.622604361111101, 28.261292138888887 ] ] } },
{ "type": "Feature", "properties": { "style": "solid", "thickness": 1 }, "geometry": { "type": "LineString", "coordinates": [ [ -82.475316361111112, 28.246735583333333 ], [ -82.471469083333332, 28.263095833333335 ] ] } },
{ "type": "Feature", "properties": { "style": "solid", "thickness": 1 }, "geometry": { "type": "LineString", "coordinates": [ [ -82.447395277777787, 28.240447861111111 ], [ -82.441948361111116, 28.256447861111113 ] ] } },
{ "type": "Feature", "properties": { "style": "solid", "thickness": 1 }, "geometry": { "type": "LineString", "coordinates": [ [ -82.557085805555559, 27.960797111111109 ], [ -82.552261277777774, 27.9624145 ], [ -82.547208, 27.96332811111111 ], [ -82.54205525, 27.963514638888888 ], [ -82.53693494444444, 27.96296922222222 ], [ -82.531978138888888, 27.96170588888889 ], [ -82.527825416666673, 27.960012444444445 ] ] } },
{ "type": "Feature", "properties": { "style": "solid", "thickness": 1 }, "geometry": { "type": "LineString", "coordinates": [ [ -82.557085805555559, 27.960797111111109 ], [ -82.552377861111111, 27.958925555555556 ], [ -82.547394277777769, 27.957743944444445 ], [ -82.542262388888886, 27.9572825 ], [ -82.53711325, 27.957552972222221 ], [ -82.532078388888891, 27.958548472222223 ], [ -82.527825416666673, 27.960012444444445 ] ] } },
{ "type": "Feature", "properties": { "style": "solid", "thickness": 1 }, "geometry": { "type": "LineString", "coordinates": [ [ -82.540800083333338, 28.288625916666668 ], [ -82.536856083333333, 28.288808722222225 ], [ -82.534702222222222, 28.286977055555557 ], [ -82.534387527777781, 28.286267361111111 ], [ -82.534079944444443, 28.285678027777781 ], [ -82.533994583333325, 28.284233444444446 ], [ -82.5344745, 28.283124777777775 ], [ -82.53522641666666, 28.282003527777778 ], [ -82.536013916666661, 28.281484194444442 ], [ -82.53653652777777, 28.281097833333334 ], [ -82.537603083333337, 28.280686277777775 ], [ -82.540050916666658, 28.280572833333334 ], [ -82.541160194444444, 28.280883527777778 ], [ -82.54201175, 28.281447638888888 ], [ -82.542741583333338, 28.282258777777777 ], [ -82.543206555555557, 28.283202916666667 ], [ -82.543392444444436, 28.284039305555556 ], [ -82.543463694444441, 28.285243138888891 ], [ -82.543363305555559, 28.285851361111114 ], [ -82.54299808333333, 28.286592583333334 ], [ -82.542475472222222, 28.286978972222222 ], [ -82.540800083333338, 28.288625916666668 ], [ -82.542081083333329, 28.28953225 ], [ -82.54281808333333, 28.290463777777781 ], [ -82.543125722222214, 28.291053083333335 ], [ -82.543239722222225, 28.292979222222225 ], [ -82.542645194444447, 28.294455361111112 ], [ -82.542258555555549, 28.294835416666668 ], [ -82.541062972222221, 28.295373694444446 ], [ -82.540268305555557, 28.295772694444445 ], [ -82.538500166666665, 28.295854638888891 ], [ -82.537254722222215, 28.295550194444445 ], [ -82.535408333333336, 28.294307888888891 ], [ -82.535100722222225, 28.293718555555557 ], [ -82.534972638888888, 28.291551666666667 ], [ -82.535309472222224, 28.290328916666667 ], [ -82.535438361111105, 28.290202222222224 ], [ -82.536089888888881, 28.289689194444446 ], [ -82.536856083333333, 28.288808722222225 ] ] } },
{ "type": "Feature", "properties": { "style": "solid", "thickness": 1 }, "geometry": { "type": "LineString", "coordinates": [ [ -82.517791111111109, 28.296209138888891 ], [ -82.518635555555548, 28.296653 ], [ -82.519601833333326, 28.29684977777778 ], [ -82.522866111111114, 28.296698916666667 ], [ -82.524076, 28.296401555555558 ], [ -82.524476916666671, 28.296262305555558 ], [ -82.52645311111111, 28.2950845 ], [ -82.527606111111112, 28.293824055555557 ], [ -82.527943055555554, 28.292601333333334 ], [ -82.528767111111108, 28.290390361111111 ], [ -82.528603611111109, 28.28762152777778 ], [ -82.528253416666672, 28.286309888888891 ], [ -82.527781444444443, 28.285245305555556 ], [ -82.527166388888887, 28.284066638888891 ], [ -82.525728277777773, 28.282805305555556 ], [ -82.523073361111116, 28.281720944444444 ], [ -82.521284166666661, 28.281441527777776 ], [ -82.51978825, 28.281510666666666 ], [ -82.517905638888891, 28.281959777777775 ], [ -82.517246972222225, 28.282352333333332 ], [ -82.516717166666666, 28.28261825 ] ] } },
{ "type": "Feature", "properties": { "style": "solid", "thickness": 1 }, "geometry": { "type": "LineString", "coordinates": [ [ -82.55000002777777, 27.942479777777777 ], [ -82.54923930555556, 27.929597833333336 ], [ -82.549332194444446, 27.928869166666669 ], [ -82.549967305555555, 27.92811525 ], [ -82.550745027777779, 27.92747538888889 ], [ -82.551273, 27.927209333333334 ], [ -82.552079194444445, 27.927051055555555 ], [ -82.553434666666661, 27.926987888888892 ], [ -82.554255055555558, 27.927070361111113 ], [ -82.555524777777777, 27.927856222222225 ], [ -82.555817222222217, 27.928204777777779 ] ] } },
{ "type": "Feature", "properties": { "style": "solid", "thickness": 1 }, "geometry": { "type": "LineString", "coordinates": [ [ -82.429561861111111, 28.060778222222222 ], [ -82.429771416666668, 28.064390083333333 ], [ -82.430297333333343, 28.066418194444445 ], [ -82.430624694444447, 28.067368972222223 ], [ -82.431073805555556, 28.06807275 ], [ -82.432786416666673, 28.069443111111109 ], [ -82.434450138888892, 28.069970694444443 ], [ -82.434993083333339, 28.069945888888888 ], [ -82.436586888888897, 28.069269472222221 ], [ -82.437996, 28.0677565 ], [ -82.438496944444452, 28.067009333333335 ], [ -82.438712444444448, 28.06603375 ], [ -82.439000694444445, 28.063968416666668 ], [ -82.438790833333343, 28.060356583333334 ], [ -82.438264777777775, 28.0583285 ], [ -82.437937388888898, 28.05737775 ], [ -82.437352583333336, 28.056680194444446 ], [ -82.435775805555565, 28.055303666666667 ], [ -82.434112305555558, 28.054776111111114 ], [ -82.433569444444444, 28.054800916666668 ], [ -82.43197583333334, 28.055477277777779 ], [ -82.430431083333332, 28.056996388888891 ], [ -82.430065833333344, 28.057737361111112 ], [ -82.429850277777788, 28.058712916666668 ], [ -82.429561861111111, 28.060778222222222 ] ] } },
{ "type": "Feature", "properties": { "style": "solid", "thickness": 1 }, "geometry": { "type": "LineString", "coordinates": [ [ -82.421097138888896, 28.116418638888891 ], [ -82.4213065, 28.120030444444446 ], [ -82.421832555555554, 28.122058583333335 ], [ -82.422159972222232, 28.123009361111112 ], [ -82.42260925, 28.123713166666668 ], [ -82.424322638888896, 28.125083611111112 ], [ -82.425987194444446, 28.125611277777779 ], [ -82.426530388888892, 28.125586527777777 ], [ -82.428125083333342, 28.124910222222223 ], [ -82.429535027777789, 28.123397361111113 ], [ -82.430036305555561, 28.122650194444446 ], [ -82.430251972222223, 28.121674666666667 ], [ -82.430540555555567, 28.11960938888889 ], [ -82.430330861111116, 28.115997555555555 ], [ -82.429804694444442, 28.113969472222223 ], [ -82.429477222222232, 28.113018694444445 ], [ -82.428892138888898, 28.112321111111111 ], [ -82.427314694444448, 28.110944527777779 ], [ -82.42565036111111, 28.110416861111112 ], [ -82.425107222222223, 28.11044163888889 ], [ -82.42351275, 28.111117888888892 ], [ -82.421967083333342, 28.11263688888889 ], [ -82.421601611111114, 28.113377833333335 ], [ -82.421385861111119, 28.114353361111114 ], [ -82.421097138888896, 28.116418638888891 ] ] } },
{ "type": "Feature", "properties": { "style": "solid", "thickness": 1 }, "geometry": { "type": "LineString", "coordinates": [ [ -82.539836833333325, 28.15073811111111 ], [ -82.54005022222222, 28.154349722222221 ], [ -82.540578638888888, 28.156377388888888 ], [ -82.540907222222216, 28.157327888888886 ], [ -82.541357416666671, 28.158031277777777 ], [ -82.543072861111114, 28.15940025 ], [ -82.5447385, 28.1599265 ], [ -82.545281861111107, 28.15990125 ], [ -82.546876305555557, 28.159223611111109 ], [ -82.548285055555553, 28.157709527777776 ], [ -82.548785638888887, 28.156961944444443 ], [ -82.549000333333325, 28.155986222222221 ], [ -82.54928672222222, 28.153920722222221 ], [ -82.54907302777778, 28.15030911111111 ], [ -82.548544472222218, 28.148281472222223 ], [ -82.548215861111103, 28.147331 ], [ -82.547629833333332, 28.146633916666666 ], [ -82.546050388888887, 28.145258694444443 ], [ -82.544384944444445, 28.144732472222223 ], [ -82.543841666666665, 28.14475772222222 ], [ -82.542247416666669, 28.145435333333332 ], [ -82.54070291666666, 28.146955666666667 ], [ -82.540338138888885, 28.147696888888888 ], [ -82.540123388888887, 28.14867261111111 ], [ -82.539836833333325, 28.15073811111111 ] ] } },
{ "type": "Feature", "properties": { "style": "solid", "thickness": 1 }, "geometry": { "type": "LineString", "coordinates": [ [ -82.523376222222225, 28.160313416666664 ], [ -82.524219666666667, 28.16075722222222 ], [ -82.525184722222221, 28.16095397222222 ], [ -82.528444888888885, 28.160803 ], [ -82.52965325, 28.160505583333332 ], [ -82.53005366666666, 28.160366305555556 ], [ -82.532027333333332, 28.159188388888886 ], [ -82.533178805555551, 28.157927833333332 ], [ -82.53351525, 28.156705055555555 ], [ -82.534338166666672, 28.154494 ], [ -82.534174722222218, 28.151725083333332 ], [ -82.533824888888887, 28.150413416666666 ], [ -82.533353472222217, 28.149348833333335 ], [ -82.532739111111113, 28.14817013888889 ], [ -82.53130275, 28.146908833333335 ], [ -82.528651111111117, 28.145824555555556 ], [ -82.526864138888882, 28.145545166666665 ], [ -82.525370111111116, 28.145614388888887 ], [ -82.523489888888889, 28.146063583333333 ], [ -82.522832055555554, 28.146456194444443 ], [ -82.522302944444448, 28.14672211111111 ] ] } },
{ "type": "Feature", "properties": { "style": "solid", "thickness": 1 }, "geometry": { "type": "LineString", "coordinates": [ [ -82.655587583333343, 28.124955055555557 ], [ -82.655804777777789, 28.1285665 ], [ -82.656335250000012, 28.13059375 ], [ -82.65666475, 28.131543944444445 ], [ -82.657115583333336, 28.132247 ], [ -82.658832083333337, 28.133614527777777 ], [ -82.660497888888898, 28.13413936111111 ], [ -82.661041083333345, 28.134113666666668 ], [ -82.662634416666677, 28.133434666666666 ], [ -82.664041222222224, 28.131919416666666 ], [ -82.664540888888894, 28.131171416666668 ], [ -82.6647545, 28.130195527777779 ], [ -82.665038611111115, 28.12812975 ], [ -82.664821138888897, 28.124518305555554 ], [ -82.66429052777778, 28.122491111111113 ], [ -82.663960972222227, 28.121540916666667 ], [ -82.66337436111111, 28.120844333333334 ], [ -82.661793805555561, 28.119470416666669 ], [ -82.660128222222227, 28.118945583333335 ], [ -82.65958508333334, 28.118971277777778 ], [ -82.657991944444447, 28.119650222222223 ], [ -82.656449444444448, 28.121171861111112 ], [ -82.65608552777779, 28.121913416666668 ], [ -82.655871888888896, 28.122889305555557 ], [ -82.655587583333343, 28.124955055555557 ] ] } },
{ "type": "Feature", "properties": { "style": "solid", "thickness": 1 }, "geometry": { "type": "LineString", "coordinates": [ [ -82.649537333333342, 28.11944613888889 ], [ -82.650455944444445, 28.134734666666667 ], [ -82.644480722222227, 28.135016722222222 ], [ -82.642836638888895, 28.134852833333333 ], [ -82.642135972222235, 28.134523694444443 ], [ -82.640999, 28.13373225 ], [ -82.639289944444457, 28.132484888888889 ], [ -82.638109694444452, 28.130971111111112 ], [ -82.63776591666668, 28.129780083333333 ], [ -82.637527666666671, 28.125807444444444 ], [ -82.637734277777781, 28.124711194444444 ], [ -82.638462361111124, 28.123228194444444 ], [ -82.639362305555565, 28.122340722222223 ], [ -82.64024780555556, 28.121212444444446 ], [ -82.641555083333344, 28.12030575 ], [ -82.643162805555562, 28.119867722222224 ], [ -82.644106055555568, 28.1197025 ], [ -82.649537333333342, 28.11944613888889 ] ] } },
{ "type": "Feature", "properties": { "style": "solid", "thickness": 1 }, "geometry": { "type": "LineString", "coordinates": [ [ -82.627419194444442, 28.228901194444443 ], [ -82.6234775, 28.229086444444444 ], [ -82.621323361111109, 28.227256138888887 ], [ -82.621008277777776, 28.226546611111111 ], [ -82.620700416666665, 28.22595747222222 ], [ -82.620613916666656, 28.224512888888889 ], [ -82.621092722222215, 28.223403944444442 ], [ -82.621843305555544, 28.222282194444443 ], [ -82.622629944444441, 28.221762361111111 ], [ -82.623151972222217, 28.221375666666663 ], [ -82.624217611111106, 28.220963444444443 ], [ -82.626664, 28.220848444444442 ], [ -82.627772916666657, 28.221158472222221 ], [ -82.628624444444441, 28.221722027777776 ], [ -82.629354527777778, 28.222532722222219 ], [ -82.62982, 28.22347661111111 ], [ -82.630006444444433, 28.224312888888889 ], [ -82.630078611111102, 28.225516694444444 ], [ -82.629978777777765, 28.22612497222222 ], [ -82.629614333333322, 28.226866444444443 ], [ -82.629092333333332, 28.227253138888887 ], [ -82.627419194444442, 28.228901194444443 ], [ -82.628700194444434, 28.229806722222222 ], [ -82.629437555555555, 28.230737805555552 ], [ -82.629745472222211, 28.231326916666664 ], [ -82.629860972222218, 28.233253 ], [ -82.629267944444436, 28.23472952777778 ], [ -82.628881833333324, 28.235109833333333 ], [ -82.627687333333327, 28.235648888888889 ], [ -82.626893416666661, 28.236048361111113 ], [ -82.625126333333327, 28.236131416666666 ], [ -82.62388133333333, 28.235827777777779 ], [ -82.62203497222221, 28.234586611111112 ], [ -82.621727055555553, 28.233997472222224 ], [ -82.621597305555554, 28.231830611111111 ], [ -82.621932972222211, 28.230607638888888 ], [ -82.62206169444444, 28.230480888888888 ], [ -82.622712472222219, 28.229967416666664 ], [ -82.6234775, 28.229086444444444 ] ] } },
{ "type": "Feature", "properties": { "style": "solid", "thickness": 1 }, "geometry": { "type": "LineString", "coordinates": [ [ -82.605058444444438, 28.28698075 ], [ -82.6011146111111, 28.287165361111114 ], [ -82.598959694444446, 28.285334722222224 ], [ -82.598644583333325, 28.284625166666668 ], [ -82.598336666666668, 28.284036 ], [ -82.598250416666659, 28.282591416666666 ], [ -82.598729694444444, 28.281482555555556 ], [ -82.599480944444437, 28.280360944444443 ], [ -82.600268083333333, 28.27984125 ], [ -82.600790472222215, 28.27945463888889 ], [ -82.601856777777769, 28.279042583333332 ], [ -82.6043045, 28.278928 ], [ -82.605413944444436, 28.279238194444442 ], [ -82.606265833333325, 28.279801888888887 ], [ -82.606996138888888, 28.280612694444443 ], [ -82.607461666666666, 28.281556638888887 ], [ -82.60764802777777, 28.282392916666666 ], [ -82.60772, 28.283596722222224 ], [ -82.60761997222221, 28.284205 ], [ -82.607255194444434, 28.284946388888891 ], [ -82.606732805555552, 28.285333 ], [ -82.605058444444438, 28.28698075 ], [ -82.606339944444443, 28.287886472222223 ], [ -82.607077499999988, 28.288817666666667 ], [ -82.607385472222219, 28.289406833333334 ], [ -82.60750063888888, 28.291332916666668 ], [ -82.606907, 28.292809305555558 ], [ -82.606520583333321, 28.293189555555557 ], [ -82.605325333333326, 28.293728416666667 ], [ -82.604530916666661, 28.29412775 ], [ -82.602762861111103, 28.294210527777778 ], [ -82.60151725, 28.293906666666668 ], [ -82.599670138888882, 28.292665222222222 ], [ -82.599362194444439, 28.292076027777778 ], [ -82.599232805555545, 28.289909194444448 ], [ -82.599568916666655, 28.288686305555558 ], [ -82.599697722222217, 28.288559555555558 ], [ -82.600348944444434, 28.288046222222224 ], [ -82.6011146111111, 28.287165361111114 ] ] } },
{ "type": "Feature", "properties": { "style": "solid", "thickness": 1 }, "geometry": { "type": "LineString", "coordinates": [ [ -82.592473833333329, 28.279481472222223 ], [ -82.593385777777769, 28.294769833333334 ], [ -82.587401555555545, 28.295049388888891 ], [ -82.585755138888885, 28.294884833333334 ], [ -82.585053611111107, 28.294555444444445 ], [ -82.58391536111111, 28.293763555555557 ], [ -82.582204444444443, 28.29251552777778 ], [ -82.58102325, 28.291001333333334 ], [ -82.580679583333335, 28.289810194444446 ], [ -82.580443055555548, 28.285837611111113 ], [ -82.58065055555555, 28.284741472222223 ], [ -82.5813805, 28.283258833333331 ], [ -82.58228225, 28.28237175 ], [ -82.58316963888889, 28.281243888888888 ], [ -82.584479333333334, 28.28033775 ], [ -82.586089666666666, 28.279900416666667 ], [ -82.587034388888881, 28.279735583333334 ], [ -82.592473833333329, 28.279481472222223 ] ] } },
{ "type": "Feature", "properties": { "style": "solid", "thickness": 1 }, "geometry": { "type": "LineString", "coordinates": [ [ -82.478565777777774, 28.280429972222223 ], [ -82.474621972222224, 28.28061097222222 ], [ -82.472469333333336, 28.278778361111112 ], [ -82.472155083333334, 28.2780685 ], [ -82.471847861111115, 28.277479027777776 ], [ -82.471763333333328, 28.276034388888888 ], [ -82.47224386111111, 28.274925944444444 ], [ -82.472996361111115, 28.273805027777776 ], [ -82.473784083333342, 28.273286055555555 ], [ -82.47430688888889, 28.272899944444443 ], [ -82.47537361111111, 28.27248886111111 ], [ -82.477821305555551, 28.2723765 ], [ -82.478930333333338, 28.272687722222223 ], [ -82.4797815, 28.273252194444442 ], [ -82.480510805555554, 28.274063666666667 ], [ -82.48097519444444, 28.275008027777776 ], [ -82.481160583333335, 28.2758445 ], [ -82.481231138888887, 28.27704836111111 ], [ -82.481130416666673, 28.277656555555556 ], [ -82.480764777777779, 28.27839761111111 ], [ -82.480241972222231, 28.27878375 ], [ -82.478565777777774, 28.280429972222223 ], [ -82.479846166666675, 28.281336861111111 ], [ -82.48058258333333, 28.28226872222222 ], [ -82.480889833333336, 28.282858166666667 ], [ -82.48100275, 28.284784361111114 ], [ -82.480407416666665, 28.286260222222225 ], [ -82.480020583333342, 28.286640111111112 ], [ -82.478824777777774, 28.287177861111111 ], [ -82.478029916666671, 28.2875765 ], [ -82.476261888888885, 28.287657638888891 ], [ -82.475016722222222, 28.287352638888891 ], [ -82.473171166666674, 28.2861095 ], [ -82.472863944444441, 28.285520027777778 ], [ -82.472737083333328, 28.283353055555558 ], [ -82.473074611111116, 28.282130472222221 ], [ -82.473203555555557, 28.282003861111111 ], [ -82.473855333333333, 28.281491111111109 ], [ -82.474621972222224, 28.28061097222222 ] ] } },
{ "type": "Feature", "properties": { "style": "solid", "thickness": 1 }, "geometry": { "type": "LineString", "coordinates": [ [ -82.459503722222223, 28.223232944444444 ], [ -82.455561972222227, 28.223413416666666 ], [ -82.453410777777776, 28.221580472222222 ], [ -82.45309680555556, 28.220870583333333 ], [ -82.452789861111114, 28.220281055555553 ], [ -82.452705611111114, 28.218836388888889 ], [ -82.453186111111108, 28.217728 ], [ -82.453938416666674, 28.216607166666666 ], [ -82.454725805555555, 28.216088305555555 ], [ -82.45524838888889, 28.21570225 ], [ -82.456314611111111, 28.215291305555557 ], [ -82.458761055555556, 28.215179305555555 ], [ -82.45986944444445, 28.215490666666668 ], [ -82.460720055555555, 28.21605525 ], [ -82.461448833333336, 28.216866861111111 ], [ -82.461912805555556, 28.217811277777777 ], [ -82.462097944444452, 28.218647777777775 ], [ -82.46216825, 28.219851694444444 ], [ -82.4620675, 28.220459861111109 ], [ -82.461701916666669, 28.221200888888887 ], [ -82.461179333333334, 28.221586944444443 ], [ -82.459503722222223, 28.223232944444444 ], [ -82.46078325, 28.224140027777775 ], [ -82.461519111111116, 28.225072027777777 ], [ -82.461826111111108, 28.2256615 ], [ -82.461938611111108, 28.22758775 ], [ -82.461343333333332, 28.229063555555555 ], [ -82.460956638888888, 28.229443388888889 ], [ -82.459761388888893, 28.229980972222222 ], [ -82.458966888888895, 28.2303795 ], [ -82.457199777777774, 28.230460416666666 ], [ -82.455955305555563, 28.23015525 ], [ -82.454110944444452, 28.228911805555555 ], [ -82.453804, 28.228322305555555 ], [ -82.453677583333331, 28.226155305555555 ], [ -82.454015138888892, 28.22493275 ], [ -82.45414405555556, 28.224806138888887 ], [ -82.454795583333336, 28.224293472222222 ], [ -82.455561972222227, 28.223413416666666 ] ] } },
{ "type": "Feature", "properties": { "style": "solid", "thickness": 1 }, "geometry": { "type": "LineString", "coordinates": [ [ -82.6570625, 28.067670972222221 ], [ -82.657279611111122, 28.071282472222222 ], [ -82.657809833333346, 28.073309722222223 ], [ -82.658139194444445, 28.074259944444446 ], [ -82.658589777777777, 28.07496297222222 ], [ -82.660305388888901, 28.076330527777777 ], [ -82.661970333333343, 28.076855361111111 ], [ -82.662513222222231, 28.076829638888888 ], [ -82.664105722222232, 28.07615063888889 ], [ -82.66551175, 28.074635333333333 ], [ -82.666011166666678, 28.073887333333332 ], [ -82.666224638888892, 28.072911416666667 ], [ -82.666508583333339, 28.07084561111111 ], [ -82.666291166666667, 28.067234138888889 ], [ -82.665760833333337, 28.065206916666668 ], [ -82.665431444444451, 28.064256694444445 ], [ -82.66484511111112, 28.063560111111112 ], [ -82.663265361111115, 28.062186194444447 ], [ -82.661600666666672, 28.06166138888889 ], [ -82.661057833333345, 28.061687083333332 ], [ -82.659465527777783, 28.062366055555557 ], [ -82.657923861111115, 28.063887722222223 ], [ -82.657560138888897, 28.064629277777779 ], [ -82.657346611111123, 28.065605194444444 ], [ -82.6570625, 28.067670972222221 ] ] } },
{ "type": "Feature", "properties": { "style": "solid", "thickness": 1 }, "geometry": { "type": "LineString", "coordinates": [ [ -82.539107055555547, 27.935260472222222 ], [ -82.532560194444443, 27.92795925 ] ] } },
{ "type": "Feature", "properties": { "style": "solid", "thickness": 1 }, "geometry": { "type": "LineString", "coordinates": [ [ -82.543539666666661, 27.927448722222223 ], [ -82.544441777777777, 27.942738555555557 ], [ -82.537663388888888, 27.94305386111111 ], [ -82.537106916666659, 27.942838277777778 ], [ -82.535858444444443, 27.942413416666668 ], [ -82.534567388888888, 27.941266194444445 ], [ -82.533954194444448, 27.940087444444444 ], [ -82.533869083333329, 27.938642722222223 ], [ -82.534340416666666, 27.937413611111111 ], [ -82.53548952777777, 27.936152972222221 ], [ -82.536681194444441, 27.935614694444446 ], [ -82.537209222222216, 27.935348722222223 ], [ -82.54398713888888, 27.935033444444446 ] ] } },
{ "type": "Feature", "properties": { "style": "solid", "thickness": 1 }, "geometry": { "type": "LineString", "coordinates": [ [ -82.52790244444445, 27.94350727777778 ], [ -82.518141416666666, 27.94396 ] ] } },
{ "type": "Feature", "properties": { "style": "solid", "thickness": 1 }, "geometry": { "type": "LineString", "coordinates": [ [ -82.5231575, 27.943727444444445 ], [ -82.522258388888886, 27.928437444444445 ] ] } },
{ "type": "Feature", "properties": { "style": "solid", "thickness": 1 }, "geometry": { "type": "LineString", "coordinates": [ [ -82.423662361111113, 28.055253166666667 ], [ -82.417083305555565, 28.070883694444444 ], [ -82.409140833333339, 28.05591475 ] ] } },
{ "type": "Feature", "properties": { "style": "solid", "thickness": 1 }, "geometry": { "type": "LineString", "coordinates": [ [ -82.421505472222222, 28.06030077777778 ], [ -82.411733555555557, 28.060745972222222 ] ] } },
{ "type": "Feature", "properties": { "style": "solid", "thickness": 1 }, "geometry": { "type": "LineString", "coordinates": [ [ -82.41505925, 28.110899444444446 ], [ -82.415944777777781, 28.126189527777779 ], [ -82.410241027777786, 28.126449083333334 ], [ -82.409018777777789, 28.126504666666666 ], [ -82.408026361111112, 28.125825527777778 ], [ -82.407298611111116, 28.125013638888888 ], [ -82.40727075, 28.124532055555555 ], [ -82.407131472222233, 28.122124166666666 ], [ -82.407246388888893, 28.121756805555556 ], [ -82.407598055555567, 28.120775111111111 ], [ -82.408886388888888, 28.119509416666666 ], [ -82.407486638888898, 28.118848805555555 ], [ -82.406786777777782, 28.1185185 ], [ -82.406073, 28.11794738888889 ], [ -82.405602972222226, 28.116882333333333 ], [ -82.405421972222229, 28.113752055555558 ], [ -82.405780611111112, 28.112890777777778 ], [ -82.406689333333333, 28.112125194444445 ], [ -82.407340416666671, 28.11161275 ], [ -82.407998444444445, 28.111220694444444 ], [ -82.41505925, 28.110899444444446 ] ] } },
{ "type": "Feature", "properties": { "style": "solid", "thickness": 1 }, "geometry": { "type": "LineString", "coordinates": [ [ -82.41554033333334, 28.119206666666667 ], [ -82.408886388888888, 28.119509416666666 ] ] } },
{ "type": "Feature", "properties": { "style": "solid", "thickness": 1 }, "geometry": { "type": "LineString", "coordinates": [ [ -82.607462611111103, 28.237081111111113 ], [ -82.615754388888888, 28.23669225 ], [ -82.614839777777775, 28.22140383333333 ], [ -82.606413249999989, 28.221799 ] ] } },
{ "type": "Feature", "properties": { "style": "solid", "thickness": 1 }, "geometry": { "type": "LineString", "coordinates": [ [ -82.61529347222222, 28.228987861111108 ], [ -82.60727411111111, 28.229363944444444 ] ] } },
{ "type": "Feature", "properties": { "style": "solid", "thickness": 1 }, "geometry": { "type": "LineString", "coordinates": [ [ -82.46599072222223, 28.272919138888888 ], [ -82.466884722222218, 28.288208361111113 ], [ -82.461172555555564, 28.288469972222224 ], [ -82.4599485, 28.288526 ], [ -82.458954277777778, 28.28784725 ], [ -82.458225055555559, 28.287035666666668 ], [ -82.458196944444452, 28.286554111111112 ], [ -82.458056333333332, 28.284146361111112 ], [ -82.458171222222219, 28.283778972222223 ], [ -82.458522972222227, 28.282797194444445 ], [ -82.459812638888891, 28.281531083333331 ], [ -82.4584105, 28.280871 ], [ -82.457709416666674, 28.280540944444443 ], [ -82.456994305555554, 28.279970111111112 ], [ -82.456523083333337, 28.278905277777778 ], [ -82.45634033333333, 28.275775194444442 ], [ -82.456699111111121, 28.274913805555556 ], [ -82.457608833333339, 28.274147916666667 ], [ -82.458260666666675, 28.27363525 ], [ -82.4589195, 28.273242972222221 ], [ -82.46599072222223, 28.272919138888888 ] ] } },
{ "type": "Feature", "properties": { "style": "solid", "thickness": 1 }, "geometry": { "type": "LineString", "coordinates": [ [ -82.466476416666666, 28.281225888888887 ], [ -82.459812638888891, 28.281531083333331 ] ] } },
{ "type": "Feature", "properties": { "style": "solid", "thickness": 1 }, "geometry": { "type": "LineString", "coordinates": [ [ -82.447072527777777, 28.215714083333332 ], [ -82.440487055555565, 28.231345166666664 ], [ -82.432529666666667, 28.216378083333332 ] ] } },
{ "type": "Feature", "properties": { "style": "solid", "thickness": 1 }, "geometry": { "type": "LineString", "coordinates": [ [ -82.444913555555559, 28.220761888888887 ], [ -82.43512725, 28.221208722222222 ] ] } },
{ "type": "Feature", "properties": { "style": "solid", "thickness": 1 }, "geometry": { "type": "LineString", "coordinates": [ [ -82.643654194444451, 28.077841777777778 ], [ -82.651933694444452, 28.07745075 ], [ -82.651015361111121, 28.062162027777777 ], [ -82.642601305555559, 28.062559416666666 ] ] } },
{ "type": "Feature", "properties": { "style": "solid", "thickness": 1 }, "geometry": { "type": "LineString", "coordinates": [ [ -82.651470861111122, 28.069746222222221 ], [ -82.643463416666677, 28.070124416666665 ] ] } }
]
}
