{
"type": "FeatureCollection",
"name": "tpa231sgp",
"features": [
{ "type": "Feature", "properties": { "style": "solid", "thickness": 1 }, "geometry": { "type": "LineString", "coordinates": [ [ -82.40260969444445, 27.953349861111111 ], [ -82.411946722222226, 27.938969 ] ] } },
{ "type": "Feature", "properties": { "style": "solid", "thickness": 1 }, "geometry": { "type": "LineString", "coordinates": [ [ -82.37578875, 27.7427055 ], [ -82.429039305555563, 27.903934916666664 ] ] } },
{ "type": "Feature", "properties": { "style": "solid", "thickness": 1 }, "geometry": { "type": "LineString", "coordinates": [ [ -82.421384388888896, 27.924428583333334 ], [ -82.428234388888896, 27.913872083333331 ] ] } },
{ "type": "Feature", "properties": { "style": "solid", "thickness": 1 }, "geometry": { "type": "LineString", "coordinates": [ [ -82.521223194444445, 27.986027333333336 ], [ -82.521223194444445, 27.987861555555558 ] ] } },
{ "type": "Feature", "properties": { "style": "solid", "thickness": 1 }, "geometry": { "type": "LineString", "coordinates": [ [ -82.520706611111109, 27.985843888888891 ], [ -82.520706638888882, 27.988045 ] ] } },
{ "type": "Feature", "properties": { "style": "solid", "thickness": 1 }, "geometry": { "type": "LineString", "coordinates": [ [ -82.52019005555556, 27.985843888888891 ], [ -82.52019005555556, 27.988045 ] ] } },
{ "type": "Feature", "properties": { "style": "solid", "thickness": 1 }, "geometry": { "type": "LineString", "coordinates": [ [ -82.519673472222223, 27.986027305555556 ], [ -82.519673472222223, 27.987861555555558 ] ] } },
{ "type": "Feature", "properties": { "style": "solid", "thickness": 1 }, "geometry": { "type": "LineString", "coordinates": [ [ -82.519156888888887, 27.986944444444447 ], [ -82.519164916666668, 27.987074472222222 ], [ -82.51919075, 27.98721038888889 ], [ -82.519236861111111, 27.987349666666667 ], [ -82.519305138888882, 27.987488916666667 ], [ -82.519396611111105, 27.987624222222223 ], [ -82.519511083333327, 27.987751194444446 ], [ -82.519646944444446, 27.987865333333335 ], [ -82.519801222222227, 27.987962638888892 ], [ -82.519969666666668, 27.988039833333335 ], [ -82.520147166666661, 27.988094833333335 ], [ -82.52032825, 27.988126916666669 ], [ -82.520507638888887, 27.988136694444446 ], [ -82.520680666666664, 27.988125861111111 ], [ -82.520843583333331, 27.98809702777778 ], [ -82.52099375, 27.988053222222224 ], [ -82.521129583333334, 27.987997583333335 ], [ -82.521253638888894, 27.987931305555556 ], [ -82.52137477777778, 27.98784913888889 ], [ -82.52149030555556, 27.987749833333336 ], [ -82.521596222222215, 27.987633305555555 ], [ -82.521688111111104, 27.987500416666666 ], [ -82.521761722222223, 27.987353111111112 ], [ -82.521813222222221, 27.9871945 ], [ -82.52183975, 27.987028611111111 ], [ -82.521839722222225, 27.98686025 ], [ -82.521813222222221, 27.986694388888889 ], [ -82.521761722222223, 27.986535777777778 ], [ -82.521688111111104, 27.986388472222224 ], [ -82.521596194444442, 27.986255555555555 ], [ -82.52149030555556, 27.986139027777778 ], [ -82.52137475, 27.98603975 ], [ -82.521253611111106, 27.985957555555558 ], [ -82.521129583333334, 27.985891305555558 ], [ -82.52099375, 27.985835666666667 ], [ -82.520843583333331, 27.985791861111114 ], [ -82.520680666666664, 27.985763027777779 ], [ -82.520507638888887, 27.985752194444444 ], [ -82.52032825, 27.985761972222225 ], [ -82.520147166666661, 27.985794055555555 ], [ -82.519969666666668, 27.985849055555555 ], [ -82.519801222222227, 27.98592625 ], [ -82.519646944444446, 27.986023527777778 ], [ -82.519511083333327, 27.986137694444444 ], [ -82.519396611111105, 27.98626463888889 ], [ -82.519305138888882, 27.986399944444447 ], [ -82.519236861111111, 27.986539222222223 ], [ -82.51919075, 27.986678472222223 ], [ -82.519164916666668, 27.986814388888888 ], [ -82.519156888888887, 27.986944444444447 ] ] } },
{ "type": "Feature", "properties": { "style": "solid", "thickness": 1 }, "geometry": { "type": "LineString", "coordinates": [ [ -82.387905944444455, 27.967883027777777 ], [ -82.388312305555559, 27.969689166666665 ], [ -82.389473527777781, 27.971215416666666 ], [ -82.391209055555564, 27.972224472222219 ], [ -82.393249027777784, 27.972559388888886 ], [ -82.39527625, 27.972168138888886 ], [ -82.396975472222223, 27.971111527777776 ], [ -82.3980825, 27.969553861111109 ], [ -82.39842522222223, 27.967737333333332 ], [ -82.397950416666674, 27.965944388888889 ], [ -82.396731888888894, 27.964453805555554 ], [ -82.394959166666666, 27.963497277777776 ], [ -82.392907805555566, 27.963223555555555 ], [ -82.39089675000001, 27.963675194444445 ], [ -82.389238611111111, 27.964781944444443 ], [ -82.388191222222233, 27.96637175 ], [ -82.387905944444455, 27.967883027777777 ] ] } },
{ "type": "Feature", "properties": { "style": "solid", "thickness": 1 }, "geometry": { "type": "LineString", "coordinates": [ [ -82.380993833333321, 27.968441333333331 ], [ -82.38415236111112, 27.967812916666666 ], [ -82.387030388888903, 27.966497722222222 ], [ -82.389441888888896, 27.96458075 ], [ -82.391231083333338, 27.962185861111109 ], [ -82.392282361111114, 27.959467805555555 ], [ -82.39254425, 27.957081 ] ] } },
{ "type": "Feature", "properties": { "style": "solid", "thickness": 1 }, "geometry": { "type": "LineString", "coordinates": [ [ -82.39254425, 27.957081 ], [ -82.39325225, 27.959885277777776 ], [ -82.394733666666667, 27.962440472222223 ], [ -82.396892833333339, 27.964581444444445 ], [ -82.39959027777779, 27.966169888888889 ], [ -82.402651694444444, 27.967103138888888 ], [ -82.40534, 27.967335472222221 ] ] } },
{ "type": "Feature", "properties": { "style": "solid", "thickness": 1 }, "geometry": { "type": "LineString", "coordinates": [ [ -82.393789805555556, 27.978696833333331 ], [ -82.394171833333345, 27.975843055555554 ], [ -82.395351916666669, 27.97316697222222 ], [ -82.397253777777777, 27.970841416666666 ], [ -82.3997545, 27.969016666666665 ], [ -82.402692527777788, 27.967810555555555 ], [ -82.40534, 27.967335472222221 ] ] } },
{ "type": "Feature", "properties": { "style": "solid", "thickness": 1 }, "geometry": { "type": "LineString", "coordinates": [ [ -82.393789805555556, 27.978696833333331 ], [ -82.393081666666674, 27.97589258333333 ], [ -82.391600111111117, 27.97333736111111 ], [ -82.389440861111112, 27.971196305555555 ], [ -82.386743444444448, 27.969607666666665 ], [ -82.383682083333341, 27.968674055555553 ], [ -82.380993833333321, 27.968441333333331 ] ] } },
{ "type": "Feature", "properties": { "style": "solid", "thickness": 1 }, "geometry": { "type": "LineString", "coordinates": [ [ -82.425686472222225, 27.909690138888887 ], [ -82.42609325, 27.911496194444442 ], [ -82.427254388888898, 27.913022138888888 ], [ -82.428989333333334, 27.914030694444442 ], [ -82.431028333333344, 27.914365083333333 ], [ -82.433054333333331, 27.91397325 ], [ -82.434752277777775, 27.912916166666665 ], [ -82.435858138888889, 27.911358166666666 ], [ -82.43620005555556, 27.909541527777776 ], [ -82.435724861111112, 27.907748694444443 ], [ -82.434506472222225, 27.906258444444443 ], [ -82.432734333333343, 27.905302416666665 ], [ -82.430683972222226, 27.905029277777775 ], [ -82.428674138888894, 27.90548147222222 ], [ -82.427017305555566, 27.906588694444444 ], [ -82.425971027777777, 27.908178833333331 ], [ -82.425686472222225, 27.909690138888887 ] ] } },
{ "type": "Feature", "properties": { "style": "solid", "thickness": 1 }, "geometry": { "type": "LineString", "coordinates": [ [ -82.41877825, 27.91025036111111 ], [ -82.421934888888899, 27.909621055555554 ], [ -82.424810916666672, 27.908305083333332 ], [ -82.427220444444444, 27.906387416666664 ], [ -82.429007833333344, 27.903992 ], [ -82.43005761111111, 27.901273638888888 ], [ -82.430318527777786, 27.89888675 ] ] } },
{ "type": "Feature", "properties": { "style": "solid", "thickness": 1 }, "geometry": { "type": "LineString", "coordinates": [ [ -82.430318527777786, 27.89888675 ], [ -82.431027111111121, 27.90169086111111 ], [ -82.432508638888891, 27.904245666666665 ], [ -82.43466741666667, 27.906386083333331 ], [ -82.437363972222229, 27.907973805555553 ], [ -82.44042408333334, 27.908906222222221 ], [ -82.443110972222229, 27.909137777777776 ] ] } },
{ "type": "Feature", "properties": { "style": "solid", "thickness": 1 }, "geometry": { "type": "LineString", "coordinates": [ [ -82.431570944444445, 27.920502416666668 ], [ -82.431951777777783, 27.9176485 ], [ -82.433130305555565, 27.914972055555555 ], [ -82.43503033333333, 27.912645972222222 ], [ -82.437529083333331, 27.910820527777776 ], [ -82.440465111111109, 27.909613611111109 ], [ -82.443110972222229, 27.909137777777776 ] ] } },
{ "type": "Feature", "properties": { "style": "solid", "thickness": 1 }, "geometry": { "type": "LineString", "coordinates": [ [ -82.431570944444445, 27.920502416666668 ], [ -82.430862222222231, 27.917698333333334 ], [ -82.429380555555554, 27.9151435 ], [ -82.427221722222228, 27.913003027777776 ], [ -82.424525166666669, 27.911415111111111 ], [ -82.421465138888891, 27.910482333333331 ], [ -82.41877825, 27.91025036111111 ] ] } },
{ "type": "Feature", "properties": { "style": "solid", "thickness": 1 }, "geometry": { "type": "LineString", "coordinates": [ [ -82.36863938888888, 27.736938305555558 ], [ -82.36904458333332, 27.738744555555556 ], [ -82.370203083333323, 27.74027102777778 ], [ -82.37193475, 27.741280333333336 ], [ -82.373970361111105, 27.741615527777778 ], [ -82.375993333333327, 27.741224527777778 ], [ -82.37768911111111, 27.740168083333334 ], [ -82.378794055555545, 27.7386105 ], [ -82.379136333333321, 27.736793972222223 ], [ -82.378662777777777, 27.735000916666667 ], [ -82.37744705555555, 27.733510138888889 ], [ -82.37567822222222, 27.732553416666665 ], [ -82.373631249999988, 27.732279472222221 ], [ -82.371624388888876, 27.732730888888888 ], [ -82.369969611111102, 27.7338375 ], [ -82.36892425, 27.735427277777777 ], [ -82.36863938888888, 27.736938305555558 ] ] } },
{ "type": "Feature", "properties": { "style": "solid", "thickness": 1 }, "geometry": { "type": "LineString", "coordinates": [ [ -82.361741888888886, 27.737495666666668 ], [ -82.364893833333326, 27.736867666666669 ], [ -82.367766, 27.735552833333333 ], [ -82.370172722222222, 27.73363613888889 ], [ -82.3719585, 27.731241388888886 ], [ -82.373008027777772, 27.728523388888888 ], [ -82.37326975, 27.726136694444442 ] ] } },
{ "type": "Feature", "properties": { "style": "solid", "thickness": 1 }, "geometry": { "type": "LineString", "coordinates": [ [ -82.37326975, 27.726136694444442 ], [ -82.37397575, 27.728941166666665 ], [ -82.375453583333325, 27.731496638888888 ], [ -82.377607833333329, 27.733637972222223 ], [ -82.380299277777766, 27.735226833333336 ], [ -82.383354055555557, 27.736160527777777 ], [ -82.38603647222223, 27.736393194444446 ] ] } },
{ "type": "Feature", "properties": { "style": "solid", "thickness": 1 }, "geometry": { "type": "LineString", "coordinates": [ [ -82.37450880555555, 27.747753222222222 ], [ -82.374890555555552, 27.744899388888889 ], [ -82.376068611111108, 27.742223388888888 ], [ -82.377966861111105, 27.739898055555557 ], [ -82.380462638888886, 27.738073611111112 ], [ -82.383394666666675, 27.736867888888892 ], [ -82.38603647222223, 27.736393194444446 ] ] } },
{ "type": "Feature", "properties": { "style": "solid", "thickness": 1 }, "geometry": { "type": "LineString", "coordinates": [ [ -82.37450880555555, 27.747753222222222 ], [ -82.373802694444436, 27.74494875 ], [ -82.372324722222217, 27.742393277777779 ], [ -82.370170416666653, 27.740251833333335 ], [ -82.367478972222216, 27.73866277777778 ], [ -82.36442425, 27.73772875 ], [ -82.361741888888886, 27.737495666666668 ] ] } },
{ "type": "Feature", "properties": { "style": "solid", "thickness": 1 }, "geometry": { "type": "LineString", "coordinates": [ [ -82.471747805555552, 27.90892336111111 ], [ -82.47073711111112, 27.908969888888887 ], [ -82.470304361111118, 27.901547638888889 ] ] } },
{ "type": "Feature", "properties": { "style": "solid", "thickness": 1 }, "geometry": { "type": "LineString", "coordinates": [ [ -82.465318555555555, 27.901776972222219 ], [ -82.464427583333332, 27.902718194444443 ], [ -82.463667888888892, 27.90359336111111 ], [ -82.463039416666675, 27.90440247222222 ], [ -82.462663027777779, 27.904899888888888 ], [ -82.462361, 27.905513944444444 ], [ -82.462261111111118, 27.906118722222221 ], [ -82.462225083333337, 27.906660527777778 ], [ -82.462287833333335, 27.907737944444442 ], [ -82.462514361111118, 27.908147666666665 ], [ -82.462804805555564, 27.908494416666667 ], [ -82.463098722222227, 27.908901027777777 ], [ -82.464541611111116, 27.909314833333333 ], [ -82.465350166666667, 27.909277666666664 ], [ -82.46620169444445, 27.908818388888889 ], [ -82.4663295, 27.9086925 ], [ -82.46684061111111, 27.90818886111111 ], [ -82.46690102777778, 27.908066027777778 ], [ -82.467121722222231, 27.907215638888889 ], [ -82.46708683333334, 27.90661708333333 ], [ -82.466927666666663, 27.906204277777775 ], [ -82.466771972222219, 27.905851333333331 ], [ -82.466478055555555, 27.905444722222221 ], [ -82.465914611111117, 27.905050527777778 ], [ -82.465361638888893, 27.90483586111111 ], [ -82.46502125, 27.9047915 ], [ -82.46454961111111, 27.904813194444444 ], [ -82.46421622222222, 27.904888527777775 ], [ -82.463098666666667, 27.905420027777776 ], [ -82.462257611111113, 27.906058861111109 ] ] } },
{ "type": "Feature", "properties": { "style": "solid", "thickness": 1 }, "geometry": { "type": "LineString", "coordinates": [ [ -82.45031325, 27.980707944444443 ], [ -82.44713908333334, 27.97611211111111 ], [ -82.44458208333333, 27.9809705 ] ] } },
{ "type": "Feature", "properties": { "style": "solid", "thickness": 1 }, "geometry": { "type": "LineString", "coordinates": [ [ -82.44713908333334, 27.97611211111111 ], [ -82.446975555555554, 27.973298833333331 ] ] } },
{ "type": "Feature", "properties": { "style": "solid", "thickness": 1 }, "geometry": { "type": "LineString", "coordinates": [ [ -82.441443555555566, 27.973492138888886 ], [ -82.438176611111118, 27.981263666666663 ], [ -82.434229472222228, 27.973822166666665 ] ] } },
{ "type": "Feature", "properties": { "style": "solid", "thickness": 1 }, "geometry": { "type": "LineString", "coordinates": [ [ -82.440372472222222, 27.976001833333331 ], [ -82.435518027777775, 27.976223888888889 ] ] } },
{ "type": "Feature", "properties": { "style": "solid", "thickness": 1 }, "geometry": { "type": "LineString", "coordinates": [ [ -82.431838555555558, 27.98155347222222 ], [ -82.426983833333338, 27.981775222222222 ] ] } },
{ "type": "Feature", "properties": { "style": "solid", "thickness": 1 }, "geometry": { "type": "LineString", "coordinates": [ [ -82.429478611111122, 27.981661277777775 ], [ -82.429038, 27.974059416666666 ] ] } },
{ "type": "Feature", "properties": { "style": "solid", "thickness": 1 }, "geometry": { "type": "LineString", "coordinates": [ [ -82.424151916666673, 27.981904527777775 ], [ -82.423801777777783, 27.975858916666667 ], [ -82.423717027777784, 27.975562722222222 ], [ -82.423210416666677, 27.974985694444442 ], [ -82.4228525, 27.974641916666666 ], [ -82.42229925, 27.974427111111108 ], [ -82.421554138888894, 27.974401083333333 ], [ -82.420475388888889, 27.974450305555553 ], [ -82.419872055555558, 27.974537861111109 ], [ -82.419080305555553, 27.974874027777776 ], [ -82.418632583333334, 27.975314555555553 ], [ -82.418383666666671, 27.975686 ], [ -82.41828, 27.976230888888889 ], [ -82.418622888888891, 27.982156777777774 ] ] } },
{ "type": "Feature", "properties": { "style": "solid", "thickness": 1 }, "geometry": { "type": "LineString", "coordinates": [ [ -82.409191694444445, 27.981566277777777 ], [ -82.40948213888889, 27.981913138888888 ], [ -82.41010975, 27.982244666666666 ], [ -82.410521222222229, 27.982345944444443 ], [ -82.411677888888889, 27.982473305555555 ], [ -82.412082444444451, 27.982454888888888 ], [ -82.41288466666667, 27.982298305555553 ], [ -82.413548555555565, 27.982088 ], [ -82.413679944444453, 27.982022 ], [ -82.414134611111123, 27.98170122222222 ], [ -82.414585833333334, 27.981320555555556 ], [ -82.415336111111117, 27.98026611111111 ], [ -82.415617833333343, 27.979293 ], [ -82.415541694444457, 27.977976138888888 ], [ -82.415365277777781, 27.977264 ], [ -82.415064444444454, 27.976737583333332 ], [ -82.414632194444451, 27.976277138888886 ], [ -82.41427086111112, 27.9758735 ], [ -82.413700333333338, 27.975359388888887 ], [ -82.413147083333342, 27.975144527777775 ], [ -82.41259386111112, 27.974929666666664 ], [ -82.412115, 27.974831444444444 ], [ -82.410901388888888, 27.97488675 ], [ -82.410234083333336, 27.975037166666667 ], [ -82.409708527777781, 27.975301166666664 ], [ -82.409119, 27.97562808333333 ], [ -82.40873175, 27.975945805555554 ], [ -82.408099, 27.976694777777777 ], [ -82.407725583333345, 27.977251916666663 ], [ -82.407611472222229, 27.977617222222221 ], [ -82.407666805555564, 27.978574944444443 ], [ -82.410498666666669, 27.978446 ] ] } },
{ "type": "Feature", "properties": { "style": "solid", "thickness": 1 }, "geometry": { "type": "LineString", "coordinates": [ [ -82.484375416666666, 27.913075416666665 ], [ -82.484819666666667, 27.920677166666668 ] ] } },
{ "type": "Feature", "properties": { "style": "solid", "thickness": 1 }, "geometry": { "type": "LineString", "coordinates": [ [ -82.477496416666668, 27.920234444444446 ], [ -82.478137861111108, 27.920805055555558 ], [ -82.478276138888887, 27.920858722222224 ], [ -82.479159138888889, 27.920938083333336 ], [ -82.47989341666667, 27.920784194444444 ], [ -82.48028375, 27.920526138888889 ], [ -82.480670611111108, 27.92020825 ], [ -82.480976083333331, 27.919654 ], [ -82.480895666666669, 27.918277305555556 ], [ -82.480459888888888, 27.917757222222225 ], [ -82.48017636111112, 27.917530222222222 ], [ -82.47914461111111, 27.917217666666669 ], [ -82.477981583333332, 27.91697113888889 ], [ -82.477152, 27.91664925 ], [ -82.4768615, 27.916302527777777 ], [ -82.476677833333341, 27.91547075 ], [ -82.476767166666662, 27.914686416666665 ], [ -82.47707613888889, 27.914192027777776 ], [ -82.477399083333339, 27.91393708333333 ], [ -82.477658138888884, 27.913745111111108 ], [ -82.477984583333338, 27.913550027777777 ], [ -82.478715305555554, 27.913336305555553 ], [ -82.479119583333329, 27.913317666666664 ], [ -82.479530888888888, 27.91341875 ], [ -82.480083916666672, 27.913633333333333 ], [ -82.480434805555561, 27.91385725 ], [ -82.480934472222231, 27.91431436111111 ] ] } },
{ "type": "Feature", "properties": { "style": "solid", "thickness": 1 }, "geometry": { "type": "LineString", "coordinates": [ [ -82.469387944444449, 27.921387888888891 ], [ -82.470600916666669, 27.921332083333336 ], [ -82.471203916666667, 27.921244333333334 ], [ -82.472385472222228, 27.920649805555556 ], [ -82.473471694444441, 27.9195795 ], [ -82.473830611111111, 27.91878275 ], [ -82.473976916666672, 27.91781575 ], [ -82.4739315, 27.917037611111112 ], [ -82.473754833333331, 27.916325527777776 ], [ -82.473372527777784, 27.915562916666666 ], [ -82.472575416666672, 27.914639333333334 ], [ -82.472288444444445, 27.914352444444443 ], [ -82.471728416666664, 27.914018111111108 ], [ -82.470561972222228, 27.913711694444444 ], [ -82.469146916666674, 27.913776777777777 ], [ -82.46848005555556, 27.9139275 ], [ -82.467820194444442, 27.914197916666666 ], [ -82.467426361111109, 27.914396083333333 ], [ -82.466780416666666, 27.914905916666665 ], [ -82.466215805555564, 27.915652083333331 ], [ -82.466041555555563, 27.916140222222221 ], [ -82.465891722222224, 27.917047388888889 ], [ -82.465975444444453, 27.918483944444446 ], [ -82.466665638888898, 27.919892611111113 ], [ -82.467097861111114, 27.920352888888889 ], [ -82.467594, 27.920750194444445 ], [ -82.468083138888886, 27.92102777777778 ], [ -82.468221416666665, 27.921081444444447 ], [ -82.469387944444449, 27.921387888888891 ] ] } },
{ "type": "Feature", "properties": { "style": "solid", "thickness": 1 }, "geometry": { "type": "LineString", "coordinates": [ [ -82.46339041666667, 27.921663638888891 ], [ -82.45971322222222, 27.914210416666666 ], [ -82.457055888888888, 27.921954611111111 ] ] } },
{ "type": "Feature", "properties": { "style": "solid", "thickness": 1 }, "geometry": { "type": "LineString", "coordinates": [ [ -82.45011483333333, 27.922273083333334 ], [ -82.454225555555553, 27.9220845 ], [ -82.453783444444454, 27.914482666666665 ], [ -82.44960561111111, 27.914674305555554 ] ] } },
{ "type": "Feature", "properties": { "style": "solid", "thickness": 1 }, "geometry": { "type": "LineString", "coordinates": [ [ -82.45400275, 27.918253666666669 ], [ -82.450026944444446, 27.918436055555556 ] ] } },
{ "type": "Feature", "properties": { "style": "solid", "thickness": 1 }, "geometry": { "type": "LineString", "coordinates": [ [ -82.431578388888894, 27.735017222222222 ], [ -82.431142111111114, 27.727475027777775 ] ] } },
{ "type": "Feature", "properties": { "style": "solid", "thickness": 1 }, "geometry": { "type": "LineString", "coordinates": [ [ -82.425860138888893, 27.735279 ], [ -82.42542425, 27.727736805555555 ] ] } },
{ "type": "Feature", "properties": { "style": "solid", "thickness": 1 }, "geometry": { "type": "LineString", "coordinates": [ [ -82.431374083333338, 27.731485555555555 ], [ -82.425656027777777, 27.731747333333331 ] ] } },
{ "type": "Feature", "properties": { "style": "solid", "thickness": 1 }, "geometry": { "type": "LineString", "coordinates": [ [ -82.423105388888899, 27.735465055555558 ], [ -82.422756111111113, 27.729419305555552 ], [ -82.422671555555567, 27.729123083333331 ], [ -82.422166083333337, 27.728546027777774 ], [ -82.421809, 27.728202277777775 ], [ -82.421257027777784, 27.727987444444445 ], [ -82.420513611111119, 27.727961416666666 ], [ -82.419437277777789, 27.728010638888886 ], [ -82.418835333333334, 27.728098166666665 ], [ -82.418045361111112, 27.728434361111109 ], [ -82.417598666666677, 27.728874888888889 ], [ -82.417350305555559, 27.729246333333332 ], [ -82.41724686111111, 27.729791222222222 ], [ -82.417588916666674, 27.735717277777777 ] ] } },
{ "type": "Feature", "properties": { "style": "solid", "thickness": 1 }, "geometry": { "type": "LineString", "coordinates": [ [ -82.414324805555566, 27.72824425 ], [ -82.412476083333345, 27.735950833333334 ], [ -82.409212305555556, 27.728477694444443 ], [ -82.407295944444456, 27.73618727777778 ], [ -82.404368861111124, 27.728698694444443 ] ] } },
{ "type": "Feature", "properties": { "style": "solid", "thickness": 1 }, "geometry": { "type": "LineString", "coordinates": [ [ -82.401981222222233, 27.736429666666666 ], [ -82.4015435, 27.7288275 ] ] } },
{ "type": "Feature", "properties": { "style": "solid", "thickness": 1 }, "geometry": { "type": "LineString", "coordinates": [ [ -82.397335777777784, 27.736581333333334 ], [ -82.401760638888888, 27.732598638888888 ], [ -82.396834583333344, 27.729042083333333 ] ] } },
{ "type": "Feature", "properties": { "style": "solid", "thickness": 1 }, "geometry": { "type": "LineString", "coordinates": [ [ -82.39400919444445, 27.729170777777775 ], [ -82.394446388888895, 27.736772944444446 ] ] } }
]
}
