{
"type": "FeatureCollection",
"name": "tpa238sgp",
"features": [
{ "type": "Feature", "properties": { "style": "solid", "thickness": 1 }, "geometry": { "type": "LineString", "coordinates": [ [ -82.554036277777769, 27.780179638888889 ], [ -82.554040333333333, 27.780194694444443 ], [ -82.590919305555545, 27.81682961111111 ] ] } },
{ "type": "Feature", "properties": { "style": "solid", "thickness": 1 }, "geometry": { "type": "LineString", "coordinates": [ [ -82.489806055555562, 27.919906472222223 ], [ -82.514369333333335, 27.894658055555556 ], [ -82.533683194444436, 27.87529838888889 ], [ -82.56173125, 27.846447583333333 ], [ -82.59090888888889, 27.815991972222221 ] ] } },
{ "type": "Feature", "properties": { "style": "solid", "thickness": 1 }, "geometry": { "type": "LineString", "coordinates": [ [ -82.489959111111105, 27.919959527777777 ], [ -82.514485805555552, 27.894748638888888 ], [ -82.533799638888894, 27.875388972222222 ], [ -82.561848694444436, 27.846537138888888 ], [ -82.591013, 27.816095361111113 ] ] } },
{ "type": "Feature", "properties": { "style": "solid", "thickness": 1 }, "geometry": { "type": "LineString", "coordinates": [ [ -82.49011213888889, 27.920012555555555 ], [ -82.514602277777783, 27.89483922222222 ], [ -82.533916111111111, 27.875479527777777 ], [ -82.561966138888891, 27.846626694444442 ], [ -82.59111713888889, 27.816198777777778 ] ] } },
{ "type": "Feature", "properties": { "style": "solid", "thickness": 1 }, "geometry": { "type": "LineString", "coordinates": [ [ -82.489653027777777, 27.919853444444446 ], [ -82.514252861111117, 27.894567472222221 ], [ -82.533566722222218, 27.875207805555554 ], [ -82.561613833333325, 27.846358055555555 ], [ -82.59080475, 27.815888555555556 ] ] } },
{ "type": "Feature", "properties": { "style": "solid", "thickness": 1 }, "geometry": { "type": "LineString", "coordinates": [ [ -82.48949997222222, 27.919800416666668 ], [ -82.514136361111113, 27.894476916666665 ], [ -82.533450277777774, 27.87511725 ], [ -82.561496388888884, 27.8462685 ], [ -82.59070063888889, 27.815785138888888 ] ] } },
{ "type": "Feature", "properties": { "style": "solid", "thickness": 1 }, "geometry": { "type": "LineString", "coordinates": [ [ -82.490633083333336, 27.919897833333334 ], [ -82.489303416666672, 27.919437055555555 ], [ -82.487423305555552, 27.918738916666669 ], [ -82.485562638888894, 27.918000916666667 ], [ -82.483722416666666, 27.917223444444446 ], [ -82.48190375, 27.916407 ], [ -82.480107694444442, 27.915552027777775 ], [ -82.47833525, 27.914659 ], [ -82.476587444444448, 27.913728472222221 ], [ -82.474865277777781, 27.912760944444443 ], [ -82.473169777777784, 27.911757 ], [ -82.471501888888895, 27.910717194444445 ], [ -82.469862611111111, 27.909642166666664 ], [ -82.468252805555551, 27.90853247222222 ], [ -82.4666735, 27.907388833333332 ], [ -82.465125527777786, 27.90621183333333 ], [ -82.463609805555564, 27.905002166666666 ], [ -82.462127194444449, 27.903760555555554 ], [ -82.46067855555556, 27.902487722222222 ], [ -82.45926475, 27.90118436111111 ], [ -82.457886527777774, 27.89985125 ], [ -82.45654475, 27.898489138888888 ], [ -82.455240138888897, 27.897098833333335 ], [ -82.453973472222231, 27.895681111111109 ], [ -82.452745472222219, 27.894236805555554 ], [ -82.451556833333342, 27.892766722222223 ], [ -82.450408222222222, 27.89127175 ], [ -82.449300333333341, 27.889752722222223 ], [ -82.44823380555556, 27.888210527777776 ], [ -82.447209222222227, 27.886646027777779 ], [ -82.446227194444447, 27.885060138888889 ], [ -82.44528825, 27.883453777777778 ], [ -82.444392972222232, 27.881827888888889 ], [ -82.443541861111115, 27.880183361111111 ], [ -82.442735388888892, 27.878521166666665 ], [ -82.441974027777775, 27.876842277777779 ], [ -82.441258222222231, 27.87514763888889 ], [ -82.440588388888898, 27.873438222222223 ], [ -82.439964861111122, 27.871715027777778 ], [ -82.439388055555554, 27.869979055555557 ], [ -82.43885825000001, 27.86823125 ], [ -82.438375805555566, 27.866472694444447 ], [ -82.437940944444449, 27.864704333333336 ], [ -82.437553944444446, 27.862927222222222 ], [ -82.437215, 27.861142361111114 ], [ -82.436924333333337, 27.859350805555557 ], [ -82.436682111111111, 27.857553555555558 ], [ -82.43648844444445, 27.855751666666666 ], [ -82.436343444444447, 27.853946194444447 ], [ -82.436247222222221, 27.852138111111113 ], [ -82.436199777777787, 27.8503285 ], [ -82.43620119444445, 27.848518416666664 ], [ -82.436251444444451, 27.846708888888887 ], [ -82.43635047222223, 27.844900916666667 ], [ -82.436498277777787, 27.84309561111111 ], [ -82.436694694444455, 27.841293944444445 ], [ -82.436939666666674, 27.839497 ], [ -82.437233055555566, 27.837705805555554 ], [ -82.43757463888889, 27.835921361111112 ], [ -82.43796425, 27.834144694444444 ], [ -82.438401666666664, 27.832376861111111 ], [ -82.438886638888889, 27.830618861111112 ], [ -82.439418861111122, 27.828871694444445 ], [ -82.439998027777776, 27.827136361111112 ], [ -82.440623833333333, 27.825413888888889 ], [ -82.441295888888888, 27.82370525 ], [ -82.442013833333334, 27.822011416666665 ], [ -82.442777222222233, 27.820333388888887 ], [ -82.443585611111118, 27.818672083333333 ], [ -82.444438583333337, 27.8170285 ], [ -82.445335583333332, 27.815403583333335 ], [ -82.446276111111118, 27.81379825 ], [ -82.447259666666667, 27.812213388888889 ], [ -82.448285638888891, 27.810649972222222 ], [ -82.449353444444455, 27.80910888888889 ], [ -82.450462472222227, 27.807590972222222 ], [ -82.45161208333333, 27.806097138888891 ], [ -82.452801638888886, 27.80462825 ], [ -82.454030416666669, 27.803185138888889 ], [ -82.455297722222227, 27.801768611111111 ], [ -82.456602833333335, 27.8003795 ], [ -82.457945, 27.799018611111112 ], [ -82.459323416666663, 27.797686722222224 ], [ -82.460737361111114, 27.796384611111112 ], [ -82.462185944444442, 27.795113 ], [ -82.463668388888891, 27.793872611111112 ], [ -82.465183805555554, 27.792664194444445 ], [ -82.466731333333328, 27.791488416666667 ], [ -82.468310083333336, 27.790345972222223 ], [ -82.469919166666671, 27.789237472222222 ], [ -82.471557638888896, 27.788163611111113 ], [ -82.473224555555561, 27.787124972222223 ], [ -82.474918972222227, 27.786122166666669 ], [ -82.47663991666667, 27.785155777777778 ], [ -82.478386388888893, 27.784226305555556 ], [ -82.480157388888884, 27.783334361111113 ], [ -82.481951888888887, 27.782480416666665 ], [ -82.483768888888889, 27.781664944444444 ], [ -82.485607305555561, 27.780888444444443 ], [ -82.487466111111118, 27.780151333333333 ], [ -82.48934425, 27.779454083333331 ], [ -82.491240583333337, 27.778797055555554 ], [ -82.49315411111111, 27.778180611111111 ], [ -82.495083666666673, 27.777605166666667 ], [ -82.497028138888894, 27.777070972222223 ], [ -82.498986472222228, 27.776578416666666 ], [ -82.500957472222225, 27.77612772222222 ], [ -82.502940083333328, 27.775719166666665 ], [ -82.504933083333327, 27.775352972222223 ], [ -82.506935388888891, 27.775029361111109 ], [ -82.508945833333328, 27.774748555555554 ], [ -82.51096325, 27.774510638888888 ], [ -82.512986527777784, 27.774315805555556 ], [ -82.515014416666673, 27.774164166666665 ], [ -82.517045861111114, 27.774055777777775 ], [ -82.51907961111111, 27.773990722222223 ], [ -82.521114527777783, 27.773969027777778 ], [ -82.523149444444442, 27.773990722222223 ], [ -82.525183194444438, 27.774055777777775 ], [ -82.527214611111106, 27.774164166666665 ], [ -82.529242527777782, 27.774315805555556 ], [ -82.531265777777776, 27.774510638888888 ], [ -82.533283194444437, 27.774748555555554 ], [ -82.535293638888888, 27.775029361111109 ], [ -82.537295944444438, 27.775352972222223 ], [ -82.539288972222224, 27.775719138888888 ], [ -82.541271555555554, 27.776127694444444 ], [ -82.543242583333338, 27.776578416666666 ], [ -82.545200888888886, 27.777070972222223 ], [ -82.547145388888893, 27.777605166666667 ], [ -82.549074944444442, 27.778180611111111 ], [ -82.550988444444442, 27.778797055555554 ], [ -82.55288480555555, 27.779454083333331 ], [ -82.554220055555547, 27.779949805555553 ] ] } },
{ "type": "Feature", "properties": { "style": "solid", "thickness": 1 }, "geometry": { "type": "LineString", "coordinates": [ [ -82.4907405, 27.919787444444445 ], [ -82.489361416666668, 27.919309555555557 ], [ -82.48748475, 27.918612666666668 ], [ -82.485627444444447, 27.917876 ], [ -82.483790583333331, 27.917099972222225 ], [ -82.48197525, 27.916285 ], [ -82.480182444444452, 27.915431583333334 ], [ -82.47841322222223, 27.914540194444442 ], [ -82.476668611111108, 27.913611361111109 ], [ -82.474949611111114, 27.912645583333333 ], [ -82.473257194444443, 27.91164347222222 ], [ -82.471592361111107, 27.910605583333332 ], [ -82.469956027777783, 27.9095325 ], [ -82.468349194444443, 27.908424861111111 ], [ -82.46677275, 27.907283277777776 ], [ -82.465227583333331, 27.906108416666665 ], [ -82.463714638888888, 27.904900972222222 ], [ -82.46223472222222, 27.903661638888888 ], [ -82.46078875, 27.902391111111111 ], [ -82.4593775, 27.90109011111111 ], [ -82.458001805555554, 27.899759444444445 ], [ -82.45666247222222, 27.898399805555556 ], [ -82.455360222222225, 27.897012027777777 ], [ -82.454095861111114, 27.895596888888889 ], [ -82.452870083333337, 27.894155222222221 ], [ -82.451683611111108, 27.892687833333333 ], [ -82.450537111111117, 27.891195583333332 ], [ -82.44943125, 27.889679305555553 ], [ -82.448366638888899, 27.888139916666667 ], [ -82.447343944444455, 27.886578277777776 ], [ -82.446363694444443, 27.884995305555556 ], [ -82.445426472222223, 27.883391861111111 ], [ -82.444532833333341, 27.881768916666669 ], [ -82.44368325, 27.880127416666667 ], [ -82.44287825, 27.87846825 ], [ -82.44211827777778, 27.876792416666667 ], [ -82.441403777777779, 27.875100861111111 ], [ -82.440735138888897, 27.873394555555556 ], [ -82.44011275, 27.8716745 ], [ -82.439537, 27.869941666666666 ], [ -82.439008166666667, 27.868197083333335 ], [ -82.438526583333342, 27.866441722222223 ], [ -82.438092527777783, 27.864676583333335 ], [ -82.437706222222232, 27.862902694444447 ], [ -82.437367888888886, 27.861121111111114 ], [ -82.437077777777787, 27.859332805555557 ], [ -82.436835972222227, 27.857538833333336 ], [ -82.436642638888898, 27.85574025 ], [ -82.436497916666667, 27.853938027777779 ], [ -82.436401861111122, 27.85213325 ], [ -82.43635452777778, 27.850326944444447 ], [ -82.43635591666667, 27.848520166666667 ], [ -82.436406083333338, 27.846713916666666 ], [ -82.436504916666664, 27.84490925 ], [ -82.436652444444448, 27.843107222222223 ], [ -82.436848527777784, 27.841308861111109 ], [ -82.437093027777777, 27.839515194444445 ], [ -82.43738586111111, 27.83772725 ], [ -82.437726833333343, 27.835946055555553 ], [ -82.43811575, 27.834172638888887 ], [ -82.438552361111121, 27.832408027777777 ], [ -82.439036444444454, 27.830653222222221 ], [ -82.439567694444449, 27.828909222222222 ], [ -82.440145805555559, 27.827177083333332 ], [ -82.440770472222226, 27.825457722222222 ], [ -82.441441305555557, 27.823752194444445 ], [ -82.442157916666673, 27.822061472222224 ], [ -82.442919916666668, 27.820386472222221 ], [ -82.443726861111116, 27.818728222222223 ], [ -82.44457825, 27.817087638888889 ], [ -82.445473611111112, 27.815465666666668 ], [ -82.446412444444448, 27.81386325 ], [ -82.447394194444442, 27.812281277777778 ], [ -82.448418277777776, 27.810720722222221 ], [ -82.449484166666664, 27.809182416666669 ], [ -82.450591166666669, 27.807667277777778 ], [ -82.451738694444444, 27.806176166666667 ], [ -82.452926055555565, 27.804709944444443 ], [ -82.454152611111112, 27.803269444444446 ], [ -82.455417583333343, 27.801855527777779 ], [ -82.456720333333337, 27.800468944444447 ], [ -82.458060055555563, 27.799110555555558 ], [ -82.459435972222224, 27.797781083333334 ], [ -82.460847305555561, 27.796481333333336 ], [ -82.462293277777775, 27.795212027777779 ], [ -82.463773, 27.793973916666669 ], [ -82.465285666666674, 27.792767694444446 ], [ -82.466830361111107, 27.791594055555557 ], [ -82.46840625, 27.790453666666668 ], [ -82.470012416666663, 27.789347222222222 ], [ -82.471647888888896, 27.788275305555558 ], [ -82.473311777777781, 27.787238555555557 ], [ -82.475003111111107, 27.786237583333335 ], [ -82.476720916666665, 27.785272944444447 ], [ -82.478464194444442, 27.784345166666668 ], [ -82.480231972222228, 27.783454833333334 ], [ -82.482023194444452, 27.782602444444443 ], [ -82.483836888888888, 27.781788472222221 ], [ -82.485671972222221, 27.781013388888887 ], [ -82.487527388888893, 27.780277638888887 ], [ -82.489402083333331, 27.779581638888889 ], [ -82.491295, 27.778925805555556 ], [ -82.493205027777776, 27.7783105 ], [ -82.495131055555561, 27.777736083333334 ], [ -82.497072, 27.77720286111111 ], [ -82.49902675, 27.776711194444445 ], [ -82.500994194444445, 27.776261305555554 ], [ -82.502973166666663, 27.7758535 ], [ -82.504962555555551, 27.775488 ], [ -82.506961222222216, 27.775164972222221 ], [ -82.508968, 27.774884666666665 ], [ -82.51098175, 27.774647194444444 ], [ -82.513001305555562, 27.774452722222222 ], [ -82.51502552777778, 27.77430136111111 ], [ -82.51705325, 27.774193166666667 ], [ -82.519083305555554, 27.77412822222222 ], [ -82.521114527777783, 27.774106583333332 ], [ -82.523145722222225, 27.77412822222222 ], [ -82.525175777777775, 27.774193166666667 ], [ -82.5272035, 27.77430136111111 ], [ -82.529227722222217, 27.774452722222222 ], [ -82.531247305555553, 27.774647194444444 ], [ -82.533261055555556, 27.774884666666665 ], [ -82.535267833333336, 27.775164972222221 ], [ -82.5372665, 27.775488 ], [ -82.539255888888889, 27.7758535 ], [ -82.541234861111107, 27.776261305555554 ], [ -82.54320227777778, 27.776711194444445 ], [ -82.545157027777776, 27.77720286111111 ], [ -82.547098, 27.777736055555554 ], [ -82.549024027777776, 27.7783105 ], [ -82.550934055555558, 27.778925777777776 ], [ -82.552826944444448, 27.779581638888889 ], [ -82.554128166666658, 27.780064722222221 ] ] } },
{ "type": "Feature", "properties": { "style": "solid", "thickness": 1 }, "geometry": { "type": "LineString", "coordinates": [ [ -82.49084794444444, 27.919677055555557 ], [ -82.489419416666664, 27.919182027777779 ], [ -82.487546166666661, 27.918486416666667 ], [ -82.485692277777773, 27.917751111111112 ], [ -82.483858777777783, 27.9169765 ], [ -82.48204675, 27.916163 ], [ -82.480257222222221, 27.915311138888889 ], [ -82.478491222222218, 27.914421388888886 ], [ -82.476749805555556, 27.91349425 ], [ -82.475033944444448, 27.91253025 ], [ -82.473344611111116, 27.911529972222223 ], [ -82.47168280555556, 27.91049397222222 ], [ -82.470049472222229, 27.909422833333331 ], [ -82.468445555555562, 27.90831722222222 ], [ -82.466872, 27.907177722222222 ], [ -82.465329666666676, 27.906005 ], [ -82.463819472222227, 27.904799777777775 ], [ -82.46234225, 27.903562694444442 ], [ -82.460898916666665, 27.90229447222222 ], [ -82.45949025, 27.900995888888886 ], [ -82.458117055555562, 27.899667611111109 ], [ -82.456780166666675, 27.898310472222221 ], [ -82.455480305555554, 27.896925222222222 ], [ -82.45421825, 27.895512694444445 ], [ -82.452994722222229, 27.894073638888887 ], [ -82.451810416666675, 27.892608944444444 ], [ -82.450666, 27.891119416666665 ], [ -82.449562138888894, 27.889605916666667 ], [ -82.4484995, 27.888069333333334 ], [ -82.447478638888896, 27.886510555555557 ], [ -82.446500194444454, 27.884930444444443 ], [ -82.445564666666669, 27.883329944444444 ], [ -82.444672666666676, 27.881709972222222 ], [ -82.443824638888898, 27.880071444444447 ], [ -82.443021111111122, 27.878415305555556 ], [ -82.442262527777785, 27.876742527777779 ], [ -82.441549305555554, 27.875054083333335 ], [ -82.440881888888896, 27.87335088888889 ], [ -82.440260666666674, 27.871633972222224 ], [ -82.439685944444449, 27.869904305555558 ], [ -82.439158083333339, 27.868162888888889 ], [ -82.438677361111118, 27.86641075 ], [ -82.438244083333331, 27.864648833333334 ], [ -82.4378585, 27.862878194444445 ], [ -82.437520805555565, 27.861099861111114 ], [ -82.43723119444445, 27.859314805555556 ], [ -82.436989833333342, 27.857524138888891 ], [ -82.436796861111119, 27.855728805555557 ], [ -82.436652388888888, 27.853929888888889 ], [ -82.4365565, 27.85212841666667 ], [ -82.43650925, 27.850325388888891 ], [ -82.43651063888889, 27.848521916666666 ], [ -82.436560694444452, 27.84671897222222 ], [ -82.436659361111111, 27.844917583333331 ], [ -82.436806611111109, 27.843118861111108 ], [ -82.437002333333339, 27.841323777777777 ], [ -82.437246388888894, 27.839533361111108 ], [ -82.437538694444441, 27.837748694444443 ], [ -82.437879027777782, 27.83597075 ], [ -82.438267222222223, 27.834200555555555 ], [ -82.438703055555564, 27.832439166666667 ], [ -82.43918625, 27.830687583333333 ], [ -82.439716527777776, 27.828946777777777 ], [ -82.440293583333343, 27.827217777777779 ], [ -82.440917111111119, 27.825501583333335 ], [ -82.441586722222226, 27.823799166666667 ], [ -82.442302027777785, 27.8221115 ], [ -82.443062611111117, 27.820439583333332 ], [ -82.443868083333342, 27.818784333333333 ], [ -82.444717916666676, 27.81714675 ], [ -82.445611638888892, 27.815527722222225 ], [ -82.44654875, 27.813928222222223 ], [ -82.447528722222231, 27.812349166666667 ], [ -82.448550944444449, 27.810791444444444 ], [ -82.449614861111115, 27.809255944444445 ], [ -82.450719861111111, 27.807743583333334 ], [ -82.451865277777785, 27.806255194444446 ], [ -82.45305047222223, 27.80479163888889 ], [ -82.454274777777783, 27.803353777777779 ], [ -82.455537472222218, 27.801942416666666 ], [ -82.456837833333338, 27.800558388888888 ], [ -82.45817508333333, 27.799202472222223 ], [ -82.4595485, 27.797875416666667 ], [ -82.46095727777778, 27.79657802777778 ], [ -82.462400583333334, 27.795311055555558 ], [ -82.463877611111116, 27.794075194444446 ], [ -82.465387527777779, 27.792871166666668 ], [ -82.466929416666673, 27.791699694444446 ], [ -82.468502416666666, 27.790561388888889 ], [ -82.470105638888896, 27.789456944444446 ], [ -82.471738138888895, 27.788387 ], [ -82.473399, 27.787352138888892 ], [ -82.475087222222228, 27.786352972222225 ], [ -82.476801888888886, 27.785390111111113 ], [ -82.478542, 27.78446402777778 ], [ -82.480306555555558, 27.783575333333335 ], [ -82.482094527777775, 27.78272447222222 ], [ -82.483904888888887, 27.781912 ], [ -82.485736611111108, 27.781138305555555 ], [ -82.487588666666667, 27.780403916666664 ], [ -82.489459944444448, 27.779709166666667 ], [ -82.491349388888892, 27.779054527777777 ], [ -82.493255916666669, 27.778440361111109 ], [ -82.495178444444448, 27.77786697222222 ], [ -82.497115861111112, 27.77733475 ], [ -82.499067055555557, 27.77684397222222 ], [ -82.501030888888891, 27.776394916666664 ], [ -82.50300625, 27.775987861111108 ], [ -82.504992027777774, 27.775623 ], [ -82.506987027777782, 27.775300583333333 ], [ -82.50899013888889, 27.775020777777776 ], [ -82.511000222222222, 27.77478375 ], [ -82.513016111111114, 27.774589638888887 ], [ -82.515036638888887, 27.774438527777775 ], [ -82.517060666666666, 27.774330527777778 ], [ -82.519087, 27.774265722222221 ], [ -82.521114527777783, 27.774244111111109 ], [ -82.52314202777778, 27.774265722222221 ], [ -82.525168388888886, 27.774330527777778 ], [ -82.527192388888892, 27.774438527777775 ], [ -82.529212916666665, 27.774589638888887 ], [ -82.531228805555557, 27.77478375 ], [ -82.533238888888889, 27.775020777777776 ], [ -82.535242, 27.775300583333333 ], [ -82.537237027777778, 27.775623 ], [ -82.53922277777778, 27.775987861111108 ], [ -82.541198138888888, 27.776394916666664 ], [ -82.543162, 27.77684397222222 ], [ -82.545113166666667, 27.77733475 ], [ -82.547050583333331, 27.77786697222222 ], [ -82.54897311111111, 27.778440361111109 ], [ -82.550879638888887, 27.779054527777777 ], [ -82.552769111111104, 27.779709166666667 ], [ -82.554036277777769, 27.780179638888889 ] ] } },
{ "type": "Feature", "properties": { "style": "solid", "thickness": 1 }, "geometry": { "type": "LineString", "coordinates": [ [ -82.490955361111105, 27.919566666666668 ], [ -82.489477416666674, 27.9190545 ], [ -82.487607611111116, 27.918360194444446 ], [ -82.48575708333334, 27.917626222222225 ], [ -82.483926944444448, 27.916853 ], [ -82.482118222222226, 27.916041027777776 ], [ -82.480331972222217, 27.915190722222221 ], [ -82.47856922222222, 27.914302583333331 ], [ -82.476830972222217, 27.913377138888887 ], [ -82.47511825, 27.912414916666666 ], [ -82.473432027777775, 27.911416444444441 ], [ -82.47177325, 27.910382333333331 ], [ -82.470142916666674, 27.909313166666664 ], [ -82.468541944444453, 27.908209583333331 ], [ -82.46697125, 27.907072166666666 ], [ -82.46543172222222, 27.905901611111108 ], [ -82.463924305555565, 27.904698583333332 ], [ -82.462449805555565, 27.90346375 ], [ -82.461009083333337, 27.902197861111109 ], [ -82.459603, 27.900901638888886 ], [ -82.458232333333342, 27.899575805555553 ], [ -82.456897861111116, 27.898221138888889 ], [ -82.455600388888897, 27.896838444444445 ], [ -82.454340638888894, 27.895428472222221 ], [ -82.453119361111121, 27.893992055555554 ], [ -82.451937194444454, 27.892530027777777 ], [ -82.450794888888893, 27.891043222222223 ], [ -82.449693055555556, 27.8895325 ], [ -82.448632333333336, 27.88799875 ], [ -82.447613361111109, 27.886442805555554 ], [ -82.44663669444445, 27.884865583333333 ], [ -82.445702888888889, 27.883268027777778 ], [ -82.4448125, 27.881651 ], [ -82.443966027777776, 27.880015472222222 ], [ -82.443163972222223, 27.878362388888888 ], [ -82.44240675, 27.876692666666667 ], [ -82.441694861111117, 27.875007305555556 ], [ -82.441028666666668, 27.873307222222223 ], [ -82.440408555555564, 27.871593444444446 ], [ -82.439834888888896, 27.869866944444446 ], [ -82.439307972222224, 27.868128722222224 ], [ -82.438828138888894, 27.86637977777778 ], [ -82.438395666666665, 27.864621083333336 ], [ -82.438010777777777, 27.862853694444446 ], [ -82.437673694444442, 27.861078583333335 ], [ -82.437384611111113, 27.859296833333335 ], [ -82.437143694444444, 27.857509416666669 ], [ -82.436951055555554, 27.855717361111111 ], [ -82.436806861111108, 27.85392175 ], [ -82.436711138888896, 27.852123555555558 ], [ -82.43666397222222, 27.850323861111111 ], [ -82.43666536111111, 27.848523638888889 ], [ -82.436715333333339, 27.846724 ], [ -82.436813805555559, 27.844925944444444 ], [ -82.436960777777784, 27.843130472222221 ], [ -82.437156138888895, 27.841338666666665 ], [ -82.437399777777784, 27.839551555555555 ], [ -82.437691527777787, 27.837770138888889 ], [ -82.43803125, 27.835995444444443 ], [ -82.438418722222224, 27.8342285 ], [ -82.43885375, 27.832470333333333 ], [ -82.439336055555557, 27.830721916666665 ], [ -82.439865361111117, 27.828984305555554 ], [ -82.440441361111112, 27.827258472222223 ], [ -82.44106375, 27.825545416666667 ], [ -82.441732111111108, 27.823846111111109 ], [ -82.44244611111111, 27.822161527777777 ], [ -82.443205333333339, 27.820492666666667 ], [ -82.444009305555554, 27.818840444444444 ], [ -82.444857583333331, 27.817205861111113 ], [ -82.445749694444444, 27.815589805555557 ], [ -82.446685083333335, 27.813993222222223 ], [ -82.44766325, 27.812417055555557 ], [ -82.448683611111122, 27.810862166666666 ], [ -82.449745583333339, 27.8093295 ], [ -82.450848555555552, 27.80781988888889 ], [ -82.451991861111111, 27.806334222222223 ], [ -82.453174916666669, 27.804873361111113 ], [ -82.454396972222227, 27.803438111111113 ], [ -82.455657333333335, 27.802029333333333 ], [ -82.45695533333334, 27.800647833333333 ], [ -82.458290138888898, 27.799294388888889 ], [ -82.459661055555557, 27.79796977777778 ], [ -82.46106725, 27.79667475 ], [ -82.462507916666667, 27.795410083333334 ], [ -82.46398225, 27.7941765 ], [ -82.465489388888898, 27.792974666666669 ], [ -82.467028444444452, 27.791805305555556 ], [ -82.468598583333332, 27.790669111111114 ], [ -82.470198861111115, 27.789566666666669 ], [ -82.471828388888895, 27.788498666666669 ], [ -82.473486194444448, 27.787465722222223 ], [ -82.475171361111109, 27.786468388888892 ], [ -82.476882888888895, 27.78550725 ], [ -82.478619805555553, 27.784582888888892 ], [ -82.480381138888887, 27.783695805555556 ], [ -82.48216583333334, 27.782846527777778 ], [ -82.483972888888886, 27.7820355 ], [ -82.485801277777782, 27.78126325 ], [ -82.487649944444442, 27.780530194444445 ], [ -82.48951780555555, 27.779836722222221 ], [ -82.491403805555549, 27.779183277777776 ], [ -82.493306833333335, 27.778570222222221 ], [ -82.495225861111109, 27.777997888888887 ], [ -82.497159722222221, 27.777466638888889 ], [ -82.499107333333328, 27.77697675 ], [ -82.501067583333338, 27.776528527777778 ], [ -82.503039361111107, 27.776122194444444 ], [ -82.505021472222225, 27.775758027777776 ], [ -82.507012861111107, 27.775436194444442 ], [ -82.509012305555558, 27.775156888888887 ], [ -82.511018722222218, 27.774920305555554 ], [ -82.513030916666665, 27.774726527777776 ], [ -82.51504775, 27.77457572222222 ], [ -82.517068083333328, 27.774467916666666 ], [ -82.519090722222217, 27.774403222222222 ], [ -82.521114527777783, 27.774381638888887 ], [ -82.523138333333335, 27.774403222222222 ], [ -82.525160972222224, 27.774467916666666 ], [ -82.527181277777771, 27.77457572222222 ], [ -82.529198138888887, 27.774726527777776 ], [ -82.531210333333334, 27.774920305555554 ], [ -82.533216722222221, 27.775156888888887 ], [ -82.535216194444445, 27.775436194444442 ], [ -82.537207555555554, 27.775758027777776 ], [ -82.539189694444445, 27.776122194444444 ], [ -82.541161444444441, 27.776528527777778 ], [ -82.543121694444437, 27.77697675 ], [ -82.545069305555558, 27.777466638888889 ], [ -82.547003194444443, 27.777997888888887 ], [ -82.548922194444444, 27.778570222222221 ], [ -82.55082525, 27.779183277777776 ], [ -82.55271125, 27.779836722222221 ], [ -82.55394438888888, 27.780294527777777 ] ] } },
{ "type": "Feature", "properties": { "style": "solid", "thickness": 1 }, "geometry": { "type": "LineString", "coordinates": [ [ -82.491062777777785, 27.91945627777778 ], [ -82.489535416666669, 27.918927 ], [ -82.487669027777784, 27.918233944444445 ], [ -82.485821916666666, 27.917501305555557 ], [ -82.483995111111113, 27.916729527777779 ], [ -82.48218972222223, 27.915919027777775 ], [ -82.48040675, 27.915070277777776 ], [ -82.478647222222222, 27.914183777777776 ], [ -82.476912166666665, 27.913260027777778 ], [ -82.475202583333342, 27.912299555555553 ], [ -82.473519416666662, 27.911302944444444 ], [ -82.471863694444451, 27.910270722222222 ], [ -82.47023636111112, 27.909203527777777 ], [ -82.468638305555558, 27.908101944444443 ], [ -82.4670705, 27.906966611111109 ], [ -82.465533805555552, 27.905798194444444 ], [ -82.46402913888889, 27.904597361111108 ], [ -82.462557333333336, 27.903364805555555 ], [ -82.46111925, 27.90210125 ], [ -82.45971575, 27.900807388888886 ], [ -82.458347583333335, 27.899484 ], [ -82.45701558333333, 27.898131833333334 ], [ -82.455720472222225, 27.896751638888887 ], [ -82.454463027777777, 27.895344277777777 ], [ -82.453243972222225, 27.8939105 ], [ -82.452064, 27.892451138888887 ], [ -82.450923777777774, 27.890967055555556 ], [ -82.449823944444447, 27.889459111111112 ], [ -82.448765194444448, 27.887928138888888 ], [ -82.447748055555564, 27.886375055555554 ], [ -82.446773194444447, 27.88480075 ], [ -82.445841083333335, 27.883206111111111 ], [ -82.444952333333333, 27.881592055555554 ], [ -82.444107416666668, 27.879959527777778 ], [ -82.443306805555565, 27.878309444444444 ], [ -82.442551, 27.876642805555555 ], [ -82.441840388888892, 27.8749605 ], [ -82.441175416666667, 27.873263555555557 ], [ -82.440556444444454, 27.871552916666666 ], [ -82.439983833333343, 27.869829583333335 ], [ -82.439457888888896, 27.868094555555555 ], [ -82.438978944444443, 27.86634877777778 ], [ -82.43854725, 27.864593333333335 ], [ -82.438163055555563, 27.862829166666668 ], [ -82.437826583333333, 27.861057333333335 ], [ -82.437538027777777, 27.859278833333335 ], [ -82.43729755555556, 27.857494694444444 ], [ -82.437105277777775, 27.855705944444445 ], [ -82.436961333333343, 27.853913583333334 ], [ -82.436865777777783, 27.852118694444446 ], [ -82.436818694444455, 27.850322305555558 ], [ -82.43682008333333, 27.848525388888888 ], [ -82.436869944444453, 27.846729027777776 ], [ -82.43696825, 27.844934277777778 ], [ -82.437114944444446, 27.84314211111111 ], [ -82.437309944444451, 27.841353583333333 ], [ -82.437553138888887, 27.839569722222222 ], [ -82.437844361111118, 27.837791583333331 ], [ -82.438183444444448, 27.836020138888887 ], [ -82.438570222222225, 27.834256416666666 ], [ -82.43900444444445, 27.832501472222223 ], [ -82.439485861111109, 27.830756277777777 ], [ -82.440014194444444, 27.829021861111112 ], [ -82.440589138888896, 27.827299166666666 ], [ -82.441210361111118, 27.82558925 ], [ -82.441877527777777, 27.823893055555555 ], [ -82.442590222222222, 27.822211583333335 ], [ -82.443348027777787, 27.82054575 ], [ -82.444150527777779, 27.818896583333334 ], [ -82.44499725, 27.817264972222222 ], [ -82.445887722222224, 27.81565188888889 ], [ -82.446821416666666, 27.814058222222222 ], [ -82.44779777777778, 27.812484944444446 ], [ -82.44881625, 27.810932916666669 ], [ -82.449876277777776, 27.80940302777778 ], [ -82.450977222222221, 27.807896194444446 ], [ -82.452118472222224, 27.80641325 ], [ -82.453299333333334, 27.804955055555556 ], [ -82.454519166666671, 27.803522444444447 ], [ -82.455777222222224, 27.80211625 ], [ -82.457072805555555, 27.800737277777777 ], [ -82.458405194444452, 27.799386305555558 ], [ -82.45977358333333, 27.798064111111113 ], [ -82.461177194444446, 27.796771472222225 ], [ -82.462615222222226, 27.795509111111112 ], [ -82.464086861111113, 27.794277777777779 ], [ -82.46559125, 27.793078166666668 ], [ -82.4671275, 27.791910944444446 ], [ -82.46869475, 27.790776805555556 ], [ -82.470292111111107, 27.789676416666669 ], [ -82.471918638888894, 27.788610361111111 ], [ -82.473573416666667, 27.787579305555557 ], [ -82.47525547222223, 27.786583805555559 ], [ -82.476963888888889, 27.785624416666668 ], [ -82.478697638888889, 27.78470175 ], [ -82.480455722222217, 27.783816277777781 ], [ -82.482237166666664, 27.782968555555556 ], [ -82.484040916666672, 27.782159027777777 ], [ -82.485865944444441, 27.781388194444443 ], [ -82.487711222222217, 27.780656472222223 ], [ -82.489575638888894, 27.779964277777776 ], [ -82.491458194444448, 27.779312027777777 ], [ -82.49335775, 27.778700083333334 ], [ -82.49527325, 27.778128805555554 ], [ -82.497203583333331, 27.777598527777776 ], [ -82.499147638888886, 27.777109555555555 ], [ -82.501104305555558, 27.776662138888888 ], [ -82.503072444444442, 27.776256555555555 ], [ -82.505050944444449, 27.775893027777776 ], [ -82.507038666666674, 27.775571805555554 ], [ -82.509034472222226, 27.775293 ], [ -82.511037194444441, 27.775056861111111 ], [ -82.513045722222216, 27.774863444444442 ], [ -82.515058861111115, 27.774712888888889 ], [ -82.517075472222217, 27.774605305555554 ], [ -82.519094416666661, 27.77454072222222 ], [ -82.521114527777783, 27.774519194444444 ], [ -82.523134611111104, 27.77454072222222 ], [ -82.525153555555548, 27.774605305555554 ], [ -82.527170194444437, 27.774712888888889 ], [ -82.529183333333336, 27.774863444444442 ], [ -82.531191833333338, 27.775056861111111 ], [ -82.533194583333326, 27.775293 ], [ -82.535190361111106, 27.775571805555554 ], [ -82.53717808333333, 27.775893027777776 ], [ -82.539156583333337, 27.776256555555555 ], [ -82.54112475, 27.776662138888888 ], [ -82.543081388888893, 27.777109555555555 ], [ -82.545025444444448, 27.777598527777776 ], [ -82.546955777777782, 27.778128805555554 ], [ -82.548871277777778, 27.778700083333334 ], [ -82.550770861111104, 27.779312027777777 ], [ -82.552653388888885, 27.779964277777776 ], [ -82.553852527777778, 27.780409444444444 ] ] } },
{ "type": "Feature", "properties": { "style": "solid", "thickness": 1 }, "geometry": { "type": "LineString", "coordinates": [ [ -82.554220055555547, 27.779949805555553 ], [ -82.591122972222223, 27.816616944444444 ] ] } },
{ "type": "Feature", "properties": { "style": "solid", "thickness": 1 }, "geometry": { "type": "LineString", "coordinates": [ [ -82.554128166666658, 27.780064722222221 ], [ -82.591021777777769, 27.816722611111111 ] ] } },
{ "type": "Feature", "properties": { "style": "solid", "thickness": 1 }, "geometry": { "type": "LineString", "coordinates": [ [ -82.55394438888888, 27.780294527777777 ], [ -82.590819361111102, 27.816933972222223 ] ] } },
{ "type": "Feature", "properties": { "style": "solid", "thickness": 1 }, "geometry": { "type": "LineString", "coordinates": [ [ -82.553852527777778, 27.780409444444444 ], [ -82.590718166666662, 27.81703963888889 ] ] } },
{ "type": "Feature", "properties": { "style": "solid", "thickness": 1 }, "geometry": { "type": "LineString", "coordinates": [ [ -82.490265166666674, 27.920065583333333 ], [ -82.51471875, 27.894929805555556 ], [ -82.534032555555555, 27.875570111111113 ], [ -82.562083555555546, 27.84671622222222 ], [ -82.59122125, 27.816302194444447 ] ] } },
{ "type": "Feature", "properties": { "style": "solid", "thickness": 1 }, "geometry": { "type": "LineString", "coordinates": [ [ -82.489346944444449, 27.91974738888889 ], [ -82.514019888888882, 27.894386333333333 ], [ -82.533333805555557, 27.875026666666667 ], [ -82.561378972222215, 27.846178972222219 ], [ -82.590596527777777, 27.81568175 ] ] } },
{ "type": "Feature", "properties": { "style": "solid", "thickness": 1 }, "geometry": { "type": "LineString", "coordinates": [ [ -82.489193777777785, 27.919694472222222 ], [ -82.513903416666665, 27.89429575 ], [ -82.533217333333326, 27.874936083333335 ], [ -82.561261527777773, 27.846089416666665 ], [ -82.59049238888889, 27.815578333333335 ] ] } },
{ "type": "Feature", "properties": { "style": "solid", "thickness": 1 }, "geometry": { "type": "LineString", "coordinates": [ [ -82.490418222222218, 27.920118611111111 ], [ -82.51483525, 27.895020361111111 ], [ -82.534149027777772, 27.875660694444445 ], [ -82.562201, 27.846805777777778 ], [ -82.591325361111103, 27.816405583333335 ] ] } },
{ "type": "Feature", "properties": { "style": "solid", "thickness": 1 }, "geometry": { "type": "LineString", "coordinates": [ [ -82.55366875, 27.780639277777777 ], [ -82.59051575, 27.817251 ] ] } },
{ "type": "Feature", "properties": { "style": "solid", "thickness": 1 }, "geometry": { "type": "LineString", "coordinates": [ [ -82.553760638888889, 27.780524361111109 ], [ -82.590616944444434, 27.817145333333333 ] ] } },
{ "type": "Feature", "properties": { "style": "solid", "thickness": 1 }, "geometry": { "type": "LineString", "coordinates": [ [ -82.554311916666663, 27.779834888888889 ], [ -82.591224166666663, 27.816511277777778 ] ] } },
{ "type": "Feature", "properties": { "style": "solid", "thickness": 1 }, "geometry": { "type": "LineString", "coordinates": [ [ -82.554403805555552, 27.779719972222221 ], [ -82.591325361111103, 27.816405583333335 ] ] } },
{ "type": "Feature", "properties": { "style": "solid", "thickness": 1 }, "geometry": { "type": "LineString", "coordinates": [ [ -82.490525638888883, 27.920008222222222 ], [ -82.489245416666662, 27.919564583333333 ], [ -82.487361888888884, 27.918865166666667 ], [ -82.485497805555553, 27.918125805555558 ], [ -82.48365425, 27.917346944444446 ], [ -82.481832277777784, 27.916529 ], [ -82.480032916666673, 27.915672444444443 ], [ -82.47825725, 27.914777805555556 ], [ -82.47650625, 27.91384558333333 ], [ -82.47478097222222, 27.912876277777777 ], [ -82.473082361111111, 27.9118705 ], [ -82.471411444444442, 27.910828833333333 ], [ -82.469769166666666, 27.909751833333331 ], [ -82.468156444444446, 27.908640111111108 ], [ -82.46657425, 27.907494361111109 ], [ -82.465023444444441, 27.906315222222222 ], [ -82.463504972222225, 27.905103388888886 ], [ -82.462019666666663, 27.9038595 ], [ -82.460568388888888, 27.902584333333333 ], [ -82.459152, 27.90127861111111 ], [ -82.45777127777778, 27.899943055555553 ], [ -82.456427055555565, 27.898578472222223 ], [ -82.455120055555554, 27.897185611111112 ], [ -82.453851083333333, 27.895765305555557 ], [ -82.452620833333341, 27.894318361111111 ], [ -82.451430027777775, 27.89284563888889 ], [ -82.450279333333341, 27.891347916666668 ], [ -82.449169444444451, 27.889826138888889 ], [ -82.448100944444448, 27.888281111111112 ], [ -82.4470745, 27.886713777777778 ], [ -82.44609069444445, 27.885125 ], [ -82.445150055555558, 27.883515722222221 ], [ -82.444253138888897, 27.881886833333333 ], [ -82.443400472222223, 27.880239333333332 ], [ -82.442592527777776, 27.87857411111111 ], [ -82.441829805555557, 27.876892166666668 ], [ -82.441112694444442, 27.875194416666666 ], [ -82.440441611111112, 27.87348188888889 ], [ -82.439816972222232, 27.871755555555556 ], [ -82.439239111111121, 27.870016416666669 ], [ -82.438708361111111, 27.868265444444447 ], [ -82.438225027777776, 27.866503666666667 ], [ -82.437789361111115, 27.864732083333333 ], [ -82.437401666666673, 27.862951722222224 ], [ -82.437062111111118, 27.86116363888889 ], [ -82.436770916666674, 27.859368805555558 ], [ -82.43652825, 27.85756827777778 ], [ -82.436334222222229, 27.855763111111113 ], [ -82.436188972222226, 27.853954333333334 ], [ -82.436092583333334, 27.852142972222225 ], [ -82.436045055555553, 27.850330055555556 ], [ -82.43604647222223, 27.848516666666665 ], [ -82.436096805555565, 27.846703833333333 ], [ -82.436196027777783, 27.844892583333333 ], [ -82.436344083333339, 27.843083972222221 ], [ -82.436540888888899, 27.841279055555553 ], [ -82.436786305555557, 27.839478833333331 ], [ -82.437080222222221, 27.837684361111108 ], [ -82.437422444444451, 27.835896666666667 ], [ -82.437812777777779, 27.834116777777776 ], [ -82.438250972222221, 27.832345722222222 ], [ -82.438736833333337, 27.8305845 ], [ -82.439270027777781, 27.82883413888889 ], [ -82.439850277777779, 27.827095666666665 ], [ -82.440477222222228, 27.825370055555556 ], [ -82.4411505, 27.823658305555554 ], [ -82.44186975, 27.821961388888887 ], [ -82.442634527777784, 27.820280277777776 ], [ -82.443444388888892, 27.818615972222222 ], [ -82.444298888888895, 27.816969388888889 ], [ -82.445197527777779, 27.8153415 ], [ -82.446139805555561, 27.81373325 ], [ -82.447125138888893, 27.81214552777778 ], [ -82.448152972222232, 27.81057925 ], [ -82.449222722222231, 27.809035333333334 ], [ -82.450333777777786, 27.807514666666666 ], [ -82.4514855, 27.806018111111111 ], [ -82.452677222222221, 27.804546555555557 ], [ -82.453908222222225, 27.803100805555555 ], [ -82.45517786111111, 27.801681694444444 ], [ -82.456485333333333, 27.800290055555557 ], [ -82.457829944444441, 27.798926694444447 ], [ -82.45921088888889, 27.797592388888891 ], [ -82.460627388888895, 27.796287888888891 ], [ -82.46207861111111, 27.795013972222225 ], [ -82.46356375, 27.793771333333336 ], [ -82.465081944444449, 27.792560694444447 ], [ -82.466632277777776, 27.79138277777778 ], [ -82.46821391666667, 27.79023825 ], [ -82.469825944444452, 27.78912775 ], [ -82.471467388888897, 27.788051916666667 ], [ -82.473137361111114, 27.787011388888889 ], [ -82.47483486111112, 27.786006777777779 ], [ -82.476558916666662, 27.785038611111112 ], [ -82.47830858333333, 27.784107472222225 ], [ -82.480082805555554, 27.783213888888888 ], [ -82.481880583333336, 27.782358361111111 ], [ -82.48370088888889, 27.781541416666666 ], [ -82.485542638888887, 27.7807635 ], [ -82.487404833333329, 27.780025055555555 ], [ -82.489286388888885, 27.779326527777776 ], [ -82.491186194444452, 27.778668305555556 ], [ -82.493103194444444, 27.77805075 ], [ -82.49503625, 27.77747425 ], [ -82.496984277777784, 27.776939083333332 ], [ -82.49894616666667, 27.776445611111111 ], [ -82.500920777777779, 27.77599411111111 ], [ -82.50290697222222, 27.775584805555553 ], [ -82.504903611111118, 27.775217944444442 ], [ -82.506909583333339, 27.774893777777777 ], [ -82.508923666666661, 27.774612416666667 ], [ -82.51094477777778, 27.774374111111111 ], [ -82.512971722222218, 27.774178916666667 ], [ -82.51500333333334, 27.774027 ], [ -82.517038444444438, 27.773918416666664 ], [ -82.519075888888892, 27.773853222222222 ], [ -82.521114527777783, 27.7738315 ], [ -82.523153138888887, 27.773853222222222 ], [ -82.525190611111114, 27.773918416666664 ], [ -82.527225722222227, 27.774027 ], [ -82.529257333333334, 27.774178916666667 ], [ -82.531284277777772, 27.774374111111111 ], [ -82.533305361111104, 27.774612416666667 ], [ -82.535319472222227, 27.774893777777777 ], [ -82.537325416666661, 27.775217944444442 ], [ -82.539322055555559, 27.775584805555553 ], [ -82.54130825, 27.77599411111111 ], [ -82.543282861111109, 27.776445611111111 ], [ -82.54524475, 27.776939083333332 ], [ -82.547192777777781, 27.77747425 ], [ -82.549125861111108, 27.77805075 ], [ -82.551042833333327, 27.778668305555556 ], [ -82.552942666666667, 27.779326527777776 ], [ -82.554311916666663, 27.779834888888889 ] ] } },
{ "type": "Feature", "properties": { "style": "solid", "thickness": 1 }, "geometry": { "type": "LineString", "coordinates": [ [ -82.490418222222218, 27.920118611111111 ], [ -82.489187416666667, 27.919692111111111 ], [ -82.487300472222216, 27.918991416666668 ], [ -82.485432972222227, 27.918250722222222 ], [ -82.483586055555563, 27.917470416666667 ], [ -82.481760777777779, 27.916650972222222 ], [ -82.479958166666663, 27.915792888888888 ], [ -82.47817925, 27.914896611111111 ], [ -82.476425083333339, 27.913962694444443 ], [ -82.474696638888886, 27.912991638888887 ], [ -82.472994972222224, 27.911984027777777 ], [ -82.471321, 27.910940444444442 ], [ -82.46967572222222, 27.909861472222222 ], [ -82.468060083333341, 27.90874775 ], [ -82.46647497222223, 27.907599916666666 ], [ -82.464921361111109, 27.906418638888887 ], [ -82.463400111111113, 27.905204583333333 ], [ -82.461912111111118, 27.903958444444442 ], [ -82.460458222222229, 27.902680944444445 ], [ -82.45903925, 27.901372833333333 ], [ -82.457656027777787, 27.900034861111109 ], [ -82.456309333333337, 27.898667805555554 ], [ -82.454999972222225, 27.897272416666667 ], [ -82.45372869444445, 27.895849527777777 ], [ -82.45249619444445, 27.894399944444444 ], [ -82.451303222222222, 27.892924527777776 ], [ -82.450150444444446, 27.891424083333334 ], [ -82.449038527777788, 27.889899527777779 ], [ -82.447968111111109, 27.888351694444445 ], [ -82.446939805555559, 27.8867815 ], [ -82.445954194444454, 27.885189833333332 ], [ -82.445011833333339, 27.883577638888887 ], [ -82.444113305555561, 27.881945805555556 ], [ -82.443259083333331, 27.88029527777778 ], [ -82.442449694444448, 27.878627055555555 ], [ -82.441685555555566, 27.87694202777778 ], [ -82.440967138888894, 27.875241194444445 ], [ -82.440294861111113, 27.873525555555556 ], [ -82.439669083333342, 27.871796083333333 ], [ -82.439090166666674, 27.870053777777777 ], [ -82.438558444444453, 27.868299611111112 ], [ -82.438074222222227, 27.86653463888889 ], [ -82.437637805555553, 27.864759833333334 ], [ -82.437249388888887, 27.86297625 ], [ -82.436909222222226, 27.861184888888889 ], [ -82.4366175, 27.859386805555555 ], [ -82.436374388888893, 27.857583 ], [ -82.43618002777778, 27.855774555555556 ], [ -82.4360345, 27.853962472222225 ], [ -82.435937916666674, 27.852147805555557 ], [ -82.435890333333333, 27.850331611111113 ], [ -82.43589175000001, 27.848514916666666 ], [ -82.435942194444451, 27.846698805555555 ], [ -82.436041583333335, 27.84488425 ], [ -82.436189916666677, 27.843072361111108 ], [ -82.436387083333344, 27.841264138888889 ], [ -82.436632944444455, 27.839460638888887 ], [ -82.43692738888889, 27.837662888888886 ], [ -82.437270222222224, 27.835871944444442 ], [ -82.437661277777778, 27.834088833333333 ], [ -82.438100277777778, 27.832314555555556 ], [ -82.438587027777785, 27.830550138888889 ], [ -82.439121194444454, 27.828796611111112 ], [ -82.43970250000001, 27.827054972222221 ], [ -82.440330583333335, 27.825326222222223 ], [ -82.441005083333337, 27.823611361111112 ], [ -82.441725638888897, 27.821911361111113 ], [ -82.442491805555562, 27.820227194444445 ], [ -82.443303166666666, 27.818559861111112 ], [ -82.444159222222225, 27.816910277777776 ], [ -82.4450595, 27.815279444444446 ], [ -82.44600347222223, 27.81366825 ], [ -82.446990611111119, 27.812077638888891 ], [ -82.448020333333332, 27.810508527777777 ], [ -82.44909202777778, 27.808961805555555 ], [ -82.450205111111117, 27.80743836111111 ], [ -82.451358916666663, 27.805939083333335 ], [ -82.452552777777782, 27.804464833333334 ], [ -82.453786055555554, 27.803016472222222 ], [ -82.455057972222221, 27.80159477777778 ], [ -82.456367833333331, 27.800200638888889 ], [ -82.457714888888887, 27.798834777777781 ], [ -82.459098361111117, 27.797498055555558 ], [ -82.460517416666676, 27.796191166666667 ], [ -82.461971305555565, 27.794914944444447 ], [ -82.463459138888894, 27.793670027777779 ], [ -82.46498008333333, 27.792457222222225 ], [ -82.46653325, 27.791277138888891 ], [ -82.46811775, 27.79013052777778 ], [ -82.469732694444446, 27.789018027777779 ], [ -82.471377138888897, 27.78794025 ], [ -82.473050138888894, 27.786897833333335 ], [ -82.474750722222225, 27.785891361111112 ], [ -82.47647794444444, 27.784921444444446 ], [ -82.478230777777782, 27.783988611111113 ], [ -82.480008222222224, 27.783093388888886 ], [ -82.48180925, 27.782236333333334 ], [ -82.483632861111118, 27.781417888888889 ], [ -82.485478, 27.780638555555555 ], [ -82.487343583333328, 27.779898777777777 ], [ -82.489228527777783, 27.779198972222222 ], [ -82.491131805555554, 27.778539555555554 ], [ -82.493052277777778, 27.77792088888889 ], [ -82.494988861111111, 27.777343333333331 ], [ -82.496940416666661, 27.776807194444444 ], [ -82.498905888888885, 27.776312833333332 ], [ -82.500884083333332, 27.7758605 ], [ -82.502873888888885, 27.775450444444445 ], [ -82.504874166666667, 27.775082944444442 ], [ -82.50688375, 27.774758166666665 ], [ -82.50890152777778, 27.774476305555556 ], [ -82.510926305555557, 27.774237555555555 ], [ -82.512956916666667, 27.774042 ], [ -82.514992222222219, 27.773889805555555 ], [ -82.517031027777776, 27.773781027777776 ], [ -82.519072194444448, 27.773715722222221 ], [ -82.521114527777783, 27.773693972222222 ], [ -82.523156861111104, 27.773715722222221 ], [ -82.525198, 27.773781027777776 ], [ -82.527236833333333, 27.773889805555555 ], [ -82.529272138888885, 27.774042 ], [ -82.53130275, 27.774237555555555 ], [ -82.533327527777772, 27.774476305555556 ], [ -82.535345277777779, 27.774758166666665 ], [ -82.537354888888885, 27.775082944444442 ], [ -82.539355166666667, 27.775450444444445 ], [ -82.54134497222222, 27.7758605 ], [ -82.543323166666667, 27.776312833333332 ], [ -82.545288611111104, 27.776807194444444 ], [ -82.547240194444441, 27.777343333333331 ], [ -82.549176777777774, 27.77792088888889 ], [ -82.55109725, 27.778539555555554 ], [ -82.5530005, 27.779198972222222 ], [ -82.554403805555552, 27.779719972222221 ] ] } },
{ "type": "Feature", "properties": { "style": "solid", "thickness": 1 }, "geometry": { "type": "LineString", "coordinates": [ [ -82.491170222222223, 27.919345888888891 ], [ -82.489593416666665, 27.918799472222222 ], [ -82.487730472222225, 27.918107694444444 ], [ -82.485886722222219, 27.917376416666666 ], [ -82.484063305555551, 27.916606027777778 ], [ -82.482261194444447, 27.915797027777778 ], [ -82.4804815, 27.914949833333331 ], [ -82.478725222222224, 27.914064972222221 ], [ -82.47699333333334, 27.913142916666665 ], [ -82.475286888888888, 27.912184222222219 ], [ -82.473606833333335, 27.911189416666666 ], [ -82.471954166666663, 27.91015911111111 ], [ -82.470329805555551, 27.90909386111111 ], [ -82.46873469444445, 27.907994305555555 ], [ -82.46716975, 27.906861055555556 ], [ -82.46563586111111, 27.905694777777775 ], [ -82.464133972222228, 27.904496166666664 ], [ -82.462664861111108, 27.903265888888889 ], [ -82.461229444444442, 27.902004638888886 ], [ -82.4598285, 27.900713138888886 ], [ -82.458462861111116, 27.899392194444445 ], [ -82.457133277777785, 27.8980425 ], [ -82.455840555555554, 27.896664861111109 ], [ -82.454585416666674, 27.895260055555553 ], [ -82.453368611111117, 27.893828916666667 ], [ -82.452190777777787, 27.89237225 ], [ -82.451052638888896, 27.890890888888887 ], [ -82.449954861111109, 27.889385694444442 ], [ -82.448898027777787, 27.887857555555556 ], [ -82.447882777777778, 27.886307333333331 ], [ -82.44690966666667, 27.884735888888887 ], [ -82.445979305555554, 27.883144166666668 ], [ -82.445092166666669, 27.881533083333334 ], [ -82.44424880555556, 27.879903555555558 ], [ -82.443449666666666, 27.878256527777779 ], [ -82.44269525, 27.876592916666667 ], [ -82.441985944444454, 27.874913722222221 ], [ -82.441322194444453, 27.87321988888889 ], [ -82.440704333333343, 27.871512388888888 ], [ -82.440132777777777, 27.869792222222223 ], [ -82.439607805555553, 27.868060361111112 ], [ -82.439129722222219, 27.866317805555557 ], [ -82.438698805555561, 27.864565583333334 ], [ -82.438315333333335, 27.862804666666669 ], [ -82.437979472222224, 27.861036083333335 ], [ -82.437691444444454, 27.859260833333334 ], [ -82.437451388888888, 27.857479972222222 ], [ -82.437259472222223, 27.8556945 ], [ -82.437115805555564, 27.853905444444447 ], [ -82.437020444444443, 27.852113861111114 ], [ -82.436973416666675, 27.85032075 ], [ -82.436974805555565, 27.848527138888887 ], [ -82.43702458333334, 27.846734083333331 ], [ -82.437122694444454, 27.844942611111112 ], [ -82.437269138888894, 27.843153722222223 ], [ -82.437463777777779, 27.8413685 ], [ -82.4377065, 27.839587916666666 ], [ -82.437997166666676, 27.837813027777777 ], [ -82.438335638888887, 27.836044833333332 ], [ -82.438721694444453, 27.834284361111109 ], [ -82.43915511111112, 27.832532638888889 ], [ -82.439635666666675, 27.830790638888889 ], [ -82.440163027777785, 27.82905938888889 ], [ -82.440736916666665, 27.82733988888889 ], [ -82.441357, 27.825633083333333 ], [ -82.442022916666673, 27.82394 ], [ -82.442734305555561, 27.822261611111109 ], [ -82.443490722222222, 27.820598861111112 ], [ -82.44429175, 27.818952694444445 ], [ -82.445136944444442, 27.817324083333332 ], [ -82.44602575, 27.815713944444447 ], [ -82.446957722222223, 27.814123222222221 ], [ -82.447932305555554, 27.812552833333335 ], [ -82.448948916666666, 27.811003638888888 ], [ -82.450007, 27.809476583333335 ], [ -82.451105916666663, 27.8079725 ], [ -82.452245055555565, 27.806492277777778 ], [ -82.45342375, 27.80503675 ], [ -82.454641333333342, 27.80360677777778 ], [ -82.45589708333334, 27.802203166666668 ], [ -82.457190305555557, 27.800826694444446 ], [ -82.45852025, 27.799478222222223 ], [ -82.459886111111118, 27.798158444444447 ], [ -82.461287166666665, 27.796868194444446 ], [ -82.462722555555558, 27.795608138888891 ], [ -82.4641915, 27.794379083333336 ], [ -82.465693111111108, 27.793181638888889 ], [ -82.467226527777783, 27.792016583333336 ], [ -82.468790916666663, 27.790884527777781 ], [ -82.47038533333334, 27.789786138888889 ], [ -82.472008888888894, 27.788722055555557 ], [ -82.473660638888887, 27.787692888888891 ], [ -82.47533961111111, 27.786699194444445 ], [ -82.477044861111111, 27.785741583333333 ], [ -82.478775444444452, 27.784820611111112 ], [ -82.480530305555561, 27.783936777777779 ], [ -82.482308472222229, 27.783090583333333 ], [ -82.484108916666671, 27.782282555555554 ], [ -82.485930611111115, 27.78151311111111 ], [ -82.487772472222218, 27.78078275 ], [ -82.4896335, 27.780091833333334 ], [ -82.491512583333332, 27.779440777777776 ], [ -82.493408666666667, 27.778829944444443 ], [ -82.495320666666672, 27.77825972222222 ], [ -82.49724744444444, 27.777730416666667 ], [ -82.499187944444444, 27.777242333333334 ], [ -82.501141, 27.77679575 ], [ -82.503105527777777, 27.776390888888887 ], [ -82.505080416666672, 27.776028055555553 ], [ -82.5070645, 27.77570738888889 ], [ -82.509056638888893, 27.775429138888889 ], [ -82.511055694444451, 27.775193388888887 ], [ -82.513060527777782, 27.775000333333331 ], [ -82.515069972222221, 27.774850083333334 ], [ -82.517082888888893, 27.774742666666665 ], [ -82.519098138888893, 27.774678222222221 ], [ -82.521114527777783, 27.774656722222222 ], [ -82.523130916666659, 27.774678222222221 ], [ -82.525146138888886, 27.774742666666665 ], [ -82.527159083333331, 27.774850083333334 ], [ -82.52916852777777, 27.775000333333331 ], [ -82.531173361111115, 27.775193388888887 ], [ -82.533172416666659, 27.775429138888889 ], [ -82.535164555555554, 27.77570738888889 ], [ -82.537148638888894, 27.776028055555553 ], [ -82.5391235, 27.776390888888887 ], [ -82.541088027777775, 27.776795722222221 ], [ -82.543041111111108, 27.777242333333334 ], [ -82.544981583333325, 27.777730416666667 ], [ -82.54690838888888, 27.77825972222222 ], [ -82.548820361111112, 27.778829944444443 ], [ -82.550716444444447, 27.779440777777776 ], [ -82.552595527777768, 27.780091833333334 ], [ -82.553760638888889, 27.780524361111109 ] ] } },
{ "type": "Feature", "properties": { "style": "solid", "thickness": 1 }, "geometry": { "type": "LineString", "coordinates": [ [ -82.491277638888889, 27.9192355 ], [ -82.489651416666661, 27.918671944444444 ], [ -82.487791888888893, 27.917981444444447 ], [ -82.485951555555559, 27.9172515 ], [ -82.484131472222217, 27.916482555555554 ], [ -82.482332694444452, 27.915675027777777 ], [ -82.480556277777779, 27.914829416666667 ], [ -82.478803222222226, 27.913946166666666 ], [ -82.477074527777773, 27.913025805555556 ], [ -82.475371222222222, 27.912068861111109 ], [ -82.47369425, 27.911075888888888 ], [ -82.472044611111116, 27.910047472222221 ], [ -82.470423222222223, 27.908984194444443 ], [ -82.468831055555555, 27.907886666666666 ], [ -82.467269, 27.9067555 ], [ -82.465737944444442, 27.905591388888887 ], [ -82.464238805555553, 27.904394972222221 ], [ -82.462772416666667, 27.903166944444443 ], [ -82.461339611111114, 27.901908 ], [ -82.45994125, 27.900618916666666 ], [ -82.458578111111109, 27.899300361111109 ], [ -82.457251, 27.897953166666667 ], [ -82.455960638888897, 27.896578055555555 ], [ -82.45470783333333, 27.895175833333333 ], [ -82.453493222222221, 27.893747333333334 ], [ -82.45231758333334, 27.892293333333331 ], [ -82.451181527777777, 27.89081472222222 ], [ -82.45008575, 27.889312305555556 ], [ -82.449030861111112, 27.887786972222223 ], [ -82.448017472222233, 27.886239583333332 ], [ -82.447046166666667, 27.884671055555554 ], [ -82.4461175, 27.88308225 ], [ -82.445232, 27.88147413888889 ], [ -82.444390194444452, 27.87984761111111 ], [ -82.443592527777781, 27.878203583333335 ], [ -82.442839472222232, 27.876543055555555 ], [ -82.442131472222229, 27.874866944444445 ], [ -82.441468944444452, 27.873176222222224 ], [ -82.440852222222233, 27.871471861111111 ], [ -82.440281722222224, 27.869754861111112 ], [ -82.439757694444452, 27.868026194444443 ], [ -82.43928050000001, 27.866286833333334 ], [ -82.438850388888895, 27.864537833333333 ], [ -82.438467611111122, 27.86278013888889 ], [ -82.438132361111116, 27.861014805555556 ], [ -82.437844861111117, 27.859242833333333 ], [ -82.43760525, 27.85746525 ], [ -82.437413694444444, 27.855683055555556 ], [ -82.437270277777785, 27.853897305555556 ], [ -82.437175083333344, 27.852109 ], [ -82.437128138888895, 27.850319194444445 ], [ -82.437129527777785, 27.848528888888886 ], [ -82.437179194444454, 27.846739111111109 ], [ -82.437277138888888, 27.844950944444442 ], [ -82.437423305555555, 27.843165361111112 ], [ -82.437617583333335, 27.841383388888886 ], [ -82.437859861111122, 27.839606083333333 ], [ -82.43815, 27.83783447222222 ], [ -82.438487861111113, 27.836069527777777 ], [ -82.438873194444454, 27.834312305555553 ], [ -82.439305805555563, 27.832563777777779 ], [ -82.439785472222226, 27.830825 ], [ -82.440311861111113, 27.829096916666668 ], [ -82.440884694444449, 27.827380583333333 ], [ -82.441503638888889, 27.825676916666666 ], [ -82.442168333333342, 27.823986972222222 ], [ -82.442878416666673, 27.822311638888888 ], [ -82.443633444444444, 27.820651944444442 ], [ -82.444433, 27.819008805555555 ], [ -82.445276611111112, 27.817383194444446 ], [ -82.446163805555557, 27.81577602777778 ], [ -82.447094055555553, 27.814188222222224 ], [ -82.448066833333343, 27.812620722222224 ], [ -82.449081583333339, 27.81107438888889 ], [ -82.45013769444445, 27.809550111111111 ], [ -82.451234611111119, 27.808048805555558 ], [ -82.452371638888891, 27.806571305555558 ], [ -82.453548194444451, 27.805118444444446 ], [ -82.454763527777786, 27.80369111111111 ], [ -82.45601697222223, 27.802290055555556 ], [ -82.457307805555558, 27.800916138888891 ], [ -82.458635305555561, 27.799570138888889 ], [ -82.459998666666664, 27.798252805555556 ], [ -82.461397111111111, 27.79696488888889 ], [ -82.462829888888891, 27.795707194444446 ], [ -82.464296111111111, 27.794480361111113 ], [ -82.465794972222227, 27.793285138888891 ], [ -82.467325583333334, 27.792122222222226 ], [ -82.468887083333328, 27.79099225 ], [ -82.470478583333332, 27.789895861111113 ], [ -82.472099138888893, 27.78883375 ], [ -82.473747833333334, 27.787806444444445 ], [ -82.475423722222217, 27.786814611111112 ], [ -82.477125861111119, 27.78585875 ], [ -82.47885325, 27.784939472222224 ], [ -82.480604888888891, 27.78405725 ], [ -82.48237977777778, 27.783212638888887 ], [ -82.484176916666669, 27.782406083333331 ], [ -82.48599525, 27.781638055555554 ], [ -82.48783375, 27.780909027777778 ], [ -82.489691361111113, 27.780219361111111 ], [ -82.491567, 27.779569527777777 ], [ -82.493459583333333, 27.778959833333332 ], [ -82.495368055555559, 27.778390638888887 ], [ -82.497291305555549, 27.777862305555555 ], [ -82.499228222222229, 27.777375111111109 ], [ -82.501177722222224, 27.776929333333332 ], [ -82.503138638888885, 27.77652525 ], [ -82.505109888888896, 27.776163055555553 ], [ -82.50709030555555, 27.775843 ], [ -82.509078777777773, 27.77556525 ], [ -82.51107416666666, 27.775329944444444 ], [ -82.51307530555556, 27.77513725 ], [ -82.515081083333328, 27.77498725 ], [ -82.517090305555556, 27.774880055555556 ], [ -82.519101833333337, 27.774815722222222 ], [ -82.521114527777783, 27.77479425 ], [ -82.523127222222215, 27.774815722222222 ], [ -82.52513875, 27.774880055555556 ], [ -82.527147972222224, 27.77498725 ], [ -82.529153722222219, 27.77513725 ], [ -82.531154861111105, 27.775329944444444 ], [ -82.53315025, 27.77556525 ], [ -82.535138722222214, 27.775843 ], [ -82.53711916666667, 27.776163055555553 ], [ -82.539090416666667, 27.77652525 ], [ -82.541051333333328, 27.776929333333332 ], [ -82.54300080555555, 27.777375111111109 ], [ -82.544937722222215, 27.777862305555555 ], [ -82.54686097222222, 27.778390638888887 ], [ -82.548769444444446, 27.778959833333332 ], [ -82.550662055555549, 27.779569527777777 ], [ -82.552537694444439, 27.780219361111111 ], [ -82.55366875, 27.780639277777777 ] ] } }
]
}
