{
"type": "FeatureCollection",
"name": "tpa188sgp",
"features": [
{ "type": "Feature", "properties": { "style": "solid", "thickness": 1 }, "geometry": { "type": "LineString", "coordinates": [ [ -82.43314211111111, 27.9303365 ], [ -82.418225916666671, 27.940524166666666 ] ] } },
{ "type": "Feature", "properties": { "style": "solid", "thickness": 1 }, "geometry": { "type": "LineString", "coordinates": [ [ -82.403306916666679, 27.950710194444444 ], [ -82.361773083333333, 27.979049 ] ] } },
{ "type": "Feature", "properties": { "style": "solid", "thickness": 1 }, "geometry": { "type": "LineString", "coordinates": [ [ -82.521223194444445, 27.986027333333336 ], [ -82.521223194444445, 27.987861555555558 ] ] } },
{ "type": "Feature", "properties": { "style": "solid", "thickness": 1 }, "geometry": { "type": "LineString", "coordinates": [ [ -82.520706611111109, 27.985843888888891 ], [ -82.520706638888882, 27.988045 ] ] } },
{ "type": "Feature", "properties": { "style": "solid", "thickness": 1 }, "geometry": { "type": "LineString", "coordinates": [ [ -82.52019005555556, 27.985843888888891 ], [ -82.52019005555556, 27.988045 ] ] } },
{ "type": "Feature", "properties": { "style": "solid", "thickness": 1 }, "geometry": { "type": "LineString", "coordinates": [ [ -82.519673472222223, 27.986027305555556 ], [ -82.519673472222223, 27.987861555555558 ] ] } },
{ "type": "Feature", "properties": { "style": "solid", "thickness": 1 }, "geometry": { "type": "LineString", "coordinates": [ [ -82.519156888888887, 27.986944444444447 ], [ -82.519164916666668, 27.987074472222222 ], [ -82.51919075, 27.98721038888889 ], [ -82.519236861111111, 27.987349666666667 ], [ -82.519305138888882, 27.987488916666667 ], [ -82.519396611111105, 27.987624222222223 ], [ -82.519511083333327, 27.987751194444446 ], [ -82.519646944444446, 27.987865333333335 ], [ -82.519801222222227, 27.987962638888892 ], [ -82.519969666666668, 27.988039833333335 ], [ -82.520147166666661, 27.988094833333335 ], [ -82.52032825, 27.988126916666669 ], [ -82.520507638888887, 27.988136694444446 ], [ -82.520680666666664, 27.988125861111111 ], [ -82.520843583333331, 27.98809702777778 ], [ -82.52099375, 27.988053222222224 ], [ -82.521129583333334, 27.987997583333335 ], [ -82.521253638888894, 27.987931305555556 ], [ -82.52137477777778, 27.98784913888889 ], [ -82.52149030555556, 27.987749833333336 ], [ -82.521596222222215, 27.987633305555555 ], [ -82.521688111111104, 27.987500416666666 ], [ -82.521761722222223, 27.987353111111112 ], [ -82.521813222222221, 27.9871945 ], [ -82.52183975, 27.987028611111111 ], [ -82.521839722222225, 27.98686025 ], [ -82.521813222222221, 27.986694388888889 ], [ -82.521761722222223, 27.986535777777778 ], [ -82.521688111111104, 27.986388472222224 ], [ -82.521596194444442, 27.986255555555555 ], [ -82.52149030555556, 27.986139027777778 ], [ -82.52137475, 27.98603975 ], [ -82.521253611111106, 27.985957555555558 ], [ -82.521129583333334, 27.985891305555558 ], [ -82.52099375, 27.985835666666667 ], [ -82.520843583333331, 27.985791861111114 ], [ -82.520680666666664, 27.985763027777779 ], [ -82.520507638888887, 27.985752194444444 ], [ -82.52032825, 27.985761972222225 ], [ -82.520147166666661, 27.985794055555555 ], [ -82.519969666666668, 27.985849055555555 ], [ -82.519801222222227, 27.98592625 ], [ -82.519646944444446, 27.986023527777778 ], [ -82.519511083333327, 27.986137694444444 ], [ -82.519396611111105, 27.98626463888889 ], [ -82.519305138888882, 27.986399944444447 ], [ -82.519236861111111, 27.986539222222223 ], [ -82.51919075, 27.986678472222223 ], [ -82.519164916666668, 27.986814388888888 ], [ -82.519156888888887, 27.986944444444447 ] ] } },
{ "type": "Feature", "properties": { "style": "solid", "thickness": 1 }, "geometry": { "type": "LineString", "coordinates": [ [ -82.51364380555556, 27.904746361111108 ], [ -82.511799111111117, 27.912454166666667 ], [ -82.50852319444445, 27.9049835 ], [ -82.50661075, 27.912694333333331 ], [ -82.503672055555555, 27.905207972222222 ] ] } },
{ "type": "Feature", "properties": { "style": "solid", "thickness": 1 }, "geometry": { "type": "LineString", "coordinates": [ [ -82.49650347222223, 27.913161666666664 ], [ -82.497716333333329, 27.91310561111111 ], [ -82.498319277777782, 27.91301775 ], [ -82.499500583333329, 27.91242297222222 ], [ -82.500586472222224, 27.911352472222219 ], [ -82.500945166666668, 27.910555666666664 ], [ -82.501091194444442, 27.909588611111111 ], [ -82.50104561111111, 27.9088105 ], [ -82.500868777777782, 27.908098444444445 ], [ -82.500486277777782, 27.907335888888888 ], [ -82.499689027777777, 27.906412444444442 ], [ -82.499401972222216, 27.906125638888888 ], [ -82.498841916666663, 27.905791416666666 ], [ -82.497675472222227, 27.905485222222222 ], [ -82.496260555555551, 27.905550583333333 ], [ -82.495593777777785, 27.905701416666666 ], [ -82.494934027777774, 27.905971972222222 ], [ -82.494540277777773, 27.906170222222222 ], [ -82.4938945, 27.906680194444444 ], [ -82.493330138888894, 27.90742647222222 ], [ -82.493156027777772, 27.907914666666667 ], [ -82.493006416666674, 27.908821833333331 ], [ -82.493090472222221, 27.910258388888888 ], [ -82.493780972222226, 27.911666916666665 ], [ -82.494213277777774, 27.912127111111111 ], [ -82.494709472222226, 27.912524305555554 ], [ -82.495198666666667, 27.912801805555553 ], [ -82.495336944444446, 27.912855444444443 ], [ -82.49650347222223, 27.913161666666664 ] ] } },
{ "type": "Feature", "properties": { "style": "solid", "thickness": 1 }, "geometry": { "type": "LineString", "coordinates": [ [ -82.490061805555555, 27.905836833333332 ], [ -82.490506444444449, 27.913438583333331 ], [ -82.487676361111113, 27.913569194444442 ], [ -82.48706991666667, 27.913597166666666 ], [ -82.48657725, 27.913259777777775 ], [ -82.486215833333333, 27.91285633333333 ], [ -82.48620183333334, 27.912616916666664 ], [ -82.486131861111119, 27.911419777777777 ], [ -82.48618875, 27.911237111111109 ], [ -82.486362916666664, 27.910748916666666 ], [ -82.487001722222217, 27.910119277777778 ], [ -82.486306916666663, 27.909791222222221 ], [ -82.48595952777778, 27.909627194444443 ], [ -82.485605138888886, 27.909343444444442 ], [ -82.4853715, 27.908814055555553 ], [ -82.485280555555562, 27.907257805555552 ], [ -82.485458222222221, 27.906829472222221 ], [ -82.485908861111113, 27.906448583333333 ], [ -82.486231777777775, 27.90619361111111 ], [ -82.486558166666669, 27.9059985 ], [ -82.490061805555555, 27.905836833333332 ] ] } },
{ "type": "Feature", "properties": { "style": "solid", "thickness": 1 }, "geometry": { "type": "LineString", "coordinates": [ [ -82.490303361111117, 27.909966916666665 ], [ -82.487001722222217, 27.910119277777778 ] ] } },
{ "type": "Feature", "properties": { "style": "solid", "thickness": 1 }, "geometry": { "type": "LineString", "coordinates": [ [ -82.482824805555552, 27.913792944444442 ], [ -82.482471638888896, 27.907747416666666 ], [ -82.482386777777776, 27.90745125 ], [ -82.481880138888897, 27.906874416666664 ], [ -82.481522277777785, 27.906530805555555 ], [ -82.480969277777774, 27.90631622222222 ], [ -82.480224611111112, 27.906290527777777 ], [ -82.479146555555559, 27.906340222222219 ], [ -82.478543638888894, 27.906428 ], [ -82.477752583333341, 27.906764555555554 ], [ -82.477305388888894, 27.907205277777777 ], [ -82.477056833333336, 27.907576833333334 ], [ -82.4769535, 27.90812175 ], [ -82.477299388888895, 27.914047555555555 ] ] } },
{ "type": "Feature", "properties": { "style": "solid", "thickness": 1 }, "geometry": { "type": "LineString", "coordinates": [ [ -82.470358888888896, 27.914367055555555 ], [ -82.474469277777786, 27.91417786111111 ], [ -82.474025777777783, 27.906576055555554 ], [ -82.469848305555558, 27.906768333333332 ] ] } },
{ "type": "Feature", "properties": { "style": "solid", "thickness": 1 }, "geometry": { "type": "LineString", "coordinates": [ [ -82.474245777777782, 27.910347055555555 ], [ -82.470270305555559, 27.910530027777778 ] ] } },
{ "type": "Feature", "properties": { "style": "solid", "thickness": 1 }, "geometry": { "type": "LineString", "coordinates": [ [ -82.442796833333333, 27.920143416666669 ], [ -82.442880555555561, 27.920977527777779 ], [ -82.443130611111116, 27.921784944444447 ], [ -82.443538972222228, 27.92253975 ], [ -82.444092500000011, 27.92321763888889 ], [ -82.444773416666663, 27.923796861111111 ], [ -82.445559833333334, 27.92425875 ], [ -82.446426472222228, 27.9245885 ], [ -82.447345472222224, 27.9247755 ], [ -82.448287305555553, 27.92481375 ], [ -82.449221694444446, 27.924702 ], [ -82.450118611111108, 27.924443833333335 ], [ -82.450949194444448, 27.924047583333333 ], [ -82.45168675, 27.923525972222222 ], [ -82.45230761111111, 27.92289575 ], [ -82.452791777777776, 27.922177194444444 ], [ -82.45312372222223, 27.921393388888891 ], [ -82.45329275, 27.920569527777779 ], [ -82.453293472222228, 27.919732111111113 ], [ -82.453125833333331, 27.918908027777778 ], [ -82.452795222222221, 27.91812377777778 ], [ -82.452312305555552, 27.917404583333333 ], [ -82.45169258333334, 27.9167735 ], [ -82.450955944444445, 27.916250888888886 ], [ -82.450126138888891, 27.915853472222221 ], [ -82.44922975, 27.915594083333332 ], [ -82.448295638888894, 27.915481027777776 ], [ -82.447353833333338, 27.915517916666666 ], [ -82.446434555555555, 27.915703611111109 ], [ -82.44556738888889, 27.916032111111111 ], [ -82.444780166666675, 27.916492888888886 ], [ -82.444098222222223, 27.917071083333333 ], [ -82.443543444444444, 27.917748166666669 ], [ -82.443133694444455, 27.918502361111113 ], [ -82.442882111111118, 27.919309416666668 ], [ -82.442796833333333, 27.920143416666669 ] ] } },
{ "type": "Feature", "properties": { "style": "solid", "thickness": 1 }, "geometry": { "type": "LineString", "coordinates": [ [ -82.435888027777779, 27.920704472222223 ], [ -82.438209472222226, 27.920315638888891 ], [ -82.440410027777787, 27.919552444444445 ], [ -82.44241386111112, 27.918441138888891 ], [ -82.44415197222223, 27.917020055555557 ], [ -82.44556447222223, 27.915338138888888 ], [ -82.446602722222224, 27.913453305555553 ], [ -82.447231, 27.911430527777778 ], [ -82.447427638888897, 27.909339444444441 ] ] } },
{ "type": "Feature", "properties": { "style": "solid", "thickness": 1 }, "geometry": { "type": "LineString", "coordinates": [ [ -82.447427638888897, 27.909339444444441 ], [ -82.447865555555566, 27.911401444444444 ], [ -82.44872488888889, 27.913356027777777 ], [ -82.449976055555553, 27.915135888888887 ], [ -82.45157597222223, 27.916679722222224 ], [ -82.453469527777784, 27.917934305555558 ], [ -82.4555915, 27.918856472222224 ], [ -82.457868805555563, 27.919414388888889 ], [ -82.460222944444453, 27.919588888888889 ] ] } },
{ "type": "Feature", "properties": { "style": "solid", "thickness": 1 }, "geometry": { "type": "LineString", "coordinates": [ [ -82.448683583333334, 27.930954972222224 ], [ -82.44888025, 27.928863888888891 ], [ -82.449508555555553, 27.926841111111113 ], [ -82.450546861111107, 27.92495625 ], [ -82.451959361111108, 27.923274277777779 ], [ -82.453697416666671, 27.921853083333335 ], [ -82.455701166666671, 27.920741583333335 ], [ -82.457901611111112, 27.919978111111114 ], [ -82.460222944444453, 27.919588888888889 ] ] } },
{ "type": "Feature", "properties": { "style": "solid", "thickness": 1 }, "geometry": { "type": "LineString", "coordinates": [ [ -82.448683583333334, 27.930954972222224 ], [ -82.448245583333332, 27.928893 ], [ -82.447386138888888, 27.926938388888889 ], [ -82.446134861111119, 27.925158527777779 ], [ -82.444534916666669, 27.923614638888889 ], [ -82.442641361111114, 27.922359916666668 ], [ -82.440519416666675, 27.921437555555556 ], [ -82.438242166666669, 27.920879361111112 ], [ -82.435888027777779, 27.920704472222223 ] ] } },
{ "type": "Feature", "properties": { "style": "solid", "thickness": 1 }, "geometry": { "type": "LineString", "coordinates": [ [ -82.352241083333325, 27.981953833333332 ], [ -82.352324166666662, 27.982788 ], [ -82.352573694444445, 27.983595583333333 ], [ -82.352981638888878, 27.984350638888891 ], [ -82.353534916666661, 27.985028888888891 ], [ -82.35421575, 27.985608527777778 ], [ -82.355002222222211, 27.986070944444446 ], [ -82.355869083333332, 27.98640127777778 ], [ -82.356788444444433, 27.986588861111112 ], [ -82.357730777777775, 27.986627722222224 ], [ -82.358665805555546, 27.986516583333334 ], [ -82.35956341666666, 27.986259027777777 ], [ -82.360394805555543, 27.985863305555558 ], [ -82.361133222222222, 27.985342194444446 ], [ -82.361754944444442, 27.984712388888891 ], [ -82.362239972222213, 27.983994166666669 ], [ -82.362572777777771, 27.983210583333332 ], [ -82.362742583333329, 27.98238686111111 ], [ -82.362744, 27.981549444444443 ], [ -82.362576944444442, 27.98072525 ], [ -82.362246805555543, 27.979940805555554 ], [ -82.36176422222222, 27.979221277777775 ], [ -82.361144666666661, 27.978589833333331 ], [ -82.360408055555553, 27.97806672222222 ], [ -82.359578083333332, 27.977668777777776 ], [ -82.358681416666656, 27.977408805555555 ], [ -82.357746888888883, 27.977295138888888 ], [ -82.3568045, 27.977331416666665 ], [ -82.355884555555548, 27.9775165 ], [ -82.355016611111111, 27.977844416666667 ], [ -82.354228583333324, 27.978304666666666 ], [ -82.35354575, 27.978882416666664 ], [ -82.352990111111112, 27.979559138888888 ], [ -82.3525795, 27.980313055555555 ], [ -82.352327111111109, 27.981119916666664 ], [ -82.352241083333325, 27.981953833333332 ] ] } },
{ "type": "Feature", "properties": { "style": "solid", "thickness": 1 }, "geometry": { "type": "LineString", "coordinates": [ [ -82.345327916666662, 27.982510388888887 ], [ -82.347651, 27.982123083333331 ], [ -82.349853416666662, 27.981361305555552 ], [ -82.35185930555555, 27.980251361111108 ], [ -82.353599583333335, 27.978831416666665 ], [ -82.355014277777769, 27.977150444444444 ], [ -82.356054694444438, 27.97526633333333 ], [ -82.356685, 27.973244 ], [ -82.3568835, 27.971153055555554 ] ] } },
{ "type": "Feature", "properties": { "style": "solid", "thickness": 1 }, "geometry": { "type": "LineString", "coordinates": [ [ -82.3568835, 27.971153055555554 ], [ -82.357319944444441, 27.973215333333332 ], [ -82.358178138888888, 27.975170444444444 ], [ -82.359428527777766, 27.976951111111109 ], [ -82.361028055555551, 27.97849597222222 ], [ -82.362921638888878, 27.979751777777775 ], [ -82.365044055555543, 27.980675305555554 ], [ -82.367322166666654, 27.981234722222222 ], [ -82.369677527777768, 27.981410777777775 ] ] } },
{ "type": "Feature", "properties": { "style": "solid", "thickness": 1 }, "geometry": { "type": "LineString", "coordinates": [ [ -82.358122166666661, 27.992769111111112 ], [ -82.358320666666657, 27.990678194444445 ], [ -82.358951027777778, 27.988655861111113 ], [ -82.359991472222219, 27.986771722222223 ], [ -82.361406194444442, 27.985090694444445 ], [ -82.363146416666666, 27.983670638888889 ], [ -82.365152222222221, 27.982560472222222 ], [ -82.367354527777778, 27.981798444444443 ], [ -82.369677527777768, 27.981410777777775 ] ] } },
{ "type": "Feature", "properties": { "style": "solid", "thickness": 1 }, "geometry": { "type": "LineString", "coordinates": [ [ -82.358122166666661, 27.992769111111112 ], [ -82.357685611111108, 27.990706888888891 ], [ -82.356827333333328, 27.98875175 ], [ -82.35557683333333, 27.986971083333334 ], [ -82.35397725, 27.985426166666667 ], [ -82.352083694444445, 27.984170222222222 ], [ -82.349961305555553, 27.9832465 ], [ -82.347683249999989, 27.982686777777776 ], [ -82.345327916666662, 27.982510388888887 ] ] } },
{ "type": "Feature", "properties": { "style": "solid", "thickness": 1 }, "geometry": { "type": "LineString", "coordinates": [ [ -82.41547475, 28.000943722222221 ], [ -82.4166886388889, 28.000888388888889 ], [ -82.417292138888897, 28.000800861111109 ], [ -82.418474833333335, 28.000206805555557 ], [ -82.419562388888892, 27.999136944444444 ], [ -82.419921972222227, 27.998340361111111 ], [ -82.420068833333332, 27.997373416666669 ], [ -82.420023777777786, 27.996595277777779 ], [ -82.419847333333337, 27.995883138888889 ], [ -82.419465111111123, 27.995120388888889 ], [ -82.418667916666678, 27.9941965 ], [ -82.418380833333345, 27.9939095 ], [ -82.417820583333338, 27.993574972222223 ], [ -82.416653444444449, 27.993268083333334 ], [ -82.415237305555564, 27.993332638888891 ], [ -82.414569888888892, 27.993483083333334 ], [ -82.413909416666669, 27.993753222222225 ], [ -82.413515194444443, 27.99395125 ], [ -82.412868527777789, 27.994460805555555 ], [ -82.412303138888888, 27.99520675 ], [ -82.412128527777782, 27.995694833333335 ], [ -82.411978138888898, 27.996601916666666 ], [ -82.412061194444448, 27.998038472222223 ], [ -82.412751194444454, 27.999447416666669 ], [ -82.4131835, 27.999907833333335 ], [ -82.41367980555556, 28.000305333333333 ], [ -82.414169194444455, 28.000583111111112 ], [ -82.41430752777778, 28.000636805555555 ], [ -82.41547475, 28.000943722222221 ] ] } },
{ "type": "Feature", "properties": { "style": "solid", "thickness": 1 }, "geometry": { "type": "LineString", "coordinates": [ [ -82.409068055555565, 28.001235527777776 ], [ -82.404482194444455, 28.00144425 ], [ -82.404451083333342, 28.000905527777778 ], [ -82.409104277777786, 27.99367202777778 ], [ -82.409100805555568, 27.993612166666669 ], [ -82.4037735, 27.993854611111111 ] ] } },
{ "type": "Feature", "properties": { "style": "solid", "thickness": 1 }, "geometry": { "type": "LineString", "coordinates": [ [ -82.396861527777787, 28.001790722222221 ], [ -82.398075444444444, 28.001735555555555 ], [ -82.398678944444455, 28.001648111111113 ], [ -82.399861777777787, 28.001054222222223 ], [ -82.40094950000001, 27.99998452777778 ], [ -82.401309222222224, 27.999187972222224 ], [ -82.40145625000001, 27.998221055555558 ], [ -82.401411361111116, 27.997442916666667 ], [ -82.401235027777787, 27.99673075 ], [ -82.400852916666679, 27.995967944444445 ], [ -82.400055861111113, 27.995043944444447 ], [ -82.399768861111113, 27.994756916666667 ], [ -82.399208638888894, 27.99442227777778 ], [ -82.398041527777778, 27.99411525 ], [ -82.396625388888893, 27.994179611111111 ], [ -82.395957944444447, 27.994329972222221 ], [ -82.395297416666679, 27.994600027777778 ], [ -82.394903138888893, 27.994798 ], [ -82.394256388888891, 27.995307472222223 ], [ -82.393690888888898, 27.996053333333336 ], [ -82.393516194444445, 27.99654138888889 ], [ -82.393365638888895, 27.997448444444444 ], [ -82.393448444444445, 27.998885027777778 ], [ -82.394138194444452, 28.000294055555557 ], [ -82.394570444444454, 28.000754527777779 ], [ -82.395066694444452, 28.001152083333334 ], [ -82.395556027777786, 28.001429944444446 ], [ -82.395694333333338, 28.001483666666665 ], [ -82.396861527777787, 28.001790722222221 ] ] } },
{ "type": "Feature", "properties": { "style": "solid", "thickness": 1 }, "geometry": { "type": "LineString", "coordinates": [ [ -82.390421361111123, 27.99446138888889 ], [ -82.390859388888899, 28.002063333333332 ], [ -82.38280113888888, 27.994807083333335 ], [ -82.383238638888884, 28.002409055555557 ] ] } },
{ "type": "Feature", "properties": { "style": "solid", "thickness": 1 }, "geometry": { "type": "LineString", "coordinates": [ [ -82.380103722222216, 27.994929361111112 ], [ -82.376831777777767, 28.002699388888889 ], [ -82.372888055555549, 27.995256194444444 ] ] } },
{ "type": "Feature", "properties": { "style": "solid", "thickness": 1 }, "geometry": { "type": "LineString", "coordinates": [ [ -82.379031, 27.997438555555558 ], [ -82.3741755, 27.997658472222223 ] ] } },
{ "type": "Feature", "properties": { "style": "solid", "thickness": 1 }, "geometry": { "type": "LineString", "coordinates": [ [ -82.40196, 27.990908194444444 ], [ -82.400948527777786, 27.990954194444445 ], [ -82.400520194444454, 27.983531833333334 ] ] } },
{ "type": "Feature", "properties": { "style": "solid", "thickness": 1 }, "geometry": { "type": "LineString", "coordinates": [ [ -82.397448916666676, 27.991233305555557 ], [ -82.392256555555562, 27.991469194444445 ], [ -82.395459611111121, 27.983701861111111 ] ] } }
]
}
