{
"type": "FeatureCollection",
"name": "tpa806sgp",
"features": [
{ "type": "Feature", "properties": { "style": "solid", "thickness": 1 }, "geometry": { "type": "LineString", "coordinates": [ [ -82.521223194444445, 27.986027333333336 ], [ -82.521223194444445, 27.987861555555558 ] ] } },
{ "type": "Feature", "properties": { "style": "solid", "thickness": 1 }, "geometry": { "type": "LineString", "coordinates": [ [ -82.520706611111109, 27.985843888888891 ], [ -82.520706638888882, 27.988045 ] ] } },
{ "type": "Feature", "properties": { "style": "solid", "thickness": 1 }, "geometry": { "type": "LineString", "coordinates": [ [ -82.52019005555556, 27.985843888888891 ], [ -82.52019005555556, 27.988045 ] ] } },
{ "type": "Feature", "properties": { "style": "solid", "thickness": 1 }, "geometry": { "type": "LineString", "coordinates": [ [ -82.519673472222223, 27.986027305555556 ], [ -82.519673472222223, 27.987861555555558 ] ] } },
{ "type": "Feature", "properties": { "style": "solid", "thickness": 1 }, "geometry": { "type": "LineString", "coordinates": [ [ -82.519156888888887, 27.986944444444447 ], [ -82.519164916666668, 27.987074472222222 ], [ -82.51919075, 27.98721038888889 ], [ -82.519236861111111, 27.987349666666667 ], [ -82.519305138888882, 27.987488916666667 ], [ -82.519396611111105, 27.987624222222223 ], [ -82.519511083333327, 27.987751194444446 ], [ -82.519646944444446, 27.987865333333335 ], [ -82.519801222222227, 27.987962638888892 ], [ -82.519969666666668, 27.988039833333335 ], [ -82.520147166666661, 27.988094833333335 ], [ -82.52032825, 27.988126916666669 ], [ -82.520507638888887, 27.988136694444446 ], [ -82.520680666666664, 27.988125861111111 ], [ -82.520843583333331, 27.98809702777778 ], [ -82.52099375, 27.988053222222224 ], [ -82.521129583333334, 27.987997583333335 ], [ -82.521253638888894, 27.987931305555556 ], [ -82.52137477777778, 27.98784913888889 ], [ -82.52149030555556, 27.987749833333336 ], [ -82.521596222222215, 27.987633305555555 ], [ -82.521688111111104, 27.987500416666666 ], [ -82.521761722222223, 27.987353111111112 ], [ -82.521813222222221, 27.9871945 ], [ -82.52183975, 27.987028611111111 ], [ -82.521839722222225, 27.98686025 ], [ -82.521813222222221, 27.986694388888889 ], [ -82.521761722222223, 27.986535777777778 ], [ -82.521688111111104, 27.986388472222224 ], [ -82.521596194444442, 27.986255555555555 ], [ -82.52149030555556, 27.986139027777778 ], [ -82.52137475, 27.98603975 ], [ -82.521253611111106, 27.985957555555558 ], [ -82.521129583333334, 27.985891305555558 ], [ -82.52099375, 27.985835666666667 ], [ -82.520843583333331, 27.985791861111114 ], [ -82.520680666666664, 27.985763027777779 ], [ -82.520507638888887, 27.985752194444444 ], [ -82.52032825, 27.985761972222225 ], [ -82.520147166666661, 27.985794055555555 ], [ -82.519969666666668, 27.985849055555555 ], [ -82.519801222222227, 27.98592625 ], [ -82.519646944444446, 27.986023527777778 ], [ -82.519511083333327, 27.986137694444444 ], [ -82.519396611111105, 27.98626463888889 ], [ -82.519305138888882, 27.986399944444447 ], [ -82.519236861111111, 27.986539222222223 ], [ -82.51919075, 27.986678472222223 ], [ -82.519164916666668, 27.986814388888888 ], [ -82.519156888888887, 27.986944444444447 ] ] } },
{ "type": "Feature", "properties": { "style": "solid", "thickness": 1 }, "geometry": { "type": "LineString", "coordinates": [ [ -82.587985305555549, 28.038063166666667 ], [ -82.598848694444442, 28.043507083333335 ], [ -82.610095472222213, 28.048300083333334 ], [ -82.621676138888887, 28.052421 ], [ -82.633539666666678, 28.055851722222222 ], [ -82.645633861111122, 28.058577138888889 ], [ -82.657905388888892, 28.060585194444446 ], [ -82.670300166666678, 28.061867055555556 ], [ -82.682763611111113, 28.062417083333333 ], [ -82.695240750000011, 28.062232861111113 ], [ -82.707676583333338, 28.061315166666667 ], [ -82.720016333333334, 28.059668083333335 ], [ -82.732205583333339, 28.057298861111111 ], [ -82.744190638888895, 28.054217944444446 ], [ -82.755918722222219, 28.050438888888891 ], [ -82.767338138888888, 28.045978361111114 ], [ -82.778398638888888, 28.040856027777778 ], [ -82.78905155555556, 28.03509441666667 ], [ -82.79925, 28.028718944444442 ], [ -82.808949194444438, 28.021757666666666 ], [ -82.818106527777772, 28.014241222222221 ], [ -82.82668175, 28.006202722222223 ], [ -82.827303888888892, 28.005576166666668 ] ] } },
{ "type": "Feature", "properties": { "style": "solid", "thickness": 1 }, "geometry": { "type": "LineString", "coordinates": [ [ -82.648540361111117, 28.194304111111112 ], [ -82.6652425, 28.19557575 ], [ -82.681995333333333, 28.196113416666666 ], [ -82.698757694444453, 28.195915777777778 ], [ -82.715488388888886, 28.19498336111111 ], [ -82.732146277777787, 28.193318444444444 ], [ -82.748690416666662, 28.190925083333333 ], [ -82.765080166666664, 28.187809194444444 ], [ -82.78127525, 28.183978416666665 ], [ -82.797235888888892, 28.179442194444444 ], [ -82.812922916666665, 28.174211638888892 ], [ -82.822243194444439, 28.170723694444444 ] ] } },
{ "type": "Feature", "properties": { "style": "solid", "thickness": 1 }, "geometry": { "type": "LineString", "coordinates": [ [ -82.822455472222217, 28.022143861111111 ], [ -82.80943383333333, 28.010071277777779 ] ] } },
{ "type": "Feature", "properties": { "style": "solid", "thickness": 1 }, "geometry": { "type": "LineString", "coordinates": [ [ -82.59819625, 28.05258663888889 ], [ -82.606557472222221, 28.037611333333334 ] ] } },
{ "type": "Feature", "properties": { "style": "solid", "thickness": 1 }, "geometry": { "type": "LineString", "coordinates": [ [ -82.7129025, 28.052259972222224 ], [ -82.71575225, 28.068779555555555 ] ] } },
{ "type": "Feature", "properties": { "style": "solid", "thickness": 1 }, "geometry": { "type": "LineString", "coordinates": [ [ -82.735725, 28.184413305555555 ], [ -82.738581777777782, 28.200931888888888 ] ] } },
{ "type": "Feature", "properties": { "style": "solid", "thickness": 1 }, "geometry": { "type": "LineString", "coordinates": [ [ -82.8202255, 28.000066833333332 ], [ -82.834383, 28.011085138888888 ] ] } },
{ "type": "Feature", "properties": { "style": "solid", "thickness": 1 }, "geometry": { "type": "LineString", "coordinates": [ [ -82.5928858611111, 28.030927666666667 ], [ -82.583084111111106, 28.045198472222225 ] ] } },
{ "type": "Feature", "properties": { "style": "solid", "thickness": 1 }, "geometry": { "type": "LineString", "coordinates": [ [ -82.791612472222226, 28.17231952777778 ], [ -82.797671083333327, 28.188145194444445 ] ] } },
{ "type": "Feature", "properties": { "style": "solid", "thickness": 1 }, "geometry": { "type": "LineString", "coordinates": [ [ -82.818445777777768, 28.163075611111111 ], [ -82.82604116666667, 28.178371638888891 ] ] } },
{ "type": "Feature", "properties": { "style": "solid", "thickness": 1 }, "geometry": { "type": "LineString", "coordinates": [ [ -82.678310722222221, 28.187700416666665 ], [ -82.677877388888888, 28.204407388888889 ] ] } },
{ "type": "Feature", "properties": { "style": "solid", "thickness": 1 }, "geometry": { "type": "LineString", "coordinates": [ [ -82.649580166666667, 28.185999333333335 ], [ -82.647500416666674, 28.202608861111109 ] ] } },
{ "type": "Feature", "properties": { "style": "solid", "thickness": 1 }, "geometry": { "type": "LineString", "coordinates": [ [ -82.700333666666666, 27.893356611111109 ], [ -82.695920722222226, 27.89572188888889 ], [ -82.691139694444445, 27.897431722222223 ], [ -82.686112888888886, 27.898442416666665 ], [ -82.680968972222232, 27.898728027777778 ], [ -82.675839611111115, 27.898281277777777 ], [ -82.671413055555561, 27.897282444444443 ] ] } },
{ "type": "Feature", "properties": { "style": "solid", "thickness": 1 }, "geometry": { "type": "LineString", "coordinates": [ [ -82.700333666666666, 27.893356611111109 ], [ -82.695325277777783, 27.892271694444442 ], [ -82.690186361111117, 27.891909638888887 ], [ -82.685048194444448, 27.892279666666667 ], [ -82.680041944444454, 27.893372361111112 ], [ -82.675295555555564, 27.895159777777778 ], [ -82.671413055555561, 27.897282444444443 ] ] } },
{ "type": "Feature", "properties": { "style": "solid", "thickness": 1 }, "geometry": { "type": "LineString", "coordinates": [ [ -82.749542583333337, 28.21814211111111 ], [ -82.745601527777779, 28.218330861111109 ], [ -82.74344552777778, 28.216502444444444 ], [ -82.743129694444448, 28.215793194444444 ], [ -82.742821166666673, 28.215204333333332 ], [ -82.742733083333334, 28.213759833333334 ], [ -82.743210555555549, 28.212650444444442 ], [ -82.743959833333335, 28.211528055555554 ], [ -82.74474577777778, 28.211007527777777 ], [ -82.745267305555558, 28.210620361111111 ], [ -82.746332388888888, 28.210207194444443 ], [ -82.748778388888894, 28.210090027777778 ], [ -82.74988755555556, 28.210399083333332 ], [ -82.750739638888888, 28.210961888888889 ], [ -82.751470555555557, 28.211771944444443 ], [ -82.751937027777771, 28.212715388888888 ], [ -82.752124388888888, 28.2135515 ], [ -82.75219791666666, 28.21475525 ], [ -82.752098805555562, 28.215363638888888 ], [ -82.751735222222223, 28.216105416666664 ], [ -82.751213694444445, 28.216492583333334 ], [ -82.749542583333337, 28.21814211111111 ], [ -82.7508245, 28.2190465 ], [ -82.751562805555551, 28.219976944444443 ], [ -82.751871388888887, 28.220565777777775 ], [ -82.751989027777782, 28.22249175 ], [ -82.751397722222222, 28.223968805555554 ], [ -82.751012083333336, 28.224349472222219 ], [ -82.74981830555555, 28.224889583333333 ], [ -82.74902491666667, 28.22528975 ], [ -82.747258111111108, 28.225374388888888 ], [ -82.746012916666672, 28.225071833333331 ], [ -82.744165305555555, 28.223832277777777 ], [ -82.743856777777779, 28.223243416666666 ], [ -82.743724583333332, 28.221076666666665 ], [ -82.744058861111114, 28.219853416666666 ], [ -82.744187416666662, 28.219726527777777 ], [ -82.744837527777776, 28.2192125 ], [ -82.745601527777779, 28.218330861111109 ] ] } },
{ "type": "Feature", "properties": { "style": "solid", "thickness": 1 }, "geometry": { "type": "LineString", "coordinates": [ [ -82.726563277777785, 28.22576022222222 ], [ -82.727408055555557, 28.226202777777775 ], [ -82.728374083333335, 28.226398111111109 ], [ -82.731635916666662, 28.226242305555555 ], [ -82.732844444444453, 28.225943111111111 ], [ -82.73324483333333, 28.225803277777775 ], [ -82.735217472222217, 28.224622472222222 ], [ -82.736367277777774, 28.22336025 ], [ -82.736701638888889, 28.222137 ], [ -82.737520916666668, 28.21992475 ], [ -82.737352166666668, 28.217156138888889 ], [ -82.736999666666662, 28.215845 ], [ -82.736525944444452, 28.214781111111112 ], [ -82.73590902777778, 28.213603361111112 ], [ -82.73446941666667, 28.212344194444444 ], [ -82.731814166666666, 28.211263833333334 ], [ -82.73002558333333, 28.210987111111109 ], [ -82.728530777777777, 28.2110585 ], [ -82.726650277777779, 28.211510472222223 ], [ -82.725992805555563, 28.211904027777777 ], [ -82.725463861111109, 28.21217075 ] ] } },
{ "type": "Feature", "properties": { "style": "solid", "thickness": 1 }, "geometry": { "type": "LineString", "coordinates": [ [ -82.679771694444455, 27.862772555555559 ], [ -82.680692305555567, 27.878061638888891 ], [ -82.67391836111112, 27.878383611111111 ], [ -82.673361944444451, 27.878168583333334 ], [ -82.672113666666675, 27.877744944444444 ], [ -82.670821972222228, 27.876598972222222 ], [ -82.67020766666667, 27.875420833333333 ], [ -82.670120805555555, 27.873976194444445 ], [ -82.670590333333337, 27.872746583333335 ], [ -82.671737194444447, 27.871484805555557 ], [ -82.672927472222227, 27.870945361111112 ], [ -82.673454861111111, 27.870678833333333 ], [ -82.680228333333332, 27.870356916666665 ] ] } },
{ "type": "Feature", "properties": { "style": "solid", "thickness": 1 }, "geometry": { "type": "LineString", "coordinates": [ [ -82.663787305555559, 27.863531722222223 ], [ -82.66470569444445, 27.878820944444445 ] ] } },
{ "type": "Feature", "properties": { "style": "solid", "thickness": 1 }, "geometry": { "type": "LineString", "coordinates": [ [ -82.593946861111107, 28.010848111111113 ], [ -82.594161777777771, 28.01445975 ], [ -82.594690527777772, 28.016487277777777 ], [ -82.59501916666666, 28.017437666666666 ], [ -82.5954691111111, 28.018140916666667 ], [ -82.597183027777774, 28.01950925 ], [ -82.59884677777778, 28.020034833333334 ], [ -82.599389416666668, 28.020009388888887 ], [ -82.600981499999989, 28.019331083333331 ], [ -82.602387666666658, 28.017816416666665 ], [ -82.60288725, 28.017068638888887 ], [ -82.603101166666661, 28.016092805555555 ], [ -82.603386166666667, 28.014027111111112 ], [ -82.603170972222216, 28.0104155 ], [ -82.602642083333322, 28.008388 ], [ -82.602313416666661, 28.007437638888888 ], [ -82.601727805555555, 28.00674075 ], [ -82.60014969444444, 28.005366111111112 ], [ -82.598486138888887, 28.004840527777777 ], [ -82.597943583333333, 28.004865972222223 ], [ -82.596351694444436, 28.00554425 ], [ -82.594809972222222, 28.007065194444444 ], [ -82.594446, 28.007806611111111 ], [ -82.594232027777778, 28.008782444444446 ], [ -82.593946861111107, 28.010848111111113 ] ] } },
{ "type": "Feature", "properties": { "style": "solid", "thickness": 1 }, "geometry": { "type": "LineString", "coordinates": [ [ -82.59697802777778, 28.066928805555555 ], [ -82.597193138888883, 28.07054038888889 ], [ -82.597722222222217, 28.072567888888887 ], [ -82.598051055555544, 28.07351825 ], [ -82.598501277777771, 28.074221472222224 ], [ -82.600216111111109, 28.075589777777779 ], [ -82.60188075, 28.076115333333334 ], [ -82.602423666666667, 28.076089861111111 ], [ -82.604016527777773, 28.075411527777778 ], [ -82.60542338888888, 28.073896861111113 ], [ -82.605923194444443, 28.073149055555554 ], [ -82.606137222222216, 28.07217325 ], [ -82.606422305555554, 28.070107555555555 ], [ -82.606206888888877, 28.066495972222224 ], [ -82.605677666666665, 28.064468527777777 ], [ -82.60534880555555, 28.063518166666668 ], [ -82.604762861111112, 28.062821333333336 ], [ -82.603183888888879, 28.061446722222222 ], [ -82.601519472222222, 28.060921194444447 ], [ -82.600976638888881, 28.06094663888889 ], [ -82.599383972222213, 28.061624944444446 ], [ -82.597841472222214, 28.063145916666667 ], [ -82.597477361111103, 28.063887333333334 ], [ -82.59726327777777, 28.064863138888889 ], [ -82.59697802777778, 28.066928805555555 ] ] } },
{ "type": "Feature", "properties": { "style": "solid", "thickness": 1 }, "geometry": { "type": "LineString", "coordinates": [ [ -82.720697777777787, 28.081619388888889 ], [ -82.72091705555556, 28.085230777777777 ], [ -82.721448527777781, 28.087257777777776 ], [ -82.721778472222226, 28.088207833333332 ], [ -82.722229555555558, 28.088910666666667 ], [ -82.723946166666664, 28.090277416666666 ], [ -82.72561161111112, 28.090801472222221 ], [ -82.72615458333334, 28.090775527777776 ], [ -82.727746888888888, 28.090095777777776 ], [ -82.729152194444453, 28.088579833333331 ], [ -82.72965125, 28.08783161111111 ], [ -82.729864166666673, 28.086855583333332 ], [ -82.730146944444442, 28.084789666666666 ], [ -82.729927361111109, 28.081178305555554 ], [ -82.729395777777782, 28.079151333333332 ], [ -82.729065777777777, 28.078201277777776 ], [ -82.728479, 28.077504972222222 ], [ -82.72689825, 28.076131805555555 ], [ -82.725233, 28.07560775 ], [ -82.724690111111116, 28.075633694444445 ], [ -82.723098, 28.076313416666668 ], [ -82.721557027777777, 28.07783575 ], [ -82.721193722222225, 28.078577472222221 ], [ -82.720980722222222, 28.0795535 ], [ -82.720697777777787, 28.081619388888889 ] ] } },
{ "type": "Feature", "properties": { "style": "solid", "thickness": 1 }, "geometry": { "type": "LineString", "coordinates": [ [ -82.704263638888889, 28.091216361111108 ], [ -82.705107277777785, 28.091659083333333 ], [ -82.706072055555552, 28.091854555555553 ], [ -82.709329888888888, 28.091699305555554 ], [ -82.710536972222229, 28.091400305555556 ], [ -82.710936916666668, 28.0912605 ], [ -82.712907333333334, 28.09007997222222 ], [ -82.714056, 28.088817916666667 ], [ -82.714390194444448, 28.087594694444444 ], [ -82.715208888888895, 28.085382527777778 ], [ -82.715040944444453, 28.082613777777777 ], [ -82.714689166666673, 28.081302555555556 ], [ -82.71421625, 28.080238555555557 ], [ -82.713600333333332, 28.079060666666667 ], [ -82.712162777777777, 28.077801222222224 ], [ -82.709511027777779, 28.076720388888887 ], [ -82.70772475, 28.07644336111111 ], [ -82.706231777777774, 28.076514527777778 ], [ -82.7043535, 28.076966194444445 ], [ -82.70369675, 28.077359666666666 ], [ -82.703168416666671, 28.077626277777778 ] ] } },
{ "type": "Feature", "properties": { "style": "solid", "thickness": 1 }, "geometry": { "type": "LineString", "coordinates": [ [ -82.829189555555558, 28.037682 ], [ -82.829412333333323, 28.041293222222222 ], [ -82.829945611111114, 28.043319833333335 ], [ -82.830276361111103, 28.044269638888892 ], [ -82.830727944444448, 28.044972111111115 ], [ -82.832445222222219, 28.04633752777778 ], [ -82.834110527777767, 28.046860277777778 ], [ -82.83465325, 28.046833916666667 ], [ -82.83624422222222, 28.046152916666667 ], [ -82.837647472222216, 28.044635861111114 ], [ -82.838145555555556, 28.043887222222224 ], [ -82.838357416666668, 28.042911055555557 ], [ -82.838638027777776, 28.040844888888891 ], [ -82.838414944444438, 28.037233694444446 ], [ -82.837881555555555, 28.035207111111113 ], [ -82.83755075, 28.034257305555556 ], [ -82.8369635, 28.033561444444445 ], [ -82.835382027777769, 28.0321895 ], [ -82.833716944444433, 28.03166675 ], [ -82.833174305555545, 28.031693138888887 ], [ -82.831583527777781, 28.03237411111111 ], [ -82.830044694444439, 28.033897666666668 ], [ -82.82968225, 28.034639694444447 ], [ -82.829470333333333, 28.035615861111111 ], [ -82.829189555555558, 28.037682 ] ] } },
{ "type": "Feature", "properties": { "style": "solid", "thickness": 1 }, "geometry": { "type": "LineString", "coordinates": [ [ -82.823135388888886, 28.032180583333332 ], [ -82.824077666666668, 28.047468194444445 ], [ -82.818107694444436, 28.047757722222222 ], [ -82.816464694444448, 28.047595888888889 ], [ -82.815764055555547, 28.04726763888889 ], [ -82.81462675, 28.046477611111111 ], [ -82.812917083333332, 28.045232361111111 ], [ -82.811735388888891, 28.043720055555557 ], [ -82.811389972222216, 28.042529444444448 ], [ -82.811145583333328, 28.038557055555557 ], [ -82.81135025, 28.037460527777778 ], [ -82.812075388888886, 28.035976611111113 ], [ -82.812973222222226, 28.035087972222225 ], [ -82.81385619444444, 28.033958583333334 ], [ -82.815160972222216, 28.033050222222222 ], [ -82.816766694444439, 28.032610194444445 ], [ -82.81770891666666, 28.032443777777775 ], [ -82.823135388888886, 28.032180583333332 ] ] } },
{ "type": "Feature", "properties": { "style": "solid", "thickness": 1 }, "geometry": { "type": "LineString", "coordinates": [ [ -82.822446361111105, 28.1455025 ], [ -82.818508055555554, 28.145693333333334 ], [ -82.816352305555554, 28.143866027777776 ], [ -82.816036194444436, 28.143156944444446 ], [ -82.8157275, 28.14256822222222 ], [ -82.815638472222219, 28.14112375 ], [ -82.81611488888889, 28.14001411111111 ], [ -82.816862916666665, 28.138891277777777 ], [ -82.817648, 28.138370333333334 ], [ -82.818168916666664, 28.137982916666665 ], [ -82.819233, 28.137569166666665 ], [ -82.821677277777781, 28.137450722222223 ], [ -82.822785888888887, 28.137759194444445 ], [ -82.823637805555549, 28.138321555555557 ], [ -82.82436875, 28.13913125 ], [ -82.824835555555552, 28.140074472222221 ], [ -82.825023361111107, 28.1409105 ], [ -82.825097638888892, 28.142114194444446 ], [ -82.824998972222218, 28.142722638888888 ], [ -82.824636166666664, 28.14346463888889 ], [ -82.824115222222218, 28.143852083333332 ], [ -82.822446361111105, 28.1455025 ], [ -82.823728, 28.14640625 ], [ -82.82446644444444, 28.147336305555555 ], [ -82.824775194444442, 28.147925 ], [ -82.824894055555546, 28.149850944444445 ], [ -82.824304166666664, 28.151328333333332 ], [ -82.823919, 28.151709194444443 ], [ -82.822726416666669, 28.152249916666666 ], [ -82.821933833333333, 28.152650527777777 ], [ -82.820168277777768, 28.15273608333333 ], [ -82.818923694444436, 28.152434166666666 ], [ -82.8170765, 28.151195583333333 ], [ -82.81676777777777, 28.150606888888888 ], [ -82.81663422222222, 28.148440166666667 ], [ -82.816967444444444, 28.147216722222222 ], [ -82.817095833333326, 28.147089777777776 ], [ -82.817745194444441, 28.146575388888888 ], [ -82.818508055555554, 28.145693333333334 ] ] } },
{ "type": "Feature", "properties": { "style": "solid", "thickness": 1 }, "geometry": { "type": "LineString", "coordinates": [ [ -82.812354527777771, 28.206209777777776 ], [ -82.808414, 28.206400333333331 ], [ -82.806257194444441, 28.204572888888887 ], [ -82.805940972222217, 28.203863805555557 ], [ -82.805632166666669, 28.203275055555554 ], [ -82.805543222222212, 28.201830611111109 ], [ -82.806020027777777, 28.200721 ], [ -82.80676855555555, 28.19959825 ], [ -82.807554111111102, 28.199077361111112 ], [ -82.808075361111108, 28.198689972222223 ], [ -82.809140083333332, 28.198276333333332 ], [ -82.81158575, 28.198158055555556 ], [ -82.812694944444445, 28.198466583333335 ], [ -82.813547277777772, 28.199029 ], [ -82.814278583333333, 28.19983875 ], [ -82.814745555555547, 28.20078197222222 ], [ -82.814933388888889, 28.201618 ], [ -82.815007583333326, 28.202821722222222 ], [ -82.814908833333334, 28.203430138888887 ], [ -82.814545722222221, 28.204172111111109 ], [ -82.814024472222215, 28.2045595 ], [ -82.812354527777771, 28.206209777777776 ], [ -82.813636805555547, 28.207113583333332 ], [ -82.81437558333333, 28.208043694444445 ], [ -82.814684444444438, 28.208632388888887 ], [ -82.814803194444437, 28.210558333333331 ], [ -82.814212833333329, 28.212035666666665 ], [ -82.813827444444442, 28.2124165 ], [ -82.812634138888882, 28.212957138888889 ], [ -82.811841055555547, 28.213357666666667 ], [ -82.8100745, 28.213443111111111 ], [ -82.80882925, 28.21314111111111 ], [ -82.806981138888887, 28.211902416666668 ], [ -82.806672305555551, 28.211313694444442 ], [ -82.806538861111108, 28.209147 ], [ -82.806872388888891, 28.207923583333333 ], [ -82.807000861111106, 28.207796638888887 ], [ -82.807650611111114, 28.207282333333332 ], [ -82.808414, 28.206400333333331 ] ] } },
{ "type": "Feature", "properties": { "style": "solid", "thickness": 1 }, "geometry": { "type": "LineString", "coordinates": [ [ -82.799765, 28.19872927777778 ], [ -82.800705527777779, 28.214016472222223 ], [ -82.79472633333333, 28.214305027777776 ], [ -82.793080833333335, 28.214142944444443 ], [ -82.792379194444436, 28.213814583333331 ], [ -82.791240305555547, 28.21302438888889 ], [ -82.789528277777777, 28.211778916666667 ], [ -82.788345083333326, 28.210266472222223 ], [ -82.787999388888892, 28.209075833333333 ], [ -82.787755444444443, 28.205103555555556 ], [ -82.787960666666663, 28.20400711111111 ], [ -82.788687222222222, 28.202523333333332 ], [ -82.789586611111105, 28.20163488888889 ], [ -82.790471194444436, 28.200505694444445 ], [ -82.79177816666666, 28.199597555555556 ], [ -82.793386444444437, 28.199157805555554 ], [ -82.794330138888881, 28.198991555555555 ], [ -82.799765, 28.19872927777778 ] ] } },
{ "type": "Feature", "properties": { "style": "solid", "thickness": 1 }, "geometry": { "type": "LineString", "coordinates": [ [ -82.686699222222231, 28.220071944444442 ], [ -82.682757972222234, 28.220258916666666 ], [ -82.680603, 28.2184295 ], [ -82.680287555555566, 28.217720138888886 ], [ -82.679979388888896, 28.217131111111108 ], [ -82.679892111111116, 28.215686583333333 ], [ -82.68037025000001, 28.214577416666668 ], [ -82.681120194444446, 28.213455333333332 ], [ -82.681906472222224, 28.212935166666664 ], [ -82.682428222222228, 28.21254825 ], [ -82.683493555555557, 28.212135555555555 ], [ -82.685939694444443, 28.212019527777777 ], [ -82.687048694444442, 28.212329083333334 ], [ -82.687900472222225, 28.212892277777776 ], [ -82.688630916666668, 28.213702666666666 ], [ -82.689096861111111, 28.214646333333334 ], [ -82.68928375, 28.215482527777777 ], [ -82.689356583333335, 28.216686305555555 ], [ -82.689257083333331, 28.217294638888887 ], [ -82.68889308333334, 28.21803625 ], [ -82.688371333333336, 28.218423194444444 ], [ -82.686699222222231, 28.220071944444442 ], [ -82.687980611111115, 28.220976916666665 ], [ -82.688718416666674, 28.221907694444443 ], [ -82.68902663888889, 28.222496694444441 ], [ -82.689143166666668, 28.224422722222222 ], [ -82.688551027777777, 28.2258995 ], [ -82.688165138888891, 28.22628 ], [ -82.686971027777787, 28.226819555555554 ], [ -82.686177388888893, 28.227219361111111 ], [ -82.684410527777786, 28.227303194444442 ], [ -82.683165444444455, 28.227000055555553 ], [ -82.681318555555563, 28.225759694444442 ], [ -82.68101036111112, 28.225170666666664 ], [ -82.68087941666667, 28.223003888888886 ], [ -82.68121438888889, 28.221780777777777 ], [ -82.681343027777785, 28.221653944444444 ], [ -82.681993472222231, 28.221140222222221 ], [ -82.682757972222234, 28.220258916666666 ] ] } },
{ "type": "Feature", "properties": { "style": "solid", "thickness": 1 }, "geometry": { "type": "LineString", "coordinates": [ [ -82.656259277777778, 28.166882 ], [ -82.652319888888897, 28.167068083333334 ], [ -82.650166500000012, 28.165238194444441 ], [ -82.649851416666678, 28.164528722222222 ], [ -82.649543555555567, 28.163939638888888 ], [ -82.649456722222226, 28.162495083333333 ], [ -82.649934944444453, 28.161386 ], [ -82.650684833333344, 28.160264083333331 ], [ -82.651470888888895, 28.159744083333333 ], [ -82.6519925, 28.159357277777776 ], [ -82.65305741666667, 28.158944805555553 ], [ -82.655502361111118, 28.158829305555553 ], [ -82.65661075, 28.159139111111109 ], [ -82.657461944444449, 28.1597025 ], [ -82.65819180555556, 28.160513055555555 ], [ -82.658657277777777, 28.161456833333332 ], [ -82.658843805555563, 28.162293083333331 ], [ -82.658916277777777, 28.163496888888886 ], [ -82.658816666666667, 28.164105222222222 ], [ -82.658452638888889, 28.164846777777775 ], [ -82.657931, 28.165233583333332 ], [ -82.656259277777778, 28.166882 ], [ -82.657539777777785, 28.16778727777778 ], [ -82.658276944444452, 28.168718222222225 ], [ -82.658584861111123, 28.169307277777779 ], [ -82.658700805555554, 28.171233361111113 ], [ -82.658108527777785, 28.172710027777779 ], [ -82.657722694444445, 28.173090444444444 ], [ -82.656529055555566, 28.17362975 ], [ -82.655735694444445, 28.17402938888889 ], [ -82.653969638888896, 28.174112805555556 ], [ -82.65272527777779, 28.173809416666668 ], [ -82.650879638888895, 28.172568611111114 ], [ -82.650571750000012, 28.171979527777779 ], [ -82.650441472222226, 28.169812666666669 ], [ -82.6507766388889, 28.168589611111113 ], [ -82.65090525, 28.168462833333333 ], [ -82.6515555, 28.16794925 ], [ -82.652319888888897, 28.167068083333334 ] ] } },
{ "type": "Feature", "properties": { "style": "solid", "thickness": 1 }, "geometry": { "type": "LineString", "coordinates": [ [ -82.81895594444444, 27.981106583333332 ], [ -82.81917825, 27.984717861111111 ], [ -82.819711055555558, 27.98674452777778 ], [ -82.820041555555548, 27.98769438888889 ], [ -82.820492833333333, 27.988396916666666 ], [ -82.822209083333334, 27.989762444444445 ], [ -82.823873472222218, 27.990285361111113 ], [ -82.824415916666666, 27.990259027777778 ], [ -82.826006138888886, 27.989578138888891 ], [ -82.827408777777777, 27.988061166666668 ], [ -82.827906694444437, 27.987312583333335 ], [ -82.828118527777775, 27.986336388888891 ], [ -82.828399194444444, 27.98427025 ], [ -82.828176583333331, 27.980658972222219 ], [ -82.82764366666666, 27.97863233333333 ], [ -82.82731311111111, 27.9776825 ], [ -82.82672625, 27.976986583333332 ], [ -82.825145722222217, 27.9756145 ], [ -82.823481555555546, 27.975091638888888 ], [ -82.822939194444444, 27.975117944444442 ], [ -82.821349166666664, 27.975798805555552 ], [ -82.819811, 27.977322277777777 ], [ -82.819448666666659, 27.978064277777776 ], [ -82.819236777777775, 27.979040444444443 ], [ -82.81895594444444, 27.981106583333332 ] ] } },
{ "type": "Feature", "properties": { "style": "solid", "thickness": 1 }, "geometry": { "type": "LineString", "coordinates": [ [ -82.64939625, 27.879546305555557 ], [ -82.657660666666672, 27.879154944444444 ], [ -82.65674325, 27.863865694444446 ], [ -82.64834452777778, 27.864263416666667 ] ] } },
{ "type": "Feature", "properties": { "style": "solid", "thickness": 1 }, "geometry": { "type": "LineString", "coordinates": [ [ -82.657198305555568, 27.871450138888889 ], [ -82.649205444444448, 27.871828638888889 ] ] } },
{ "type": "Feature", "properties": { "style": "solid", "thickness": 1 }, "geometry": { "type": "LineString", "coordinates": [ [ -82.588041694444442, 28.00533 ], [ -82.581489277777777, 28.0209685 ], [ -82.573527861111103, 28.006008861111113 ] ] } },
{ "type": "Feature", "properties": { "style": "solid", "thickness": 1 }, "geometry": { "type": "LineString", "coordinates": [ [ -82.585893444444437, 28.01038025 ], [ -82.57612669444444, 28.010837055555555 ] ] } },
{ "type": "Feature", "properties": { "style": "solid", "thickness": 1 }, "geometry": { "type": "LineString", "coordinates": [ [ -82.590933972222217, 28.06141725 ], [ -82.591843833333328, 28.076706361111111 ], [ -82.586143111111113, 28.076973166666665 ], [ -82.584921527777766, 28.077030333333333 ], [ -82.583928444444439, 28.076352444444446 ], [ -82.583199694444446, 28.075541472222223 ], [ -82.583171083333326, 28.075059916666667 ], [ -82.583027972222212, 28.072652166666668 ], [ -82.583142222222222, 28.072284666666665 ], [ -82.583492166666659, 28.071302527777778 ], [ -82.584777833333334, 28.070035166666667 ], [ -82.583377666666664, 28.069376333333334 ], [ -82.582677583333336, 28.069046888888888 ], [ -82.581963222222214, 28.068476694444445 ], [ -82.581491666666665, 28.06741225 ], [ -82.581305694444438, 28.064282166666668 ], [ -82.58166275, 28.063420416666666 ], [ -82.582569833333324, 28.062653666666666 ], [ -82.583219805555558, 28.062140388888889 ], [ -82.583876888888881, 28.0617475 ], [ -82.590933972222217, 28.06141725 ] ] } },
{ "type": "Feature", "properties": { "style": "solid", "thickness": 1 }, "geometry": { "type": "LineString", "coordinates": [ [ -82.59142827777778, 28.069723944444444 ], [ -82.584777833333334, 28.070035166666667 ] ] } },
{ "type": "Feature", "properties": { "style": "solid", "thickness": 1 }, "geometry": { "type": "LineString", "coordinates": [ [ -82.802519944444441, 28.153710694444442 ], [ -82.810804583333336, 28.153310138888887 ], [ -82.809863222222219, 28.138022777777778 ], [ -82.80144391666667, 28.13842986111111 ] ] } },
{ "type": "Feature", "properties": { "style": "solid", "thickness": 1 }, "geometry": { "type": "LineString", "coordinates": [ [ -82.81033016666666, 28.145606277777777 ], [ -82.80231769444444, 28.145993694444442 ] ] } },
{ "type": "Feature", "properties": { "style": "solid", "thickness": 1 }, "geometry": { "type": "LineString", "coordinates": [ [ -82.67411675000001, 28.21258 ], [ -82.675039666666677, 28.227868055555554 ], [ -82.669331194444453, 28.228138277777777 ], [ -82.668107944444444, 28.228196166666667 ], [ -82.667112972222228, 28.227518888888888 ], [ -82.666382583333345, 28.226708388888888 ], [ -82.66635355555556, 28.226226888888888 ], [ -82.66620838888889, 28.223819305555555 ], [ -82.66632252777778, 28.22345175 ], [ -82.666672194444445, 28.222469416666666 ], [ -82.667958694444451, 28.221201333333333 ], [ -82.66655605555556, 28.220543361111108 ], [ -82.66585475, 28.220214361111111 ], [ -82.66513894444445, 28.219644611111111 ], [ -82.664665916666678, 28.2185805 ], [ -82.664477277777777, 28.215450638888889 ], [ -82.664834166666665, 28.214588694444444 ], [ -82.665741944444449, 28.213821416666665 ], [ -82.666392388888895, 28.213307777777779 ], [ -82.667050111111109, 28.2129145 ], [ -82.67411675000001, 28.21258 ] ] } },
{ "type": "Feature", "properties": { "style": "solid", "thickness": 1 }, "geometry": { "type": "LineString", "coordinates": [ [ -82.674618138888889, 28.22088611111111 ], [ -82.667958694444451, 28.221201333333333 ] ] } },
{ "type": "Feature", "properties": { "style": "solid", "thickness": 1 }, "geometry": { "type": "LineString", "coordinates": [ [ -82.64382091666667, 28.15938075 ], [ -82.63726725, 28.175021416666667 ], [ -82.629286833333325, 28.160065472222222 ] ] } },
{ "type": "Feature", "properties": { "style": "solid", "thickness": 1 }, "geometry": { "type": "LineString", "coordinates": [ [ -82.641672194444453, 28.164431694444442 ], [ -82.631891833333327, 28.16489247222222 ] ] } },
{ "type": "Feature", "properties": { "style": "solid", "thickness": 1 }, "geometry": { "type": "LineString", "coordinates": [ [ -82.805573472222221, 27.991293222222222 ], [ -82.81384575, 27.9908925 ], [ -82.812905444444439, 27.975604666666666 ], [ -82.80449875, 27.976011861111111 ] ] } },
{ "type": "Feature", "properties": { "style": "solid", "thickness": 1 }, "geometry": { "type": "LineString", "coordinates": [ [ -82.813371861111108, 27.983188388888887 ], [ -82.805371361111114, 27.983575944444446 ] ] } }
]
}
