{
"type": "FeatureCollection",
"name": "tpa122smvagp",
"features": [
{ "type": "Feature", "properties": { "style": "solid", "thickness": 1 }, "geometry": { "type": "LineString", "coordinates": [ [ -81.615157583333328, 28.117919694444446 ], [ -81.60618, 28.05928 ] ] } },
{ "type": "Feature", "properties": { "style": "solid", "thickness": 1 }, "geometry": { "type": "LineString", "coordinates": [ [ -81.615157583333328, 28.117919694444446 ], [ -81.62644, 28.17623 ] ] } },
{ "type": "Feature", "properties": { "style": "solid", "thickness": 1 }, "geometry": { "type": "LineString", "coordinates": [ [ -82.19017, 27.87471 ], [ -82.189369444444452, 27.873614555555555 ], [ -82.1860245, 27.868810361111112 ], [ -82.182812444444451, 27.863188416666667 ], [ -82.180166861111118, 27.857340194444447 ], [ -82.178107861111116, 27.851310111111111 ], [ -82.17665108333334, 27.845144027777778 ], [ -82.175807638888898, 27.838888833333332 ], [ -82.175583861111122, 27.832592111111111 ], [ -82.175981527777779, 27.826301722222222 ], [ -82.176997555555559, 27.820065527777778 ], [ -82.17862425, 27.813930972222224 ], [ -82.180849277777781, 27.80794475 ], [ -82.183333972222229, 27.802768888888888 ], [ -82.18395, 27.80156 ] ] } },
{ "type": "Feature", "properties": { "style": "solid", "thickness": 1 }, "geometry": { "type": "LineString", "coordinates": [ [ -82.05673, 27.73584 ], [ -82.18395, 27.80156 ] ] } },
{ "type": "Feature", "properties": { "style": "solid", "thickness": 1 }, "geometry": { "type": "LineString", "coordinates": [ [ -82.84535, 28.77988 ], [ -82.90578, 28.93833 ] ] } },
{ "type": "Feature", "properties": { "style": "solid", "thickness": 1 }, "geometry": { "type": "LineString", "coordinates": [ [ -81.60618, 28.05928 ], [ -81.41535, 28.07516 ] ] } },
{ "type": "Feature", "properties": { "style": "solid", "thickness": 1 }, "geometry": { "type": "LineString", "coordinates": [ [ -82.24981, 27.35835 ], [ -82.254709333333338, 27.35855025 ], [ -82.259596166666668, 27.359131055555558 ], [ -82.264407416666671, 27.360087888888891 ], [ -82.269106472222219, 27.361413527777778 ], [ -82.273657555555559, 27.363097805555558 ], [ -82.27802602777777, 27.365127916666669 ], [ -82.282178638888894, 27.367488416666667 ], [ -82.286083805555549, 27.37016125 ], [ -82.289711805555555, 27.373126138888889 ], [ -82.293035, 27.376360416666667 ], [ -82.296028111111113, 27.379839527777779 ], [ -82.298668361111112, 27.383536888888887 ], [ -82.30093566666666, 27.387424388888888 ], [ -82.30281275, 27.391472416666666 ], [ -82.304285361111113, 27.39565013888889 ], [ -82.30534225, 27.399925777777778 ], [ -82.305975416666669, 27.404266722222221 ], [ -82.306180027777771, 27.408648555555555 ], [ -82.305978305555556, 27.41303086111111 ], [ -82.305347944444435, 27.417372194444447 ], [ -82.304293722222226, 27.421648055555558 ], [ -82.302823694444442, 27.425825972222224 ], [ -82.300949027777776, 27.429874083333335 ], [ -82.298684, 27.433761638888889 ], [ -82.296045833333338, 27.437459055555557 ], [ -82.293054611111103, 27.440938194444445 ], [ -82.289733111111104, 27.444172666666667 ], [ -82.286106611111109, 27.447137805555556 ], [ -82.282202722222223, 27.44981111111111 ], [ -82.278051111111111, 27.45217225 ], [ -82.273683416666671, 27.45420325 ], [ -82.269132861111103, 27.455888694444443 ], [ -82.264434083333327, 27.457215777777776 ], [ -82.259622833333339, 27.458174416666665 ], [ -82.25473575, 27.458757277777778 ], [ -82.249800361111113, 27.458959972222221 ], [ -82.244865083333337, 27.45875575 ], [ -82.239978194444447, 27.458171388888889 ], [ -82.235167333333337, 27.457211305555553 ], [ -82.23046905555556, 27.455882805555554 ], [ -82.225919138888884, 27.454196 ], [ -82.221552222222229, 27.452163666666667 ], [ -82.217401527777781, 27.449801277777777 ], [ -82.213498666666666, 27.447126777777779 ], [ -82.209873305555561, 27.444160555555555 ], [ -82.20655305555556, 27.440925083333333 ], [ -82.203563166666669, 27.437445027777777 ], [ -82.200926416666675, 27.433746805555558 ], [ -82.19866288888889, 27.429858555555558 ], [ -82.196789777777781, 27.425809888888889 ], [ -82.195321333333339, 27.421631555555557 ], [ -82.19426875, 27.417355361111113 ], [ -82.193640055555562, 27.413013833333331 ], [ -82.19344, 27.40864 ], [ -82.19364238888889, 27.404289666666664 ], [ -82.194273305555555, 27.399948444444444 ], [ -82.195327972222231, 27.395672388888887 ], [ -82.196798416666667, 27.391494055555555 ], [ -82.198673416666665, 27.387445277777779 ], [ -82.200938722222219, 27.383556833333333 ], [ -82.203577083333343, 27.379858388888888 ], [ -82.206568388888897, 27.376378083333332 ], [ -82.209889916666668, 27.373142444444444 ], [ -82.213516361111118, 27.37017611111111 ], [ -82.217420138888897, 27.367501638888889 ], [ -82.221571555555556, 27.365139472222225 ], [ -82.225938972222224, 27.363107583333335 ], [ -82.230489194444445, 27.361421444444446 ], [ -82.235187555555555, 27.360093916666667 ], [ -82.239998305555559, 27.359135111111112 ], [ -82.244884861111117, 27.358552305555556 ], [ -82.24981, 27.35835 ] ] } },
{ "type": "Feature", "properties": { "style": "solid", "thickness": 1 }, "geometry": { "type": "LineString", "coordinates": [ [ -82.16595, 27.67332 ], [ -82.165749416666671, 27.677693861111113 ], [ -82.16511916666667, 27.682035416666668 ], [ -82.164064027777783, 27.686311638888888 ], [ -82.162592, 27.69049 ], [ -82.160714333333345, 27.694538694444443 ], [ -82.158445277777787, 27.698426944444446 ], [ -82.155802138888887, 27.702125166666665 ], [ -82.152805, 27.705605222222221 ], [ -82.149476694444445, 27.708840694444444 ], [ -82.145842555555561, 27.711806916666667 ], [ -82.141930194444456, 27.714481388888888 ], [ -82.137769444444444, 27.716843777777775 ], [ -82.133391944444455, 27.718876083333331 ], [ -82.128831027777778, 27.720562888888889 ], [ -82.124121361111108, 27.721891388888888 ], [ -82.119298861111105, 27.722851444444444 ], [ -82.114400138888882, 27.723435777777777 ], [ -82.109451277777765, 27.72363997222222 ], [ -82.104502361111102, 27.723436777777778 ], [ -82.0996035, 27.722853416666666 ], [ -82.094780722222211, 27.721894305555555 ], [ -82.09007075, 27.72056675 ], [ -82.08550938888888, 27.718880805555553 ], [ -82.081131388888892, 27.716849361111109 ], [ -82.076970027777776, 27.714487805555557 ], [ -82.073057027777779, 27.711814083333334 ], [ -82.069422138888882, 27.708848555555555 ], [ -82.066093, 27.70561375 ], [ -82.063095, 27.70213425 ], [ -82.06045094444444, 27.698436555555556 ], [ -82.058180916666657, 27.69454875 ], [ -82.056302222222214, 27.690500416666666 ], [ -82.054829166666664, 27.686322333333333 ], [ -82.053772944444447, 27.682046333333336 ], [ -82.053141611111101, 27.67770488888889 ], [ -82.052939972222219, 27.673325527777777 ], [ -82.053145111111107, 27.668946722222223 ], [ -82.05377980555555, 27.66460575 ], [ -82.054839277777774, 27.660330111111108 ], [ -82.056315472222224, 27.656152361111111 ], [ -82.058197111111113, 27.65210433333333 ], [ -82.060469916666662, 27.648216805555556 ], [ -82.063116583333326, 27.644519444444445 ], [ -82.066116944444445, 27.641040333333333 ], [ -82.06944816666666, 27.637806027777778 ], [ -82.073084944444446, 27.634841166666668 ], [ -82.076999555555545, 27.632168305555556 ], [ -82.081162222222218, 27.629807833333334 ], [ -82.08554125, 27.627777722222223 ], [ -82.090103333333332, 27.626093444444447 ], [ -82.094813722222213, 27.624767833333333 ], [ -82.099636611111109, 27.623811 ], [ -82.10453525, 27.623230222222222 ], [ -82.10944, 27.62303 ], [ -82.114377027777778, 27.623232 ], [ -82.119275416666653, 27.6238145 ], [ -82.124097888888883, 27.624773027777778 ], [ -82.128807694444433, 27.626100277777777 ], [ -82.133369, 27.62778613888889 ], [ -82.137747138888898, 27.629817805555557 ], [ -82.141908750000013, 27.632179722222222 ], [ -82.145822166666676, 27.634853944444444 ], [ -82.149457611111117, 27.637820083333335 ], [ -82.152787388888896, 27.641055555555557 ], [ -82.155786222222233, 27.644535694444443 ], [ -82.158431222222234, 27.648234 ], [ -82.160702277777787, 27.652122305555555 ], [ -82.162582138888894, 27.656171 ], [ -82.164056444444455, 27.66034925 ], [ -82.16511402777779, 27.66462525 ], [ -82.165746777777784, 27.668966444444447 ], [ -82.16595, 27.67332 ] ] } },
{ "type": "Feature", "properties": { "style": "solid", "thickness": 1 }, "geometry": { "type": "LineString", "coordinates": [ [ -82.62385, 27.8168 ], [ -82.628797333333324, 27.8170035 ], [ -82.633705777777791, 27.817587611111112 ], [ -82.638537972222224, 27.818547833333334 ], [ -82.643257166666672, 27.819876861111112 ], [ -82.647827444444445, 27.821564583333334 ], [ -82.652214, 27.82359813888889 ], [ -82.656383472222231, 27.825962027777777 ], [ -82.660304083333344, 27.82863825 ], [ -82.663946055555556, 27.83160638888889 ], [ -82.667281638888895, 27.834843833333331 ], [ -82.670285472222233, 27.838325944444442 ], [ -82.67293463888889, 27.842026166666667 ], [ -82.675209027777782, 27.845916361111112 ], [ -82.677091333333337, 27.849966888888886 ], [ -82.678567194444454, 27.854146888888891 ], [ -82.679625388888894, 27.858424527777778 ], [ -82.680257888888889, 27.862767277777778 ], [ -82.68046, 27.86709 ], [ -82.680259, 27.871463916666666 ], [ -82.679627527777782, 27.875805555555555 ], [ -82.6785703888889, 27.880081833333335 ], [ -82.677095666666673, 27.88426022222222 ], [ -82.675214527777783, 27.888308972222223 ], [ -82.672941333333341, 27.89219725 ], [ -82.670293388888894, 27.895895472222222 ], [ -82.667290777777779, 27.899375555555554 ], [ -82.663956444444452, 27.902611027777777 ], [ -82.660315694444449, 27.90557725 ], [ -82.65639625, 27.908251722222222 ], [ -82.652227972222221, 27.910614055555556 ], [ -82.647842555555556, 27.912646361111111 ], [ -82.6432733888889, 27.914333111111109 ], [ -82.63855525000001, 27.915661555555555 ], [ -82.633724027777788, 27.916621555555555 ], [ -82.6288165, 27.917205833333334 ], [ -82.62386, 27.917409972222224 ], [ -82.618904888888878, 27.917208027777779 ], [ -82.613998527777767, 27.916626 ], [ -82.609168222222223, 27.915668333333333 ], [ -82.604450777777771, 27.914342277777777 ], [ -82.599882083333327, 27.912657944444444 ], [ -82.595496888888889, 27.910628111111109 ], [ -82.591328583333322, 27.908268222222222 ], [ -82.587408888888888, 27.905596222222222 ], [ -82.583767638888887, 27.902632416666666 ], [ -82.580432527777774, 27.899399333333331 ], [ -82.577428972222222, 27.895921555555557 ], [ -82.574779805555551, 27.892225555555555 ], [ -82.572505194444446, 27.888339388888888 ], [ -82.570622444444439, 27.884292666666667 ], [ -82.569145888888883, 27.880116138888891 ], [ -82.568086777777779, 27.875841583333333 ], [ -82.567453166666667, 27.871501527777777 ], [ -82.567249944444441, 27.8671095 ], [ -82.567455555555554, 27.862716666666667 ], [ -82.568091472222221, 27.858375638888891 ], [ -82.569152916666667, 27.854099972222222 ], [ -82.57063180555555, 27.849922166666666 ], [ -82.572516916666657, 27.845874111111112 ], [ -82.574793861111104, 27.841986555555554 ], [ -82.57744533333333, 27.838289166666666 ], [ -82.58045113888889, 27.834810055555554 ], [ -82.583788416666664, 27.83157575 ], [ -82.58743175, 27.828610888888889 ], [ -82.591353444444437, 27.825938027777777 ], [ -82.595523611111105, 27.823577555555556 ], [ -82.599910555555553, 27.821547472222221 ], [ -82.604480833333326, 27.819863222222221 ], [ -82.609199722222215, 27.818537666666668 ], [ -82.614031277777769, 27.817580861111111 ], [ -82.618938722222211, 27.81700013888889 ], [ -82.62385, 27.8168 ] ] } },
{ "type": "Feature", "properties": { "style": "solid", "thickness": 1 }, "geometry": { "type": "LineString", "coordinates": [ [ -82.72508, 28.46295 ], [ -82.84535, 28.77988 ] ] } },
{ "type": "Feature", "properties": { "style": "solid", "thickness": 1 }, "geometry": { "type": "LineString", "coordinates": [ [ -82.24107, 26.94805 ], [ -82.236039527777777, 26.94783561111111 ], [ -82.231049194444452, 26.947231222222221 ], [ -82.226136916666675, 26.946241416666666 ], [ -82.221340111111118, 26.944873722222223 ], [ -82.216695305555561, 26.9431385 ], [ -82.212237777777787, 26.941048972222223 ], [ -82.208001527777782, 26.938621027777778 ], [ -82.204018777777776, 26.93587311111111 ], [ -82.200319805555552, 26.932826111111112 ], [ -82.196932777777775, 26.929503194444447 ], [ -82.1938835, 26.925929611111112 ], [ -82.191195138888887, 26.922132583333333 ], [ -82.188888194444445, 26.918140944444445 ], [ -82.186980194444445, 26.913985055555553 ], [ -82.185485638888892, 26.909696555555556 ], [ -82.184415972222226, 26.905308055555555 ], [ -82.183779277777788, 26.900852944444441 ], [ -82.18358, 26.89666 ], [ -82.183831444444451, 26.892195277777777 ], [ -82.184518250000011, 26.887766888888887 ], [ -82.185635194444444, 26.883408611111111 ], [ -82.18717375, 26.879153555555558 ], [ -82.18912225, 26.875034138888889 ], [ -82.191465861111112, 26.87108175 ], [ -82.194186694444454, 26.867326472222224 ], [ -82.19726411111111, 26.863796888888892 ], [ -82.200674638888898, 26.860519916666668 ], [ -82.204392361111118, 26.8575205 ], [ -82.208388944444451, 26.8548215 ], [ -82.212634, 26.852443472222223 ], [ -82.21709519444444, 26.85040452777778 ], [ -82.221738611111107, 26.848720222222219 ], [ -82.226528888888893, 26.847403388888889 ], [ -82.231429583333338, 26.846464027777778 ], [ -82.236403388888888, 26.845909361111111 ], [ -82.24005, 26.84575 ], [ -82.24508225, 26.845939111111111 ], [ -82.250076888888884, 26.846518805555554 ], [ -82.254995888888885, 26.847484666666666 ], [ -82.259801805555554, 26.848829388888888 ], [ -82.264458083333338, 26.850542666666669 ], [ -82.268929277777772, 26.852611444444445 ], [ -82.273181388888887, 26.85502 ], [ -82.277182, 26.857749944444446 ], [ -82.280900694444441, 26.8607805 ], [ -82.28430916666666, 26.864088555555558 ], [ -82.287381472222222, 26.867648944444444 ], [ -82.29009425, 26.87143452777778 ], [ -82.292426833333337, 26.875416472222224 ], [ -82.294361472222221, 26.879564472222224 ], [ -82.295883444444442, 26.883846916666666 ], [ -82.296981138888881, 26.888231194444444 ], [ -82.297646277777773, 26.892683972222223 ], [ -82.29787, 26.89666 ], [ -82.297642833333327, 26.901146805555555 ], [ -82.296978055555556, 26.905598722222219 ], [ -82.295880722222222, 26.90998186111111 ], [ -82.294359138888893, 26.914262861111109 ], [ -82.292424944444448, 26.91840913888889 ], [ -82.29009280555556, 26.922389222222222 ], [ -82.2873805, 26.926172777777779 ], [ -82.284308694444448, 26.929731055555557 ], [ -82.280900722222228, 26.933036972222222 ], [ -82.277182527777782, 26.936065444444445 ], [ -82.273182444444444, 26.93879338888889 ], [ -82.268930861111116, 26.941200111111112 ], [ -82.264460194444439, 26.943267277777778 ], [ -82.259804416666668, 26.944979222222223 ], [ -82.254999, 26.94632288888889 ], [ -82.250080472222223, 26.947288083333333 ], [ -82.24508630555556, 26.947867444444444 ], [ -82.24107, 26.94805 ] ] } },
{ "type": "Feature", "properties": { "style": "solid", "thickness": 1 }, "geometry": { "type": "LineString", "coordinates": [ [ -82.36607263888888, 27.507420166666666 ], [ -82.371245499999986, 27.50763238888889 ], [ -82.376185944444444, 27.508228638888887 ], [ -82.381049027777777, 27.5092045 ], [ -82.385797666666676, 27.510552555555556 ], [ -82.390395777777783, 27.512262555555555 ], [ -82.394808361111117, 27.514321444444445 ], [ -82.399001833333344, 27.516713527777778 ], [ -82.402944277777777, 27.519420583333332 ], [ -82.406605666666678, 27.522422 ], [ -82.409958166666669, 27.525694916666666 ], [ -82.41297625, 27.529214361111109 ], [ -82.415636944444444, 27.532953583333331 ], [ -82.41792, 27.536884055555557 ], [ -82.419808055555563, 27.540975861111114 ], [ -82.42128672222222, 27.545197861111113 ], [ -82.422344777777781, 27.549517888888889 ], [ -82.422974111111117, 27.553903055555555 ], [ -82.42317, 27.55832 ], [ -82.423033194444443, 27.561972166666667 ], [ -82.42246925, 27.566389833333336 ], [ -82.421473111111112, 27.570746916666668 ], [ -82.420052416666678, 27.575010305555555 ], [ -82.418217916666677, 27.579147583333334 ], [ -82.415983583333343, 27.583127194444444 ], [ -82.413366444444449, 27.586918972222222 ], [ -82.410386416666668, 27.590494 ], [ -82.407066138888894, 27.593825138888889 ], [ -82.403430944444452, 27.596887027777775 ], [ -82.39950844444445, 27.599656416666665 ], [ -82.395328527777778, 27.60211225 ], [ -82.390922972222228, 27.604235833333334 ], [ -82.386325361111119, 27.606011055555555 ], [ -82.381570611111101, 27.607424388888891 ], [ -82.376694972222211, 27.608465111111112 ], [ -82.3717355, 27.609125333333335 ], [ -82.366709722222211, 27.609400194444447 ], [ -82.361629138888887, 27.609249805555557 ], [ -82.356602888888887, 27.608709027777778 ], [ -82.351648972222222, 27.607782083333333 ], [ -82.346805055555549, 27.606476055555557 ], [ -82.342108027777769, 27.604800888888889 ], [ -82.33759363888889, 27.602769277777778 ], [ -82.333296249999989, 27.600396694444445 ], [ -82.329248527777779, 27.597701138888887 ], [ -82.325481333333329, 27.594703138888889 ], [ -82.322023277777774, 27.59142547222222 ], [ -82.318900722222224, 27.587893055555554 ], [ -82.316137444444436, 27.58413275 ], [ -82.313754416666669, 27.580173166666665 ], [ -82.311769833333329, 27.576044388888889 ], [ -82.31019875, 27.571777861111112 ], [ -82.309053166666658, 27.567406027777778 ], [ -82.30834177777777, 27.562962138888889 ], [ -82.30807, 27.55848 ], [ -82.308244361111107, 27.555093333333335 ], [ -82.308863833333334, 27.550615222222223 ], [ -82.309921138888882, 27.546201833333335 ], [ -82.311408277777772, 27.54188677777778 ], [ -82.313313916666658, 27.537702888888891 ], [ -82.315623555555547, 27.533682027777779 ], [ -82.318319611111107, 27.529854861111112 ], [ -82.321381555555547, 27.52625047222222 ], [ -82.324786111111109, 27.522896361111112 ], [ -82.328507361111107, 27.519818055555554 ], [ -82.332516944444436, 27.517039027777777 ], [ -82.336784388888887, 27.514580444444444 ], [ -82.341277222222217, 27.512461027777778 ], [ -82.345961222222215, 27.510696916666667 ], [ -82.35080075, 27.509301583333333 ], [ -82.355759, 27.508285638888889 ], [ -82.360798194444442, 27.507656861111112 ], [ -82.36607263888888, 27.507420166666666 ] ] } },
{ "type": "Feature", "properties": { "style": "solid", "thickness": 1 }, "geometry": { "type": "LineString", "coordinates": [ [ -82.76747, 28.23357 ], [ -82.762604111111116, 28.233364111111111 ], [ -82.757607888888884, 28.232771666666665 ], [ -82.752689305555549, 28.231797861111108 ], [ -82.747885777777782, 28.230450027777778 ], [ -82.743233833333335, 28.228738444444442 ], [ -82.738768916666672, 28.226676138888887 ], [ -82.734525, 28.22427875 ], [ -82.730534388888884, 28.221564527777776 ], [ -82.726827416666666, 28.218554083333331 ], [ -82.723432333333335, 28.215270333333333 ], [ -82.720374972222217, 28.211738222222223 ], [ -82.717678583333338, 28.207984611111112 ], [ -82.715363694444449, 28.204038027777777 ], [ -82.713447944444454, 28.199928555555555 ], [ -82.711945888888891, 28.195687361111112 ], [ -82.710868944444442, 28.191346777777778 ], [ -82.710225361111114, 28.186939833333334 ], [ -82.710021527777783, 28.182113611111113 ], [ -82.710297722222222, 28.177312222222223 ], [ -82.71100783333334, 28.172934916666669 ], [ -82.712148055555559, 28.168628666666667 ], [ -82.713709666666674, 28.164426222222222 ], [ -82.715680805555564, 28.160359611111108 ], [ -82.718046472222227, 28.156459777777776 ], [ -82.720788638888891, 28.152756444444442 ], [ -82.723886472222219, 28.149277805555556 ], [ -82.727316388888894, 28.146050361111111 ], [ -82.73105225, 28.143098666666667 ], [ -82.735065666666671, 28.140445277777776 ], [ -82.739326055555551, 28.138110333333334 ], [ -82.743801027777778, 28.136111694444445 ], [ -82.7484565, 28.134464527777777 ], [ -82.753257055555551, 28.133181444444446 ], [ -82.758166138888882, 28.132272194444443 ], [ -82.763146444444445, 28.131743694444445 ], [ -82.76816, 28.1316 ], [ -82.772201222222222, 28.131764333333333 ], [ -82.777231027777773, 28.132319611111111 ], [ -82.782186833333327, 28.133259333333335 ], [ -82.787030888888893, 28.134576388888888 ], [ -82.79172633333333, 28.136260694444445 ], [ -82.796237472222217, 28.138299416666666 ], [ -82.800529916666662, 28.140677083333333 ], [ -82.804571055555556, 28.1433755 ], [ -82.808330083333331, 28.146374138888888 ], [ -82.81177841666667, 28.149650166666667 ], [ -82.814889805555552, 28.153178583333332 ], [ -82.817640555555556, 28.156932583333333 ], [ -82.82000975, 28.1608835 ], [ -82.821979388888892, 28.165001305555553 ], [ -82.823534416666661, 28.169254583333334 ], [ -82.824663027777774, 28.173611 ], [ -82.825356666666664, 28.178037361111112 ], [ -82.825609611111105, 28.182704861111112 ], [ -82.825360861111108, 28.187349944444446 ], [ -82.824674361111107, 28.191754 ], [ -82.823555, 28.196088388888889 ], [ -82.82201125, 28.200320138888888 ], [ -82.820054916666663, 28.204417027777776 ], [ -82.817700833333333, 28.208347944444444 ], [ -82.814966944444436, 28.212082944444443 ], [ -82.811874083333336, 28.215593638888887 ], [ -82.808445722222217, 28.218853333333332 ], [ -82.804708, 28.22183725 ], [ -82.800689361111111, 28.224522694444442 ], [ -82.79642038888889, 28.22688925 ], [ -82.791933555555559, 28.228918944444441 ], [ -82.787263027777769, 28.230596333333331 ], [ -82.782444333333331, 28.231908694444442 ], [ -82.777514166666663, 28.232846 ], [ -82.77251002777777, 28.233401194444447 ], [ -82.76747, 28.23357 ] ] } },
{ "type": "Feature", "properties": { "style": "solid", "thickness": 1 }, "geometry": { "type": "LineString", "coordinates": [ [ -81.799669305555554, 28.500868888888888 ], [ -81.761083361111105, 28.453497083333332 ], [ -81.752431777777772, 28.441825305555557 ], [ -81.718689777777783, 28.391649194444444 ], [ -81.711228333333338, 28.379352416666666 ], [ -81.682587, 28.326749388888889 ], [ -81.676372222222227, 28.31392025 ], [ -81.6530495, 28.259286638888888 ], [ -81.64812841666668, 28.246021833333334 ], [ -81.63037791666666, 28.189746694444445 ], [ -81.62644, 28.17623 ] ] } },
{ "type": "Feature", "properties": { "style": "solid", "thickness": 1 }, "geometry": { "type": "LineString", "coordinates": [ [ -82.18395, 27.80156 ], [ -82.18716, 27.796400944444446 ], [ -82.19086605555556, 27.791508777777779 ], [ -82.195040027777779, 27.78692075 ], [ -82.199650111111112, 27.782671833333332 ], [ -82.20466125, 27.778794444444443 ], [ -82.21003525, 27.775318083333332 ], [ -82.215731277777778, 27.77226925 ], [ -82.221705916666664, 27.769671222222222 ], [ -82.22791375, 27.76754375 ], [ -82.234307527777773, 27.765903111111111 ], [ -82.240838555555555, 27.764761777777778 ], [ -82.24745713888889, 27.764128472222222 ], [ -82.254112944444444, 27.764008 ], [ -82.26043, 27.76437 ], [ -82.265462888888891, 27.763791833333332 ], [ -82.270533583333332, 27.763604 ], [ -82.275603472222215, 27.763807944444444 ], [ -82.280634, 27.76440213888889 ], [ -82.285586833333326, 27.765382 ], [ -82.290424333333334, 27.766740083333332 ], [ -82.295109638888889, 27.768466055555553 ], [ -82.299607111111115, 27.77054675 ], [ -82.303882527777773, 27.772966333333333 ], [ -82.307903333333329, 27.775706333333332 ], [ -82.311638944444439, 27.778745861111108 ], [ -82.315060916666667, 27.782061833333334 ], [ -82.318143222222218, 27.785628916666667 ], [ -82.320862388888884, 27.789419972222223 ], [ -82.32319775, 27.793406111111114 ], [ -82.325131472222225, 27.797557 ], [ -82.326648888888883, 27.80184102777778 ], [ -82.327738444444435, 27.80622552777778 ], [ -82.328391833333328, 27.810677194444445 ], [ -82.328604111111105, 27.81516211111111 ], [ -82.32848, 27.81843 ], [ -82.329694805555548, 27.82433561111111 ], [ -82.33032302777778, 27.830312055555556 ], [ -82.330359833333333, 27.836313861111108 ], [ -82.329805, 27.842295305555556 ], [ -82.328662722222219, 27.848210944444443 ], [ -82.326941694444443, 27.854015694444445 ], [ -82.324655, 27.859665444444445 ], [ -82.321820083333336, 27.865117222222224 ], [ -82.318458472222218, 27.870329555555557 ], [ -82.314595805555555, 27.875262833333334 ], [ -82.310261416666663, 27.879879527777778 ], [ -82.305488333333329, 27.884144527777778 ], [ -82.300312861111109, 27.888025472222221 ], [ -82.294774416666669, 27.891492833333334 ], [ -82.288915138888882, 27.894520277777776 ], [ -82.28277961111111, 27.897084777777778 ], [ -82.2764145, 27.899166861111112 ], [ -82.269868333333335, 27.90075072222222 ], [ -82.26319083333334, 27.901824305555554 ], [ -82.256432888888895, 27.9023795 ], [ -82.249645916666665, 27.902412027777775 ], [ -82.242881555555556, 27.901921694444443 ], [ -82.236191277777777, 27.900912194444444 ], [ -82.229626027777783, 27.899391222222221 ], [ -82.22323575, 27.897370305555555 ], [ -82.217069083333328, 27.894864805555557 ], [ -82.211172972222229, 27.89189375 ], [ -82.205592277777782, 27.888479722222222 ], [ -82.200369472222221, 27.884648666666667 ], [ -82.195544305555558, 27.880429722222221 ], [ -82.191153527777786, 27.875854888888888 ], [ -82.19017, 27.87471 ] ] } },
{ "type": "Feature", "properties": { "style": "solid", "thickness": 1 }, "geometry": { "type": "LineString", "coordinates": [ [ -81.7325, 26.75831 ], [ -81.735949416666671, 26.753897166666668 ], [ -81.73981641666667, 26.74976938888889 ], [ -81.744071583333337, 26.745958166666668 ], [ -81.748682527777774, 26.7424925 ], [ -81.753614166666665, 26.739398833333333 ], [ -81.758828972222219, 26.736700694444444 ], [ -81.76428725, 26.734418694444447 ], [ -81.769947444444441, 26.732570194444442 ], [ -81.775766472222216, 26.731169305555554 ], [ -81.781700083333334, 26.730226694444443 ], [ -81.787703083333327, 26.729749555555554 ], [ -81.79372983333333, 26.7297415 ], [ -81.799734416666666, 26.73020261111111 ], [ -81.805671138888883, 26.731129388888888 ], [ -81.811494861111115, 26.73251472222222 ], [ -81.817161222222225, 26.734348083333334 ], [ -81.82262708333333, 26.736615527777779 ], [ -81.827850888888889, 26.739299694444444 ], [ -81.832792888888889, 26.742380194444447 ], [ -81.837415416666659, 26.74583352777778 ], [ -81.841683333333322, 26.749633388888888 ], [ -81.845564138888889, 26.753750805555555 ], [ -81.849028305555549, 26.758154444444443 ], [ -81.85204947222222, 26.762810722222223 ], [ -81.85460466666666, 26.767684166666665 ], [ -81.856674388888877, 26.772737694444444 ], [ -81.858242916666654, 26.777932833333331 ], [ -81.859298333333328, 26.78323 ], [ -81.859832555555556, 26.788588861111112 ], [ -81.859841583333321, 26.793968638888892 ], [ -81.859325277777771, 26.799328416666668 ], [ -81.858287638888882, 26.804627361111113 ], [ -81.8567365, 26.809825194444446 ], [ -81.854683694444432, 26.814882361111113 ], [ -81.8521448611111, 26.819760388888888 ], [ -81.849139305555553, 26.824422166666665 ], [ -81.845689888888884, 26.828832277777778 ], [ -81.841822888888885, 26.832957166666667 ], [ -81.837567722222218, 26.836765472222222 ], [ -81.83295675, 26.84022825 ], [ -81.828025111111103, 26.843319166666664 ], [ -81.822740166666662, 26.846047388888888 ], [ -81.819196, 26.850463111111111 ], [ -81.815307027777777, 26.854559277777778 ], [ -81.811032722222222, 26.858337305555558 ], [ -81.80640558333333, 26.8617685 ], [ -81.80146086111111, 26.864826777777779 ], [ -81.796236138888887, 26.867488916666666 ], [ -81.790771222222219, 26.86973463888889 ], [ -81.785107694444449, 26.871546916666667 ], [ -81.779288611111113, 26.872911944444446 ], [ -81.773358333333334, 26.87381938888889 ], [ -81.767361944444445, 26.874262333333334 ], [ -81.761345111111112, 26.87423738888889 ], [ -81.755353583333331, 26.873744805555557 ], [ -81.749433, 26.872788277777779 ], [ -81.743628416666667, 26.871375083333334 ], [ -81.737984, 26.869515972222224 ], [ -81.732542694444447, 26.867225055555554 ], [ -81.727345916666664, 26.86451975 ], [ -81.72243325, 26.861420611111111 ], [ -81.717842027777778, 26.857951222222223 ], [ -81.713607222222223, 26.854137916666669 ], [ -81.709761083333333, 26.850009722222225 ], [ -81.706332861111107, 26.845597972222222 ], [ -81.703348638888897, 26.84093625 ], [ -81.700831111111114, 26.83606 ], [ -81.6987995, 26.831006305555555 ], [ -81.697269222222232, 26.825813583333332 ], [ -81.696251916666668, 26.820521388888888 ], [ -81.695755361111111, 26.815169944444445 ], [ -81.695783277777778, 26.809799972222223 ], [ -81.696335527777777, 26.80445236111111 ], [ -81.697407861111117, 26.799167833333335 ], [ -81.69899211111111, 26.793986583333336 ], [ -81.70107625, 26.788948055555558 ], [ -81.703644416666663, 26.784090638888891 ], [ -81.706677027777786, 26.779451333333334 ], [ -81.710151027777783, 26.77506547222222 ], [ -81.71404, 26.770966444444444 ], [ -81.718314305555552, 26.7671855 ], [ -81.722941444444444, 26.763751444444445 ], [ -81.727886166666664, 26.760690444444446 ], [ -81.7325, 26.75831 ] ] } },
{ "type": "Feature", "properties": { "style": "solid", "thickness": 1 }, "geometry": { "type": "LineString", "coordinates": [ [ -81.41535, 28.07516 ], [ -81.415533972222221, 27.986866888888891 ], [ -81.42528883333334, 27.882270666666667 ], [ -81.445325, 27.778724138888887 ], [ -81.47549, 27.67702 ], [ -81.473840083333329, 27.67276302777778 ], [ -81.452857194444448, 27.60909088888889 ], [ -81.438218444444445, 27.54400275 ], [ -81.430035305555563, 27.477992027777777 ], [ -81.42837, 27.41156 ] ] } },
{ "type": "Feature", "properties": { "style": "solid", "thickness": 1 }, "geometry": { "type": "LineString", "coordinates": [ [ -81.42837, 27.41156 ], [ -81.7321, 27.56798 ], [ -81.74655, 27.5755 ], [ -81.752930444444445, 27.5719985 ], [ -81.760213472222219, 27.568681527777777 ], [ -81.767795305555552, 27.565940611111113 ], [ -81.775617805555555, 27.56379586111111 ], [ -81.782949055555548, 27.562365416666669 ], [ -81.784293861111109, 27.562161888888891 ], [ -81.791065444444442, 27.56140511111111 ], [ -81.792425138888888, 27.561306277777778 ], [ -81.799245388888892, 27.561075583333334 ], [ -81.800609611111113, 27.561082222222222 ], [ -81.807426583333324, 27.561379388888888 ], [ -81.808784972222213, 27.561491444444446 ], [ -81.815546777777769, 27.562314166666667 ], [ -81.816888972222216, 27.562530777777777 ], [ -81.824202027777773, 27.564032583333333 ], [ -81.831997472222213, 27.566253416666669 ], [ -81.839544833333335, 27.569068055555555 ], [ -81.84678672222222, 27.572455 ], [ -81.853667944444439, 27.576388388888887 ], [ -81.860136194444436, 27.58083825 ], [ -81.866142222222223, 27.585770611111109 ], [ -81.871640305555545, 27.591147861111111 ], [ -81.876588638888876, 27.596929 ], [ -81.880949555555546, 27.603069944444446 ], [ -81.884689916666673, 27.609523861111114 ], [ -81.88778127777779, 27.616241638888891 ], [ -81.890200111111113, 27.623172083333333 ], [ -81.89192808333334, 27.630262444444444 ], [ -81.892952, 27.63745872222222 ], [ -81.893263194444458, 27.644706111111109 ], [ -81.89295, 27.65135 ], [ -82.05673, 27.73584 ] ] } },
{ "type": "Feature", "properties": { "style": "solid", "thickness": 1 }, "geometry": { "type": "LineString", "coordinates": [ [ -83.56848, 28.41569 ], [ -83.533233583333327, 28.480525722222222 ], [ -83.486376555555552, 28.551144777777779 ], [ -83.432693222222227, 28.617863166666666 ], [ -83.372592166666664, 28.680180861111111 ], [ -83.30653072222222, 28.737631694444445 ], [ -83.235011722222225, 28.789786694444444 ], [ -83.158579416666669, 28.836257083333333 ], [ -83.077815555555546, 28.876696944444443 ], [ -82.99333475, 28.910805666666665 ], [ -82.90578, 28.93833 ] ] } },
{ "type": "Feature", "properties": { "style": "solid", "thickness": 1 }, "geometry": { "type": "LineString", "coordinates": [ [ -82.78427, 27.23004 ], [ -82.78547, 27.22277 ], [ -82.78232, 27.20865 ], [ -82.77819, 27.20161 ], [ -82.77599, 27.19474 ], [ -82.76334, 27.17701 ], [ -82.74119, 27.15821 ], [ -82.71003, 27.09502 ], [ -82.691, 27.06154 ], [ -82.6625, 26.99016 ], [ -82.65814, 26.97839 ], [ -82.62342, 26.92102 ], [ -82.59779, 26.87147 ], [ -82.57107, 26.83025 ], [ -82.55078, 26.79621 ], [ -82.52293, 26.7619 ], [ -82.49981, 26.73167 ], [ -82.48937, 26.71432 ], [ -82.48077, 26.68108 ], [ -82.47638, 26.65739 ], [ -82.47911, 26.62814 ], [ -82.48387, 26.60585 ], [ -82.47606, 26.58024 ], [ -82.45697, 26.54618 ], [ -82.44266, 26.52967 ], [ -82.43491, 26.52533 ], [ -82.42191, 26.50859 ], [ -82.42022, 26.48958 ], [ -82.41693, 26.47227 ], [ -82.4067, 26.45691 ], [ -82.40524, 26.43886 ], [ -82.39742, 26.41924 ], [ -82.39355, 26.40172 ] ] } },
{ "type": "Feature", "properties": { "style": "solid", "thickness": 1 }, "geometry": { "type": "LineString", "coordinates": [ [ -82.90578, 28.93833 ], [ -82.845807972222218, 28.953987916666666 ], [ -82.748791583333329, 28.972866583333332 ], [ -82.650263805555568, 28.984273722222223 ], [ -82.550974472222222, 28.988125055555557 ], [ -82.451679222222225, 28.984392055555556 ], [ -82.353133777777771, 28.97310236111111 ], [ -82.256088111111112, 28.954339416666667 ], [ -82.16128077777779, 28.928242 ], [ -82.069433361111109, 28.895003305555555 ], [ -81.981244861111108, 28.854869611111113 ] ] } },
{ "type": "Feature", "properties": { "style": "solid", "thickness": 1 }, "geometry": { "type": "LineString", "coordinates": [ [ -82.19017, 27.87471 ], [ -82.180284583333332, 27.902497833333332 ], [ -82.173176888888889, 27.930934027777781 ], [ -82.168901027777778, 27.95980175 ], [ -82.1674895, 27.988881027777779 ], [ -82.168953111111122, 28.017950472222221 ], [ -82.17328066666667, 28.046788916666667 ], [ -82.18043925, 28.07517711111111 ], [ -82.190374388888898, 28.1028995 ], [ -82.203010472222232, 28.129745638888888 ], [ -82.218251305555555, 28.155511972222222 ], [ -82.235980916666662, 28.180003194444446 ], [ -82.256064388888888, 28.203033888888889 ], [ -82.278348833333339, 28.22442975 ], [ -82.302664694444445, 28.244028944444445 ], [ -82.328826888888884, 28.261683388888891 ], [ -82.356636305555554, 28.277259638888889 ], [ -82.385881305555557, 28.29064016666667 ], [ -82.41633933333334, 28.301723944444444 ], [ -82.447778527777785, 28.310427333333333 ], [ -82.479959694444446, 28.316684694444444 ], [ -82.512637861111116, 28.320448833333334 ], [ -82.545564361111104, 28.32169138888889 ], [ -82.578488583333325, 28.320402972222222 ], [ -82.611159944444438, 28.316593333333334 ], [ -82.643329805555567, 28.310291138888889 ], [ -82.66522, 28.30448 ], [ -82.72508, 28.46295 ] ] } },
{ "type": "Feature", "properties": { "style": "solid", "thickness": 1 }, "geometry": { "type": "LineString", "coordinates": [ [ -81.981244861111108, 28.854869611111113 ], [ -81.89738644444445, 28.808138527777778 ], [ -81.818496305555556, 28.755157166666667 ], [ -81.74517486111111, 28.696319611111111 ], [ -81.677980138888898, 28.632064277777779 ], [ -81.617423527777774, 28.562870805555555 ], [ -81.563965888888887, 28.489256722222223 ], [ -81.518014083333327, 28.411773805555555 ], [ -81.479917833333332, 28.331004166666666 ], [ -81.449967055555561, 28.247555916666666 ], [ -81.428389694444448, 28.162058916666666 ], [ -81.41535, 28.07516 ] ] } },
{ "type": "Feature", "properties": { "style": "solid", "thickness": 1 }, "geometry": { "type": "LineString", "coordinates": [ [ -82.84535, 28.77988 ], [ -82.830181305555556, 28.783854333333334 ], [ -82.766367861111107, 28.79958525 ], [ -82.75092975, 28.802735 ], [ -82.685778277777786, 28.8134215 ], [ -82.670085388888893, 28.815379611111112 ], [ -82.604118861111104, 28.821049222222221 ], [ -82.588290777777772, 28.821801083333334 ], [ -82.522011277777779, 28.82241172222222 ], [ -82.506168638888894, 28.821951722222224 ], [ -82.440080611111114, 28.817498805555555 ], [ -82.424344138888898, 28.815830388888891 ], [ -82.358950611111112, 28.806347 ], [ -82.34344025, 28.803482611111111 ], [ -82.279238972222217, 28.789039305555558 ], [ -82.26407288888889, 28.785000305555556 ], [ -82.201552472222218, 28.765704472222222 ], [ -82.18684625, 28.760521083333334 ], [ -82.126482555555555, 28.736516333333334 ], [ -82.112348222222224, 28.730227222222222 ], [ -82.054600638888886, 28.701692388888887 ], [ -82.041145833333331, 28.694344611111113 ], [ -81.986453888888889, 28.661492444444445 ], [ -81.973781055555563, 28.653141 ], [ -81.922561, 28.616216722222223 ], [ -81.9107665, 28.606924166666669 ], [ -81.863408138888886, 28.566203722222223 ], [ -81.852581694444439, 28.55603977777778 ], [ -81.809445416666662, 28.511827944444445 ], [ -81.799669305555554, 28.500868888888888 ] ] } },
{ "type": "Feature", "properties": { "style": "solid", "thickness": 1 }, "geometry": { "type": "LineString", "coordinates": [ [ -82.05673, 27.73584 ], [ -82.038791583333335, 27.765122805555556 ], [ -82.018630611111107, 27.805069555555555 ], [ -82.002481694444441, 27.846403416666664 ], [ -81.99046772222222, 27.888808333333333 ], [ -81.982680138888895, 27.931960472222222 ], [ -81.979178194444444, 27.975530722222221 ], [ -81.979988527777778, 28.019187111111112 ], [ -81.985105027777777, 28.062597444444446 ], [ -81.994488694444442, 28.105431833333334 ], [ -82.008068166666661, 28.14736511111111 ], [ -82.025740055555559, 28.188079333333334 ], [ -82.04736988888888, 28.227266194444443 ], [ -82.072793027777777, 28.26462925 ], [ -82.101816, 28.299886166666667 ], [ -82.134217916666671, 28.332770833333335 ], [ -82.169752222222229, 28.363035305555556 ], [ -82.208148416666674, 28.3904515 ], [ -82.249114305555551, 28.414813083333332 ], [ -82.29233813888888, 28.435936805555556 ], [ -82.337490916666667, 28.45366386111111 ], [ -82.384229027777778, 28.467861083333332 ], [ -82.43219675, 28.478421861111109 ], [ -82.48102902777778, 28.485266916666667 ], [ -82.530354222222215, 28.488344861111113 ], [ -82.579796944444439, 28.48763263888889 ], [ -82.628980888888876, 28.483135555555553 ], [ -82.67753175, 28.474887361111108 ], [ -82.72508, 28.46295 ] ] } },
{ "type": "Feature", "properties": { "style": "solid", "thickness": 1 }, "geometry": { "type": "LineString", "coordinates": [ [ -81.42837, 27.41156 ], [ -81.428803833333333, 27.361475611111114 ], [ -81.436290694444452, 27.274596388888888 ], [ -81.452271583333342, 27.188560611111111 ], [ -81.476624861111119, 27.104026083333334 ], [ -81.509165222222222, 27.021640527777777 ], [ -81.549644972222225, 26.942036666666667 ], [ -81.59775605555555, 26.865827083333336 ], [ -81.653132333333346, 26.793599444444446 ], [ -81.715352333333342, 26.725911722222222 ], [ -81.783942527777782, 26.663287777777775 ], [ -81.858380888888888, 26.606213083333333 ], [ -81.938100944444443, 26.555130666666667 ], [ -82.022495944444444, 26.510437666666668 ], [ -82.110923583333332, 26.472481916666666 ], [ -82.202710888888888, 26.441559055555555 ], [ -82.29715927777778, 26.41791025 ], [ -82.39355, 26.40172 ] ] } },
{ "type": "Feature", "properties": { "style": "solid", "thickness": 1 }, "geometry": { "type": "LineString", "coordinates": [ [ -83.56848, 28.41569 ], [ -83.5165, 28.39985 ], [ -83.1151, 28.08559 ], [ -83.06375, 28.03758 ], [ -83.06858, 28.001 ], [ -83.07337, 27.97572 ], [ -83.08516, 27.94153 ], [ -83.09146, 27.91377 ], [ -83.08999, 27.88733 ], [ -83.08291, 27.84113 ], [ -83.07561, 27.80985 ], [ -83.06668, 27.78582 ], [ -83.0541, 27.75976 ], [ -83.0222, 27.71535 ], [ -83.00338, 27.69934 ], [ -82.99061, 27.67967 ], [ -82.98968, 27.65091 ], [ -82.99558, 27.62987 ], [ -82.99929, 27.60211 ], [ -82.99964, 27.5892 ], [ -82.99731, 27.56542 ], [ -82.98722, 27.53242 ], [ -82.98554, 27.51742 ], [ -82.97846, 27.49981 ], [ -82.96948, 27.48941 ], [ -82.96294, 27.47973 ], [ -82.96282, 27.46998 ], [ -82.95921, 27.45918 ], [ -82.94672, 27.43522 ], [ -82.92178, 27.40659 ], [ -82.90821, 27.38002 ], [ -82.89348, 27.34593 ], [ -82.87354, 27.32184 ], [ -82.86105, 27.31335 ], [ -82.84498, 27.29746 ], [ -82.82912, 27.2737 ], [ -82.80434, 27.25033 ], [ -82.79705, 27.24714 ], [ -82.78427, 27.23004 ] ] } },
{ "type": "Feature", "properties": { "style": "solid", "thickness": 1 }, "geometry": { "type": "LineString", "coordinates": [ [ -82.39355, 26.40172 ], [ -82.491706055555554, 26.39372725 ], [ -82.590266333333332, 26.39342775 ], [ -82.688480694444451, 26.40082386111111 ], [ -82.785601666666665, 26.415857777777777 ], [ -82.880890083333327, 26.438412138888889 ], [ -82.973620805555555, 26.46831097222222 ], [ -83.063088027777781, 26.505321055555555 ], [ -83.148610888888896, 26.549154027777778 ], [ -83.229538527777777, 26.59946861111111 ], [ -83.305254972222215, 26.655873555555555 ], [ -83.375184027777777, 26.717930888888887 ], [ -83.43879347222223, 26.785159333333336 ], [ -83.495599194444452, 26.857038444444445 ], [ -83.545168861111108, 26.933012694444447 ], [ -83.58712525, 27.012496027777779 ], [ -83.621149027777776, 27.0948765 ], [ -83.646981277777783, 27.179521277777781 ], [ -83.664425333333341, 27.265781416666666 ], [ -83.6733485, 27.352997222222225 ], [ -83.673682861111118, 27.440503083333333 ], [ -83.665425833333344, 27.527632888888888 ], [ -83.64864030555556, 27.613724833333336 ], [ -83.623426972222219, 27.698203333333332 ], [ -83.647535166666671, 27.790529222222222 ], [ -83.662494027777782, 27.884208972222222 ], [ -83.66816275, 27.978603111111109 ], [ -83.664498166666675, 28.07299188888889 ], [ -83.651528166666679, 28.166657555555553 ], [ -83.6293515, 28.258889666666665 ], [ -83.598136888888888, 28.3489905 ], [ -83.56848, 28.41569 ] ] } },
{ "type": "Feature", "properties": { "style": "solid", "thickness": 1 }, "geometry": { "type": "LineString", "coordinates": [ [ -82.241887833333337, 27.86177138888889 ], [ -82.241927361111109, 27.862489777777778 ], [ -82.241704, 27.863339638888892 ], [ -82.241224333333335, 27.864440694444447 ], [ -82.240724916666665, 27.8651825 ], [ -82.239942888888891, 27.865696555555559 ], [ -82.238878194444439, 27.865982833333334 ], [ -82.236857222222227, 27.866070555555556 ], [ -82.235362, 27.865895416666667 ], [ -82.234668611111118, 27.865565444444446 ], [ -82.233679472222221, 27.864768194444444 ], [ -82.23337711111111, 27.864181194444445 ], [ -82.233055055555553, 27.863235 ], [ -82.232949833333336, 27.861319222222225 ], [ -82.233179833333338, 27.860589111111114 ], [ -82.23425425, 27.858022055555558 ], [ -82.235778805555555, 27.856275583333336 ], [ -82.23821344444444, 27.853889472222225 ], [ -82.241147305555558, 27.8507615 ], [ -82.232660388888888, 27.851129944444445 ] ] } },
{ "type": "Feature", "properties": { "style": "solid", "thickness": 1 }, "geometry": { "type": "LineString", "coordinates": [ [ -82.227702, 27.866587638888891 ], [ -82.217327527777783, 27.86703686111111 ], [ -82.22376925, 27.851515333333335 ] ] } },
{ "type": "Feature", "properties": { "style": "solid", "thickness": 1 }, "geometry": { "type": "LineString", "coordinates": [ [ -82.770380138888882, 28.197216027777777 ], [ -82.770423305555553, 28.19793425 ], [ -82.770203388888888, 28.198784916666668 ], [ -82.769727638888881, 28.199887722222222 ], [ -82.769230305555553, 28.200631444444443 ], [ -82.768448361111112, 28.201148472222222 ], [ -82.767381777777771, 28.201438833333334 ], [ -82.765354972222227, 28.201534333333331 ], [ -82.763854277777781, 28.201364944444443 ], [ -82.763157111111113, 28.201037638888888 ], [ -82.762161, 28.200244277777777 ], [ -82.761854861111118, 28.199658472222222 ], [ -82.761527166666667, 28.198713555555557 ], [ -82.761412277777779, 28.196798305555557 ], [ -82.761639416666668, 28.196067361111112 ], [ -82.762704583333331, 28.193496305555556 ], [ -82.764225333333329, 28.191744083333333 ], [ -82.766655861111104, 28.18934875 ], [ -82.769583527777783, 28.186209666666667 ], [ -82.761072111111105, 28.186610722222223 ] ] } },
{ "type": "Feature", "properties": { "style": "solid", "thickness": 1 }, "geometry": { "type": "LineString", "coordinates": [ [ -82.747113555555558, 28.202392555555555 ], [ -82.753329194444447, 28.202100388888887 ], [ -82.75456325, 28.195560083333334 ], [ -82.75337591666667, 28.19609611111111 ], [ -82.752330861111105, 28.196745472222222 ], [ -82.749898777777773, 28.196859805555555 ], [ -82.748668388888888, 28.196677555555556 ], [ -82.74740936111111, 28.196016444444446 ], [ -82.745957916666669, 28.194404055555555 ], [ -82.745601722222219, 28.192980305555555 ], [ -82.74549427777778, 28.191184722222221 ], [ -82.746226138888886, 28.189829888888887 ], [ -82.747093055555553, 28.188468694444445 ], [ -82.747476888888883, 28.188090527777778 ], [ -82.748251666666661, 28.187453916666666 ], [ -82.749588388888895, 28.187151 ], [ -82.751074527777774, 28.187081138888889 ], [ -82.752169694444447, 28.187269722222222 ], [ -82.753549416666672, 28.187685 ], [ -82.754822722222215, 28.188585444444445 ], [ -82.754979361111111, 28.188938222222223 ] ] } },
{ "type": "Feature", "properties": { "style": "solid", "thickness": 1 }, "geometry": { "type": "LineString", "coordinates": [ [ -82.232864444444445, 26.919353833333336 ], [ -82.230860694444445, 26.919441583333334 ], [ -82.230051527777775, 26.904592944444442 ] ] } },
{ "type": "Feature", "properties": { "style": "solid", "thickness": 1 }, "geometry": { "type": "LineString", "coordinates": [ [ -82.220731166666667, 26.912922972222219 ], [ -82.216857444444443, 26.913092277777775 ], [ -82.214749666666663, 26.911263861111109 ], [ -82.214443472222229, 26.910557055555554 ], [ -82.214143777777778, 26.909969972222221 ], [ -82.214065694444443, 26.908533 ], [ -82.21454138888889, 26.907431944444443 ], [ -82.215284222222223, 26.906319194444443 ], [ -82.21605961111112, 26.905805194444444 ], [ -82.216574333333341, 26.905422583333333 ], [ -82.217623361111109, 26.905016666666665 ], [ -82.220027555555561, 26.904911555555554 ], [ -82.22111563888889, 26.905224083333334 ], [ -82.221949611111114, 26.905787777777775 ], [ -82.222663055555557, 26.906596777777775 ], [ -82.223115916666671, 26.90753725 ], [ -82.223295111111113, 26.908369638888889 ], [ -82.223360277777786, 26.909567111111109 ], [ -82.223259277777785, 26.910171694444443 ], [ -82.222897666666668, 26.910907694444443 ], [ -82.222382944444448, 26.911290305555553 ], [ -82.220731166666667, 26.912922972222219 ], [ -82.221985472222229, 26.913828361111111 ], [ -82.2227055, 26.914757138888888 ], [ -82.22300525, 26.915344194444444 ], [ -82.22310952777778, 26.917260138888889 ], [ -82.222519833333337, 26.918726333333336 ], [ -82.222138638888893, 26.919103111111113 ], [ -82.220962444444453, 26.919634666666667 ], [ -82.220180472222225, 26.920028944444446 ], [ -82.218443888888885, 26.920104861111113 ], [ -82.21722208333334, 26.91979813888889 ], [ -82.215413861111116, 26.918556805555557 ], [ -82.215114166666666, 26.917969722222225 ], [ -82.214997, 26.915814277777777 ], [ -82.215332638888896, 26.914599277777775 ], [ -82.215459722222221, 26.914473694444442 ], [ -82.216101555555554, 26.913965527777776 ], [ -82.216857444444443, 26.913092277777775 ] ] } },
{ "type": "Feature", "properties": { "style": "solid", "thickness": 1 }, "geometry": { "type": "LineString", "coordinates": [ [ -81.753255416666661, 26.839236916666664 ], [ -81.753291472222216, 26.839955527777775 ], [ -81.7530665, 26.840804666666667 ], [ -81.7525865, 26.841904138888889 ], [ -81.752088472222226, 26.842644305555556 ], [ -81.751311416666667, 26.843155722222221 ], [ -81.750255277777782, 26.843438333333332 ], [ -81.74825252777778, 26.84351911111111 ], [ -81.746771861111114, 26.843338805555554 ], [ -81.746086277777778, 26.843006416666665 ], [ -81.745109666666664, 26.842205694444445 ], [ -81.744812638888888, 26.841617611111111 ], [ -81.744497638888888, 26.840670222222222 ], [ -81.744401666666661, 26.838753916666665 ], [ -81.744632694444448, 26.838024555555556 ], [ -81.745708305555553, 26.835460972222222 ], [ -81.74722638888889, 26.83371961111111 ], [ -81.749648916666672, 26.831341722222223 ], [ -81.752569305555554, 26.82822361111111 ], [ -81.74415888888889, 26.828562833333333 ] ] } },
{ "type": "Feature", "properties": { "style": "solid", "thickness": 1 }, "geometry": { "type": "LineString", "coordinates": [ [ -81.730227666666664, 26.844244805555554 ], [ -81.7363695, 26.843997805555553 ], [ -81.737648194444446, 26.837465805555553 ], [ -81.736470583333329, 26.83799322222222 ], [ -81.735432416666669, 26.838635055555553 ], [ -81.733029222222228, 26.838731722222221 ], [ -81.731815638888889, 26.8385405 ], [ -81.730578138888887, 26.837870194444442 ], [ -81.729159305555555, 26.83624711111111 ], [ -81.7288205, 26.834820611111109 ], [ -81.728730777777784, 26.833024055555555 ], [ -81.729466027777775, 26.831674416666665 ], [ -81.73033475, 26.830319388888888 ], [ -81.730717305555558, 26.829943972222221 ], [ -81.731488388888891, 26.829312916666666 ], [ -81.732811416666664, 26.829019694444444 ], [ -81.734279916666665, 26.828960611111111 ], [ -81.735359888888894, 26.829157194444445 ], [ -81.736718861111115, 26.829582527777777 ], [ -81.737968277777782, 26.830492333333332 ], [ -81.73811975, 26.83084625 ] ] } },
{ "type": "Feature", "properties": { "style": "solid", "thickness": 1 }, "geometry": { "type": "LineString", "coordinates": [ [ -82.77496983333333, 28.169412694444446 ], [ -82.7678, 28.182611111111111 ], [ -82.759061416666668, 28.170177166666669 ] ] } },
{ "type": "Feature", "properties": { "style": "solid", "thickness": 1 }, "geometry": { "type": "LineString", "coordinates": [ [ -82.631020527777764, 27.853913527777781 ], [ -82.623853888888888, 27.867105277777778 ], [ -82.61515708333333, 27.854661416666669 ] ] } },
{ "type": "Feature", "properties": { "style": "solid", "thickness": 1 }, "geometry": { "type": "LineString", "coordinates": [ [ -82.270928166666664, 27.834454722222223 ], [ -82.263719444444448, 27.847627777777777 ], [ -82.25506525, 27.835161361111108 ] ] } },
{ "type": "Feature", "properties": { "style": "solid", "thickness": 1 }, "geometry": { "type": "LineString", "coordinates": [ [ -82.273318361111109, 27.816549 ], [ -82.266111111111115, 27.829722222222223 ], [ -82.25745805555556, 27.817255916666667 ] ] } },
{ "type": "Feature", "properties": { "style": "solid", "thickness": 1 }, "geometry": { "type": "LineString", "coordinates": [ [ -82.267761972222218, 27.806503722222224 ], [ -82.260554722222224, 27.819676666666666 ], [ -82.251903083333332, 27.80721 ] ] } },
{ "type": "Feature", "properties": { "style": "solid", "thickness": 1 }, "geometry": { "type": "LineString", "coordinates": [ [ -82.116660083333329, 27.660168 ], [ -82.109444444444435, 27.673333333333336 ], [ -82.100821472222222, 27.660857083333333 ] ] } },
{ "type": "Feature", "properties": { "style": "solid", "thickness": 1 }, "geometry": { "type": "LineString", "coordinates": [ [ -82.373032972222219, 27.545257111111113 ], [ -82.365855555555555, 27.558436111111114 ], [ -82.357212388888883, 27.545975555555557 ] ] } },
{ "type": "Feature", "properties": { "style": "solid", "thickness": 1 }, "geometry": { "type": "LineString", "coordinates": [ [ -82.256992555555556, 27.395479555555553 ], [ -82.249811111111114, 27.408652777777775 ], [ -82.241192722222223, 27.396184888888889 ] ] } },
{ "type": "Feature", "properties": { "style": "solid", "thickness": 1 }, "geometry": { "type": "LineString", "coordinates": [ [ -83.20332230555556, 26.862497222222224 ], [ -83.203424666666663, 26.864113111111113 ], [ -83.2029435, 26.866028888888891 ], [ -83.201895833333339, 26.868513916666668 ], [ -83.200796944444448, 26.870190972222222 ], [ -83.199063333333342, 26.87136 ], [ -83.196695, 26.872020916666667 ], [ -83.192190388888889, 26.872250111111111 ], [ -83.188852944444449, 26.871879444444446 ], [ -83.18730033333334, 26.871147833333335 ], [ -83.185079083333335, 26.869369444444445 ], [ -83.184393416666666, 26.868053388888889 ], [ -83.183656722222224, 26.865929361111114 ], [ -83.183384583333336, 26.861620277777778 ], [ -83.183883083333342, 26.859973861111111 ], [ -83.186228222222226, 26.854180861111111 ], [ -83.189593027777775, 26.85022725 ], [ -83.194974083333335, 26.844820027777775 ], [ -83.201453222222227, 26.837735555555554 ], [ -83.182539555555564, 26.838697777777778 ] ] } },
{ "type": "Feature", "properties": { "style": "solid", "thickness": 1 }, "geometry": { "type": "LineString", "coordinates": [ [ -83.171786222222224, 26.873556611111113 ], [ -83.148661722222229, 26.874727444444446 ], [ -83.162724861111116, 26.839703055555553 ] ] } },
{ "type": "Feature", "properties": { "style": "solid", "thickness": 1 }, "geometry": { "type": "LineString", "coordinates": [ [ -83.45111425, 27.982569694444443 ], [ -83.45122147222223, 27.98418513888889 ], [ -83.45074, 27.986101583333333 ], [ -83.449687611111116, 27.988588222222223 ], [ -83.448581555555563, 27.990267138888889 ], [ -83.446833138888891, 27.991439277777779 ], [ -83.444442277777782, 27.992104611111113 ], [ -83.439892444444453, 27.992342305555557 ], [ -83.436520222222228, 27.99197802777778 ], [ -83.434950083333334, 27.991249472222222 ], [ -83.432702027777779, 27.989475555555558 ], [ -83.432006277777788, 27.988160972222222 ], [ -83.431257055555562, 27.986038638888889 ], [ -83.430971861111118, 27.981730694444444 ], [ -83.4314715, 27.980083555555552 ], [ -83.433826694444448, 27.974286944444444 ], [ -83.43721625, 27.9703275 ], [ -83.442639083333333, 27.964910861111111 ], [ -83.449167111111109, 27.957815055555553 ], [ -83.430063722222229, 27.958813 ] ] } },
{ "type": "Feature", "properties": { "style": "solid", "thickness": 1 }, "geometry": { "type": "LineString", "coordinates": [ [ -83.419284055555565, 27.993687277777777 ], [ -83.39592730555556, 27.994901666666667 ], [ -83.410050222222225, 27.959855666666666 ] ] } },
{ "type": "Feature", "properties": { "style": "solid", "thickness": 1 }, "geometry": { "type": "LineString", "coordinates": [ [ -82.467781083333335, 28.931348222222223 ], [ -82.467874416666675, 28.932964055555559 ], [ -82.467371027777773, 28.934876583333335 ], [ -82.466286416666676, 28.93735511111111 ], [ -82.465155111111116, 28.939025666666666 ], [ -82.46338036111112, 28.940184972222223 ], [ -82.460962166666675, 28.940832944444445 ], [ -82.45636977777778, 28.941037888888889 ], [ -82.452970944444445, 28.940649472222223 ], [ -82.451393611111115, 28.939909777777778 ], [ -82.449141944444449, 28.938120111111111 ], [ -82.448452111111109, 28.936800833333333 ], [ -82.447715777777788, 28.934673638888889 ], [ -82.447467722222228, 28.930364638888889 ], [ -82.447986944444452, 28.9287215 ], [ -82.45041636111111, 28.922943166666666 ], [ -82.453872444444443, 28.919009027777779 ], [ -82.459393194444445, 28.913632583333332 ], [ -82.466044361111116, 28.906585305555556 ], [ -82.446762388888899, 28.907445777777777 ] ] } },
{ "type": "Feature", "properties": { "style": "solid", "thickness": 1 }, "geometry": { "type": "LineString", "coordinates": [ [ -82.432167333333339, 28.941845444444446 ], [ -82.427574833333338, 28.942049416666666 ], [ -82.425659138888889, 28.908654416666664 ] ] } },
{ "type": "Feature", "properties": { "style": "solid", "thickness": 1 }, "geometry": { "type": "LineString", "coordinates": [ [ -81.787553527777774, 28.585076138888887 ], [ -81.787636333333325, 28.586692638888888 ], [ -81.7871225, 28.588602916666666 ], [ -81.78602572222222, 28.591076388888887 ], [ -81.784887527777769, 28.592741583333332 ], [ -81.783111194444444, 28.593892305555553 ], [ -81.780696722222217, 28.5945285 ], [ -81.776117861111103, 28.594710944444444 ], [ -81.7727325, 28.594305805555553 ], [ -81.771164916666663, 28.593558305555554 ], [ -81.768931833333326, 28.591757388888887 ], [ -81.768252555555549, 28.590434583333334 ], [ -81.767532055555549, 28.588303527777775 ], [ -81.767312, 28.583992833333333 ], [ -81.767839944444447, 28.582352055555557 ], [ -81.770298, 28.576584972222221 ], [ -81.773767722222217, 28.572667305555555 ], [ -81.779304583333328, 28.567317333333332 ], [ -81.78597875, 28.56030188888889 ], [ -81.766753638888886, 28.561067916666666 ] ] } },
{ "type": "Feature", "properties": { "style": "solid", "thickness": 1 }, "geometry": { "type": "LineString", "coordinates": [ [ -81.751988638888889, 28.595399888888888 ], [ -81.747409694444443, 28.595581361111108 ], [ -81.745710972222227, 28.56217325 ] ] } },
{ "type": "Feature", "properties": { "style": "solid", "thickness": 1 }, "geometry": { "type": "LineString", "coordinates": [ [ -82.468542388888892, 28.702553583333334 ], [ -82.463960166666666, 28.702758805555554 ], [ -82.462037305555555, 28.669361166666668 ] ] } },
{ "type": "Feature", "properties": { "style": "solid", "thickness": 1 }, "geometry": { "type": "LineString", "coordinates": [ [ -82.4407635, 28.688133805555555 ], [ -82.431905611111119, 28.68852863888889 ], [ -82.427077277777784, 28.684423194444445 ], [ -82.426373916666677, 28.682834333333336 ], [ -82.425686, 28.681514833333335 ], [ -82.425501055555557, 28.67828275 ], [ -82.426584, 28.675804305555555 ], [ -82.428277694444446, 28.673298666666668 ], [ -82.430048416666665, 28.672139722222223 ], [ -82.431223722222228, 28.671277277777779 ], [ -82.433620583333337, 28.670360416666668 ], [ -82.439117666666675, 28.670115333333335 ], [ -82.441607138888898, 28.670814361111113 ], [ -82.443516777777788, 28.67207927777778 ], [ -82.44515197222222, 28.6738965 ], [ -82.44619188888889, 28.676010305555558 ], [ -82.446605527777777, 28.67788202777778 ], [ -82.446760194444451, 28.680575416666667 ], [ -82.446532083333338, 28.68193575 ], [ -82.445708583333342, 28.683592666666666 ], [ -82.44453325, 28.684455222222223 ], [ -82.4407635, 28.688133805555555 ], [ -82.443636138888891, 28.690165861111112 ], [ -82.445287083333341, 28.692252388888889 ], [ -82.445975333333337, 28.693571805555557 ], [ -82.446222777777777, 28.697881194444445 ], [ -82.444880972222222, 28.701181416666667 ], [ -82.44401091666667, 28.702030305555557 ], [ -82.44132338888889, 28.703230305555554 ], [ -82.439536833333335, 28.704120083333333 ], [ -82.435565472222223, 28.70429711111111 ], [ -82.43276975, 28.703611583333334 ], [ -82.42862875, 28.700825694444443 ], [ -82.427940694444445, 28.699506194444446 ], [ -82.427663138888889, 28.694658083333334 ], [ -82.428425305555564, 28.691923916666667 ], [ -82.428715361111117, 28.691640972222224 ], [ -82.430180916666671, 28.69049561111111 ], [ -82.431905611111119, 28.68852863888889 ] ] } },
{ "type": "Feature", "properties": { "style": "solid", "thickness": 1 }, "geometry": { "type": "LineString", "coordinates": [ [ -82.017679361111107, 28.407942888888886 ], [ -82.013108833333334, 28.408133194444442 ], [ -82.01133075, 28.3747265 ] ] } },
{ "type": "Feature", "properties": { "style": "solid", "thickness": 1 }, "geometry": { "type": "LineString", "coordinates": [ [ -81.990036805555562, 28.393431388888889 ], [ -81.981201555555558, 28.393797416666665 ], [ -81.976403583333337, 28.389675944444445 ], [ -81.975708777777783, 28.388084666666668 ], [ -81.97502825, 28.386762805555556 ], [ -81.97485730555556, 28.383529833333334 ], [ -81.975947638888897, 28.381054722222224 ], [ -81.977647138888898, 28.378554416666667 ], [ -81.979417833333329, 28.377401111111112 ], [ -81.980593555555558, 28.376542444444446 ], [ -81.982987666666673, 28.375633305555557 ], [ -81.988470694444445, 28.375406083333335 ], [ -81.990950444444451, 28.37611327777778 ], [ -81.992849583333339, 28.377384527777778 ], [ -81.994472722222227, 28.379207222222224 ], [ -81.995500944444444, 28.381324583333335 ], [ -81.995905666666673, 28.383197805555557 ], [ -81.996048638888894, 28.385891916666665 ], [ -81.9958155, 28.387251611111111 ], [ -81.994987333333327, 28.388906 ], [ -81.993811611111113, 28.389764805555554 ], [ -81.990036805555562, 28.393431388888889 ], [ -81.992893111111115, 28.395472972222223 ], [ -81.994530805555556, 28.397565055555557 ], [ -81.99521163888889, 28.398886833333332 ], [ -81.995440416666668, 28.403197388888888 ], [ -81.9940885, 28.4064935 ], [ -81.993217277777774, 28.407339638888889 ], [ -81.990532111111108, 28.408531 ], [ -81.988746722222217, 28.409415 ], [ -81.984785527777774, 28.40957911111111 ], [ -81.982000333333332, 28.408884444444443 ], [ -81.977882333333341, 28.406084833333331 ], [ -81.977201666666673, 28.404762972222223 ], [ -81.976945111111107, 28.399913583333333 ], [ -81.97771661111112, 28.397181666666665 ], [ -81.978007027777778, 28.39689963888889 ], [ -81.979473388888891, 28.395758972222222 ], [ -81.981201555555558, 28.393797416666665 ] ] } },
{ "type": "Feature", "properties": { "style": "solid", "thickness": 1 }, "geometry": { "type": "LineString", "coordinates": [ [ -81.838711027777777, 27.718751277777777 ], [ -81.834169222222215, 27.718935666666663 ], [ -81.832457444444444, 27.685523055555556 ] ] } },
{ "type": "Feature", "properties": { "style": "solid", "thickness": 1 }, "geometry": { "type": "LineString", "coordinates": [ [ -81.811267861111105, 27.704202388888888 ], [ -81.802488111111103, 27.704557027777778 ], [ -81.797727333333327, 27.700428888888887 ], [ -81.79703958333333, 27.698836555555555 ], [ -81.79636552777778, 27.697513666666666 ], [ -81.796200972222223, 27.694280166666665 ], [ -81.79728841666666, 27.691806194444446 ], [ -81.79898125, 27.689307805555554 ], [ -81.800742611111104, 27.688156666666668 ], [ -81.80191225, 27.687299416666669 ], [ -81.804292694444442, 27.686393277777778 ], [ -81.809741305555548, 27.68617313888889 ], [ -81.81220416666666, 27.68688361111111 ], [ -81.814089138888889, 27.688157444444446 ], [ -81.815699, 27.689982416666666 ], [ -81.816717222222223, 27.692101333333333 ], [ -81.817116277777771, 27.693975277777778 ], [ -81.817253916666658, 27.696669861111111 ], [ -81.817020027777772, 27.698029416666667 ], [ -81.816194388888889, 27.699682916666667 ], [ -81.815024722222219, 27.700540277777776 ], [ -81.811267861111105, 27.704202388888888 ], [ -81.81410266666667, 27.706247888888889 ], [ -81.81572652777777, 27.708342305555554 ], [ -81.816400888888893, 27.709665111111111 ], [ -81.816621111111104, 27.713976416666664 ], [ -81.815272361111113, 27.717271166666666 ], [ -81.81440527777778, 27.718116277777778 ], [ -81.811735194444438, 27.719304277777777 ], [ -81.809959694444444, 27.720186083333331 ], [ -81.806023388888889, 27.720345083333331 ], [ -81.803257027777775, 27.719646722222219 ], [ -81.799169777777777, 27.716841472222221 ], [ -81.798495583333334, 27.715518611111111 ], [ -81.798248638888893, 27.710668361111111 ], [ -81.799019722222226, 27.707937138888887 ], [ -81.799308777777782, 27.707655444444445 ], [ -81.800767666666658, 27.706516555555556 ], [ -81.802488111111103, 27.704557027777778 ] ] } },
{ "type": "Feature", "properties": { "style": "solid", "thickness": 1 }, "geometry": { "type": "LineString", "coordinates": [ [ -82.48971175, 28.389497916666667 ], [ -82.485142888888888, 28.389703861111112 ], [ -82.483219055555551, 28.356303305555556 ] ] } },
{ "type": "Feature", "properties": { "style": "solid", "thickness": 1 }, "geometry": { "type": "LineString", "coordinates": [ [ -82.469334916666668, 28.390955333333334 ], [ -82.445880666666667, 28.392007416666665 ], [ -82.460366, 28.357061083333335 ] ] } },
{ "type": "Feature", "properties": { "style": "solid", "thickness": 1 }, "geometry": { "type": "LineString", "coordinates": [ [ -82.618016222222209, 27.901328944444444 ], [ -82.615994916666665, 27.90142225 ], [ -82.615126861111108, 27.886577305555555 ] ] } },
{ "type": "Feature", "properties": { "style": "solid", "thickness": 1 }, "geometry": { "type": "LineString", "coordinates": [ [ -82.609001611111111, 27.901984944444443 ], [ -82.598625361111104, 27.902462972222221 ], [ -82.605014583333329, 27.886923638888888 ] ] } },
{ "type": "Feature", "properties": { "style": "solid", "thickness": 1 }, "geometry": { "type": "LineString", "coordinates": [ [ -82.102704555555547, 27.70281825 ], [ -82.10274311111111, 27.703536694444445 ], [ -82.102518972222214, 27.704386361111112 ], [ -82.102038611111112, 27.705486916666665 ], [ -82.101539, 27.706228222222222 ], [ -82.100757416666667, 27.7067415 ], [ -82.099693916666666, 27.707026694444444 ], [ -82.097675805555554, 27.707112388888888 ], [ -82.096183, 27.706935722222223 ], [ -82.095491055555556, 27.706605027777776 ], [ -82.094504361111106, 27.705806777777777 ], [ -82.094203194444447, 27.705219472222222 ], [ -82.093882833333325, 27.704272944444444 ], [ -82.093780222222222, 27.702357027777776 ], [ -82.094010805555556, 27.701627138888888 ], [ -82.095086944444446, 27.69906111111111 ], [ -82.0966115, 27.697316194444443 ], [ -82.099045638888882, 27.694932527777777 ], [ -82.101979222222212, 27.691807472222223 ], [ -82.093504222222222, 27.692167305555557 ] ] } },
{ "type": "Feature", "properties": { "style": "solid", "thickness": 1 }, "geometry": { "type": "LineString", "coordinates": [ [ -82.081524222222214, 27.707677055555553 ], [ -82.083311805555553, 27.705801138888887 ], [ -82.084836666666661, 27.704056333333334 ], [ -82.086098805555551, 27.70244263888889 ], [ -82.086854777777774, 27.7014505 ], [ -82.087463416666665, 27.700224527777777 ], [ -82.087668416666659, 27.699015694444444 ], [ -82.087745305555558, 27.697932277777777 ], [ -82.08763, 27.69577686111111 ], [ -82.087181555555546, 27.69495575 ], [ -82.086605027777779, 27.694260083333333 ], [ -82.086022083333333, 27.693444666666668 ], [ -82.083145833333333, 27.69260638888889 ], [ -82.08153152777777, 27.69267475 ], [ -82.07982747222222, 27.693587 ], [ -82.079571222222214, 27.69383788888889 ], [ -82.078546166666669, 27.694841388888889 ], [ -82.078424444444437, 27.695086583333335 ], [ -82.077975861111113, 27.696785777777777 ], [ -82.078039805555548, 27.697983222222224 ], [ -82.078353638888885, 27.698810055555555 ], [ -82.07866108333333, 27.69951713888889 ], [ -82.079244, 27.700332583333331 ], [ -82.080365055555546, 27.70112525 ], [ -82.081466944444443, 27.701558666666667 ], [ -82.082146027777767, 27.701649944444444 ], [ -82.083087777777777, 27.701610055555555 ], [ -82.083754055555545, 27.701461833333333 ], [ -82.085989916666662, 27.700407 ], [ -82.087674805555551, 27.699135416666667 ] ] } },
{ "type": "Feature", "properties": { "style": "solid", "thickness": 1 }, "geometry": { "type": "LineString", "coordinates": [ [ -82.347606583333331, 27.583782277777775 ], [ -82.345590944444439, 27.58387161111111 ], [ -82.344762361111108, 27.569024694444444 ] ] } },
{ "type": "Feature", "properties": { "style": "solid", "thickness": 1 }, "geometry": { "type": "LineString", "coordinates": [ [ -82.335394444444447, 27.577361388888889 ], [ -82.33149775, 27.57753375 ], [ -82.329375555555558, 27.575707111111111 ], [ -82.329066833333329, 27.575000583333335 ], [ -82.328764777777778, 27.574413777777778 ], [ -82.328684805555554, 27.572976972222222 ], [ -82.329162305555556, 27.571875611111111 ], [ -82.329908472222215, 27.570762388888888 ], [ -82.330688, 27.570247805555557 ], [ -82.331205416666663, 27.569864833333334 ], [ -82.33226030555555, 27.569458111111111 ], [ -82.334678777777768, 27.569351138888887 ], [ -82.335773666666668, 27.569662777777779 ], [ -82.336613194444439, 27.570225777777779 ], [ -82.337331694444444, 27.571034166666667 ], [ -82.337788166666655, 27.571974194444444 ], [ -82.33796925, 27.572806388888889 ], [ -82.338036, 27.574003722222223 ], [ -82.337935, 27.574608333333334 ], [ -82.337571944444434, 27.575344583333333 ], [ -82.3370545, 27.575727583333332 ], [ -82.335394444444447, 27.577361388888889 ], [ -82.336657166666669, 27.57826575 ], [ -82.337382388888884, 27.579193888888888 ], [ -82.3376845, 27.579780666666668 ], [ -82.337791305555555, 27.581696416666666 ], [ -82.3371995, 27.583162944444446 ], [ -82.336816416666665, 27.583539972222223 ], [ -82.335633694444439, 27.584072416666665 ], [ -82.334847444444435, 27.584467305555556 ], [ -82.333100527777773, 27.584544555555553 ], [ -82.331871138888886, 27.58423883333333 ], [ -82.330050888888891, 27.582999 ], [ -82.329748805555553, 27.582412194444444 ], [ -82.329628833333331, 27.580257 ], [ -82.329965305555547, 27.579041833333331 ], [ -82.330093, 27.578916166666666 ], [ -82.330738194444436, 27.578407527777777 ], [ -82.33149775, 27.57753375 ] ] } },
{ "type": "Feature", "properties": { "style": "solid", "thickness": 1 }, "geometry": { "type": "LineString", "coordinates": [ [ -82.239699222222228, 27.429329555555558 ], [ -82.239738555555562, 27.430048 ], [ -82.239516083333328, 27.430897861111113 ], [ -82.239038305555553, 27.431998888888891 ], [ -82.238540861111119, 27.432740722222224 ], [ -82.23776191666667, 27.43325477777778 ], [ -82.236701444444449, 27.433541027777778 ], [ -82.2346885, 27.43362875 ], [ -82.233199222222225, 27.433453555555555 ], [ -82.232508583333342, 27.433123555555557 ], [ -82.231523361111115, 27.432326305555556 ], [ -82.23122225, 27.431739305555556 ], [ -82.230901472222229, 27.430793083333334 ], [ -82.230796722222223, 27.42887725 ], [ -82.231025805555561, 27.428147138888889 ], [ -82.232096, 27.425580055555557 ], [ -82.233614555555562, 27.423833583333334 ], [ -82.23603955555555, 27.421447472222223 ], [ -82.238961861111108, 27.4183195 ], [ -82.230508611111119, 27.418687805555557 ] ] } },
{ "type": "Feature", "properties": { "style": "solid", "thickness": 1 }, "geometry": { "type": "LineString", "coordinates": [ [ -82.225569611111112, 27.434145694444446 ], [ -82.215236305555564, 27.434594777777779 ], [ -82.22165275, 27.419073083333334 ] ] } },
{ "type": "Feature", "properties": { "style": "solid", "thickness": 1 }, "geometry": { "type": "LineString", "coordinates": [ [ -83.153431500000011, 28.598571361111109 ], [ -83.148855194444451, 28.598799333333332 ], [ -83.146721194444453, 28.565411194444444 ] ] } },
{ "type": "Feature", "properties": { "style": "solid", "thickness": 1 }, "geometry": { "type": "LineString", "coordinates": [ [ -83.117125416666667, 28.600375805555558 ], [ -83.121139611111104, 28.596125083333334 ], [ -83.124560472222214, 28.592173805555554 ], [ -83.127388111111102, 28.588521972222221 ], [ -83.129081194444439, 28.586277 ], [ -83.130434805555552, 28.58350861111111 ], [ -83.13087322222222, 28.580785694444444 ], [ -83.13102375, 28.578347194444444 ], [ -83.130714777777769, 28.573500472222221 ], [ -83.129679583333328, 28.571661083333332 ], [ -83.128356555555555, 28.570106111111112 ], [ -83.127016416666663, 28.56828186111111 ], [ -83.120474166666654, 28.56644563888889 ], [ -83.116814138888884, 28.56662713888889 ], [ -83.112968944444432, 28.568708527777776 ], [ -83.112393166666664, 28.569277277777779 ], [ -83.110089972222212, 28.571552277777776 ], [ -83.109819166666668, 28.572105916666665 ], [ -83.108838638888884, 28.575936055555555 ], [ -83.10900975, 28.578628722222224 ], [ -83.10973961111111, 28.58048336111111 ], [ -83.110452388888888, 28.582068722222221 ], [ -83.11179241666666, 28.583893138888886 ], [ -83.114352722222222, 28.585657083333331 ], [ -83.116861722222211, 28.586613166666666 ], [ -83.118404138888877, 28.586806805555554 ], [ -83.120539555555553, 28.586700916666665 ], [ -83.12204772222222, 28.586356 ], [ -83.12709641666666, 28.583944527777778 ], [ -83.130890388888886, 28.581054972222223 ] ] } },
{ "type": "Feature", "properties": { "style": "solid", "thickness": 1 }, "geometry": { "type": "LineString", "coordinates": [ [ -82.033176555555556, 27.568008805555554 ], [ -82.028641361111113, 27.568199666666665 ], [ -82.026872222222224, 27.534789333333336 ] ] } },
{ "type": "Feature", "properties": { "style": "solid", "thickness": 1 }, "geometry": { "type": "LineString", "coordinates": [ [ -81.997197027777773, 27.56951875 ], [ -82.001216888888891, 27.5653 ], [ -82.004646, 27.56137588888889 ], [ -82.007484444444444, 27.5577465 ], [ -82.009184583333337, 27.555514944444447 ], [ -82.010553888888893, 27.552757166666666 ], [ -82.01101625, 27.550037388888889 ], [ -82.0111905, 27.54759977777778 ], [ -82.010934444444445, 27.542749861111112 ], [ -82.009928055555562, 27.540901805555556 ], [ -82.008633638888895, 27.539335861111113 ], [ -82.007325055555555, 27.537500472222224 ], [ -82.000863888888887, 27.53561091666667 ], [ -81.997236777777772, 27.53576277777778 ], [ -81.993406666666672, 27.53781325 ], [ -81.9928305, 27.53837741666667 ], [ -81.99052575, 27.540634055555557 ], [ -81.990251805555559, 27.541185583333334 ], [ -81.989241111111113, 27.545008305555559 ], [ -81.989382833333337, 27.547702722222223 ], [ -81.99008666666667, 27.549563527777778 ], [ -81.990776305555556, 27.551154916666668 ], [ -81.992084777777777, 27.552990444444447 ], [ -81.994602555555559, 27.554775416666669 ], [ -81.997077805555563, 27.555752 ], [ -81.998603583333335, 27.555958194444447 ], [ -82.000719805555562, 27.555869611111113 ], [ -82.002217166666668, 27.555536861111111 ], [ -82.00724275, 27.553166027777777 ], [ -82.011030472222217, 27.550306833333334 ] ] } },
{ "type": "Feature", "properties": { "style": "solid", "thickness": 1 }, "geometry": { "type": "LineString", "coordinates": [ [ -83.481445027777781, 27.929980472222223 ], [ -83.456323777777783, 27.918348694444447 ] ] } },
{ "type": "Feature", "properties": { "style": "solid", "thickness": 1 }, "geometry": { "type": "LineString", "coordinates": [ [ -83.456873333333334, 27.931018694444447 ], [ -83.480589555555554, 27.917326777777777 ] ] } },
{ "type": "Feature", "properties": { "style": "solid", "thickness": 1 }, "geometry": { "type": "LineString", "coordinates": [ [ -83.469434777777778, 27.936835083333335 ], [ -83.467726694444451, 27.9115275 ] ] } },
{ "type": "Feature", "properties": { "style": "solid", "thickness": 1 }, "geometry": { "type": "LineString", "coordinates": [ [ -83.441798305555565, 27.942086638888888 ], [ -83.437250777777777, 27.942327805555557 ], [ -83.435007416666664, 27.908942666666665 ] ] } },
{ "type": "Feature", "properties": { "style": "solid", "thickness": 1 }, "geometry": { "type": "LineString", "coordinates": [ [ -83.421193138888896, 27.934261805555554 ], [ -83.421301472222225, 27.935877222222221 ], [ -83.420821555555563, 27.937793944444444 ], [ -83.41977138888889, 27.940281222222222 ], [ -83.418667055555559, 27.94196075 ], [ -83.416920194444444, 27.943133888888887 ], [ -83.414530888888891, 27.943800555555555 ], [ -83.409983222222223, 27.944040805555556 ], [ -83.406612222222222, 27.943678444444444 ], [ -83.405042277777781, 27.942950722222221 ], [ -83.402793944444454, 27.941178055555557 ], [ -83.402097555555557, 27.93986386111111 ], [ -83.401347138888895, 27.937741916666667 ], [ -83.401059027777777, 27.933434083333335 ], [ -83.401557277777783, 27.931786638888891 ], [ -83.403907305555563, 27.925988638888889 ], [ -83.407292555555557, 27.922027277777779 ], [ -83.412709166666673, 27.9166075 ], [ -83.419229277777788, 27.909507972222222 ], [ -83.400134972222233, 27.910516638888886 ] ] } },
{ "type": "Feature", "properties": { "style": "solid", "thickness": 1 }, "geometry": { "type": "LineString", "coordinates": [ [ -83.232128305555563, 26.81231288888889 ], [ -83.207286444444449, 26.800632083333333 ] ] } },
{ "type": "Feature", "properties": { "style": "solid", "thickness": 1 }, "geometry": { "type": "LineString", "coordinates": [ [ -83.207800472222232, 26.81330475 ], [ -83.231311444444444, 26.799655916666669 ] ] } },
{ "type": "Feature", "properties": { "style": "solid", "thickness": 1 }, "geometry": { "type": "LineString", "coordinates": [ [ -83.220222166666673, 26.819145666666667 ], [ -83.21859125, 26.793831555555556 ] ] } },
{ "type": "Feature", "properties": { "style": "solid", "thickness": 1 }, "geometry": { "type": "LineString", "coordinates": [ [ -83.1928503888889, 26.824345694444443 ], [ -83.188347916666672, 26.824578305555555 ], [ -83.186206, 26.79118463888889 ] ] } },
{ "type": "Feature", "properties": { "style": "solid", "thickness": 1 }, "geometry": { "type": "LineString", "coordinates": [ [ -83.172470388888897, 26.816481 ], [ -83.172573805555558, 26.818096833333332 ], [ -83.172094194444455, 26.82001288888889 ], [ -83.171048694444451, 26.822498527777778 ], [ -83.16995144444445, 26.824176194444444 ], [ -83.168219361111113, 26.825346194444442 ], [ -83.165852444444454, 26.82600847222222 ], [ -83.161349833333333, 26.826240194444445 ], [ -83.15801350000001, 26.825871444444445 ], [ -83.156461, 26.825140694444443 ], [ -83.15423941666667, 26.823363555555556 ], [ -83.153553111111123, 26.822047861111113 ], [ -83.15281522222223, 26.81992425 ], [ -83.152540138888895, 26.815615305555557 ], [ -83.153037277777784, 26.813968611111111 ], [ -83.155377416666667, 26.808174277777777 ], [ -83.15873805555556, 26.80421875 ], [ -83.164113138888894, 26.798808472222223 ], [ -83.170584638888897, 26.791720305555558 ], [ -83.151679361111121, 26.792693222222223 ] ] } },
{ "type": "Feature", "properties": { "style": "solid", "thickness": 1 }, "geometry": { "type": "LineString", "coordinates": [ [ -82.24781872222222, 26.883643361111112 ], [ -82.24066944444445, 26.896816666666666 ], [ -82.232091305555556, 26.884347972222223 ] ] } },
{ "type": "Feature", "properties": { "style": "solid", "thickness": 1 }, "geometry": { "type": "LineString", "coordinates": [ [ -82.52127486111111, 27.98783361111111 ], [ -82.52127486111111, 27.98605525 ] ] } },
{ "type": "Feature", "properties": { "style": "solid", "thickness": 1 }, "geometry": { "type": "LineString", "coordinates": [ [ -82.520758277777773, 27.988045 ], [ -82.520758277777773, 27.985843888888891 ] ] } },
{ "type": "Feature", "properties": { "style": "solid", "thickness": 1 }, "geometry": { "type": "LineString", "coordinates": [ [ -82.520241694444437, 27.988045 ], [ -82.520241722222224, 27.985843888888891 ] ] } },
{ "type": "Feature", "properties": { "style": "solid", "thickness": 1 }, "geometry": { "type": "LineString", "coordinates": [ [ -82.519725138888887, 27.98783361111111 ], [ -82.519725138888887, 27.98605525 ] ] } },
{ "type": "Feature", "properties": { "style": "solid", "thickness": 1 }, "geometry": { "type": "LineString", "coordinates": [ [ -82.519156888888887, 27.986944444444447 ], [ -82.519178472222222, 27.987157333333336 ], [ -82.519242527777777, 27.987363361111111 ], [ -82.519347, 27.987555944444445 ], [ -82.519488555555554, 27.987728861111112 ], [ -82.519662583333329, 27.987876583333335 ], [ -82.519863527777773, 27.987994333333333 ], [ -82.520084944444449, 27.988078333333334 ], [ -82.520319694444439, 27.988125916666668 ], [ -82.52056025, 27.9881355 ], [ -82.520798861111103, 27.988106805555557 ], [ -82.521027861111108, 27.98804075 ], [ -82.521239916666673, 27.987939472222223 ], [ -82.521428166666666, 27.987806194444445 ], [ -82.521586583333331, 27.987645222222223 ], [ -82.521710083333332, 27.98746175 ], [ -82.521794694444438, 27.987261611111112 ], [ -82.521837694444443, 27.987051305555557 ], [ -82.52183766666667, 27.986837555555557 ], [ -82.521794694444438, 27.98662725 ], [ -82.521710083333332, 27.986427138888889 ], [ -82.521586583333331, 27.98624363888889 ], [ -82.521428138888893, 27.986082694444445 ], [ -82.521239888888886, 27.985949416666667 ], [ -82.521027861111108, 27.98584813888889 ], [ -82.520798861111103, 27.985782083333334 ], [ -82.52056025, 27.985753388888888 ], [ -82.520319722222226, 27.985762972222222 ], [ -82.520084972222222, 27.98581052777778 ], [ -82.51986355555556, 27.985894555555557 ], [ -82.519662611111116, 27.986012305555555 ], [ -82.519488555555554, 27.98616 ], [ -82.519347027777783, 27.986332916666669 ], [ -82.51924255555555, 27.9865255 ], [ -82.5191785, 27.986731555555558 ], [ -82.519156888888887, 27.986944444444447 ] ] } },
{ "type": "Feature", "properties": { "style": "solid", "thickness": 1 }, "geometry": { "type": "LineString", "coordinates": [ [ -81.769504472222224, 26.787629444444445 ], [ -81.762305555555557, 26.800777777777778 ], [ -81.753788138888893, 26.788280194444447 ] ] } },
{ "type": "Feature", "properties": { "style": "solid", "thickness": 1 }, "geometry": { "type": "LineString", "coordinates": [ [ -82.24767075, 27.805925333333334 ], [ -82.240461111111117, 27.819097222222222 ], [ -82.231811805555552, 27.806629305555557 ] ] } }
]
}
