{
"type": "FeatureCollection",
"name": "tpa126sgp",
"features": [
{ "type": "Feature", "properties": { "style": "solid", "thickness": 1 }, "geometry": { "type": "LineString", "coordinates": [ [ -82.420452944444449, 27.967671694444444 ], [ -82.40165375, 27.967189111111111 ] ] } },
{ "type": "Feature", "properties": { "style": "solid", "thickness": 1 }, "geometry": { "type": "LineString", "coordinates": [ [ -82.62069625, 28.046883333333334 ], [ -82.633833333333342, 28.057605722222224 ] ] } },
{ "type": "Feature", "properties": { "style": "solid", "thickness": 1 }, "geometry": { "type": "LineString", "coordinates": [ [ -82.415600611111117, 28.051153694444444 ], [ -82.430703805555567, 28.041445666666668 ] ] } },
{ "type": "Feature", "properties": { "style": "solid", "thickness": 1 }, "geometry": { "type": "LineString", "coordinates": [ [ -82.68655, 27.974665305555554 ], [ -82.667748694444455, 27.974211944444441 ] ] } },
{ "type": "Feature", "properties": { "style": "solid", "thickness": 1 }, "geometry": { "type": "LineString", "coordinates": [ [ -82.611345666666665, 27.972836416666667 ], [ -82.592544972222214, 27.972372777777775 ] ] } },
{ "type": "Feature", "properties": { "style": "solid", "thickness": 1 }, "geometry": { "type": "LineString", "coordinates": [ [ -82.458051722222223, 27.968720888888889 ], [ -82.439252305555556, 27.96815172222222 ] ] } },
{ "type": "Feature", "properties": { "style": "solid", "thickness": 1 }, "geometry": { "type": "LineString", "coordinates": [ [ -82.736828138888896, 27.838765611111111 ], [ -82.747326027777774, 27.824901722222222 ] ] } },
{ "type": "Feature", "properties": { "style": "solid", "thickness": 1 }, "geometry": { "type": "LineString", "coordinates": [ [ -82.75710047222222, 27.811680138888889 ], [ -82.768313222222218, 27.796896333333336 ] ] } },
{ "type": "Feature", "properties": { "style": "solid", "thickness": 1 }, "geometry": { "type": "LineString", "coordinates": [ [ -82.648947527777779, 27.973847722222221 ], [ -82.6301465, 27.9732975 ] ] } },
{ "type": "Feature", "properties": { "style": "solid", "thickness": 1 }, "geometry": { "type": "LineString", "coordinates": [ [ -82.495651194444449, 27.969759805555555 ], [ -82.476851416666662, 27.969195777777777 ] ] } },
{ "type": "Feature", "properties": { "style": "solid", "thickness": 1 }, "geometry": { "type": "LineString", "coordinates": [ [ -82.573744499999989, 27.971814833333333 ], [ -82.554944138888885, 27.971346055555554 ] ] } },
{ "type": "Feature", "properties": { "style": "solid", "thickness": 1 }, "geometry": { "type": "LineString", "coordinates": [ [ -82.41094425, 28.13818275 ], [ -82.41062225, 28.14753686111111 ] ] } },
{ "type": "Feature", "properties": { "style": "solid", "thickness": 1 }, "geometry": { "type": "LineString", "coordinates": [ [ -82.724153277777773, 27.97574775 ], [ -82.705351555555552, 27.975207805555552 ] ] } },
{ "type": "Feature", "properties": { "style": "solid", "thickness": 1 }, "geometry": { "type": "LineString", "coordinates": [ [ -82.382854916666659, 27.966612222222221 ], [ -82.364056083333324, 27.9661245 ] ] } },
{ "type": "Feature", "properties": { "style": "solid", "thickness": 1 }, "geometry": { "type": "LineString", "coordinates": [ [ -82.345257611111109, 27.965542472222221 ], [ -82.326459138888879, 27.965049583333332 ] ] } },
{ "type": "Feature", "properties": { "style": "solid", "thickness": 1 }, "geometry": { "type": "LineString", "coordinates": [ [ -82.485974694444451, 27.9078555 ], [ -82.4549525, 27.968369166666665 ], [ -82.41575425, 28.009058138888889 ] ] } },
{ "type": "Feature", "properties": { "style": "solid", "thickness": 1 }, "geometry": { "type": "LineString", "coordinates": [ [ -82.826503972222213, 27.9098905 ], [ -82.842713611111108, 27.910131472222222 ] ] } },
{ "type": "Feature", "properties": { "style": "solid", "thickness": 1 }, "geometry": { "type": "LineString", "coordinates": [ [ -82.83123636111111, 27.90355247222222 ], [ -82.83818736111111, 27.916194277777777 ] ] } },
{ "type": "Feature", "properties": { "style": "solid", "thickness": 1 }, "geometry": { "type": "LineString", "coordinates": [ [ -82.487420194444439, 27.90758097222222 ], [ -82.478852722222229, 27.905284277777778 ], [ -82.470384861111114, 27.908765055555556 ] ] } },
{ "type": "Feature", "properties": { "style": "solid", "thickness": 1 }, "geometry": { "type": "LineString", "coordinates": [ [ -82.751288861111107, 27.84736575 ], [ -82.752528805555556, 27.848281027777777 ] ] } },
{ "type": "Feature", "properties": { "style": "solid", "thickness": 1 }, "geometry": { "type": "LineString", "coordinates": [ [ -82.743955027777773, 27.843066027777777 ], [ -82.745297861111112, 27.8438895 ] ] } },
{ "type": "Feature", "properties": { "style": "solid", "thickness": 1 }, "geometry": { "type": "LineString", "coordinates": [ [ -82.721130388888895, 27.829340111111112 ], [ -82.722369555555559, 27.830072222222221 ] ] } },
{ "type": "Feature", "properties": { "style": "solid", "thickness": 1 }, "geometry": { "type": "LineString", "coordinates": [ [ -82.728462527777779, 27.833732777777776 ], [ -82.729805138888892, 27.834556416666665 ] ] } },
{ "type": "Feature", "properties": { "style": "solid", "thickness": 1 }, "geometry": { "type": "LineString", "coordinates": [ [ -82.59995875, 27.922623027777778 ], [ -82.591493361111105, 27.925927805555556 ] ] } },
{ "type": "Feature", "properties": { "style": "solid", "thickness": 1 }, "geometry": { "type": "LineString", "coordinates": [ [ -82.582924222222218, 27.929323833333335 ], [ -82.574457833333327, 27.932719277777778 ] ] } },
{ "type": "Feature", "properties": { "style": "solid", "thickness": 1 }, "geometry": { "type": "LineString", "coordinates": [ [ -82.531886555555559, 28.140729055555553 ], [ -82.51409127777778, 28.140175944444444 ] ] } },
{ "type": "Feature", "properties": { "style": "solid", "thickness": 1 }, "geometry": { "type": "LineString", "coordinates": [ [ -82.541726694444449, 27.850983972222224 ], [ -82.523978888888891, 27.850432111111111 ] ] } },
{ "type": "Feature", "properties": { "style": "solid", "thickness": 1 }, "geometry": { "type": "LineString", "coordinates": [ [ -82.545121277777781, 27.750600416666668 ], [ -82.527389861111104, 27.750049 ] ] } },
{ "type": "Feature", "properties": { "style": "solid", "thickness": 1 }, "geometry": { "type": "LineString", "coordinates": [ [ -82.643808527777779, 27.999637083333333 ], [ -82.634405527777787, 27.99936838888889 ] ] } },
{ "type": "Feature", "properties": { "style": "solid", "thickness": 1 }, "geometry": { "type": "LineString", "coordinates": [ [ -82.396866833333334, 27.992164055555556 ], [ -82.387465111111112, 27.991878472222222 ] ] } },
{ "type": "Feature", "properties": { "style": "solid", "thickness": 1 }, "geometry": { "type": "LineString", "coordinates": [ [ -82.388984444444446, 27.941257861111112 ], [ -82.398278583333337, 27.941540222222223 ] ] } },
{ "type": "Feature", "properties": { "style": "solid", "thickness": 1 }, "geometry": { "type": "LineString", "coordinates": [ [ -82.636635833333344, 27.948649944444444 ], [ -82.646034444444453, 27.9489185 ] ] } },
{ "type": "Feature", "properties": { "style": "solid", "thickness": 1 }, "geometry": { "type": "LineString", "coordinates": [ [ -82.388326694444444, 27.967667361111108 ], [ -82.388984444444446, 27.941257861111112 ] ] } },
{ "type": "Feature", "properties": { "style": "solid", "thickness": 1 }, "geometry": { "type": "LineString", "coordinates": [ [ -82.646034444444453, 27.9489185 ], [ -82.64512230555556, 27.96772025 ] ] } },
{ "type": "Feature", "properties": { "style": "solid", "thickness": 1 }, "geometry": { "type": "LineString", "coordinates": [ [ -82.387465111111112, 27.991878472222222 ], [ -82.387787194444456, 27.983533 ] ] } },
{ "type": "Feature", "properties": { "style": "solid", "thickness": 1 }, "geometry": { "type": "LineString", "coordinates": [ [ -82.644214194444444, 27.991291 ], [ -82.643808527777779, 27.999637083333333 ] ] } },
{ "type": "Feature", "properties": { "style": "solid", "thickness": 1 }, "geometry": { "type": "LineString", "coordinates": [ [ -82.424621416666668, 27.959443222222223 ], [ -82.424189666666678, 27.976134527777777 ] ] } },
{ "type": "Feature", "properties": { "style": "solid", "thickness": 1 }, "geometry": { "type": "LineString", "coordinates": [ [ -82.690705, 27.923415 ], [ -82.686153333333337, 27.896959444444445 ] ] } },
{ "type": "Feature", "properties": { "style": "solid", "thickness": 1 }, "geometry": { "type": "LineString", "coordinates": [ [ -82.528215, 27.987128055555555 ], [ -82.528991388888883, 27.964310277777777 ] ] } },
{ "type": "Feature", "properties": { "style": "solid", "thickness": 1 }, "geometry": { "type": "LineString", "coordinates": [ [ -82.536084166666669, 27.97083111111111 ], [ -82.514410555555557, 27.97024722222222 ] ] } },
{ "type": "Feature", "properties": { "style": "solid", "thickness": 1 }, "geometry": { "type": "LineString", "coordinates": [ [ -82.448118888888899, 27.919959722222224 ], [ -82.447109166666664, 27.912624444444443 ] ] } },
{ "type": "Feature", "properties": { "style": "solid", "thickness": 1 }, "geometry": { "type": "LineString", "coordinates": [ [ -82.454069444444443, 27.910891666666664 ], [ -82.4474, 27.918766944444446 ] ] } },
{ "type": "Feature", "properties": { "style": "solid", "thickness": 1 }, "geometry": { "type": "LineString", "coordinates": [ [ -82.532688888888885, 27.837397222222222 ], [ -82.509747222222217, 27.861294444444447 ] ] } },
{ "type": "Feature", "properties": { "style": "solid", "thickness": 1 }, "geometry": { "type": "LineString", "coordinates": [ [ -82.633623333333347, 27.763177777777777 ], [ -82.6235775, 27.767909444444445 ] ] } },
{ "type": "Feature", "properties": { "style": "solid", "thickness": 1 }, "geometry": { "type": "LineString", "coordinates": [ [ -82.52764636111111, 28.003832027777779 ], [ -82.52707755555555, 28.020535916666667 ] ] } },
{ "type": "Feature", "properties": { "style": "solid", "thickness": 1 }, "geometry": { "type": "LineString", "coordinates": [ [ -82.526508583333339, 28.037239777777778 ], [ -82.52593941666666, 28.053943555555556 ] ] } },
{ "type": "Feature", "properties": { "style": "solid", "thickness": 1 }, "geometry": { "type": "LineString", "coordinates": [ [ -82.525370083333328, 28.070647305555557 ], [ -82.524800583333331, 28.087350972222222 ] ] } },
{ "type": "Feature", "properties": { "style": "solid", "thickness": 1 }, "geometry": { "type": "LineString", "coordinates": [ [ -82.524230888888894, 28.104054583333333 ], [ -82.523661027777777, 28.120758138888888 ] ] } },
{ "type": "Feature", "properties": { "style": "solid", "thickness": 1 }, "geometry": { "type": "LineString", "coordinates": [ [ -82.523091, 28.13746161111111 ], [ -82.522520777777771, 28.154165027777776 ] ] } },
{ "type": "Feature", "properties": { "style": "solid", "thickness": 1 }, "geometry": { "type": "LineString", "coordinates": [ [ -82.521950388888882, 28.170868388888891 ], [ -82.521379805555554, 28.187571694444443 ] ] } },
{ "type": "Feature", "properties": { "style": "solid", "thickness": 1 }, "geometry": { "type": "LineString", "coordinates": [ [ -82.52080905555556, 28.204274916666666 ], [ -82.520238138888885, 28.220978083333332 ] ] } },
{ "type": "Feature", "properties": { "style": "solid", "thickness": 1 }, "geometry": { "type": "LineString", "coordinates": [ [ -82.519667055555558, 28.237681194444445 ], [ -82.519095777777778, 28.254384222222221 ] ] } },
{ "type": "Feature", "properties": { "style": "solid", "thickness": 1 }, "geometry": { "type": "LineString", "coordinates": [ [ -82.518524305555559, 28.271087166666664 ], [ -82.517952694444446, 28.287790083333334 ] ] } },
{ "type": "Feature", "properties": { "style": "solid", "thickness": 1 }, "geometry": { "type": "LineString", "coordinates": [ [ -82.517380861111107, 28.304492888888891 ], [ -82.516808888888889, 28.321195638888888 ] ] } },
{ "type": "Feature", "properties": { "style": "solid", "thickness": 1 }, "geometry": { "type": "LineString", "coordinates": [ [ -82.529559472222218, 27.947606166666667 ], [ -82.530127388888886, 27.93090202777778 ] ] } },
{ "type": "Feature", "properties": { "style": "solid", "thickness": 1 }, "geometry": { "type": "LineString", "coordinates": [ [ -82.530695138888888, 27.914197805555553 ], [ -82.531262722222223, 27.897493555555556 ] ] } },
{ "type": "Feature", "properties": { "style": "solid", "thickness": 1 }, "geometry": { "type": "LineString", "coordinates": [ [ -82.531830111111105, 27.88078925 ], [ -82.532397333333336, 27.864084861111113 ] ] } },
{ "type": "Feature", "properties": { "style": "solid", "thickness": 1 }, "geometry": { "type": "LineString", "coordinates": [ [ -82.532964388888885, 27.847380444444443 ], [ -82.53353125, 27.830676 ] ] } },
{ "type": "Feature", "properties": { "style": "solid", "thickness": 1 }, "geometry": { "type": "LineString", "coordinates": [ [ -82.53409794444444, 27.813971472222224 ], [ -82.534664472222218, 27.797266916666668 ] ] } },
{ "type": "Feature", "properties": { "style": "solid", "thickness": 1 }, "geometry": { "type": "LineString", "coordinates": [ [ -82.53523083333333, 27.780562305555556 ], [ -82.535797027777775, 27.76385763888889 ] ] } },
{ "type": "Feature", "properties": { "style": "solid", "thickness": 1 }, "geometry": { "type": "LineString", "coordinates": [ [ -82.536363027777782, 27.747152916666668 ], [ -82.536928861111107, 27.730448166666665 ] ] } },
{ "type": "Feature", "properties": { "style": "solid", "thickness": 1 }, "geometry": { "type": "LineString", "coordinates": [ [ -82.537494527777781, 27.71374336111111 ], [ -82.53806, 27.697038527777778 ] ] } },
{ "type": "Feature", "properties": { "style": "solid", "thickness": 1 }, "geometry": { "type": "LineString", "coordinates": [ [ -82.538625333333329, 27.680333638888889 ], [ -82.539190472222216, 27.663628722222221 ] ] } },
{ "type": "Feature", "properties": { "style": "solid", "thickness": 1 }, "geometry": { "type": "LineString", "coordinates": [ [ -82.625002027777768, 27.964835694444442 ], [ -82.624497916666655, 27.981525388888887 ] ] } },
{ "type": "Feature", "properties": { "style": "solid", "thickness": 1 }, "geometry": { "type": "LineString", "coordinates": [ [ -82.699294944444446, 27.802997194444444 ], [ -82.680516222222224, 27.802207722222224 ] ] } },
{ "type": "Feature", "properties": { "style": "solid", "thickness": 1 }, "geometry": { "type": "LineString", "coordinates": [ [ -82.689905555555555, 27.802602777777778 ], [ -82.690792944444453, 27.78590925 ] ] } },
{ "type": "Feature", "properties": { "style": "solid", "thickness": 1 }, "geometry": { "type": "LineString", "coordinates": [ [ -82.67862225, 27.797844305555557 ], [ -82.66004975, 27.800366194444447 ] ] } },
{ "type": "Feature", "properties": { "style": "solid", "thickness": 1 }, "geometry": { "type": "LineString", "coordinates": [ [ -82.669336111111122, 27.799105555555556 ], [ -82.666499694444454, 27.782584833333331 ] ] } },
{ "type": "Feature", "properties": { "style": "solid", "thickness": 1 }, "geometry": { "type": "LineString", "coordinates": [ [ -82.691680083333338, 27.769215666666664 ], [ -82.692566972222224, 27.752522055555556 ] ] } },
{ "type": "Feature", "properties": { "style": "solid", "thickness": 1 }, "geometry": { "type": "LineString", "coordinates": [ [ -82.663664166666678, 27.766064 ], [ -82.660829472222233, 27.749543083333336 ] ] } },
{ "type": "Feature", "properties": { "style": "solid", "thickness": 1 }, "geometry": { "type": "LineString", "coordinates": [ [ -82.588230555555555, 27.773666666666667 ], [ -82.599686416666657, 27.760420555555555 ] ] } },
{ "type": "Feature", "properties": { "style": "solid", "thickness": 1 }, "geometry": { "type": "LineString", "coordinates": [ [ -82.594795944444442, 27.778159222222222 ], [ -82.582109055555549, 27.76947725 ] ] } },
{ "type": "Feature", "properties": { "style": "solid", "thickness": 1 }, "geometry": { "type": "LineString", "coordinates": [ [ -82.515884472222226, 28.087726055555553 ], [ -82.533671138888892, 28.088278916666667 ] ] } },
{ "type": "Feature", "properties": { "style": "solid", "thickness": 1 }, "geometry": { "type": "LineString", "coordinates": [ [ -82.624836194444441, 27.76850097222222 ], [ -82.624779583333321, 27.76062411111111 ] ] } },
{ "type": "Feature", "properties": { "style": "solid", "thickness": 1 }, "geometry": { "type": "LineString", "coordinates": [ [ -82.530490388888893, 28.310903861111111 ], [ -82.529917861111116, 28.327606583333335 ] ] } },
{ "type": "Feature", "properties": { "style": "solid", "thickness": 1 }, "geometry": { "type": "LineString", "coordinates": [ [ -82.531634916666661, 28.277498222222221 ], [ -82.53106275, 28.294201083333334 ] ] } },
{ "type": "Feature", "properties": { "style": "solid", "thickness": 1 }, "geometry": { "type": "LineString", "coordinates": [ [ -82.532778722222218, 28.244092305555558 ], [ -82.532206916666667, 28.260795305555554 ] ] } },
{ "type": "Feature", "properties": { "style": "solid", "thickness": 1 }, "geometry": { "type": "LineString", "coordinates": [ [ -82.524418777777782, 28.227891444444442 ], [ -82.542231277777773, 28.22836908333333 ] ] } },
{ "type": "Feature", "properties": { "style": "solid", "thickness": 1 }, "geometry": { "type": "LineString", "coordinates": [ [ -82.533921833333338, 28.210686111111109 ], [ -82.533350361111104, 28.22738925 ] ] } },
{ "type": "Feature", "properties": { "style": "solid", "thickness": 1 }, "geometry": { "type": "LineString", "coordinates": [ [ -82.535064222222218, 28.177279666666667 ], [ -82.534493111111104, 28.193982916666666 ] ] } },
{ "type": "Feature", "properties": { "style": "solid", "thickness": 1 }, "geometry": { "type": "LineString", "coordinates": [ [ -82.526857944444444, 28.156733888888887 ], [ -82.54465875, 28.157209972222219 ] ] } },
{ "type": "Feature", "properties": { "style": "solid", "thickness": 1 }, "geometry": { "type": "LineString", "coordinates": [ [ -82.536206388888885, 28.143872972222223 ], [ -82.535758333333334, 28.156972222222223 ], [ -82.535635166666665, 28.160576333333331 ] ] } },
{ "type": "Feature", "properties": { "style": "solid", "thickness": 1 }, "geometry": { "type": "LineString", "coordinates": [ [ -82.537348611111113, 28.110466027777779 ], [ -82.536777583333333, 28.127169527777777 ] ] } },
{ "type": "Feature", "properties": { "style": "solid", "thickness": 1 }, "geometry": { "type": "LineString", "coordinates": [ [ -82.528999166666665, 28.09425625 ], [ -82.54678975, 28.094732055555554 ] ] } },
{ "type": "Feature", "properties": { "style": "solid", "thickness": 1 }, "geometry": { "type": "LineString", "coordinates": [ [ -82.538487305555549, 28.077058777777779 ], [ -82.537919333333335, 28.09376247222222 ] ] } },
{ "type": "Feature", "properties": { "style": "solid", "thickness": 1 }, "geometry": { "type": "LineString", "coordinates": [ [ -82.539622722222219, 28.043651222222223 ], [ -82.539055111111111, 28.060355027777778 ] ] } },
{ "type": "Feature", "properties": { "style": "solid", "thickness": 1 }, "geometry": { "type": "LineString", "coordinates": [ [ -82.540758388888889, 28.010243444444445 ], [ -82.540530555555549, 28.016925 ], [ -82.540190166666662, 28.026947361111109 ] ] } },
{ "type": "Feature", "properties": { "style": "solid", "thickness": 1 }, "geometry": { "type": "LineString", "coordinates": [ [ -82.554141361111107, 27.877774083333335 ], [ -82.536386472222219, 27.877297555555558 ] ] } },
{ "type": "Feature", "properties": { "style": "solid", "thickness": 1 }, "geometry": { "type": "LineString", "coordinates": [ [ -82.555745861111106, 27.830562861111112 ], [ -82.537998611111107, 27.830086555555557 ] ] } },
{ "type": "Feature", "properties": { "style": "solid", "thickness": 1 }, "geometry": { "type": "LineString", "coordinates": [ [ -82.557511055555551, 27.778446444444445 ], [ -82.539772305555559, 27.777969666666667 ] ] } },
{ "type": "Feature", "properties": { "style": "solid", "thickness": 1 }, "geometry": { "type": "LineString", "coordinates": [ [ -82.542921638888885, 27.946590194444443 ], [ -82.543236111111113, 27.937311111111111 ], [ -82.543488111111103, 27.929885972222223 ] ] } },
{ "type": "Feature", "properties": { "style": "solid", "thickness": 1 }, "geometry": { "type": "LineString", "coordinates": [ [ -82.54405494444444, 27.91318175 ], [ -82.544621583333338, 27.896477472222223 ] ] } },
{ "type": "Feature", "properties": { "style": "solid", "thickness": 1 }, "geometry": { "type": "LineString", "coordinates": [ [ -82.545188055555556, 27.879773111111113 ], [ -82.545263888888883, 27.877536111111112 ], [ -82.545755194444439, 27.86306875 ] ] } },
{ "type": "Feature", "properties": { "style": "solid", "thickness": 1 }, "geometry": { "type": "LineString", "coordinates": [ [ -82.546322305555549, 27.846364333333334 ], [ -82.546866666666659, 27.830325 ], [ -82.546889333333326, 27.829659861111111 ] ] } },
{ "type": "Feature", "properties": { "style": "solid", "thickness": 1 }, "geometry": { "type": "LineString", "coordinates": [ [ -82.547458444444445, 27.812955416666668 ], [ -82.54802736111111, 27.796250916666668 ] ] } },
{ "type": "Feature", "properties": { "style": "solid", "thickness": 1 }, "geometry": { "type": "LineString", "coordinates": [ [ -82.54859611111111, 27.779546361111109 ], [ -82.549164694444443, 27.76284175 ] ] } },
{ "type": "Feature", "properties": { "style": "solid", "thickness": 1 }, "geometry": { "type": "LineString", "coordinates": [ [ -82.549733111111109, 27.746137111111111 ], [ -82.550301333333337, 27.729432416666665 ] ] } },
{ "type": "Feature", "properties": { "style": "solid", "thickness": 1 }, "geometry": { "type": "LineString", "coordinates": [ [ -82.550869416666657, 27.712727666666666 ], [ -82.551437305555552, 27.696022888888891 ] ] } },
{ "type": "Feature", "properties": { "style": "solid", "thickness": 1 }, "geometry": { "type": "LineString", "coordinates": [ [ -82.552005027777781, 27.679318083333335 ], [ -82.552572555555557, 27.662613194444443 ] ] } },
{ "type": "Feature", "properties": { "style": "solid", "thickness": 1 }, "geometry": { "type": "LineString", "coordinates": [ [ -82.542355416666666, 27.963294333333334 ], [ -82.541327833333327, 27.993539444444444 ] ] } },
{ "type": "Feature", "properties": { "style": "solid", "thickness": 1 }, "geometry": { "type": "LineString", "coordinates": [ [ -82.703833333333336, 27.995241666666669 ], [ -82.706570333333332, 28.011775694444445 ] ] } },
{ "type": "Feature", "properties": { "style": "solid", "thickness": 1 }, "geometry": { "type": "LineString", "coordinates": [ [ -82.709308166666673, 28.028309611111109 ], [ -82.712046833333332, 28.044843444444446 ] ] } },
{ "type": "Feature", "properties": { "style": "solid", "thickness": 1 }, "geometry": { "type": "LineString", "coordinates": [ [ -82.714786333333336, 28.06137713888889 ], [ -82.717526666666672, 28.077910722222221 ] ] } },
{ "type": "Feature", "properties": { "style": "solid", "thickness": 1 }, "geometry": { "type": "LineString", "coordinates": [ [ -82.689334111111108, 27.899767833333332 ], [ -82.6774615, 27.912460138888889 ] ] } },
{ "type": "Feature", "properties": { "style": "solid", "thickness": 1 }, "geometry": { "type": "LineString", "coordinates": [ [ -82.371883777777768, 28.224050027777775 ], [ -82.372490472222211, 28.224420416666664 ], [ -82.3731621111111, 28.224688888888888 ], [ -82.373877055555553, 28.224846833333331 ], [ -82.374612361111105, 28.224889138888887 ], [ -82.375344388888877, 28.2248145 ], [ -82.3760496111111, 28.224625277777776 ], [ -82.376705333333334, 28.224327583333331 ], [ -82.377290499999987, 28.223930944444444 ], [ -82.377786305555546, 28.223448138888887 ], [ -82.378176805555555, 28.222894694444442 ], [ -82.378449444444442, 28.222288361111108 ], [ -82.378595472222216, 28.221648666666663 ], [ -82.378610194444434, 28.220996166666666 ], [ -82.378493166666658, 28.220351805555556 ], [ -82.378248083333332, 28.219736305555553 ], [ -82.377882888888877, 28.219169472222219 ], [ -82.377409305555545, 28.2186695 ], [ -82.376842555555555, 28.218252472222222 ], [ -82.376200833333328, 28.21793175 ], [ -82.375504777777778, 28.217717694444442 ], [ -82.37477675, 28.217617166666663 ], [ -82.37404016666666, 28.217633388888888 ], [ -82.373318694444436, 28.217765861111108 ], [ -82.372635499999987, 28.218010277777775 ], [ -82.37201258333333, 28.218358833333333 ], [ -82.371469916666655, 28.218800305555554 ], [ -82.371024944444443, 28.2193205 ], [ -82.370692, 28.219902722222219 ], [ -82.370481777777769, 28.22052825 ], [ -82.370401027777774, 28.221176944444444 ], [ -82.370452361111106, 28.221828 ], [ -82.370634111111102, 28.2224605 ], [ -82.370940444444443, 28.223054055555554 ], [ -82.3713615, 28.223589638888889 ], [ -82.371883777777768, 28.224050027777775 ] ] } },
{ "type": "Feature", "properties": { "style": "solid", "thickness": 1 }, "geometry": { "type": "LineString", "coordinates": [ [ -82.370460722222219, 28.22140947222222 ], [ -82.368700388888882, 28.221498944444441 ] ] } },
{ "type": "Feature", "properties": { "style": "solid", "thickness": 1 }, "geometry": { "type": "LineString", "coordinates": [ [ -82.37470030555555, 28.224899694444442 ], [ -82.374801416666656, 28.226458861111109 ] ] } },
{ "type": "Feature", "properties": { "style": "solid", "thickness": 1 }, "geometry": { "type": "LineString", "coordinates": [ [ -82.37429758333333, 28.217654222222219 ], [ -82.374196666666663, 28.216003333333333 ] ] } },
{ "type": "Feature", "properties": { "style": "solid", "thickness": 1 }, "geometry": { "type": "LineString", "coordinates": [ [ -82.378640861111109, 28.22105275 ], [ -82.380401166666658, 28.220963166666664 ] ] } },
{ "type": "Feature", "properties": { "style": "solid", "thickness": 1 }, "geometry": { "type": "LineString", "coordinates": [ [ -82.347679361111105, 28.016842611111109 ], [ -82.348229972222214, 28.016409944444444 ], [ -82.348684694444444, 28.015897 ], [ -82.349028888888881, 28.015320222222222 ], [ -82.349251527777767, 28.014698166666665 ], [ -82.349345416666665, 28.014050861111112 ], [ -82.349307527777768, 28.013399055555556 ], [ -82.349139138888887, 28.012763722222221 ], [ -82.348845638888889, 28.012165277777779 ], [ -82.348436444444445, 28.011622972222224 ], [ -82.347924722222217, 28.011154222222221 ], [ -82.34732691666666, 28.010774111111111 ], [ -82.34666225, 28.010494833333333 ], [ -82.345952055555557, 28.010325333333334 ], [ -82.345219194444439, 28.010271138888889 ], [ -82.344487222222213, 28.010333916666667 ], [ -82.343779611111103, 28.010511694444446 ], [ -82.343119166666668, 28.01079875 ], [ -82.34252705555555, 28.011185833333332 ], [ -82.342022361111106, 28.011660527777778 ], [ -82.341621277777776, 28.012207583333332 ], [ -82.341336666666663, 28.012809416666666 ], [ -82.34117775, 28.01344663888889 ], [ -82.341149583333333, 28.014098833333332 ], [ -82.341253083333328, 28.014745 ], [ -82.341484916666658, 28.015364388888887 ], [ -82.341837666666663, 28.015937083333334 ], [ -82.342299972222222, 28.016444666666668 ], [ -82.342856972222222, 28.016870861111109 ], [ -82.343490805555547, 28.017201916666664 ], [ -82.344181027777779, 28.017427222222221 ], [ -82.344905527777769, 28.017539527777778 ], [ -82.34564094444444, 28.017535222222222 ], [ -82.346363694444435, 28.017414444444444 ], [ -82.347050527777768, 28.017181055555554 ], [ -82.347679361111105, 28.016842611111109 ] ] } },
{ "type": "Feature", "properties": { "style": "solid", "thickness": 1 }, "geometry": { "type": "LineString", "coordinates": [ [ -82.341136, 28.014103611111111 ], [ -82.339379027777767, 28.014192722222223 ] ] } },
{ "type": "Feature", "properties": { "style": "solid", "thickness": 1 }, "geometry": { "type": "LineString", "coordinates": [ [ -82.345470055555552, 28.017503333333334 ], [ -82.345570361111101, 28.019154277777776 ] ] } },
{ "type": "Feature", "properties": { "style": "solid", "thickness": 1 }, "geometry": { "type": "LineString", "coordinates": [ [ -82.345070055555553, 28.0102575 ], [ -82.344969583333324, 28.00869825 ] ] } },
{ "type": "Feature", "properties": { "style": "solid", "thickness": 1 }, "geometry": { "type": "LineString", "coordinates": [ [ -82.34940391666666, 28.013748777777778 ], [ -82.351160861111111, 28.013659555555556 ] ] } },
{ "type": "Feature", "properties": { "style": "solid", "thickness": 1 }, "geometry": { "type": "LineString", "coordinates": [ [ -82.266470388888891, 27.833939555555553 ], [ -82.262842277777779, 27.840535583333331 ], [ -82.258525388888884, 27.834290055555556 ] ] } },
{ "type": "Feature", "properties": { "style": "solid", "thickness": 1 }, "geometry": { "type": "LineString", "coordinates": [ [ -82.243934916666674, 27.812797694444445 ], [ -82.24030616666667, 27.819393111111111 ], [ -82.235991416666664, 27.813146888888891 ] ] } },
{ "type": "Feature", "properties": { "style": "solid", "thickness": 1 }, "geometry": { "type": "LineString", "coordinates": [ [ -82.515565166666661, 27.672618111111113 ], [ -82.509487222222219, 27.672616666666666 ] ] } },
{ "type": "Feature", "properties": { "style": "solid", "thickness": 1 }, "geometry": { "type": "LineString", "coordinates": [ [ -82.509487222222219, 27.672616666666666 ], [ -82.509488972222229, 27.667205472222225 ] ] } },
{ "type": "Feature", "properties": { "style": "solid", "thickness": 1 }, "geometry": { "type": "LineString", "coordinates": [ [ -82.509488972222229, 27.667205472222225 ], [ -82.515566638888885, 27.667206916666668 ] ] } },
{ "type": "Feature", "properties": { "style": "solid", "thickness": 1 }, "geometry": { "type": "LineString", "coordinates": [ [ -82.515566638888885, 27.667206916666668 ], [ -82.515565166666661, 27.672618111111113 ] ] } },
{ "type": "Feature", "properties": { "style": "solid", "thickness": 1 }, "geometry": { "type": "LineString", "coordinates": [ [ -82.465568611111109, 27.718730805555555 ], [ -82.459488083333341, 27.718727138888887 ] ] } },
{ "type": "Feature", "properties": { "style": "solid", "thickness": 1 }, "geometry": { "type": "LineString", "coordinates": [ [ -82.459488083333341, 27.718727138888887 ], [ -82.45949233333333, 27.713315972222222 ] ] } },
{ "type": "Feature", "properties": { "style": "solid", "thickness": 1 }, "geometry": { "type": "LineString", "coordinates": [ [ -82.45949233333333, 27.713315972222222 ], [ -82.465572583333341, 27.713319638888887 ] ] } },
{ "type": "Feature", "properties": { "style": "solid", "thickness": 1 }, "geometry": { "type": "LineString", "coordinates": [ [ -82.465572583333341, 27.713319638888887 ], [ -82.465568611111109, 27.718730805555555 ] ] } },
{ "type": "Feature", "properties": { "style": "solid", "thickness": 1 }, "geometry": { "type": "LineString", "coordinates": [ [ -82.427982888888891, 27.785472083333335 ], [ -82.421898611111118, 27.78546675 ] ] } },
{ "type": "Feature", "properties": { "style": "solid", "thickness": 1 }, "geometry": { "type": "LineString", "coordinates": [ [ -82.421898611111118, 27.78546675 ], [ -82.421904861111116, 27.779963888888886 ] ] } },
{ "type": "Feature", "properties": { "style": "solid", "thickness": 1 }, "geometry": { "type": "LineString", "coordinates": [ [ -82.421904861111116, 27.779963888888886 ], [ -82.427988805555557, 27.779969222222221 ] ] } },
{ "type": "Feature", "properties": { "style": "solid", "thickness": 1 }, "geometry": { "type": "LineString", "coordinates": [ [ -82.427988805555557, 27.779969222222221 ], [ -82.427982888888891, 27.785472083333335 ] ] } },
{ "type": "Feature", "properties": { "style": "solid", "thickness": 1 }, "geometry": { "type": "LineString", "coordinates": [ [ -82.64086325000001, 27.707164277777778 ], [ -82.634783361111118, 27.707168388888888 ] ] } },
{ "type": "Feature", "properties": { "style": "solid", "thickness": 1 }, "geometry": { "type": "LineString", "coordinates": [ [ -82.634783361111118, 27.707168388888888 ], [ -82.634778805555555, 27.7016655 ] ] } },
{ "type": "Feature", "properties": { "style": "solid", "thickness": 1 }, "geometry": { "type": "LineString", "coordinates": [ [ -82.634778805555555, 27.7016655 ], [ -82.640858388888901, 27.701661388888887 ] ] } },
{ "type": "Feature", "properties": { "style": "solid", "thickness": 1 }, "geometry": { "type": "LineString", "coordinates": [ [ -82.640858388888901, 27.701661388888887 ], [ -82.64086325000001, 27.707164277777778 ] ] } },
{ "type": "Feature", "properties": { "style": "solid", "thickness": 1 }, "geometry": { "type": "LineString", "coordinates": [ [ -82.759493833333337, 27.980833722222222 ], [ -82.760214888888882, 27.980706277777777 ], [ -82.760898722222223, 27.980466611111108 ], [ -82.761523333333329, 27.980122361111111 ], [ -82.762068694444451, 27.979684666666664 ], [ -82.762517222222229, 27.979167527777776 ], [ -82.762854555555549, 27.978587611111109 ], [ -82.76306980555556, 27.977963555555554 ], [ -82.763156083333328, 27.977315388888886 ], [ -82.763110611111117, 27.976663972222219 ], [ -82.762934861111106, 27.976030222222221 ], [ -82.762634472222217, 27.975434527777775 ], [ -82.762219083333335, 27.974896027777778 ], [ -82.761702083333333, 27.974432 ], [ -82.761100083333332, 27.974057416666664 ], [ -82.76043241666666, 27.97378425 ], [ -82.759720527777773, 27.97362133333333 ], [ -82.758987333333337, 27.97357386111111 ], [ -82.758256361111108, 27.973643388888888 ], [ -82.757551111111113, 27.973827694444442 ], [ -82.756894277777775, 27.974120805555554 ], [ -82.756306944444447, 27.974513333333331 ], [ -82.755807972222229, 27.974992666666665 ], [ -82.755413444444443, 27.975543388888887 ], [ -82.755136, 27.976147777777776 ], [ -82.754984583333339, 27.976786472222219 ], [ -82.754964027777774, 27.977438888888887 ], [ -82.755075055555551, 27.978084055555556 ], [ -82.755314055555559, 27.978701277777777 ], [ -82.755673361111107, 27.979270694444441 ], [ -82.756141416666665, 27.979774 ], [ -82.756703194444441, 27.980195027777775 ], [ -82.757340638888891, 27.980520222222221 ], [ -82.758033222222224, 27.980739166666666 ], [ -82.75875875, 27.980844777777776 ], [ -82.759493833333337, 27.980833722222222 ] ] } },
{ "type": "Feature", "properties": { "style": "solid", "thickness": 1 }, "geometry": { "type": "LineString", "coordinates": [ [ -82.754948722222224, 27.977402027777774 ], [ -82.753192694444451, 27.977496416666664 ] ] } },
{ "type": "Feature", "properties": { "style": "solid", "thickness": 1 }, "geometry": { "type": "LineString", "coordinates": [ [ -82.75929444444445, 27.980880416666665 ], [ -82.759400833333331, 27.982439361111108 ] ] } },
{ "type": "Feature", "properties": { "style": "solid", "thickness": 1 }, "geometry": { "type": "LineString", "coordinates": [ [ -82.758866722222223, 27.97354408333333 ], [ -82.758760361111115, 27.97198511111111 ] ] } },
{ "type": "Feature", "properties": { "style": "solid", "thickness": 1 }, "geometry": { "type": "LineString", "coordinates": [ [ -82.763212444444449, 27.977022333333331 ], [ -82.764968444444449, 27.976927805555555 ] ] } },
{ "type": "Feature", "properties": { "style": "solid", "thickness": 1 }, "geometry": { "type": "LineString", "coordinates": [ [ -82.80442541666666, 27.803252833333335 ], [ -82.798340166666662, 27.803264194444445 ] ] } },
{ "type": "Feature", "properties": { "style": "solid", "thickness": 1 }, "geometry": { "type": "LineString", "coordinates": [ [ -82.798340166666662, 27.803264194444445 ], [ -82.79832730555556, 27.797761361111114 ] ] } },
{ "type": "Feature", "properties": { "style": "solid", "thickness": 1 }, "geometry": { "type": "LineString", "coordinates": [ [ -82.79832730555556, 27.797761361111114 ], [ -82.804412277777772, 27.79775 ] ] } },
{ "type": "Feature", "properties": { "style": "solid", "thickness": 1 }, "geometry": { "type": "LineString", "coordinates": [ [ -82.804412277777772, 27.79775 ], [ -82.80442541666666, 27.803252833333335 ] ] } },
{ "type": "Feature", "properties": { "style": "solid", "thickness": 1 }, "geometry": { "type": "LineString", "coordinates": [ [ -82.627480277777778, 27.860519305555556 ], [ -82.623873249999988, 27.867124805555555 ], [ -82.619534527777773, 27.860890694444446 ] ] } },
{ "type": "Feature", "properties": { "style": "solid", "thickness": 1 }, "geometry": { "type": "LineString", "coordinates": [ [ -82.771764277777777, 28.17590213888889 ], [ -82.768155555555552, 28.182511111111111 ], [ -82.763795861111106, 28.176281861111111 ] ] } },
{ "type": "Feature", "properties": { "style": "solid", "thickness": 1 }, "geometry": { "type": "LineString", "coordinates": [ [ -82.26696166666666, 27.842292888888888 ], [ -82.263333333333335, 27.848888888888887 ], [ -82.259016083333336, 27.842643416666665 ] ] } },
{ "type": "Feature", "properties": { "style": "solid", "thickness": 1 }, "geometry": { "type": "LineString", "coordinates": [ [ -82.275015638888888, 27.809237083333333 ], [ -82.271388888888893, 27.815833333333334 ], [ -82.267072472222225, 27.809588083333335 ] ] } },
{ "type": "Feature", "properties": { "style": "solid", "thickness": 1 }, "geometry": { "type": "LineString", "coordinates": [ [ -82.643439861111119, 27.764456166666665 ], [ -82.64343825, 27.76267775 ] ] } },
{ "type": "Feature", "properties": { "style": "solid", "thickness": 1 }, "geometry": { "type": "LineString", "coordinates": [ [ -82.64292452777778, 27.764667916666667 ], [ -82.642922555555558, 27.76246675 ] ] } },
{ "type": "Feature", "properties": { "style": "solid", "thickness": 1 }, "geometry": { "type": "LineString", "coordinates": [ [ -82.642409027777788, 27.764668277777776 ], [ -82.642407027777779, 27.762467138888891 ] ] } },
{ "type": "Feature", "properties": { "style": "solid", "thickness": 1 }, "geometry": { "type": "LineString", "coordinates": [ [ -82.641893305555556, 27.764457277777776 ], [ -82.641891722222226, 27.762678861111112 ] ] } },
{ "type": "Feature", "properties": { "style": "solid", "thickness": 1 }, "geometry": { "type": "LineString", "coordinates": [ [ -82.641325444444448, 27.763568472222222 ], [ -82.64134719444445, 27.763781361111111 ], [ -82.641411305555565, 27.763987361111113 ], [ -82.641515722222223, 27.76417986111111 ], [ -82.641657111111115, 27.764352694444444 ], [ -82.64183094444445, 27.764500277777778 ], [ -82.642031583333335, 27.764617888888889 ], [ -82.642252611111118, 27.76470175 ], [ -82.642486944444457, 27.764749138888888 ], [ -82.642727, 27.764758555555556 ], [ -82.642965083333337, 27.764729694444444 ], [ -82.643193555555555, 27.764663472222221 ], [ -82.643405083333334, 27.764562027777778 ], [ -82.643592833333344, 27.764428638888887 ], [ -82.643750777777782, 27.764267555555556 ], [ -82.643873861111118, 27.764083972222224 ], [ -82.643958111111118, 27.763883777777778 ], [ -82.644000833333337, 27.763673444444443 ], [ -82.644000611111124, 27.763459694444446 ], [ -82.643957527777786, 27.763249388888887 ], [ -82.64387291666668, 27.763049333333335 ], [ -82.643749500000013, 27.762865916666666 ], [ -82.64359125, 27.762705083333334 ], [ -82.64340325, 27.762571944444446 ], [ -82.643191583333333, 27.762470805555555 ], [ -82.642962972222236, 27.762404916666668 ], [ -82.642724833333347, 27.762376388888889 ], [ -82.642484805555569, 27.762386138888889 ], [ -82.642250583333336, 27.762433888888889 ], [ -82.642029694444446, 27.762518055555557 ], [ -82.641829277777788, 27.762635944444444 ], [ -82.641655722222225, 27.762783777777777 ], [ -82.641514638888893, 27.762956805555554 ], [ -82.641410555555566, 27.763149472222221 ], [ -82.641346805555557, 27.763355555555556 ], [ -82.641325444444448, 27.763568472222222 ] ] } },
{ "type": "Feature", "properties": { "style": "solid", "thickness": 1 }, "geometry": { "type": "LineString", "coordinates": [ [ -82.688639166666675, 27.997256833333335 ], [ -82.689154888888893, 27.996929888888889 ], [ -82.689679611111117, 27.99661013888889 ], [ -82.690213194444453, 27.99629788888889 ], [ -82.690755388888888, 27.995993333333335 ], [ -82.691306027777784, 27.995696805555557 ], [ -82.691864888888887, 27.99540852777778 ], [ -82.692431777777784, 27.995128722222223 ], [ -82.693006416666677, 27.994857694444445 ], [ -82.693588555555564, 27.994595611111112 ], [ -82.694177972222221, 27.99434275 ], [ -82.694774361111115, 27.994099305555558 ], [ -82.695377444444446, 27.9938655 ], [ -82.695986944444442, 27.993641555555556 ], [ -82.696602555555558, 27.993427638888889 ], [ -82.697223944444445, 27.993223944444445 ], [ -82.697850805555561, 27.993030666666666 ], [ -82.698482833333344, 27.992847944444446 ], [ -82.699119611111115, 27.992675916666666 ], [ -82.699760888888889, 27.992514777777778 ], [ -82.70040625, 27.99236461111111 ], [ -82.701055333333329, 27.992225555555557 ], [ -82.701707805555557, 27.992097694444446 ], [ -82.702363305555565, 27.991981166666669 ], [ -82.703021416666672, 27.991876 ], [ -82.703681805555561, 27.991782305555557 ], [ -82.704344055555552, 27.991700111111111 ], [ -82.705007805555553, 27.991629444444445 ], [ -82.705672638888885, 27.991570388888888 ], [ -82.706338222222229, 27.991522888888891 ], [ -82.707004166666664, 27.991486972222223 ], [ -82.707670055555553, 27.991462666666667 ], [ -82.708335527777777, 27.991449888888891 ], [ -82.709000194444442, 27.991448611111114 ], [ -82.709663694444444, 27.991458805555556 ], [ -82.710325666666662, 27.991480388888888 ], [ -82.710985694444446, 27.991513305555557 ], [ -82.711643472222221, 27.991557444444446 ], [ -82.712298583333336, 27.991612694444445 ], [ -82.71295075, 27.991678972222225 ], [ -82.713599583333334, 27.991756138888888 ], [ -82.71424475, 27.991844055555557 ], [ -82.714885916666674, 27.991942583333334 ], [ -82.715522777777778, 27.992051583333335 ], [ -82.716155027777788, 27.992170833333333 ], [ -82.716782361111115, 27.992300222222223 ], [ -82.7174045, 27.992439555555556 ], [ -82.718021111111113, 27.992588611111113 ], [ -82.718631972222227, 27.992747222222224 ], [ -82.719236805555553, 27.992915166666666 ] ] } },
{ "type": "Feature", "properties": { "style": "solid", "thickness": 1 }, "geometry": { "type": "LineString", "coordinates": [ [ -82.688639166666675, 27.997256833333335 ], [ -82.689243972222229, 27.997424916666667 ], [ -82.689854805555555, 27.997583638888891 ], [ -82.690471444444455, 27.997732833333334 ], [ -82.691093555555554, 27.99787227777778 ], [ -82.691720888888895, 27.99800177777778 ], [ -82.69235313888889, 27.998121138888891 ], [ -82.692990027777782, 27.99823025 ], [ -82.693631222222223, 27.998328861111112 ], [ -82.694276416666668, 27.99841688888889 ], [ -82.694925277777784, 27.998494138888891 ], [ -82.695577444444453, 27.9985605 ], [ -82.696232611111114, 27.998615833333336 ], [ -82.696890416666676, 27.998660027777778 ], [ -82.6975505, 27.998693 ], [ -82.6982125, 27.998714638888888 ], [ -82.698876027777786, 27.998724888888891 ], [ -82.69954075, 27.998723666666667 ], [ -82.700206277777781, 27.998710916666667 ], [ -82.70087222222223, 27.998686638888891 ], [ -82.701538194444453, 27.99865075 ], [ -82.702203805555556, 27.998603277777779 ], [ -82.70286872222222, 27.998544222222222 ], [ -82.7035325, 27.998473583333336 ], [ -82.704194805555559, 27.998391388888891 ], [ -82.704855222222221, 27.998297666666666 ], [ -82.705513361111116, 27.9981925 ], [ -82.706168888888897, 27.998075944444444 ], [ -82.706821388888898, 27.997948083333334 ], [ -82.707470527777787, 27.997809 ], [ -82.708115888888898, 27.997658777777779 ], [ -82.708757166666672, 27.997497583333335 ], [ -82.70939397222223, 27.997325527777779 ], [ -82.710026, 27.99714275 ], [ -82.710652861111114, 27.996949416666666 ], [ -82.71127425, 27.996745666666669 ], [ -82.711889833333331, 27.996531666666666 ], [ -82.712499305555554, 27.99630763888889 ], [ -82.713102388888885, 27.996073777777777 ], [ -82.71369875, 27.99583025 ], [ -82.714288111111117, 27.995577305555557 ], [ -82.714870222222231, 27.995315138888891 ], [ -82.715444805555563, 27.995044 ], [ -82.716011611111114, 27.994764111111113 ], [ -82.71657041666667, 27.994475722222223 ], [ -82.717120972222219, 27.994179083333336 ], [ -82.717663083333335, 27.993874444444444 ], [ -82.718196555555551, 27.993562083333334 ], [ -82.718721194444441, 27.993242222222221 ], [ -82.719236805555553, 27.992915166666666 ] ] } },
{ "type": "Feature", "properties": { "style": "solid", "thickness": 1 }, "geometry": { "type": "LineString", "coordinates": [ [ -82.42329225, 28.071817083333332 ], [ -82.42312775, 28.068978777777776 ] ] } },
{ "type": "Feature", "properties": { "style": "solid", "thickness": 1 }, "geometry": { "type": "LineString", "coordinates": [ [ -82.42126975, 28.0690635 ], [ -82.421434222222231, 28.071901805555555 ] ] } },
{ "type": "Feature", "properties": { "style": "solid", "thickness": 1 }, "geometry": { "type": "LineString", "coordinates": [ [ -82.421352, 28.07048263888889 ], [ -82.42321, 28.070397944444444 ] ] } },
{ "type": "Feature", "properties": { "style": "solid", "thickness": 1 }, "geometry": { "type": "LineString", "coordinates": [ [ -82.419533944444453, 28.070565527777777 ], [ -82.419603277777782, 28.070998583333335 ], [ -82.419758694444454, 28.071413722222221 ], [ -82.419995194444454, 28.071797555555555 ], [ -82.420305138888892, 28.072137777777776 ], [ -82.420678611111114, 28.072423416666666 ], [ -82.421103583333334, 28.072645333333334 ], [ -82.421566388888891, 28.072796388888889 ], [ -82.422052166666674, 28.072871694444444 ], [ -82.422545305555559, 28.072868861111111 ], [ -82.423029944444451, 28.072787972222223 ], [ -82.423490527777787, 28.07263161111111 ], [ -82.423912222222228, 28.072404833333334 ], [ -82.424281472222233, 28.072114916666667 ], [ -82.424586444444444, 28.071771166666668 ], [ -82.424817305555564, 28.07138463888889 ], [ -82.42496663888889, 28.070967777777778 ], [ -82.425029638888887, 28.070533944444445 ], [ -82.425004333333334, 28.07009711111111 ], [ -82.424891472222228, 28.069671305555556 ], [ -82.424694722222227, 28.069270222222222 ], [ -82.42442038888889, 28.068906722222223 ], [ -82.424077277777783, 28.068592527777778 ], [ -82.423676472222226, 28.068337722222221 ], [ -82.423230777777789, 28.0681505 ], [ -82.422754583333344, 28.068036888888887 ], [ -82.422263166666667, 28.0680005 ], [ -82.421772333333337, 28.068042527777777 ], [ -82.421297833333341, 28.068161611111112 ], [ -82.42085491666667, 28.068353944444443 ], [ -82.420457861111117, 28.068613333333332 ], [ -82.420119388888892, 28.068931444444445 ], [ -82.419850388888889, 28.069298055555556 ], [ -82.4196595, 28.069701361111111 ], [ -82.419552888888887, 28.070128444444443 ], [ -82.419533944444453, 28.070565527777777 ] ] } },
{ "type": "Feature", "properties": { "style": "solid", "thickness": 1 }, "geometry": { "type": "LineString", "coordinates": [ [ -82.494877611111107, 27.983810527777777 ], [ -82.494711361111115, 27.98097225 ] ] } },
{ "type": "Feature", "properties": { "style": "solid", "thickness": 1 }, "geometry": { "type": "LineString", "coordinates": [ [ -82.492854916666673, 27.981057944444444 ], [ -82.493021138888892, 27.983896222222224 ] ] } },
{ "type": "Feature", "properties": { "style": "solid", "thickness": 1 }, "geometry": { "type": "LineString", "coordinates": [ [ -82.492938027777782, 27.982477083333333 ], [ -82.494794472222225, 27.982391388888889 ] ] } },
{ "type": "Feature", "properties": { "style": "solid", "thickness": 1 }, "geometry": { "type": "LineString", "coordinates": [ [ -82.4911215, 27.982560888888887 ], [ -82.491191083333334, 27.982993944444441 ], [ -82.491346638888885, 27.983408972222222 ], [ -82.491583166666672, 27.983792694444446 ], [ -82.491893111111111, 27.984132777777777 ], [ -82.492266472222227, 27.984418222222224 ], [ -82.49269122222222, 27.984639944444446 ], [ -82.493153777777778, 27.98479075 ], [ -82.493639222222228, 27.984865805555557 ], [ -82.494131944444447, 27.984862722222225 ], [ -82.494616166666674, 27.984781583333334 ], [ -82.49507625, 27.984624972222225 ], [ -82.495497444444439, 27.984397972222222 ], [ -82.495866222222219, 27.984107861111113 ], [ -82.496170722222217, 27.983763944444444 ], [ -82.496401138888885, 27.98337727777778 ], [ -82.496550083333332, 27.982960333333331 ], [ -82.49661275, 27.982526472222222 ], [ -82.496587166666671, 27.982089638888887 ], [ -82.496474111111112, 27.981663861111109 ], [ -82.49627725, 27.981262888888889 ], [ -82.496002888888896, 27.980899527777776 ], [ -82.495659888888895, 27.980585527777777 ], [ -82.495259194444444, 27.980330916666666 ], [ -82.494813777777779, 27.980143916666666 ], [ -82.494337888888893, 27.980030527777775 ], [ -82.493846833333336, 27.979994388888887 ], [ -82.493356416666671, 27.980036694444443 ], [ -82.492882388888887, 27.980156027777777 ], [ -82.492439972222229, 27.980348583333331 ], [ -82.492043388888888, 27.980608194444443 ], [ -82.491705388888889, 27.980926472222219 ], [ -82.491436861111112, 27.98129322222222 ], [ -82.491246388888896, 27.981696666666664 ], [ -82.491140138888895, 27.982123777777776 ], [ -82.4911215, 27.982560888888887 ] ] } },
{ "type": "Feature", "properties": { "style": "solid", "thickness": 1 }, "geometry": { "type": "LineString", "coordinates": [ [ -82.460473861111112, 27.940587166666667 ], [ -82.46030858333333, 27.937748833333334 ] ] } },
{ "type": "Feature", "properties": { "style": "solid", "thickness": 1 }, "geometry": { "type": "LineString", "coordinates": [ [ -82.458452861111112, 27.937834055555555 ], [ -82.458618111111107, 27.940672388888888 ] ] } },
{ "type": "Feature", "properties": { "style": "solid", "thickness": 1 }, "geometry": { "type": "LineString", "coordinates": [ [ -82.4585355, 27.939253222222224 ], [ -82.460391222222228, 27.939168 ] ] } },
{ "type": "Feature", "properties": { "style": "solid", "thickness": 1 }, "geometry": { "type": "LineString", "coordinates": [ [ -82.456719638888899, 27.939336583333333 ], [ -82.456789055555561, 27.93976963888889 ], [ -82.456944444444446, 27.940184722222224 ], [ -82.457180777777779, 27.940568527777778 ], [ -82.457490472222219, 27.940908666666665 ], [ -82.457863583333335, 27.941194222222222 ], [ -82.458288111111116, 27.941416027777777 ], [ -82.458750416666675, 27.941566944444446 ], [ -82.459235638888899, 27.941642138888888 ], [ -82.459728194444452, 27.941639166666668 ], [ -82.460212222222225, 27.94155813888889 ], [ -82.460672194444442, 27.941401666666668 ], [ -82.461093305555565, 27.941174777777778 ], [ -82.461462, 27.940884722222222 ], [ -82.461766472222223, 27.94054088888889 ], [ -82.461996944444451, 27.940154305555556 ], [ -82.462145944444444, 27.93973736111111 ], [ -82.46220875, 27.9393035 ], [ -82.462183305555556, 27.938866666666666 ], [ -82.462070416666663, 27.938440888888888 ], [ -82.461873777777782, 27.938039833333335 ], [ -82.461599638888899, 27.937676416666665 ], [ -82.46125686111111, 27.937362305555556 ], [ -82.460856416666672, 27.937107611111113 ], [ -82.46041122222222, 27.9369205 ], [ -82.45993555555556, 27.936807 ], [ -82.45944472222223, 27.93677075 ], [ -82.458954472222231, 27.936812916666668 ], [ -82.458480583333341, 27.936932138888888 ], [ -82.458038305555561, 27.937124583333333 ], [ -82.457641805555554, 27.937384111111111 ], [ -82.457303833333341, 27.937702305555558 ], [ -82.457035277777777, 27.938069 ], [ -82.456844777777775, 27.93847236111111 ], [ -82.456738416666667, 27.938899472222221 ], [ -82.456719638888899, 27.939336583333333 ] ] } }
]
}
