{
"type": "FeatureCollection",
"name": "tpa189sgp",
"features": [
{ "type": "Feature", "properties": { "style": "solid", "thickness": 1 }, "geometry": { "type": "LineString", "coordinates": [ [ -81.88058205555555, 27.615714305555557 ], [ -81.880681805555554, 27.701136555555554 ] ] } },
{ "type": "Feature", "properties": { "style": "solid", "thickness": 1 }, "geometry": { "type": "LineString", "coordinates": [ [ -81.87125011111111, 27.70961125 ], [ -81.79623483333333, 27.70965563888889 ] ] } },
{ "type": "Feature", "properties": { "style": "solid", "thickness": 1 }, "geometry": { "type": "LineString", "coordinates": [ [ -81.89018611111112, 27.709593583333334 ], [ -81.9651505, 27.709498222222223 ] ] } },
{ "type": "Feature", "properties": { "style": "solid", "thickness": 1 }, "geometry": { "type": "LineString", "coordinates": [ [ -82.030354888888894, 27.722824277777775 ], [ -82.029945833333329, 27.715280916666664 ] ] } },
{ "type": "Feature", "properties": { "style": "solid", "thickness": 1 }, "geometry": { "type": "LineString", "coordinates": [ [ -82.024636388888894, 27.72306972222222 ], [ -82.02422775, 27.71552636111111 ] ] } },
{ "type": "Feature", "properties": { "style": "solid", "thickness": 1 }, "geometry": { "type": "LineString", "coordinates": [ [ -82.030163333333334, 27.719292055555552 ], [ -82.024445027777773, 27.719537527777778 ] ] } },
{ "type": "Feature", "properties": { "style": "solid", "thickness": 1 }, "geometry": { "type": "LineString", "coordinates": [ [ -82.021881305555553, 27.723247916666665 ], [ -82.021553888888889, 27.717201222222222 ], [ -82.021470388888886, 27.716904777777778 ], [ -82.020967083333332, 27.716326277777778 ], [ -82.020611277777775, 27.7159815 ], [ -82.020060138888894, 27.715765111111111 ], [ -82.019316888888895, 27.715736944444444 ], [ -82.01824055555555, 27.715783083333331 ], [ -82.017638333333338, 27.715868916666665 ], [ -82.016847277777771, 27.716202833333334 ], [ -82.01639902777778, 27.71664211111111 ], [ -82.016149361111104, 27.717012833333332 ], [ -82.016043972222221, 27.717557416666665 ], [ -82.016364611111115, 27.723484388888888 ] ] } },
{ "type": "Feature", "properties": { "style": "solid", "thickness": 1 }, "geometry": { "type": "LineString", "coordinates": [ [ -82.009729416666673, 27.722988388888886 ], [ -82.010367277777775, 27.723561166666666 ], [ -82.010505055555555, 27.723615277777775 ], [ -82.011386138888895, 27.723697583333333 ], [ -82.012119694444451, 27.723546166666665 ], [ -82.012510416666672, 27.723289416666663 ], [ -82.012897888888887, 27.722972777777777 ], [ -82.013205138888893, 27.722419555555554 ], [ -82.013130694444442, 27.721042583333332 ], [ -82.012697888888894, 27.720521055555555 ], [ -82.012415861111108, 27.720293111111108 ], [ -82.011387305555559, 27.71997711111111 ], [ -82.010227472222226, 27.719726722222219 ], [ -82.00940075, 27.719402055555555 ], [ -82.00911225, 27.719054361111109 ], [ -82.008932416666667, 27.718221972222221 ], [ -82.009024916666661, 27.717437916666665 ], [ -82.009335388888886, 27.716944583333333 ], [ -82.00965880555556, 27.716690694444441 ], [ -82.009918194444438, 27.716499583333334 ], [ -82.010244861111104, 27.716305583333334 ], [ -82.010975138888895, 27.716094305555554 ], [ -82.011378777777779, 27.716077027777779 ], [ -82.011788888888887, 27.716179472222223 ], [ -82.01234, 27.716395916666666 ], [ -82.012689333333327, 27.71662097222222 ], [ -82.013186138888884, 27.71707975 ] ] } },
{ "type": "Feature", "properties": { "style": "solid", "thickness": 1 }, "geometry": { "type": "LineString", "coordinates": [ [ -82.005996972222221, 27.716307305555556 ], [ -82.00412019444444, 27.724008416666663 ], [ -82.00088425, 27.716525888888889 ], [ -81.998939833333338, 27.724229805555552 ], [ -81.996040611111113, 27.716732805555555 ] ] } },
{ "type": "Feature", "properties": { "style": "solid", "thickness": 1 }, "geometry": { "type": "LineString", "coordinates": [ [ -81.993282388888886, 27.716850527777776 ], [ -81.989991861111108, 27.72461175 ], [ -81.986084138888884, 27.717157555555556 ] ] } },
{ "type": "Feature", "properties": { "style": "solid", "thickness": 1 }, "geometry": { "type": "LineString", "coordinates": [ [ -81.992203722222229, 27.719356833333332 ], [ -81.987359944444449, 27.719563444444443 ] ] } },
{ "type": "Feature", "properties": { "style": "solid", "thickness": 1 }, "geometry": { "type": "LineString", "coordinates": [ [ -81.89747225, 27.736931694444447 ], [ -81.897875416666679, 27.74453525 ] ] } },
{ "type": "Feature", "properties": { "style": "solid", "thickness": 1 }, "geometry": { "type": "LineString", "coordinates": [ [ -81.890566611111112, 27.744061805555557 ], [ -81.891203944444456, 27.744635111111112 ], [ -81.891341722222222, 27.744689333333334 ], [ -81.892222861111122, 27.74477238888889 ], [ -81.892956722222223, 27.744621611111111 ], [ -81.893347805555564, 27.744365194444445 ], [ -81.893735694444445, 27.744048916666667 ], [ -81.894043583333342, 27.743495972222224 ], [ -81.893970611111115, 27.742118944444446 ], [ -81.893538333333339, 27.741597055555555 ], [ -81.893256472222234, 27.741368861111113 ], [ -81.892228083333336, 27.741051972222223 ], [ -81.891068305555564, 27.740800583333336 ], [ -81.890241777777788, 27.740475194444446 ], [ -81.889953611111125, 27.740127277777777 ], [ -81.889774638888895, 27.739294722222223 ], [ -81.889868, 27.73851077777778 ], [ -81.890179083333337, 27.738017694444444 ], [ -81.890502861111116, 27.737764111111112 ], [ -81.8907625, 27.737573222222224 ], [ -81.891089416666674, 27.7373795 ], [ -81.891820055555556, 27.737168861111112 ], [ -81.89222380555556, 27.737151916666669 ], [ -81.892633861111122, 27.737254722222222 ], [ -81.893184861111123, 27.737471638888891 ], [ -81.893534, 27.737697 ], [ -81.894030388888893, 27.738156194444446 ] ] } },
{ "type": "Feature", "properties": { "style": "solid", "thickness": 1 }, "geometry": { "type": "LineString", "coordinates": [ [ -81.887243194444451, 27.744981111111112 ], [ -81.886923138888889, 27.738934194444447 ], [ -81.88684, 27.738637666666669 ], [ -81.886337305555557, 27.738058694444444 ], [ -81.885981861111119, 27.737713555555555 ], [ -81.885430888888891, 27.737496638888889 ], [ -81.884687527777785, 27.73746777777778 ], [ -81.883610916666669, 27.737512861111114 ], [ -81.883008499999988, 27.737598083333335 ], [ -81.882216861111104, 27.73793125 ], [ -81.881768027777767, 27.738370055555556 ], [ -81.881517861111107, 27.738740555555555 ], [ -81.881411777777771, 27.739285027777779 ], [ -81.881725194444442, 27.745212222222221 ] ] } },
{ "type": "Feature", "properties": { "style": "solid", "thickness": 1 }, "geometry": { "type": "LineString", "coordinates": [ [ -81.878898888888884, 27.745330472222225 ], [ -81.87526716666666, 27.737862 ], [ -81.872573305555548, 27.745595 ] ] } },
{ "type": "Feature", "properties": { "style": "solid", "thickness": 1 }, "geometry": { "type": "LineString", "coordinates": [ [ -81.865642083333327, 27.7458845 ], [ -81.869747, 27.745713083333335 ], [ -81.86934575, 27.738109472222224 ], [ -81.86517383333333, 27.738283694444444 ] ] } },
{ "type": "Feature", "properties": { "style": "solid", "thickness": 1 }, "geometry": { "type": "LineString", "coordinates": [ [ -81.869544777777776, 27.741881333333335 ], [ -81.8655746111111, 27.742047138888889 ] ] } },
{ "type": "Feature", "properties": { "style": "solid", "thickness": 1 }, "geometry": { "type": "LineString", "coordinates": [ [ -81.772798111111115, 27.725036472222222 ], [ -81.772465777777782, 27.718630111111111 ], [ -81.772514416666667, 27.718268111111108 ], [ -81.77283216666666, 27.717895055555555 ], [ -81.773220305555554, 27.71757908333333 ], [ -81.773483222222225, 27.717448305555553 ], [ -81.773883777777783, 27.717371833333331 ], [ -81.774556555555549, 27.717344194444443 ], [ -81.774963333333332, 27.717387472222221 ], [ -81.775590583333326, 27.717781694444444 ], [ -81.775734472222226, 27.717955777777775 ] ] } },
{ "type": "Feature", "properties": { "style": "solid", "thickness": 1 }, "geometry": { "type": "LineString", "coordinates": [ [ -81.765262416666673, 27.725345833333332 ], [ -81.766473527777777, 27.725296138888886 ], [ -81.767075972222216, 27.725211416666664 ], [ -81.768259111111107, 27.724622861111108 ], [ -81.769350166666669, 27.72355808333333 ], [ -81.7697135, 27.722763166666667 ], [ -81.769865666666661, 27.721796888888885 ], [ -81.769825305555557, 27.721018555555553 ], [ -81.7696535, 27.720305611111108 ], [ -81.76927675, 27.719541083333333 ], [ -81.768487, 27.7186135 ], [ -81.768202388888895, 27.718325166666666 ], [ -81.767645527777773, 27.717988027777775 ], [ -81.766483194444447, 27.71767575 ], [ -81.765070333333327, 27.717733722222221 ], [ -81.76440375, 27.717881055555555 ], [ -81.763743361111111, 27.718148138888886 ], [ -81.763349, 27.718344333333331 ], [ -81.76270102777778, 27.718850888888888 ], [ -81.762132694444446, 27.719594194444444 ], [ -81.761955666666665, 27.720081472222219 ], [ -81.761800333333326, 27.720987833333332 ], [ -81.761874722222217, 27.722424777777775 ], [ -81.762554666666674, 27.723836888888886 ], [ -81.762983166666672, 27.724299333333331 ], [ -81.763475861111118, 27.724699111111111 ], [ -81.763962333333339, 27.724979166666664 ], [ -81.7641, 27.725033527777775 ], [ -81.765262416666673, 27.725345833333332 ] ] } },
{ "type": "Feature", "properties": { "style": "solid", "thickness": 1 }, "geometry": { "type": "LineString", "coordinates": [ [ -81.758880722222216, 27.717987527777776 ], [ -81.759274222222217, 27.725591388888887 ], [ -81.756448305555551, 27.725707166666666 ], [ -81.755842777777772, 27.725731972222221 ], [ -81.755353194444439, 27.725392 ], [ -81.754995111111114, 27.724986666666666 ], [ -81.754982722222223, 27.724747194444443 ], [ -81.754920805555557, 27.72354972222222 ], [ -81.754978777777779, 27.723367361111109 ], [ -81.755155861111106, 27.72288011111111 ], [ -81.755797722222226, 27.722253805555553 ], [ -81.75510633333333, 27.721922138888885 ], [ -81.754760638888882, 27.721756305555555 ], [ -81.75440875, 27.721470694444442 ], [ -81.754179027777781, 27.720940111111108 ], [ -81.754098555555558, 27.719383416666666 ], [ -81.754278722222224, 27.718956027777775 ], [ -81.75473108333334, 27.7185775 ], [ -81.755055111111105, 27.71832425 ], [ -81.755382222222224, 27.71813086111111 ], [ -81.758880722222216, 27.717987527777776 ] ] } },
{ "type": "Feature", "properties": { "style": "solid", "thickness": 1 }, "geometry": { "type": "LineString", "coordinates": [ [ -81.7590945, 27.72211875 ], [ -81.755797722222226, 27.722253805555553 ] ] } },
{ "type": "Feature", "properties": { "style": "solid", "thickness": 1 }, "geometry": { "type": "LineString", "coordinates": [ [ -81.751603888888894, 27.7259055 ], [ -81.747981527777782, 27.71843375 ], [ -81.745279222222223, 27.726164194444443 ] ] } },
{ "type": "Feature", "properties": { "style": "solid", "thickness": 1 }, "geometry": { "type": "LineString", "coordinates": [ [ -81.74212822222222, 27.718673055555556 ], [ -81.738819944444444, 27.726428111111108 ], [ -81.734929305555553, 27.718967027777776 ] ] } },
{ "type": "Feature", "properties": { "style": "solid", "thickness": 1 }, "geometry": { "type": "LineString", "coordinates": [ [ -81.741043833333336, 27.721177333333333 ], [ -81.736199583333331, 27.721375138888888 ] ] } },
{ "type": "Feature", "properties": { "style": "solid", "thickness": 1 }, "geometry": { "type": "LineString", "coordinates": [ [ -81.86527363888888, 27.616112611111113 ], [ -81.862587972222215, 27.608604361111112 ], [ -81.8601653611111, 27.616326027777781 ], [ -81.857412805555555, 27.6088205 ], [ -81.855325888888885, 27.616528055555555 ] ] } },
{ "type": "Feature", "properties": { "style": "solid", "thickness": 1 }, "geometry": { "type": "LineString", "coordinates": [ [ -81.852170416666667, 27.60903925 ], [ -81.84887327777777, 27.616797166666668 ], [ -81.844978916666662, 27.609339027777779 ] ] } },
{ "type": "Feature", "properties": { "style": "solid", "thickness": 1 }, "geometry": { "type": "LineString", "coordinates": [ [ -81.85108963888888, 27.611544472222224 ], [ -81.84625038888889, 27.611746194444446 ] ] } },
{ "type": "Feature", "properties": { "style": "solid", "thickness": 1 }, "geometry": { "type": "LineString", "coordinates": [ [ -81.84255505555555, 27.617060361111111 ], [ -81.837715555555548, 27.617261777777777 ] ] } },
{ "type": "Feature", "properties": { "style": "solid", "thickness": 1 }, "geometry": { "type": "LineString", "coordinates": [ [ -81.840202527777777, 27.617158305555556 ], [ -81.839803694444441, 27.6095545 ] ] } },
{ "type": "Feature", "properties": { "style": "solid", "thickness": 1 }, "geometry": { "type": "LineString", "coordinates": [ [ -81.834494055555552, 27.609775388888892 ], [ -81.8348925, 27.617379194444446 ], [ -81.831531722222223, 27.617518888888888 ], [ -81.831256583333328, 27.617410305555556 ], [ -81.830639111111111, 27.617195972222223 ], [ -81.830002805555552, 27.616622361111112 ], [ -81.829702611111102, 27.616034805555557 ], [ -81.829664972222218, 27.615316333333336 ], [ -81.8299025, 27.614706444444447 ], [ -81.83047605555555, 27.614082583333335 ], [ -81.831068444444441, 27.613817972222222 ], [ -81.831331027777779, 27.613687055555555 ], [ -81.834691694444444, 27.613547361111113 ] ] } },
{ "type": "Feature", "properties": { "style": "solid", "thickness": 1 }, "geometry": { "type": "LineString", "coordinates": [ [ -81.82696102777777, 27.61770875 ], [ -81.826644583333334, 27.611661611111114 ], [ -81.826561722222223, 27.611365027777779 ], [ -81.826059916666665, 27.610785861111111 ], [ -81.825705055555545, 27.610440555555556 ], [ -81.825154833333329, 27.61022338888889 ], [ -81.824412361111101, 27.610194222222223 ], [ -81.823337, 27.610238833333334 ], [ -81.822735222222221, 27.610323805555556 ], [ -81.821944333333334, 27.610656638888891 ], [ -81.82149575, 27.611095277777778 ], [ -81.821245694444443, 27.611465666666668 ], [ -81.821139444444441, 27.612010111111111 ], [ -81.821449333333334, 27.6179375 ] ] } },
{ "type": "Feature", "properties": { "style": "solid", "thickness": 1 }, "geometry": { "type": "LineString", "coordinates": [ [ -81.969334916666668, 27.709462416666668 ], [ -81.969415027777785, 27.710296805555554 ], [ -81.969661277777774, 27.711105055555556 ], [ -81.97006572222223, 27.711861194444445 ], [ -81.970615388888888, 27.712540888888888 ], [ -81.97129261111111, 27.713122305555554 ], [ -81.972075583333336, 27.713586777777778 ], [ -81.972939166666663, 27.713919333333333 ], [ -81.973855611111119, 27.714109333333333 ], [ -81.974795444444453, 27.714150638888889 ], [ -81.975728472222229, 27.714041916666666 ], [ -81.976624666666666, 27.713786666666667 ], [ -81.977455277777779, 27.71339311111111 ], [ -81.978193527777776, 27.71287388888889 ], [ -81.978815777777783, 27.712245694444444 ], [ -81.979301944444444, 27.711528694444443 ], [ -81.979636472222225, 27.71074597222222 ], [ -81.979808555555564, 27.709922666666667 ], [ -81.979812722222221, 27.70908525 ], [ -81.979648805555556, 27.708260611111111 ], [ -81.979322055555556, 27.707475305555555 ], [ -81.978843055555558, 27.706754527777775 ], [ -81.97822711111111, 27.706121444444445 ], [ -81.97749408333334, 27.705596416666666 ], [ -81.976667527777778, 27.705196305555553 ], [ -81.975773972222228, 27.704934 ], [ -81.974842138888889, 27.70481788888889 ], [ -81.973902027777783, 27.70485175 ], [ -81.972983777777785, 27.705034444444443 ], [ -81.972116944444451, 27.705360138888889 ], [ -81.97132938888889, 27.705818333333333 ], [ -81.970646388888895, 27.706394333333332 ], [ -81.970089916666666, 27.707069611111109 ], [ -81.969677861111109, 27.707822472222222 ], [ -81.969423472222218, 27.708628722222223 ], [ -81.969334916666668, 27.709462416666668 ] ] } },
{ "type": "Feature", "properties": { "style": "solid", "thickness": 1 }, "geometry": { "type": "LineString", "coordinates": [ [ -81.962437194444448, 27.70999886111111 ], [ -81.964755777777782, 27.709618 ], [ -81.966955333333331, 27.708862333333332 ], [ -81.968960083333329, 27.707757888888889 ], [ -81.970700944444445, 27.706342777777778 ], [ -81.972118, 27.704665694444444 ], [ -81.973162388888895, 27.702784444444443 ], [ -81.973798194444441, 27.700763805555553 ], [ -81.974003527777782, 27.698673388888889 ] ] } },
{ "type": "Feature", "properties": { "style": "solid", "thickness": 1 }, "geometry": { "type": "LineString", "coordinates": [ [ -81.974003527777782, 27.698673388888889 ], [ -81.974431638888888, 27.700736888888887 ], [ -81.975280833333329, 27.702694416666667 ], [ -81.976521805555564, 27.704478583333334 ], [ -81.978111916666663, 27.706027888888887 ], [ -81.979996305555559, 27.707289 ], [ -81.982110138888885, 27.708218416666664 ], [ -81.984380583333333, 27.708784166666668 ], [ -81.986729361111117, 27.708966722222222 ] ] } },
{ "type": "Feature", "properties": { "style": "solid", "thickness": 1 }, "geometry": { "type": "LineString", "coordinates": [ [ -81.97516325, 27.720293277777778 ], [ -81.975368583333335, 27.718202861111109 ], [ -81.976004444444442, 27.716182222222223 ], [ -81.977048888888888, 27.714300916666666 ], [ -81.978465944444451, 27.712623777777775 ], [ -81.98020675, 27.711208527777778 ], [ -81.982211416666672, 27.710103916666665 ], [ -81.984410861111115, 27.709347972222222 ], [ -81.986729361111117, 27.708966722222222 ] ] } },
{ "type": "Feature", "properties": { "style": "solid", "thickness": 1 }, "geometry": { "type": "LineString", "coordinates": [ [ -81.97516325, 27.720293277777778 ], [ -81.974735027777783, 27.718229777777776 ], [ -81.97388575, 27.716272222222223 ], [ -81.972644666666667, 27.714488055555556 ], [ -81.971054527777781, 27.712938666666666 ], [ -81.969170138888884, 27.71167747222222 ], [ -81.967056361111119, 27.710747833333333 ], [ -81.964785972222231, 27.710181805555553 ], [ -81.962437194444448, 27.70999886111111 ] ] } },
{ "type": "Feature", "properties": { "style": "solid", "thickness": 1 }, "geometry": { "type": "LineString", "coordinates": [ [ -81.875443277777777, 27.709578305555556 ], [ -81.875522694444442, 27.71041275 ], [ -81.87576825, 27.711221166666665 ], [ -81.876172055555543, 27.711977555555556 ], [ -81.876721138888882, 27.712657611111112 ], [ -81.877397833333333, 27.7132395 ], [ -81.878180416666666, 27.7137045 ], [ -81.879043722222221, 27.71403763888889 ], [ -81.87996, 27.71422825 ], [ -81.880899777777771, 27.714270194444445 ], [ -81.88183288888888, 27.714162111111111 ], [ -81.882729305555543, 27.713907472222221 ], [ -81.88356025, 27.713514472222222 ], [ -81.884298944444453, 27.71299575 ], [ -81.884921722222231, 27.712367972222221 ], [ -81.885408500000011, 27.711651333333332 ], [ -81.885743694444457, 27.710868833333333 ], [ -81.8859165, 27.710045666666666 ], [ -81.885921361111116, 27.70920825 ], [ -81.885758138888889, 27.7083835 ], [ -81.885432083333342, 27.707597972222221 ], [ -81.884953694444448, 27.706876861111109 ], [ -81.884338305555559, 27.70624338888889 ], [ -81.883605722222228, 27.705717861111111 ], [ -81.8827795, 27.705317194444444 ], [ -81.881886194444434, 27.705054277777776 ], [ -81.880954472222214, 27.704937555555556 ], [ -81.880014305555548, 27.70497075 ], [ -81.879095916666657, 27.705152833333333 ], [ -81.878228833333324, 27.705477916666666 ], [ -81.877440861111111, 27.705935583333332 ], [ -81.876757388888876, 27.706511138888889 ], [ -81.87620033333333, 27.707186027777777 ], [ -81.87578763888888, 27.707938611111111 ], [ -81.875532555555552, 27.708744666666664 ], [ -81.875443277777777, 27.709578305555556 ] ] } },
{ "type": "Feature", "properties": { "style": "solid", "thickness": 1 }, "geometry": { "type": "LineString", "coordinates": [ [ -81.868545166666664, 27.710110083333333 ], [ -81.870864055555543, 27.709730777777779 ], [ -81.87306425, 27.708976611111112 ], [ -81.875069916666661, 27.707873555555555 ], [ -81.876812, 27.706459611111111 ], [ -81.878230444444441, 27.7047835 ], [ -81.879276472222216, 27.702902972222223 ], [ -81.879914, 27.700882777777778 ], [ -81.880121111111109, 27.6987925 ] ] } },
{ "type": "Feature", "properties": { "style": "solid", "thickness": 1 }, "geometry": { "type": "LineString", "coordinates": [ [ -81.880121111111109, 27.6987925 ], [ -81.880547472222219, 27.700856277777778 ], [ -81.881394972222211, 27.702814388888889 ], [ -81.882634416666662, 27.704599388888887 ], [ -81.884223166666672, 27.70614975 ], [ -81.886106500000011, 27.707412111111111 ], [ -81.888219527777778, 27.708342972222223 ], [ -81.890489444444455, 27.70891025 ], [ -81.892838083333345, 27.709094416666666 ] ] } },
{ "type": "Feature", "properties": { "style": "solid", "thickness": 1 }, "geometry": { "type": "LineString", "coordinates": [ [ -81.881262333333325, 27.720413027777777 ], [ -81.881469472222221, 27.718322777777775 ], [ -81.882107055555551, 27.716302583333334 ], [ -81.883153083333326, 27.714422 ], [ -81.884571555555567, 27.712745833333333 ], [ -81.886313583333333, 27.711331777777776 ], [ -81.888319166666676, 27.710228527777776 ], [ -81.890519250000011, 27.709474083333333 ], [ -81.892838083333345, 27.709094416666666 ] ] } },
{ "type": "Feature", "properties": { "style": "solid", "thickness": 1 }, "geometry": { "type": "LineString", "coordinates": [ [ -81.881262333333325, 27.720413027777777 ], [ -81.880835888888882, 27.71834925 ], [ -81.87998827777777, 27.716391166666664 ], [ -81.878748722222213, 27.71460613888889 ], [ -81.877159944444443, 27.713055694444442 ], [ -81.875276611111104, 27.711793222222223 ], [ -81.873163638888883, 27.710862166666665 ], [ -81.870893777777766, 27.710294611111109 ], [ -81.868545166666664, 27.710110083333333 ] ] } },
{ "type": "Feature", "properties": { "style": "solid", "thickness": 1 }, "geometry": { "type": "LineString", "coordinates": [ [ -81.781551694444445, 27.709630305555557 ], [ -81.781630388888885, 27.710464805555556 ], [ -81.78187525, 27.711273361111111 ], [ -81.782278388888884, 27.712030027777779 ], [ -81.782826888888891, 27.712710444444443 ], [ -81.783503083333329, 27.713292777777777 ], [ -81.78428525, 27.713758305555555 ], [ -81.785148277777779, 27.714092055555554 ], [ -81.786064388888889, 27.714283277777778 ], [ -81.787004138888889, 27.714325833333334 ], [ -81.787937305555559, 27.714218388888888 ], [ -81.788833944444448, 27.71396436111111 ], [ -81.789665194444439, 27.713571944444443 ], [ -81.790404361111115, 27.71305372222222 ], [ -81.791027638888892, 27.71242638888889 ], [ -81.79151505555555, 27.711710055555553 ], [ -81.791850888888888, 27.710927805555556 ], [ -81.79202438888889, 27.71010475 ], [ -81.79203, 27.709267333333333 ], [ -81.791867472222222, 27.7084425 ], [ -81.791542111111113, 27.70765675 ], [ -81.791064305555551, 27.706935333333334 ], [ -81.790449472222221, 27.706301444444442 ], [ -81.789717361111116, 27.705775416666665 ], [ -81.7888915, 27.705374222222222 ], [ -81.78799838888888, 27.705110694444443 ], [ -81.787066805555554, 27.704993333333334 ], [ -81.786126611111115, 27.705025888888887 ], [ -81.78520808333333, 27.705207333333334 ], [ -81.784340694444438, 27.705531861111112 ], [ -81.783552361111106, 27.705988972222222 ], [ -81.782868388888886, 27.706564055555553 ], [ -81.782310777777781, 27.707238555555556 ], [ -81.781897444444439, 27.707990833333334 ], [ -81.781641666666673, 27.708796722222221 ], [ -81.781551694444445, 27.709630305555557 ] ] } },
{ "type": "Feature", "properties": { "style": "solid", "thickness": 1 }, "geometry": { "type": "LineString", "coordinates": [ [ -81.774653138888894, 27.710157388888888 ], [ -81.776972361111106, 27.709779666666666 ], [ -81.779173166666666, 27.709027 ], [ -81.78117977777778, 27.707925305555555 ], [ -81.782923055555557, 27.706512555555555 ], [ -81.784342944444447, 27.704837416666667 ], [ -81.785390527777778, 27.70295761111111 ], [ -81.78602977777777, 27.700937861111111 ], [ -81.786238694444449, 27.698847777777779 ] ] } },
{ "type": "Feature", "properties": { "style": "solid", "thickness": 1 }, "geometry": { "type": "LineString", "coordinates": [ [ -81.786238694444449, 27.698847777777779 ], [ -81.786663277777777, 27.700911805555556 ], [ -81.787509083333333, 27.702870472222223 ], [ -81.788747027777774, 27.704656277777776 ], [ -81.79033444444444, 27.706207722222221 ], [ -81.792216666666661, 27.707471361111111 ], [ -81.794328861111111, 27.708403638888889 ], [ -81.796598305555548, 27.708972444444445 ], [ -81.79894675, 27.709158194444445 ] ] } },
{ "type": "Feature", "properties": { "style": "solid", "thickness": 1 }, "geometry": { "type": "LineString", "coordinates": [ [ -81.787361388888883, 27.720468888888888 ], [ -81.787570333333335, 27.718378777777776 ], [ -81.788209638888887, 27.716359027777777 ], [ -81.789257277777779, 27.714479194444444 ], [ -81.790677166666669, 27.712804 ], [ -81.792420388888885, 27.711391138888889 ], [ -81.794426916666666, 27.71028925 ], [ -81.796627638888893, 27.709536305555556 ], [ -81.79894675, 27.709158194444445 ] ] } },
{ "type": "Feature", "properties": { "style": "solid", "thickness": 1 }, "geometry": { "type": "LineString", "coordinates": [ [ -81.787361388888883, 27.720468888888888 ], [ -81.786936722222222, 27.718404833333331 ], [ -81.78609080555556, 27.716446166666667 ], [ -81.784852805555559, 27.714660333333331 ], [ -81.783265333333333, 27.713108833333333 ], [ -81.781383111111111, 27.711845083333333 ], [ -81.779270972222221, 27.710912611111109 ], [ -81.77700158333333, 27.710343527777777 ], [ -81.774653138888894, 27.710157388888888 ] ] } },
{ "type": "Feature", "properties": { "style": "solid", "thickness": 1 }, "geometry": { "type": "LineString", "coordinates": [ [ -81.875328722222221, 27.607283916666667 ], [ -81.875408083333326, 27.608118361111114 ], [ -81.875653416666665, 27.608926777777778 ], [ -81.876056833333323, 27.609683166666667 ], [ -81.876605416666663, 27.61036325 ], [ -81.8772815, 27.610945138888891 ], [ -81.878063361111103, 27.611410111111113 ], [ -81.878925861111099, 27.61174327777778 ], [ -81.879841277777771, 27.611933888888892 ], [ -81.880780194444441, 27.611975805555556 ], [ -81.881712444444432, 27.611867722222225 ], [ -81.882608027777778, 27.611613083333335 ], [ -81.883438166666679, 27.611220083333336 ], [ -81.884176166666677, 27.610701333333335 ], [ -81.884798361111123, 27.610073555555555 ], [ -81.885284694444451, 27.60935688888889 ], [ -81.885619555555564, 27.60857438888889 ], [ -81.885792194444448, 27.607751166666667 ], [ -81.885797055555557, 27.60691375 ], [ -81.885633972222223, 27.606089 ], [ -81.885308222222235, 27.605303472222225 ], [ -81.88483025, 27.604582361111113 ], [ -81.88421544444445, 27.603948861111114 ], [ -81.883483527777784, 27.603423333333335 ], [ -81.882658083333325, 27.603022694444444 ], [ -81.881765583333333, 27.602759777777781 ], [ -81.88083475, 27.602643027777781 ], [ -81.879895472222216, 27.60267625 ], [ -81.878977916666656, 27.602858333333334 ], [ -81.878111638888882, 27.603183444444447 ], [ -81.877324416666653, 27.603641111111113 ], [ -81.876641583333324, 27.60421666666667 ], [ -81.876085055555549, 27.604891583333334 ], [ -81.87567275, 27.605644166666668 ], [ -81.875417916666663, 27.60645025 ], [ -81.875328722222221, 27.607283916666667 ] ] } },
{ "type": "Feature", "properties": { "style": "solid", "thickness": 1 }, "geometry": { "type": "LineString", "coordinates": [ [ -81.868437027777773, 27.607815722222224 ], [ -81.87075375, 27.607436388888889 ], [ -81.872951888888878, 27.606682194444446 ], [ -81.874955694444438, 27.605579111111112 ], [ -81.876696138888889, 27.604165138888892 ], [ -81.87811325, 27.602489 ], [ -81.879158277777776, 27.600608444444447 ], [ -81.879795194444441, 27.598588194444442 ], [ -81.880002111111111, 27.596497916666664 ] ] } },
{ "type": "Feature", "properties": { "style": "solid", "thickness": 1 }, "geometry": { "type": "LineString", "coordinates": [ [ -81.880002111111111, 27.596497916666664 ], [ -81.880428083333328, 27.598561722222222 ], [ -81.881274805555549, 27.600519833333333 ], [ -81.882513111111109, 27.602304833333335 ], [ -81.884100416666669, 27.603855222222222 ], [ -81.885982, 27.605117611111112 ], [ -81.888093055555558, 27.606048444444447 ], [ -81.890360888888893, 27.606615722222223 ], [ -81.892707333333334, 27.606799861111114 ] ] } },
{ "type": "Feature", "properties": { "style": "solid", "thickness": 1 }, "geometry": { "type": "LineString", "coordinates": [ [ -81.881142444444436, 27.618118722222224 ], [ -81.881349361111106, 27.616028444444446 ], [ -81.88198633333333, 27.614008222222225 ], [ -81.883031388888881, 27.612127611111113 ], [ -81.884448527777778, 27.610451416666667 ], [ -81.886188916666669, 27.609037333333333 ], [ -81.888192638888896, 27.607934055555557 ], [ -81.890390666666676, 27.607179555555557 ], [ -81.892707333333334, 27.606799861111114 ] ] } },
{ "type": "Feature", "properties": { "style": "solid", "thickness": 1 }, "geometry": { "type": "LineString", "coordinates": [ [ -81.881142444444436, 27.618118722222224 ], [ -81.880716388888885, 27.616054944444446 ], [ -81.879869555555544, 27.614096805555558 ], [ -81.878631138888878, 27.61231177777778 ], [ -81.877043805555545, 27.610761333333336 ], [ -81.875162249999988, 27.609498861111113 ], [ -81.873051222222216, 27.608567805555555 ], [ -81.870783444444442, 27.60800025 ], [ -81.868437027777773, 27.607815722222224 ] ] } },
{ "type": "Feature", "properties": { "style": "solid", "thickness": 1 }, "geometry": { "type": "LineString", "coordinates": [ [ -81.885947472222227, 27.732239444444442 ], [ -81.885966472222222, 27.732598666666664 ], [ -81.885854083333342, 27.733023416666665 ], [ -81.885613444444445, 27.733573527777779 ], [ -81.885363305555558, 27.733944 ], [ -81.884972277777791, 27.734200416666667 ], [ -81.884440305555557, 27.734342694444447 ], [ -81.883431027777789, 27.734384972222223 ], [ -81.882684527777769, 27.734296222222223 ], [ -81.882338611111109, 27.734130694444445 ], [ -81.881845444444437, 27.733731305555555 ], [ -81.881695055555554, 27.733437583333334 ], [ -81.881535138888879, 27.73296425 ], [ -81.8814845, 27.732006333333331 ], [ -81.881600083333325, 27.731641472222222 ], [ -81.882139138888888, 27.73035883333333 ], [ -81.882902222222214, 27.729486833333333 ], [ -81.884120444444449, 27.72829575 ], [ -81.885588750000011, 27.726734166666667 ], [ -81.88135, 27.726911694444443 ] ] } },
{ "type": "Feature", "properties": { "style": "solid", "thickness": 1 }, "geometry": { "type": "LineString", "coordinates": [ [ -81.878424194444435, 27.732794444444444 ], [ -81.878382222222214, 27.733276222222219 ], [ -81.878263472222216, 27.733581222222224 ], [ -81.877820944444437, 27.73413975 ], [ -81.877429861111111, 27.734396111111113 ], [ -81.877038805555543, 27.7346525 ], [ -81.87643955555555, 27.734797555555556 ], [ -81.876103111111107, 27.734811638888889 ], [ -81.875356638888888, 27.734722861111113 ], [ -81.874728916666655, 27.734329083333336 ], [ -81.874303083333331, 27.733926861111112 ], [ -81.874216833333321, 27.733570444444446 ], [ -81.874153583333324, 27.732373027777776 ], [ -81.87440375, 27.732002555555553 ], [ -81.874852611111109, 27.731563777777776 ], [ -81.875432888888881, 27.731059472222221 ], [ -81.875903888888885, 27.731039777777777 ] ] } },
{ "type": "Feature", "properties": { "style": "solid", "thickness": 1 }, "geometry": { "type": "LineString", "coordinates": [ [ -81.875432888888881, 27.731059472222221 ], [ -81.874603333333326, 27.730674138888887 ], [ -81.874321555555554, 27.730445916666664 ], [ -81.873963, 27.730040888888887 ], [ -81.87388625, 27.729864083333332 ], [ -81.8737905, 27.729328055555555 ], [ -81.873781027777767, 27.729148444444444 ], [ -81.873823, 27.728666666666665 ], [ -81.8739386111111, 27.728301805555553 ], [ -81.874252888888876, 27.727868638888886 ], [ -81.87464077777777, 27.727552416666665 ], [ -81.875294638888889, 27.727165055555552 ], [ -81.876842111111102, 27.727100333333333 ], [ -81.877322583333324, 27.72726025 ], [ -81.878088, 27.72770825 ], [ -81.878228888888884, 27.727822361111109 ], [ -81.878462361111104, 27.728412611111111 ], [ -81.878475027777768, 27.72865211111111 ] ] } }
]
}
