{
"type": "FeatureCollection",
"name": "tpa112sgp",
"features": [
{ "type": "Feature", "properties": { "style": "solid", "thickness": 1 }, "geometry": { "type": "LineString", "coordinates": [ [ -82.1338535, 28.662001805555555 ], [ -82.129273638888876, 28.636496027777778 ] ] } },
{ "type": "Feature", "properties": { "style": "solid", "thickness": 1 }, "geometry": { "type": "LineString", "coordinates": [ [ -82.14596819444445, 28.64718222222222 ], [ -82.11705425, 28.651222194444443 ] ] } },
{ "type": "Feature", "properties": { "style": "solid", "thickness": 1 }, "geometry": { "type": "LineString", "coordinates": [ [ -82.123346361111103, 28.159521 ], [ -82.137645, 28.182124694444447 ] ] } },
{ "type": "Feature", "properties": { "style": "solid", "thickness": 1 }, "geometry": { "type": "LineString", "coordinates": [ [ -81.932764583333338, 28.263904888888888 ], [ -81.906900972222232, 28.276076527777779 ] ] } },
{ "type": "Feature", "properties": { "style": "solid", "thickness": 1 }, "geometry": { "type": "LineString", "coordinates": [ [ -82.14350541666667, 28.164808722222222 ], [ -82.11768925, 28.177020166666669 ] ] } },
{ "type": "Feature", "properties": { "style": "solid", "thickness": 1 }, "geometry": { "type": "LineString", "coordinates": [ [ -81.92399625, 28.257629444444444 ], [ -81.915772333333337, 28.282536916666665 ] ] } },
{ "type": "Feature", "properties": { "style": "solid", "thickness": 1 }, "geometry": { "type": "LineString", "coordinates": [ [ -82.105193388888878, 28.5010715 ], [ -82.10976175, 28.526579166666664 ] ] } },
{ "type": "Feature", "properties": { "style": "solid", "thickness": 1 }, "geometry": { "type": "LineString", "coordinates": [ [ -82.416803277777788, 28.170378472222222 ], [ -82.442768138888894, 28.182230694444446 ] ] } },
{ "type": "Feature", "properties": { "style": "solid", "thickness": 1 }, "geometry": { "type": "LineString", "coordinates": [ [ -82.116912305555545, 28.503951083333334 ], [ -82.09793675, 28.523698638888888 ] ] } },
{ "type": "Feature", "properties": { "style": "solid", "thickness": 1 }, "geometry": { "type": "LineString", "coordinates": [ [ -82.439161027777786, 28.166453972222222 ], [ -82.420303638888896, 28.186247388888891 ] ] } },
{ "type": "Feature", "properties": { "style": "solid", "thickness": 1 }, "geometry": { "type": "LineString", "coordinates": [ [ -82.486564111111107, 27.580618555555557 ], [ -82.47288972222222, 27.557774944444446 ] ] } },
{ "type": "Feature", "properties": { "style": "solid", "thickness": 1 }, "geometry": { "type": "LineString", "coordinates": [ [ -82.411279138888901, 27.69997877777778 ], [ -82.433759027777782, 27.683673611111111 ] ] } },
{ "type": "Feature", "properties": { "style": "solid", "thickness": 1 }, "geometry": { "type": "LineString", "coordinates": [ [ -82.469582388888895, 27.57840911111111 ], [ -82.490074138888886, 27.559984083333333 ] ] } },
{ "type": "Feature", "properties": { "style": "solid", "thickness": 1 }, "geometry": { "type": "LineString", "coordinates": [ [ -82.273385833333336, 27.585497694444442 ], [ -82.287849666666659, 27.563055361111111 ] ] } },
{ "type": "Feature", "properties": { "style": "solid", "thickness": 1 }, "geometry": { "type": "LineString", "coordinates": [ [ -82.131588583333325, 27.465178861111109 ], [ -82.137235638888896, 27.439882277777777 ] ] } },
{ "type": "Feature", "properties": { "style": "solid", "thickness": 1 }, "geometry": { "type": "LineString", "coordinates": [ [ -82.14496925, 27.461366583333334 ], [ -82.123857361111106, 27.443693805555554 ] ] } },
{ "type": "Feature", "properties": { "style": "solid", "thickness": 1 }, "geometry": { "type": "LineString", "coordinates": [ [ -82.433123388888887, 27.700640361111109 ], [ -82.411815166666671, 27.683012055555558 ] ] } },
{ "type": "Feature", "properties": { "style": "solid", "thickness": 1 }, "geometry": { "type": "LineString", "coordinates": [ [ -82.291302027777775, 27.58305575 ], [ -82.270039833333328, 27.565405333333334 ] ] } },
{ "type": "Feature", "properties": { "style": "solid", "thickness": 1 }, "geometry": { "type": "LineString", "coordinates": [ [ -82.781896194444442, 28.397026666666665 ], [ -82.787035055555549, 28.422511611111112 ] ] } },
{ "type": "Feature", "properties": { "style": "solid", "thickness": 1 }, "geometry": { "type": "LineString", "coordinates": [ [ -82.85876005555555, 28.18860611111111 ], [ -82.873009277777768, 28.211225111111112 ] ] } },
{ "type": "Feature", "properties": { "style": "solid", "thickness": 1 }, "geometry": { "type": "LineString", "coordinates": [ [ -82.77195283333333, 28.403004194444442 ], [ -82.796875666666665, 28.41653322222222 ] ] } },
{ "type": "Feature", "properties": { "style": "solid", "thickness": 1 }, "geometry": { "type": "LineString", "coordinates": [ [ -82.851743666666664, 28.196417222222223 ], [ -82.879921583333328, 28.203413194444444 ] ] } },
{ "type": "Feature", "properties": { "style": "solid", "thickness": 1 }, "geometry": { "type": "LineString", "coordinates": [ [ -82.996101777777781, 28.408597833333332 ], [ -83.010305111111109, 28.43120175 ] ] } },
{ "type": "Feature", "properties": { "style": "solid", "thickness": 1 }, "geometry": { "type": "LineString", "coordinates": [ [ -83.01614136111111, 28.413574638888889 ], [ -82.99057333333333, 28.426131388888891 ] ] } },
{ "type": "Feature", "properties": { "style": "solid", "thickness": 1 }, "geometry": { "type": "LineString", "coordinates": [ [ -82.486667527777783, 28.730272166666666 ], [ -82.501118388888884, 28.752742666666666 ] ] } },
{ "type": "Feature", "properties": { "style": "solid", "thickness": 1 }, "geometry": { "type": "LineString", "coordinates": [ [ -82.496863027777778, 28.728808972222222 ], [ -82.491024777777781, 28.7541145 ] ] } },
{ "type": "Feature", "properties": { "style": "solid", "thickness": 1 }, "geometry": { "type": "LineString", "coordinates": [ [ -82.198863166666669, 27.100066361111111 ], [ -82.184187888888886, 27.07544925 ] ] } },
{ "type": "Feature", "properties": { "style": "solid", "thickness": 1 }, "geometry": { "type": "LineString", "coordinates": [ [ -82.177772638888896, 27.094233277777775 ], [ -82.205377333333331, 27.081373305555555 ] ] } },
{ "type": "Feature", "properties": { "style": "solid", "thickness": 1 }, "geometry": { "type": "LineString", "coordinates": [ [ -81.882373111111107, 27.241970583333334 ], [ -81.903407305555561, 27.259588694444446 ] ] } },
{ "type": "Feature", "properties": { "style": "solid", "thickness": 1 }, "geometry": { "type": "LineString", "coordinates": [ [ -81.89081116666668, 27.237975805555557 ], [ -81.894968583333338, 27.263492555555555 ] ] } },
{ "type": "Feature", "properties": { "style": "solid", "thickness": 1 }, "geometry": { "type": "LineString", "coordinates": [ [ -82.583693833333328, 28.349904666666667 ], [ -82.5778966111111, 28.375767083333333 ] ] } },
{ "type": "Feature", "properties": { "style": "solid", "thickness": 1 }, "geometry": { "type": "LineString", "coordinates": [ [ -82.568767583333326, 28.354951833333335 ], [ -82.592721666666662, 28.370718972222221 ] ] } },
{ "type": "Feature", "properties": { "style": "solid", "thickness": 1 }, "geometry": { "type": "LineString", "coordinates": [ [ -82.242043305555555, 28.637889416666667 ], [ -82.271138888888885, 28.640884416666665 ] ] } },
{ "type": "Feature", "properties": { "style": "solid", "thickness": 1 }, "geometry": { "type": "LineString", "coordinates": [ [ -82.25676416666667, 28.652317444444442 ], [ -82.256417666666664, 28.626457861111113 ] ] } },
{ "type": "Feature", "properties": { "style": "solid", "thickness": 1 }, "geometry": { "type": "LineString", "coordinates": [ [ -82.261606888888892, 28.352828611111114 ], [ -82.242788333333337, 28.372505388888889 ] ] } },
{ "type": "Feature", "properties": { "style": "solid", "thickness": 1 }, "geometry": { "type": "LineString", "coordinates": [ [ -82.30248813888889, 28.29017925 ], [ -82.321303222222213, 28.310019805555555 ] ] } },
{ "type": "Feature", "properties": { "style": "solid", "thickness": 1 }, "geometry": { "type": "LineString", "coordinates": [ [ -82.32134425, 28.290211138888889 ], [ -82.302443666666662, 28.309987888888891 ] ] } },
{ "type": "Feature", "properties": { "style": "solid", "thickness": 1 }, "geometry": { "type": "LineString", "coordinates": [ [ -82.259270416666666, 28.373916111111111 ], [ -82.244920666666673, 28.351417722222223 ] ] } },
{ "type": "Feature", "properties": { "style": "solid", "thickness": 1 }, "geometry": { "type": "LineString", "coordinates": [ [ -82.34432963888888, 26.959947194444442 ], [ -82.320417916666656, 26.941934555555555 ] ] } },
{ "type": "Feature", "properties": { "style": "solid", "thickness": 1 }, "geometry": { "type": "LineString", "coordinates": [ [ -82.338693583333324, 26.963698944444445 ], [ -82.326053472222213, 26.938183611111111 ] ] } },
{ "type": "Feature", "properties": { "style": "solid", "thickness": 1 }, "geometry": { "type": "LineString", "coordinates": [ [ -81.749621277777777, 28.34981772222222 ], [ -81.777496111111105, 28.336769722222222 ] ] } },
{ "type": "Feature", "properties": { "style": "solid", "thickness": 1 }, "geometry": { "type": "LineString", "coordinates": [ [ -81.771627611111114, 28.331234472222221 ], [ -81.755489666666662, 28.355353888888889 ] ] } },
{ "type": "Feature", "properties": { "style": "solid", "thickness": 1 }, "geometry": { "type": "LineString", "coordinates": [ [ -82.258263861111118, 28.752727777777778 ], [ -82.257812666666666, 28.726868888888887 ] ] } },
{ "type": "Feature", "properties": { "style": "solid", "thickness": 1 }, "geometry": { "type": "LineString", "coordinates": [ [ -82.243741527777772, 28.736742083333333 ], [ -82.272231972222215, 28.742761305555558 ] ] } },
{ "type": "Feature", "properties": { "style": "solid", "thickness": 1 }, "geometry": { "type": "LineString", "coordinates": [ [ -82.521223194444445, 27.986027333333336 ], [ -82.521223194444445, 27.987861555555558 ] ] } },
{ "type": "Feature", "properties": { "style": "solid", "thickness": 1 }, "geometry": { "type": "LineString", "coordinates": [ [ -82.520706611111109, 27.985843888888891 ], [ -82.520706638888882, 27.988045 ] ] } },
{ "type": "Feature", "properties": { "style": "solid", "thickness": 1 }, "geometry": { "type": "LineString", "coordinates": [ [ -82.52019005555556, 27.985843888888891 ], [ -82.52019005555556, 27.988045 ] ] } },
{ "type": "Feature", "properties": { "style": "solid", "thickness": 1 }, "geometry": { "type": "LineString", "coordinates": [ [ -82.519673472222223, 27.986027305555556 ], [ -82.519673472222223, 27.987861555555558 ] ] } },
{ "type": "Feature", "properties": { "style": "solid", "thickness": 1 }, "geometry": { "type": "LineString", "coordinates": [ [ -82.519156888888887, 27.986944444444447 ], [ -82.519164916666668, 27.987074472222222 ], [ -82.51919075, 27.98721038888889 ], [ -82.519236861111111, 27.987349666666667 ], [ -82.519305138888882, 27.987488916666667 ], [ -82.519396611111105, 27.987624222222223 ], [ -82.519511083333327, 27.987751194444446 ], [ -82.519646944444446, 27.987865333333335 ], [ -82.519801222222227, 27.987962638888892 ], [ -82.519969666666668, 27.988039833333335 ], [ -82.520147166666661, 27.988094833333335 ], [ -82.52032825, 27.988126916666669 ], [ -82.520507638888887, 27.988136694444446 ], [ -82.520680666666664, 27.988125861111111 ], [ -82.520843583333331, 27.98809702777778 ], [ -82.52099375, 27.988053222222224 ], [ -82.521129583333334, 27.987997583333335 ], [ -82.521253638888894, 27.987931305555556 ], [ -82.52137477777778, 27.98784913888889 ], [ -82.52149030555556, 27.987749833333336 ], [ -82.521596222222215, 27.987633305555555 ], [ -82.521688111111104, 27.987500416666666 ], [ -82.521761722222223, 27.987353111111112 ], [ -82.521813222222221, 27.9871945 ], [ -82.52183975, 27.987028611111111 ], [ -82.521839722222225, 27.98686025 ], [ -82.521813222222221, 27.986694388888889 ], [ -82.521761722222223, 27.986535777777778 ], [ -82.521688111111104, 27.986388472222224 ], [ -82.521596194444442, 27.986255555555555 ], [ -82.52149030555556, 27.986139027777778 ], [ -82.52137475, 27.98603975 ], [ -82.521253611111106, 27.985957555555558 ], [ -82.521129583333334, 27.985891305555558 ], [ -82.52099375, 27.985835666666667 ], [ -82.520843583333331, 27.985791861111114 ], [ -82.520680666666664, 27.985763027777779 ], [ -82.520507638888887, 27.985752194444444 ], [ -82.52032825, 27.985761972222225 ], [ -82.520147166666661, 27.985794055555555 ], [ -82.519969666666668, 27.985849055555555 ], [ -82.519801222222227, 27.98592625 ], [ -82.519646944444446, 27.986023527777778 ], [ -82.519511083333327, 27.986137694444444 ], [ -82.519396611111105, 27.98626463888889 ], [ -82.519305138888882, 27.986399944444447 ], [ -82.519236861111111, 27.986539222222223 ], [ -82.51919075, 27.986678472222223 ], [ -82.519164916666668, 27.986814388888888 ], [ -82.519156888888887, 27.986944444444447 ] ] } },
{ "type": "Feature", "properties": { "style": "solid", "thickness": 1 }, "geometry": { "type": "LineString", "coordinates": [ [ -83.044531472222218, 27.664714611111108 ], [ -83.044619805555556, 27.66554836111111 ], [ -83.04487391666666, 27.666354666666667 ], [ -83.045285666666658, 27.667107583333333 ], [ -83.045841805555554, 27.667782972222223 ], [ -83.046524444444444, 27.668359083333335 ], [ -83.047311666666658, 27.668817416666666 ], [ -83.048178166666659, 27.669143222222225 ], [ -83.049096083333325, 27.669326027777778 ], [ -83.050035888888885, 27.669359972222225 ], [ -83.050967416666666, 27.669243944444446 ], [ -83.051860722222216, 27.668981722222224 ], [ -83.052687055555552, 27.668581666666668 ], [ -83.053419861111109, 27.668056666666669 ], [ -83.054035611111104, 27.667423611111111 ], [ -83.0545145, 27.666702861111112 ], [ -83.054841138888889, 27.665917527777776 ], [ -83.055005027777781, 27.665092888888889 ], [ -83.055000916666657, 27.664255472222219 ], [ -83.054828916666665, 27.663432138888886 ], [ -83.054494583333337, 27.662649416666664 ], [ -83.054008666666661, 27.661932388888886 ], [ -83.05338675, 27.661304138888887 ], [ -83.052648861111109, 27.660784888888887 ], [ -83.051818722222222, 27.66039125 ], [ -83.050922972222224, 27.660135944444445 ], [ -83.04999041666666, 27.660027138888889 ], [ -83.049051027777779, 27.660068333333331 ], [ -83.048135, 27.660258194444442 ], [ -83.04727177777778, 27.660590666666664 ], [ -83.046489083333327, 27.661055027777778 ], [ -83.045812083333331, 27.66163633333333 ], [ -83.04526252777778, 27.66231597222222 ], [ -83.044858083333338, 27.663072027777776 ], [ -83.04461175, 27.663880222222222 ], [ -83.044531472222218, 27.664714611111108 ] ] } },
{ "type": "Feature", "properties": { "style": "solid", "thickness": 1 }, "geometry": { "type": "LineString", "coordinates": [ [ -83.037642083333338, 27.665305027777777 ], [ -83.039955916666671, 27.664906 ], [ -83.042147027777773, 27.664133166666666 ], [ -83.044139972222226, 27.663013083333333 ], [ -83.04586611111111, 27.66158436111111 ], [ -83.04726597222222, 27.65989625 ], [ -83.048291333333324, 27.658006861111108 ], [ -83.048906916666667, 27.655981305555553 ], [ -83.049091527777776, 27.653889333333332 ] ] } },
{ "type": "Feature", "properties": { "style": "solid", "thickness": 1 }, "geometry": { "type": "LineString", "coordinates": [ [ -83.049091527777776, 27.653889333333332 ], [ -83.049539805555554, 27.655949444444442 ], [ -83.050407944444444, 27.657900277777777 ], [ -83.051666, 27.659674694444444 ], [ -83.053270666666663, 27.6612115 ], [ -83.055166694444438, 27.662457833333331 ], [ -83.057288777777771, 27.663370694444442 ], [ -83.059563777777768, 27.663918666666664 ], [ -83.061913333333337, 27.664082833333332 ] ] } },
{ "type": "Feature", "properties": { "style": "solid", "thickness": 1 }, "geometry": { "type": "LineString", "coordinates": [ [ -83.050464194444444, 27.675499555555557 ], [ -83.050648805555554, 27.673407611111113 ], [ -83.051264416666669, 27.671382027777778 ], [ -83.052289833333333, 27.66949263888889 ], [ -83.053689666666671, 27.667804444444446 ], [ -83.05541575, 27.666375611111111 ], [ -83.057408611111114, 27.665255361111111 ], [ -83.059599611111111, 27.664482222222222 ], [ -83.061913333333337, 27.664082833333332 ] ] } },
{ "type": "Feature", "properties": { "style": "solid", "thickness": 1 }, "geometry": { "type": "LineString", "coordinates": [ [ -83.050464194444444, 27.675499555555557 ], [ -83.050015805555546, 27.673439472222224 ], [ -83.04914755555555, 27.671488638888889 ], [ -83.04788938888889, 27.669714222222222 ], [ -83.046284666666665, 27.668177333333336 ], [ -83.04438863888889, 27.666930888888889 ], [ -83.042266611111103, 27.666017833333331 ], [ -83.039991638888893, 27.665469583333334 ], [ -83.037642083333338, 27.665305027777777 ] ] } },
{ "type": "Feature", "properties": { "style": "solid", "thickness": 1 }, "geometry": { "type": "LineString", "coordinates": [ [ -82.409997388888897, 27.990711138888891 ], [ -82.410081111111111, 27.99154525 ], [ -82.410331277777786, 27.992352694444445 ], [ -82.410739833333338, 27.9931075 ], [ -82.411293666666666, 27.993785416666668 ], [ -82.411975, 27.994364666666666 ], [ -82.412761888888895, 27.994826611111112 ], [ -82.413629083333333, 27.995156416666667 ], [ -82.414548666666676, 27.995343472222224 ], [ -82.415491111111123, 27.99538175 ], [ -82.416426111111122, 27.995270055555558 ], [ -82.417323611111115, 27.995011944444446 ], [ -82.418154777777787, 27.99461575 ], [ -82.418892861111118, 27.994094166666667 ], [ -82.419514166666673, 27.993464 ], [ -82.419998694444445, 27.992745472222222 ], [ -82.420330916666671, 27.991961694444445 ], [ -82.420500138888897, 27.991137861111113 ], [ -82.420500888888895, 27.990300444444447 ], [ -82.420333222222226, 27.989476361111112 ], [ -82.420002472222222, 27.988692111111114 ], [ -82.419519277777781, 27.987972888888891 ], [ -82.41889919444445, 27.987341777777779 ], [ -82.418162138888889, 27.98681913888889 ], [ -82.417331777777775, 27.986421666666669 ], [ -82.416434861111114, 27.986162222222223 ], [ -82.415500138888888, 27.986049111111111 ], [ -82.414557694444454, 27.986085972222224 ], [ -82.41363783333334, 27.986271583333334 ], [ -82.412770055555555, 27.986600027777779 ], [ -82.411982305555554, 27.98706075 ], [ -82.411299861111118, 27.987638916666668 ], [ -82.410744666666673, 27.988315972222225 ], [ -82.410334611111111, 27.989070111111111 ], [ -82.410082805555561, 27.989877166666666 ], [ -82.409997388888897, 27.990711138888891 ] ] } },
{ "type": "Feature", "properties": { "style": "solid", "thickness": 1 }, "geometry": { "type": "LineString", "coordinates": [ [ -82.403083916666674, 27.991269611111111 ], [ -82.405407, 27.990881333333334 ], [ -82.407609222222234, 27.990118638888891 ], [ -82.409614694444457, 27.989007833333336 ], [ -82.411354361111123, 27.987587194444444 ], [ -82.412768305555559, 27.985905611111111 ], [ -82.413807805555564, 27.984021055555555 ], [ -82.41443708333334, 27.981998444444443 ], [ -82.4146345, 27.979907444444443 ] ] } },
{ "type": "Feature", "properties": { "style": "solid", "thickness": 1 }, "geometry": { "type": "LineString", "coordinates": [ [ -82.4146345, 27.979907444444443 ], [ -82.415072083333342, 27.9819695 ], [ -82.415931388888893, 27.983924277777778 ], [ -82.417182805555555, 27.985704444444444 ], [ -82.418783305555564, 27.987248611111113 ], [ -82.420677722222223, 27.988503666666666 ], [ -82.422800805555553, 27.989426305555558 ], [ -82.425079416666676, 27.989984777777778 ], [ -82.427435055555563, 27.990159833333333 ] ] } },
{ "type": "Feature", "properties": { "style": "solid", "thickness": 1 }, "geometry": { "type": "LineString", "coordinates": [ [ -82.415884722222231, 28.001523055555555 ], [ -82.416082138888896, 27.999432055555555 ], [ -82.416711472222232, 27.997409416666667 ], [ -82.417751, 27.995524833333334 ], [ -82.419164944444447, 27.993843222222225 ], [ -82.420904555555566, 27.992422444444447 ], [ -82.422909972222229, 27.991311444444445 ], [ -82.425112055555559, 27.990548472222223 ], [ -82.427435055555563, 27.990159833333333 ] ] } },
{ "type": "Feature", "properties": { "style": "solid", "thickness": 1 }, "geometry": { "type": "LineString", "coordinates": [ [ -82.415884722222231, 28.001523055555555 ], [ -82.415447027777788, 27.999460972222224 ], [ -82.414587638888889, 27.997506222222224 ], [ -82.413336111111121, 27.995726055555558 ], [ -82.411735555555566, 27.994181805555556 ], [ -82.409841166666666, 27.992926638888889 ], [ -82.407718111111123, 27.992003777777779 ], [ -82.40543955555556, 27.991445027777779 ], [ -82.403083916666674, 27.991269611111111 ] ] } },
{ "type": "Feature", "properties": { "style": "solid", "thickness": 1 }, "geometry": { "type": "LineString", "coordinates": [ [ -82.583192194444436, 28.670127611111113 ], [ -82.583277777777781, 28.670961472222224 ], [ -82.583530833333327, 28.671768472222222 ], [ -82.583943166666657, 28.672522638888889 ], [ -82.584501611111108, 28.67319975 ], [ -82.585188166666669, 28.673778055555555 ], [ -82.58598075, 28.674238916666667 ], [ -82.586853944444442, 28.674567583333335 ], [ -82.58777963888889, 28.674753444444445 ], [ -82.588728111111109, 28.67479052777778 ], [ -82.589668833333334, 28.674677694444444 ], [ -82.590571583333329, 28.6744185 ], [ -82.591407333333322, 28.674021305555556 ], [ -82.59214925, 28.67349888888889 ], [ -82.592773444444447, 28.672868055555558 ], [ -82.593259916666668, 28.672149027777778 ], [ -82.593592944444438, 28.671364972222225 ], [ -82.593761916666665, 28.670541055555557 ], [ -82.593761333333333, 28.669703805555557 ], [ -82.593591277777776, 28.668880055555558 ], [ -82.59325716666666, 28.668096361111111 ], [ -82.592769777777775, 28.667377861111113 ], [ -82.592144749999989, 28.666747638888889 ], [ -82.591402222222214, 28.666226 ], [ -82.590566, 28.665829666666664 ], [ -82.589662972222214, 28.665571388888889 ], [ -82.588722194444443, 28.665459472222221 ], [ -82.587773861111103, 28.6654975 ], [ -82.586848472222215, 28.66568425 ], [ -82.585975749999989, 28.666013722222221 ], [ -82.585183777777772, 28.666475361111111 ], [ -82.584497944444436, 28.66705427777778 ], [ -82.583940361111104, 28.667731916666668 ], [ -82.583528888888878, 28.668486444444447 ], [ -82.583276805555556, 28.669293666666668 ], [ -82.583192194444436, 28.670127611111113 ] ] } },
{ "type": "Feature", "properties": { "style": "solid", "thickness": 1 }, "geometry": { "type": "LineString", "coordinates": [ [ -82.576236, 28.670694722222223 ], [ -82.578573111111112, 28.670303583333336 ], [ -82.580788, 28.66953825 ], [ -82.582804361111101, 28.668425111111112 ], [ -82.584552722222213, 28.6670025 ], [ -82.585972861111102, 28.665319444444442 ], [ -82.587015888888885, 28.663433888888889 ], [ -82.587645888888886, 28.661410805555555 ], [ -82.587841194444437, 28.659319888888888 ] ] } },
{ "type": "Feature", "properties": { "style": "solid", "thickness": 1 }, "geometry": { "type": "LineString", "coordinates": [ [ -82.587841194444437, 28.659319888888888 ], [ -82.588284833333333, 28.661381083333332 ], [ -82.589152722222224, 28.663334444444445 ], [ -82.59041491666666, 28.665112722222222 ], [ -82.592027972222212, 28.666654638888886 ], [ -82.593936361111105, 28.667907055555556 ], [ -82.596074333333334, 28.668826888888891 ], [ -82.59836822222222, 28.669382388888891 ], [ -82.600739027777777, 28.669554444444447 ] ] } },
{ "type": "Feature", "properties": { "style": "solid", "thickness": 1 }, "geometry": { "type": "LineString", "coordinates": [ [ -82.589134083333335, 28.680930305555556 ], [ -82.589329388888885, 28.678839388888889 ], [ -82.589959444444446, 28.676816333333335 ], [ -82.5910025, 28.67493075 ], [ -82.592422666666664, 28.673247611111112 ], [ -82.594170972222216, 28.671824888888889 ], [ -82.596187222222213, 28.670711555555556 ], [ -82.598402, 28.669945944444446 ], [ -82.600739027777777, 28.669554444444447 ] ] } },
{ "type": "Feature", "properties": { "style": "solid", "thickness": 1 }, "geometry": { "type": "LineString", "coordinates": [ [ -82.589134083333335, 28.680930305555556 ], [ -82.588690333333332, 28.678869138888889 ], [ -82.587822361111108, 28.676915777777779 ], [ -82.586560055555552, 28.6751375 ], [ -82.584946916666667, 28.673595527777778 ], [ -82.583038555555547, 28.672342944444445 ], [ -82.580900611111105, 28.671422944444444 ], [ -82.578606777777779, 28.670867138888891 ], [ -82.576236, 28.670694722222223 ] ] } },
{ "type": "Feature", "properties": { "style": "solid", "thickness": 1 }, "geometry": { "type": "LineString", "coordinates": [ [ -82.80597775, 28.57442825 ], [ -82.806064916666671, 28.575262027777779 ], [ -82.806319333333334, 28.576068638888888 ], [ -82.806732833333328, 28.576822194444443 ], [ -82.80729211111111, 28.577498444444444 ], [ -82.807979222222215, 28.578075694444443 ], [ -82.808772027777778, 28.578535361111111 ], [ -82.809645111111109, 28.578862666666666 ], [ -82.810570361111104, 28.579047083333332 ], [ -82.81151802777778, 28.579082722222221 ], [ -82.812457694444447, 28.578968388888889 ], [ -82.813359138888885, 28.578707805555556 ], [ -82.814193361111109, 28.578309305555557 ], [ -82.814933555555555, 28.57778572222222 ], [ -82.815555944444441, 28.577153888888887 ], [ -82.816040527777773, 28.576434083333332 ], [ -82.816371722222215, 28.575649472222221 ], [ -82.816538888888886, 28.574825277777776 ], [ -82.816536638888891, 28.573988 ], [ -82.816365083333324, 28.5731645 ], [ -82.816029694444438, 28.572381277777776 ], [ -82.815541305555556, 28.571663527777776 ], [ -82.814915583333331, 28.57103425 ], [ -82.814172666666664, 28.57051375 ], [ -82.813336388888885, 28.570118694444446 ], [ -82.812433666666664, 28.569861833333334 ], [ -82.8114935, 28.569751361111109 ], [ -82.810546083333335, 28.569790861111112 ], [ -82.809621888888884, 28.569979055555557 ], [ -82.808750611111108, 28.570309916666666 ], [ -82.80796025, 28.570772777777776 ], [ -82.807276194444441, 28.571352805555556 ], [ -82.806720444444437, 28.572031305555555 ], [ -82.806310861111115, 28.572786527777776 ], [ -82.806060611111107, 28.573594166666666 ], [ -82.80597775, 28.57442825 ] ] } },
{ "type": "Feature", "properties": { "style": "solid", "thickness": 1 }, "geometry": { "type": "LineString", "coordinates": [ [ -82.799028916666671, 28.57500686111111 ], [ -82.801363138888888, 28.574611944444445 ], [ -82.803574472222223, 28.573843027777777 ], [ -82.805586722222216, 28.572726611111111 ], [ -82.807330583333325, 28.571301138888888 ], [ -82.808746, 28.56961575 ], [ -82.809784194444447, 28.567728472222221 ], [ -82.810409444444446, 28.565704305555556 ], [ -82.81060025, 28.56361302777778 ] ] } },
{ "type": "Feature", "properties": { "style": "solid", "thickness": 1 }, "geometry": { "type": "LineString", "coordinates": [ [ -82.81060025, 28.56361302777778 ], [ -82.811047777777773, 28.565673555555556 ], [ -82.81191891666667, 28.567625583333331 ], [ -82.81318366666666, 28.56940186111111 ], [ -82.814798472222222, 28.570941222222221 ], [ -82.816707777777779, 28.572190638888888 ], [ -82.818845722222221, 28.573107027777777 ], [ -82.821138722222216, 28.57365886111111 ], [ -82.82350775, 28.573827111111111 ] ] } },
{ "type": "Feature", "properties": { "style": "solid", "thickness": 1 }, "geometry": { "type": "LineString", "coordinates": [ [ -82.811936694444441, 28.585222 ], [ -82.8121275, 28.583130722222222 ], [ -82.812752805555547, 28.581106555555554 ], [ -82.813791027777782, 28.57921925 ], [ -82.815206444444442, 28.577533777777777 ], [ -82.81695025, 28.576108194444444 ], [ -82.818962416666665, 28.574991583333333 ], [ -82.82117363888888, 28.574222388888888 ], [ -82.82350775, 28.573827111111111 ] ] } },
{ "type": "Feature", "properties": { "style": "solid", "thickness": 1 }, "geometry": { "type": "LineString", "coordinates": [ [ -82.811936694444441, 28.585222 ], [ -82.811489083333328, 28.583161472222223 ], [ -82.810617805555552, 28.581209472222223 ], [ -82.809352972222214, 28.579433138888888 ], [ -82.807738083333334, 28.577893722222221 ], [ -82.805828805555549, 28.576644194444444 ], [ -82.80369088888888, 28.575727611111112 ], [ -82.801397944444446, 28.575175472222224 ], [ -82.799028916666671, 28.57500686111111 ] ] } },
{ "type": "Feature", "properties": { "style": "solid", "thickness": 1 }, "geometry": { "type": "LineString", "coordinates": [ [ -82.32416655555555, 27.318698666666666 ], [ -82.324249083333328, 27.31953286111111 ], [ -82.324497055555554, 27.32034047222222 ], [ -82.32490252777778, 27.321095555555555 ], [ -82.325452416666664, 27.321773833333332 ], [ -82.326129083333328, 27.322353527777778 ], [ -82.32691075, 27.322815972222223 ], [ -82.327772333333328, 27.323146333333334 ], [ -82.328686111111111, 27.323333972222223 ], [ -82.329622694444438, 27.32337286111111 ], [ -82.33055202777777, 27.32326172222222 ], [ -82.331444194444444, 27.323004194444444 ], [ -82.332270555555553, 27.3226085 ], [ -82.3330045, 27.322087361111112 ], [ -82.333622472222217, 27.321457555555554 ], [ -82.334104583333328, 27.320739333333332 ], [ -82.334435361111105, 27.31995575 ], [ -82.334604194444438, 27.319132 ], [ -82.334605611111101, 27.318294555555557 ], [ -82.334439611111108, 27.317470333333333 ], [ -82.334111527777779, 27.316685861111111 ], [ -82.333631888888888, 27.315966305555555 ], [ -82.333016111111107, 27.315334805555555 ], [ -82.332284027777774, 27.314811666666667 ], [ -82.331459111111101, 27.314413694444447 ], [ -82.330567916666666, 27.314153666666666 ], [ -82.329639055555546, 27.314039972222222 ], [ -82.328702388888885, 27.314076222222223 ], [ -82.327788027777771, 27.314261277777778 ], [ -82.326925361111108, 27.314589194444444 ], [ -82.326142083333323, 27.315049444444444 ], [ -82.325463416666665, 27.315627194444446 ], [ -82.324911111111106, 27.316303888888889 ], [ -82.32450297222222, 27.317057833333333 ], [ -82.324252083333334, 27.317864722222222 ], [ -82.32416655555555, 27.318698666666666 ] ] } },
{ "type": "Feature", "properties": { "style": "solid", "thickness": 1 }, "geometry": { "type": "LineString", "coordinates": [ [ -82.31729525, 27.319252833333334 ], [ -82.319604333333331, 27.318866 ], [ -82.321793555555558, 27.318104666666667 ], [ -82.323787555555555, 27.316995111111112 ], [ -82.32551761111111, 27.3155755 ], [ -82.326924166666657, 27.313894777777779 ], [ -82.32795872222222, 27.312010805555555 ], [ -82.328585722222215, 27.309988527777779 ], [ -82.328783583333333, 27.307897583333332 ] ] } },
{ "type": "Feature", "properties": { "style": "solid", "thickness": 1 }, "geometry": { "type": "LineString", "coordinates": [ [ -82.328783583333333, 27.307897583333332 ], [ -82.329216833333334, 27.30996 ], [ -82.330069305555554, 27.311915361111112 ], [ -82.331311611111104, 27.313696333333333 ], [ -82.33290102777778, 27.315241555555556 ], [ -82.33478275, 27.316497805555557 ], [ -82.336892027777779, 27.317421805555554 ], [ -82.339156138888882, 27.317981722222221 ], [ -82.34149711111111, 27.318158277777776 ] ] } },
{ "type": "Feature", "properties": { "style": "solid", "thickness": 1 }, "geometry": { "type": "LineString", "coordinates": [ [ -82.33000905555555, 27.329514555555555 ], [ -82.330206888888881, 27.327423611111112 ], [ -82.330833944444436, 27.325401333333332 ], [ -82.331868555555545, 27.323517361111112 ], [ -82.333275111111107, 27.321836555555556 ], [ -82.335005111111101, 27.320416833333333 ], [ -82.336999027777779, 27.319307055555555 ], [ -82.339188166666659, 27.318545472222223 ], [ -82.34149711111111, 27.318158277777776 ] ] } },
{ "type": "Feature", "properties": { "style": "solid", "thickness": 1 }, "geometry": { "type": "LineString", "coordinates": [ [ -82.33000905555555, 27.329514555555555 ], [ -82.329575694444443, 27.327452166666667 ], [ -82.328723111111103, 27.325496805555556 ], [ -82.327480722222219, 27.323715805555555 ], [ -82.325891277777771, 27.3221705 ], [ -82.324009527777775, 27.320914138888888 ], [ -82.321900305555545, 27.319989944444444 ], [ -82.319636222222215, 27.31942975 ], [ -82.31729525, 27.319252833333334 ] ] } },
{ "type": "Feature", "properties": { "style": "solid", "thickness": 1 }, "geometry": { "type": "LineString", "coordinates": [ [ -81.955913583333341, 27.66704552777778 ], [ -81.955993583333338, 27.667879944444447 ], [ -81.956239611111116, 27.668688222222222 ], [ -81.956643805555558, 27.669444416666668 ], [ -81.95719316666667, 27.670124166666668 ], [ -81.957870027777787, 27.670705666666667 ], [ -81.958652638888893, 27.67117025 ], [ -81.959515861111115, 27.671502916666668 ], [ -81.960431916666664, 27.671693 ], [ -81.961371388888892, 27.671734416666666 ], [ -81.962304083333336, 27.671625805555557 ], [ -81.963199972222228, 27.671370638888892 ], [ -81.964030305555553, 27.670977194444447 ], [ -81.964768361111112, 27.67045802777778 ], [ -81.965390444444452, 27.669829888888891 ], [ -81.965876555555553, 27.669112944444446 ], [ -81.966211055555561, 27.66833025 ], [ -81.966383194444447, 27.667506972222224 ], [ -81.966387472222223, 27.666669527777778 ], [ -81.966223722222225, 27.665844888888888 ], [ -81.965897222222225, 27.6650595 ], [ -81.965418472222225, 27.664338666666666 ], [ -81.964802888888897, 27.6637055 ], [ -81.964070222222219, 27.663180388888886 ], [ -81.963244, 27.662780194444444 ], [ -81.962350833333332, 27.662517777777776 ], [ -81.961419388888885, 27.662401583333331 ], [ -81.960479611111111, 27.662435305555555 ], [ -81.959561694444446, 27.662617916666665 ], [ -81.958695166666672, 27.6629435 ], [ -81.957907833333337, 27.663401638888889 ], [ -81.957225, 27.663977555555554 ], [ -81.956668638888885, 27.664652777777775 ], [ -81.956256638888888, 27.665405611111108 ], [ -81.956002222222224, 27.666211833333332 ], [ -81.955913583333341, 27.66704552777778 ] ] } },
{ "type": "Feature", "properties": { "style": "solid", "thickness": 1 }, "geometry": { "type": "LineString", "coordinates": [ [ -81.949018444444448, 27.667581166666668 ], [ -81.951336194444451, 27.667200555555556 ], [ -81.953535027777775, 27.666445138888889 ], [ -81.955539166666668, 27.665340944444441 ], [ -81.957279583333332, 27.663926 ], [ -81.958696305555563, 27.662249055555556 ], [ -81.959740583333343, 27.660367888888889 ], [ -81.960376444444449, 27.658347305555555 ], [ -81.960582, 27.656256888888887 ] ] } },
{ "type": "Feature", "properties": { "style": "solid", "thickness": 1 }, "geometry": { "type": "LineString", "coordinates": [ [ -81.960582, 27.656256888888887 ], [ -81.961009666666669, 27.658320472222222 ], [ -81.961858222222219, 27.660278138888888 ], [ -81.9630985, 27.662062444444445 ], [ -81.96468775, 27.66361197222222 ], [ -81.96657125, 27.664873277777776 ], [ -81.968684138888889, 27.66580297222222 ], [ -81.970953611111113, 27.666368972222219 ], [ -81.9733015, 27.666551833333333 ] ] } },
{ "type": "Feature", "properties": { "style": "solid", "thickness": 1 }, "geometry": { "type": "LineString", "coordinates": [ [ -81.96173813888889, 27.677877138888888 ], [ -81.96194372222223, 27.67578675 ], [ -81.96257961111111, 27.67376613888889 ], [ -81.96362394444445, 27.671884972222223 ], [ -81.965040694444454, 27.670207972222222 ], [ -81.966781055555558, 27.668792916666668 ], [ -81.968785111111117, 27.6676885 ], [ -81.970983833333335, 27.666932805555557 ], [ -81.9733015, 27.666551833333333 ] ] } },
{ "type": "Feature", "properties": { "style": "solid", "thickness": 1 }, "geometry": { "type": "LineString", "coordinates": [ [ -81.96173813888889, 27.677877138888888 ], [ -81.96131038888889, 27.675813583333333 ], [ -81.96046172222222, 27.673855916666668 ], [ -81.959221361111119, 27.672071583333334 ], [ -81.957632055555564, 27.670522 ], [ -81.955748555555559, 27.669260555555557 ], [ -81.953635722222231, 27.668330694444446 ], [ -81.951366305555553, 27.667764388888891 ], [ -81.949018444444448, 27.667581166666668 ] ] } },
{ "type": "Feature", "properties": { "style": "solid", "thickness": 1 }, "geometry": { "type": "LineString", "coordinates": [ [ -82.9061405, 28.272923138888888 ], [ -82.906228250000012, 28.273756888888887 ], [ -82.906482777777782, 28.27456338888889 ], [ -82.90689586111111, 28.275316666666665 ], [ -82.90745425, 28.275992555555554 ], [ -82.90814, 28.276569305555554 ], [ -82.908931083333343, 28.277028388888887 ], [ -82.909802027777786, 28.277355055555553 ], [ -82.910724888888893, 28.277538777777778 ], [ -82.911669972222228, 28.277573666666665 ], [ -82.912606888888888, 28.277458583333331 ], [ -82.913505527777787, 28.277197277777777 ], [ -82.91433702777779, 28.276798083333333 ], [ -82.915074638888896, 28.276273888888888 ], [ -82.915694666666667, 28.2756415 ], [ -82.916177166666671, 28.274921277777779 ], [ -82.916506666666677, 28.274136361111111 ], [ -82.916672527777777, 28.273311944444444 ], [ -82.916669444444452, 28.272474583333331 ], [ -82.916497555555566, 28.271651166666665 ], [ -82.916162333333332, 28.270868138888886 ], [ -82.915674583333342, 28.270150694444443 ], [ -82.915049972222235, 28.269521888888889 ], [ -82.91430861111111, 28.269001916666667 ], [ -82.91347427777778, 28.2686075 ], [ -82.91257383333334, 28.268351277777779 ], [ -82.911636166666668, 28.268241555555555 ], [ -82.910691444444453, 28.268281805555553 ], [ -82.909770027777782, 28.268470722222222 ], [ -82.9089015, 28.268802305555553 ], [ -82.908113805555558, 28.269265833333332 ], [ -82.90743225, 28.269846416666667 ], [ -82.906878722222231, 28.270525416666665 ], [ -82.906471027777783, 28.271281027777778 ], [ -82.906222305555559, 28.272088916666664 ], [ -82.9061405, 28.272923138888888 ] ] } },
{ "type": "Feature", "properties": { "style": "solid", "thickness": 1 }, "geometry": { "type": "LineString", "coordinates": [ [ -82.89921158333334, 28.273506527777776 ], [ -82.901538916666667, 28.273109888888889 ], [ -82.903743361111111, 28.272339305555555 ], [ -82.905748972222227, 28.271221333333333 ], [ -82.907486638888898, 28.2697945 ], [ -82.908896527777785, 28.268107916666665 ], [ -82.909930083333336, 28.266219722222221 ], [ -82.910551722222223, 28.264194972222221 ], [ -82.910740055555564, 28.262103361111112 ] ] } },
{ "type": "Feature", "properties": { "style": "solid", "thickness": 1 }, "geometry": { "type": "LineString", "coordinates": [ [ -82.910740055555564, 28.262103361111112 ], [ -82.91118825, 28.26416375 ], [ -82.91205875, 28.266115305555555 ], [ -82.913321611111115, 28.267890805555556 ], [ -82.91493336111111, 28.269429138888889 ], [ -82.916838472222224, 28.27067725 ], [ -82.918971305555559, 28.271592194444445 ], [ -82.921258416666674, 28.272142416666664 ], [ -82.923621, 28.272308944444443 ] ] } },
{ "type": "Feature", "properties": { "style": "solid", "thickness": 1 }, "geometry": { "type": "LineString", "coordinates": [ [ -82.912092805555559, 28.283713166666669 ], [ -82.912281138888901, 28.281621555555553 ], [ -82.912902805555561, 28.279596805555556 ], [ -82.913936416666672, 28.277708583333332 ], [ -82.915346305555559, 28.276021944444445 ], [ -82.91708391666667, 28.274594972222221 ], [ -82.919089416666665, 28.273476805555553 ], [ -82.92129375, 28.272705944444443 ], [ -82.923621, 28.272308944444443 ] ] } },
{ "type": "Feature", "properties": { "style": "solid", "thickness": 1 }, "geometry": { "type": "LineString", "coordinates": [ [ -82.912092805555559, 28.283713166666669 ], [ -82.911644527777781, 28.281652805555556 ], [ -82.910773888888897, 28.27970125 ], [ -82.909510916666676, 28.277925694444445 ], [ -82.907899138888894, 28.276387333333332 ], [ -82.90599402777778, 28.275139083333332 ], [ -82.903861222222233, 28.274223944444444 ], [ -82.90157413888889, 28.273673444444444 ], [ -82.89921158333334, 28.273506527777776 ] ] } },
{ "type": "Feature", "properties": { "style": "solid", "thickness": 1 }, "geometry": { "type": "LineString", "coordinates": [ [ -82.782380944444441, 27.900307305555554 ], [ -82.78246744444445, 27.901141194444442 ], [ -82.782720166666664, 27.901947972222221 ], [ -82.783130972222224, 27.902701666666665 ], [ -82.783686694444441, 27.90337811111111 ], [ -82.784369416666664, 27.9039555 ], [ -82.78515725, 27.904415333333333 ], [ -82.786024833333329, 27.904742777777777 ], [ -82.786944305555551, 27.904927333333333 ], [ -82.787886083333333, 27.904963083333332 ], [ -82.788819916666668, 27.904848861111109 ], [ -82.789715777777772, 27.904588333333333 ], [ -82.790544888888888, 27.90418986111111 ], [ -82.791280555555559, 27.903666277777777 ], [ -82.791899166666667, 27.903034416666664 ], [ -82.792380833333326, 27.902314583333332 ], [ -82.792710083333333, 27.901529916666664 ], [ -82.792876333333325, 27.90070561111111 ], [ -82.792874222222224, 27.899868194444444 ], [ -82.792703833333334, 27.899044555555555 ], [ -82.79237066666667, 27.898261194444444 ], [ -82.791885416666659, 27.89754325 ], [ -82.791263694444439, 27.896913833333333 ], [ -82.790525444444441, 27.896393166666666 ], [ -82.789694444444436, 27.895997972222222 ], [ -82.788797388888881, 27.895740944444444 ], [ -82.787863055555547, 27.89563036111111 ], [ -82.786921555555551, 27.89566975 ], [ -82.786003083333327, 27.895857888888887 ], [ -82.785137166666658, 27.896188666666667 ], [ -82.784351638888893, 27.896651527777777 ], [ -82.78367175, 27.897231555555557 ], [ -82.783119361111105, 27.897910083333333 ], [ -82.782712222222216, 27.89866536111111 ], [ -82.782463416666673, 27.899473083333334 ], [ -82.782380944444441, 27.900307305555554 ] ] } },
{ "type": "Feature", "properties": { "style": "solid", "thickness": 1 }, "geometry": { "type": "LineString", "coordinates": [ [ -82.775475166666666, 27.900884527777777 ], [ -82.777794972222225, 27.900489944444445 ], [ -82.779992722222218, 27.899721277777779 ], [ -82.781992722222228, 27.898605055555556 ], [ -82.783726027777774, 27.897179666666666 ], [ -82.785133, 27.89549425 ], [ -82.786165166666663, 27.89360688888889 ], [ -82.786786972222217, 27.891582527777778 ], [ -82.786977055555553, 27.889490972222223 ] ] } },
{ "type": "Feature", "properties": { "style": "solid", "thickness": 1 }, "geometry": { "type": "LineString", "coordinates": [ [ -82.786977055555553, 27.889490972222223 ], [ -82.787421333333327, 27.891551888888888 ], [ -82.788286638888891, 27.893504333333333 ], [ -82.789543138888888, 27.89528111111111 ], [ -82.791147583333327, 27.896820972222223 ], [ -82.79304472222222, 27.898070888888888 ], [ -82.795169166666668, 27.898987805555556 ], [ -82.797447805555549, 27.899540111111111 ], [ -82.79980205555556, 27.899708777777779 ] ] } },
{ "type": "Feature", "properties": { "style": "solid", "thickness": 1 }, "geometry": { "type": "LineString", "coordinates": [ [ -82.788300472222218, 27.91110336111111 ], [ -82.788490527777782, 27.909011805555554 ], [ -82.789112388888881, 27.906987444444443 ], [ -82.79014458333333, 27.905100055555554 ], [ -82.791551555555557, 27.903414583333333 ], [ -82.793284833333331, 27.901989083333333 ], [ -82.79528472222222, 27.900872638888888 ], [ -82.797482361111108, 27.900103722222219 ], [ -82.79980205555556, 27.899708777777779 ] ] } },
{ "type": "Feature", "properties": { "style": "solid", "thickness": 1 }, "geometry": { "type": "LineString", "coordinates": [ [ -82.788300472222218, 27.91110336111111 ], [ -82.787856055555551, 27.909042472222222 ], [ -82.786990666666668, 27.90709 ], [ -82.785734055555551, 27.905313222222222 ], [ -82.784129583333325, 27.903773277777777 ], [ -82.782232444444446, 27.90252325 ], [ -82.780108, 27.901606138888887 ], [ -82.77782944444445, 27.901053555555553 ], [ -82.775475166666666, 27.900884527777777 ] ] } },
{ "type": "Feature", "properties": { "style": "solid", "thickness": 1 }, "geometry": { "type": "LineString", "coordinates": [ [ -83.002802972222227, 27.78631575 ], [ -83.002891083333338, 27.7871495 ], [ -83.00314516666667, 27.787955888888892 ], [ -83.003557083333334, 27.788708944444448 ], [ -83.004113583333336, 27.789384472222224 ], [ -83.004796777777784, 27.789960777777779 ], [ -83.005584694444451, 27.790419361111113 ], [ -83.006452027777783, 27.790745416666667 ], [ -83.007370916666673, 27.7909285 ], [ -83.008311777777777, 27.79096275 ], [ -83.009244388888888, 27.790847 ], [ -83.010138777777783, 27.79058502777778 ], [ -83.01096619444445, 27.79018525 ], [ -83.011700055555551, 27.789660472222224 ], [ -83.012316722222224, 27.789027611111113 ], [ -83.01279641666666, 27.788307 ], [ -83.013123722222218, 27.78752177777778 ], [ -83.013288111111109, 27.786697222222223 ], [ -83.013284333333331, 27.78585977777778 ], [ -83.013112444444445, 27.785036416666667 ], [ -83.012778055555557, 27.784253583333335 ], [ -83.012291861111109, 27.783536416666667 ], [ -83.0116695, 27.782908 ], [ -83.010930972222226, 27.7823885 ], [ -83.010100027777781, 27.781994638888889 ], [ -83.009203388888892, 27.781739055555555 ], [ -83.00826983333333, 27.781629944444443 ], [ -83.007329388888891, 27.78167086111111 ], [ -83.00641225, 27.78186047222222 ], [ -83.005547944444444, 27.782192666666667 ], [ -83.004764194444448, 27.782656777777778 ], [ -83.00408619444444, 27.783237888888888 ], [ -83.00353575, 27.783917333333335 ], [ -83.003130583333331, 27.78467325 ], [ -83.002883666666662, 27.78548138888889 ], [ -83.002802972222227, 27.78631575 ] ] } },
{ "type": "Feature", "properties": { "style": "solid", "thickness": 1 }, "geometry": { "type": "LineString", "coordinates": [ [ -82.995905638888885, 27.786904055555556 ], [ -82.998222194444452, 27.78650575 ], [ -83.000416083333334, 27.785733555555556 ], [ -83.002411694444447, 27.784614083333334 ], [ -83.004140305555552, 27.783185916666667 ], [ -83.005542388888884, 27.78149825 ], [ -83.006569611111118, 27.779609194444443 ], [ -83.007186666666669, 27.777583833333331 ], [ -83.007372277777776, 27.775491944444443 ] ] } },
{ "type": "Feature", "properties": { "style": "solid", "thickness": 1 }, "geometry": { "type": "LineString", "coordinates": [ [ -83.007372277777776, 27.775491944444443 ], [ -83.007820305555555, 27.777552166666666 ], [ -83.008688638888884, 27.77950325 ], [ -83.009947416666662, 27.781278027777777 ], [ -83.011553305555552, 27.782815333333332 ], [ -83.013450972222216, 27.784062194444445 ], [ -83.015575083333331, 27.784975694444444 ], [ -83.01785241666667, 27.785524361111111 ], [ -83.020204555555551, 27.78568925 ] ] } },
{ "type": "Feature", "properties": { "style": "solid", "thickness": 1 }, "geometry": { "type": "LineString", "coordinates": [ [ -83.008738194444447, 27.797102416666668 ], [ -83.008923833333327, 27.79501052777778 ], [ -83.009540916666666, 27.792985166666668 ], [ -83.010568194444446, 27.791096083333336 ], [ -83.01197025, 27.789408333333334 ], [ -83.013698805555549, 27.787980055555558 ], [ -83.015694333333329, 27.78686038888889 ], [ -83.017888083333332, 27.78608791666667 ], [ -83.020204555555551, 27.78568925 ] ] } },
{ "type": "Feature", "properties": { "style": "solid", "thickness": 1 }, "geometry": { "type": "LineString", "coordinates": [ [ -83.008738194444447, 27.797102416666668 ], [ -83.008290083333335, 27.795042194444445 ], [ -83.007421611111113, 27.793091111111114 ], [ -83.00616275, 27.791316333333334 ], [ -83.004556805555552, 27.789778972222223 ], [ -83.002659138888887, 27.788531944444447 ], [ -83.000535083333332, 27.78761825 ], [ -82.998257777777781, 27.787069305555558 ], [ -82.995905638888885, 27.786904055555556 ] ] } },
{ "type": "Feature", "properties": { "style": "solid", "thickness": 1 }, "geometry": { "type": "LineString", "coordinates": [ [ -82.892974055555555, 27.696450444444444 ], [ -82.89306125, 27.697284277777779 ], [ -82.893314333333336, 27.698090861111112 ], [ -82.893725138888897, 27.69884425 ], [ -82.894280472222235, 27.699520222222223 ], [ -82.894962527777778, 27.700097083333333 ], [ -82.895749333333342, 27.700556277777778 ], [ -82.896615638888889, 27.700883055555554 ], [ -82.897533555555569, 27.701066888888889 ], [ -82.898473611111115, 27.701101861111109 ], [ -82.899405583333333, 27.700986888888888 ], [ -82.9002995, 27.70072561111111 ], [ -82.90112661111111, 27.7003265 ], [ -82.901860388888892, 27.699802305555554 ], [ -82.902477194444444, 27.699169944444446 ], [ -82.902957222222227, 27.698449694444445 ], [ -82.903285055555557, 27.69766475 ], [ -82.9034501388889, 27.696840305555554 ], [ -82.903447194444453, 27.696002861111111 ], [ -82.903276305555565, 27.695179361111112 ], [ -82.902942972222235, 27.69439625 ], [ -82.90245788888889, 27.693678694444444 ], [ -82.901836694444455, 27.693049777777777 ], [ -82.901099305555562, 27.692529666666665 ], [ -82.900269444444447, 27.69213513888889 ], [ -82.899373805555555, 27.691878833333334 ], [ -82.898441138888899, 27.691769 ], [ -82.897501416666671, 27.691809138888889 ], [ -82.896584861111123, 27.691998027777778 ], [ -82.895720916666676, 27.69232952777778 ], [ -82.894937333333345, 27.692793 ], [ -82.894259333333338, 27.693373583333333 ], [ -82.893708666666669, 27.694052583333335 ], [ -82.893303055555563, 27.694808194444445 ], [ -82.89305552777779, 27.695616138888891 ], [ -82.892974055555555, 27.696450444444444 ] ] } },
{ "type": "Feature", "properties": { "style": "solid", "thickness": 1 }, "geometry": { "type": "LineString", "coordinates": [ [ -82.886081861111123, 27.697033222222224 ], [ -82.888396888888892, 27.69663677777778 ], [ -82.890589722222231, 27.695866333333335 ], [ -82.892584833333345, 27.694748472222223 ], [ -82.89431344444445, 27.693321666666666 ], [ -82.895716055555567, 27.691635083333335 ], [ -82.896744361111118, 27.689746861111111 ], [ -82.897362944444453, 27.687721972222221 ], [ -82.897550527777781, 27.685630222222223 ] ] } },
{ "type": "Feature", "properties": { "style": "solid", "thickness": 1 }, "geometry": { "type": "LineString", "coordinates": [ [ -82.897550527777781, 27.685630222222223 ], [ -82.897996083333339, 27.687690805555555 ], [ -82.89886175, 27.689642611111111 ], [ -82.900117694444447, 27.691418388888888 ], [ -82.90172069444445, 27.692957 ], [ -82.903615527777788, 27.694205416666666 ], [ -82.905736944444456, 27.695120611111111 ], [ -82.90801186111112, 27.695671083333334 ], [ -82.910361861111113, 27.695837888888889 ] ] } },
{ "type": "Feature", "properties": { "style": "solid", "thickness": 1 }, "geometry": { "type": "LineString", "coordinates": [ [ -82.898893472222227, 27.707241916666668 ], [ -82.899081055555556, 27.705150166666666 ], [ -82.899699666666677, 27.703125277777776 ], [ -82.900728, 27.701237 ], [ -82.902130611111119, 27.699550388888888 ], [ -82.903859194444451, 27.698123472222221 ], [ -82.905854194444444, 27.69700538888889 ], [ -82.908046916666677, 27.696234694444446 ], [ -82.910361861111113, 27.695837888888889 ] ] } },
{ "type": "Feature", "properties": { "style": "solid", "thickness": 1 }, "geometry": { "type": "LineString", "coordinates": [ [ -82.898893472222227, 27.707241916666668 ], [ -82.898447805555563, 27.705181333333332 ], [ -82.897582027777787, 27.703229527777776 ], [ -82.896326, 27.701453722222222 ], [ -82.894722944444453, 27.699915083333334 ], [ -82.892828083333342, 27.698666555555555 ], [ -82.890706722222234, 27.69775113888889 ], [ -82.888431861111115, 27.697200361111111 ], [ -82.886081861111123, 27.697033222222224 ] ] } },
{ "type": "Feature", "properties": { "style": "solid", "thickness": 1 }, "geometry": { "type": "LineString", "coordinates": [ [ -82.784424083333334, 27.582279611111112 ], [ -82.784510361111103, 27.583113527777776 ], [ -82.784762361111106, 27.583920305555555 ], [ -82.785171972222216, 27.584674027777776 ], [ -82.78572608333333, 27.58535047222222 ], [ -82.786406833333331, 27.585927861111109 ], [ -82.78719236111111, 27.586387694444443 ], [ -82.788057416666661, 27.586715138888888 ], [ -82.788974194444449, 27.586899694444444 ], [ -82.789913222222225, 27.586935416666666 ], [ -82.790844333333325, 27.586821166666667 ], [ -82.791737555555557, 27.586560611111111 ], [ -82.792564222222225, 27.586162138888888 ], [ -82.79329775, 27.585638555555555 ], [ -82.793914527777773, 27.585006666666665 ], [ -82.794394777777782, 27.584286805555553 ], [ -82.794723055555551, 27.583502083333332 ], [ -82.794888777777771, 27.582677777777779 ], [ -82.79488666666667, 27.581840333333332 ], [ -82.794716777777779, 27.581016694444443 ], [ -82.794384583333326, 27.580233305555556 ], [ -82.793900722222219, 27.57951536111111 ], [ -82.793280805555554, 27.578885944444444 ], [ -82.792544722222218, 27.578365277777777 ], [ -82.791716138888887, 27.577970083333334 ], [ -82.790821666666659, 27.577713055555556 ], [ -82.789890111111106, 27.5776025 ], [ -82.78895133333333, 27.577641916666668 ], [ -82.788035555555552, 27.577830055555555 ], [ -82.787172166666664, 27.578160861111112 ], [ -82.786388972222227, 27.578623722222222 ], [ -82.785711083333325, 27.579203777777778 ], [ -82.785160333333337, 27.57988236111111 ], [ -82.784754388888885, 27.580637638888888 ], [ -82.784506305555553, 27.581445388888888 ], [ -82.784424083333334, 27.582279611111112 ] ] } },
{ "type": "Feature", "properties": { "style": "solid", "thickness": 1 }, "geometry": { "type": "LineString", "coordinates": [ [ -82.777538527777779, 27.582856944444444 ], [ -82.779851555555553, 27.582462333333332 ], [ -82.782042861111108, 27.58169363888889 ], [ -82.784036972222225, 27.580577333333334 ], [ -82.785765194444437, 27.579151888888887 ], [ -82.787168027777781, 27.577466444444443 ], [ -82.78819713888889, 27.575579 ], [ -82.788817083333328, 27.57355461111111 ], [ -82.789006555555559, 27.571463 ] ] } },
{ "type": "Feature", "properties": { "style": "solid", "thickness": 1 }, "geometry": { "type": "LineString", "coordinates": [ [ -82.789006555555559, 27.571463 ], [ -82.789449583333337, 27.573523944444442 ], [ -82.790312388888893, 27.575476444444444 ], [ -82.79156525, 27.577253222222222 ], [ -82.793165027777775, 27.578793083333334 ], [ -82.79505663888888, 27.580043 ], [ -82.797174916666663, 27.580959888888888 ], [ -82.799446861111107, 27.581512194444443 ], [ -82.80179425, 27.581680833333333 ] ] } },
{ "type": "Feature", "properties": { "style": "solid", "thickness": 1 }, "geometry": { "type": "LineString", "coordinates": [ [ -82.7903265, 27.593075805555554 ], [ -82.790515972222224, 27.590984222222222 ], [ -82.791135972222222, 27.588959805555554 ], [ -82.792165111111103, 27.587072361111108 ], [ -82.793567944444447, 27.585386833333331 ], [ -82.795296138888887, 27.583961277777778 ], [ -82.797290138888883, 27.582844777777776 ], [ -82.799481333333333, 27.582075805555554 ], [ -82.80179425, 27.581680833333333 ] ] } },
{ "type": "Feature", "properties": { "style": "solid", "thickness": 1 }, "geometry": { "type": "LineString", "coordinates": [ [ -82.7903265, 27.593075805555554 ], [ -82.789883361111109, 27.591014888888889 ], [ -82.789020472222219, 27.589062388888888 ], [ -82.7877675, 27.587285583333333 ], [ -82.786167666666671, 27.585745638888888 ], [ -82.784276083333324, 27.584495611111109 ], [ -82.782157833333329, 27.583578527777778 ], [ -82.779885916666672, 27.583025972222224 ], [ -82.777538527777779, 27.582856944444444 ] ] } },
{ "type": "Feature", "properties": { "style": "solid", "thickness": 1 }, "geometry": { "type": "LineString", "coordinates": [ [ -82.379978611111099, 27.610208583333335 ], [ -82.380061805555556, 27.61104275 ], [ -82.380310861111099, 27.61185025 ], [ -82.380717805555548, 27.612605194444445 ], [ -82.381269527777775, 27.61328325 ], [ -82.381948277777767, 27.61386266666667 ], [ -82.38273230555555, 27.614324805555558 ], [ -82.383596361111117, 27.614654805555556 ], [ -82.384512694444453, 27.614842055555556 ], [ -82.385451805555562, 27.614880555555558 ], [ -82.386383583333341, 27.614769055555556 ], [ -82.387278, 27.61451113888889 ], [ -82.388106361111113, 27.614115111111111 ], [ -82.388842, 27.613593694444447 ], [ -82.389461305555557, 27.612963638888889 ], [ -82.38994436111112, 27.612245194444444 ], [ -82.390275638888895, 27.611461472222224 ], [ -82.390444472222228, 27.610637638888889 ], [ -82.390445472222225, 27.609800194444446 ], [ -82.390278611111114, 27.608976055555559 ], [ -82.389949222222228, 27.608191694444447 ], [ -82.389467944444448, 27.607472333333334 ], [ -82.388850194444444, 27.606841083333336 ], [ -82.388115861111118, 27.60631825 ], [ -82.387288527777784, 27.605920611111113 ], [ -82.386394805555568, 27.605660944444445 ], [ -82.385463416666667, 27.605547611111113 ], [ -82.384524250000013, 27.60558425 ], [ -82.383607555555557, 27.605769694444447 ], [ -82.382742722222218, 27.606097972222223 ], [ -82.381957583333332, 27.606558527777779 ], [ -82.381277388888876, 27.607136555555556 ], [ -82.380723972222214, 27.6078135 ], [ -82.380315111111102, 27.608567583333336 ], [ -82.380063972222217, 27.609374611111111 ], [ -82.379978611111099, 27.610208583333335 ] ] } },
{ "type": "Feature", "properties": { "style": "solid", "thickness": 1 }, "geometry": { "type": "LineString", "coordinates": [ [ -82.373089194444432, 27.610765555555556 ], [ -82.375404249999988, 27.610377777777778 ], [ -82.377598972222216, 27.609615555555557 ], [ -82.379597749999988, 27.608505166666667 ], [ -82.381331722222214, 27.607084833333335 ], [ -82.382741166666662, 27.605403527777778 ], [ -82.383777555555568, 27.603519138888892 ], [ -82.384405194444454, 27.601496583333336 ], [ -82.384602472222227, 27.599405555555553 ] ] } },
{ "type": "Feature", "properties": { "style": "solid", "thickness": 1 }, "geometry": { "type": "LineString", "coordinates": [ [ -82.384602472222227, 27.599405555555553 ], [ -82.385037972222236, 27.601467805555558 ], [ -82.385893722222235, 27.603422833333333 ], [ -82.387140277777789, 27.605203305555555 ], [ -82.388734750000012, 27.60674788888889 ], [ -82.390622166666674, 27.608003388888889 ], [ -82.392737555555556, 27.608926527777779 ], [ -82.395008055555564, 27.6094855 ], [ -82.397355388888897, 27.609661083333336 ] ] } },
{ "type": "Feature", "properties": { "style": "solid", "thickness": 1 }, "geometry": { "type": "LineString", "coordinates": [ [ -82.385842333333343, 27.62102213888889 ], [ -82.386039666666676, 27.618931111111113 ], [ -82.386667333333335, 27.616908555555558 ], [ -82.387703777777787, 27.615024138888892 ], [ -82.389113222222235, 27.613342777777778 ], [ -82.390847138888901, 27.611922333333336 ], [ -82.39284583333334, 27.61081175 ], [ -82.395040444444447, 27.61004925 ], [ -82.397355388888897, 27.609661083333336 ] ] } },
{ "type": "Feature", "properties": { "style": "solid", "thickness": 1 }, "geometry": { "type": "LineString", "coordinates": [ [ -82.385842333333343, 27.62102213888889 ], [ -82.385406777777789, 27.618959916666668 ], [ -82.384550916666669, 27.617004888888889 ], [ -82.38330425, 27.61522438888889 ], [ -82.38170975, 27.61367975 ], [ -82.379822333333323, 27.61242413888889 ], [ -82.377706972222214, 27.611500777777778 ], [ -82.375436527777765, 27.610941527777779 ], [ -82.373089194444432, 27.610765555555556 ] ] } },
{ "type": "Feature", "properties": { "style": "solid", "thickness": 1 }, "geometry": { "type": "LineString", "coordinates": [ [ -83.017509694444442, 27.531955222222223 ], [ -83.017597694444447, 27.532788972222221 ], [ -83.017851305555553, 27.533595333333334 ], [ -83.018262361111113, 27.534348333333334 ], [ -83.018817638888891, 27.535023833333334 ], [ -83.019499333333329, 27.535600083333335 ], [ -83.020285472222227, 27.536058555555556 ], [ -83.021150833333337, 27.536384527777781 ], [ -83.022067583333339, 27.53656752777778 ], [ -83.02300625, 27.53660166666667 ], [ -83.023936666666671, 27.536485833333334 ], [ -83.024828944444437, 27.53622375 ], [ -83.025654361111108, 27.535823861111112 ], [ -83.026386416666668, 27.535299027777778 ], [ -83.027001555555557, 27.534666083333335 ], [ -83.027480055555557, 27.533945416666668 ], [ -83.027806472222224, 27.533160166666665 ], [ -83.027970388888889, 27.532335555555555 ], [ -83.027966472222218, 27.531498111111109 ], [ -83.027794888888891, 27.530674777777776 ], [ -83.027461166666669, 27.529891944444444 ], [ -83.026976, 27.529174833333332 ], [ -83.026355027777782, 27.528546472222221 ], [ -83.025618166666661, 27.528027055555555 ], [ -83.024789111111104, 27.527633277777777 ], [ -83.02389452777777, 27.527377777777776 ], [ -83.022963138888883, 27.527268777777778 ], [ -83.022024888888893, 27.527309805555554 ], [ -83.021109944444447, 27.5274995 ], [ -83.020247666666663, 27.527831777777777 ], [ -83.019465805555555, 27.528296 ], [ -83.0187895, 27.528877194444444 ], [ -83.018240444444444, 27.529556694444445 ], [ -83.017836305555548, 27.530312666666667 ], [ -83.017590083333332, 27.531120833333333 ], [ -83.017509694444442, 27.531955222222223 ] ] } },
{ "type": "Feature", "properties": { "style": "solid", "thickness": 1 }, "geometry": { "type": "LineString", "coordinates": [ [ -83.010628583333329, 27.53254425 ], [ -83.012939666666668, 27.532145694444445 ], [ -83.01512830555555, 27.531373277777778 ], [ -83.017119111111114, 27.530253583333334 ], [ -83.018843472222215, 27.528825222222221 ], [ -83.020242027777783, 27.527137361111109 ], [ -83.021266611111116, 27.525248166666664 ], [ -83.021881944444445, 27.523222722222222 ], [ -83.022066861111114, 27.521130805555554 ] ] } },
{ "type": "Feature", "properties": { "style": "solid", "thickness": 1 }, "geometry": { "type": "LineString", "coordinates": [ [ -83.022066861111114, 27.521130805555554 ], [ -83.022514111111107, 27.523191 ], [ -83.023380666666668, 27.525142 ], [ -83.02463675, 27.526916666666665 ], [ -83.026239083333337, 27.528453805555554 ], [ -83.0281325, 27.5297005 ], [ -83.03025175, 27.530613805555554 ], [ -83.032523833333329, 27.531162222222221 ], [ -83.0348705, 27.531326861111111 ] ] } },
{ "type": "Feature", "properties": { "style": "solid", "thickness": 1 }, "geometry": { "type": "LineString", "coordinates": [ [ -83.0234325, 27.542741361111112 ], [ -83.023617388888894, 27.540649416666668 ], [ -83.024232777777783, 27.538623972222222 ], [ -83.025257388888889, 27.53673475 ], [ -83.026655944444443, 27.535046861111113 ], [ -83.028380277777771, 27.533618361111113 ], [ -83.030370972222215, 27.532498472222223 ], [ -83.0325595, 27.531725777777776 ], [ -83.0348705, 27.531326861111111 ] ] } },
{ "type": "Feature", "properties": { "style": "solid", "thickness": 1 }, "geometry": { "type": "LineString", "coordinates": [ [ -83.0234325, 27.542741361111112 ], [ -83.022985138888885, 27.540681166666669 ], [ -83.022118444444445, 27.538730166666667 ], [ -83.02086227777778, 27.536955472222225 ], [ -83.019259888888882, 27.535418277777779 ], [ -83.017366472222221, 27.534171472222223 ], [ -83.015247277777775, 27.53325797222222 ], [ -83.012975222222224, 27.532709277777776 ], [ -83.010628583333329, 27.53254425 ] ] } },
{ "type": "Feature", "properties": { "style": "solid", "thickness": 1 }, "geometry": { "type": "LineString", "coordinates": [ [ -82.78834625, 27.468140888888886 ], [ -82.788432472222226, 27.468974777777778 ], [ -82.788684222222216, 27.469781555555553 ], [ -82.789093444444447, 27.470535277777778 ], [ -82.789646972222215, 27.471211694444442 ], [ -82.790327027777778, 27.471789083333331 ], [ -82.79111175, 27.472248861111108 ], [ -82.791975916666658, 27.472576305555553 ], [ -82.79289175, 27.472760833333332 ], [ -82.793829805555561, 27.472796527777778 ], [ -82.794759916666663, 27.47268225 ], [ -82.795652194444443, 27.472421666666666 ], [ -82.79647797222222, 27.472023166666666 ], [ -82.797210722222218, 27.471499555555553 ], [ -82.797826833333332, 27.470867666666663 ], [ -82.798306555555556, 27.470147777777775 ], [ -82.798634444444446, 27.469363083333331 ], [ -82.7988, 27.46853875 ], [ -82.798797861111112, 27.467701305555554 ], [ -82.798628111111114, 27.466877666666665 ], [ -82.79829622222222, 27.466094305555554 ], [ -82.797812861111112, 27.465376361111112 ], [ -82.797193555555552, 27.464746972222223 ], [ -82.796458222222213, 27.464226305555556 ], [ -82.7956305, 27.463831138888889 ], [ -82.794736972222225, 27.463574138888887 ], [ -82.793806361111109, 27.463463611111109 ], [ -82.79286858333333, 27.463503055555556 ], [ -82.791953777777778, 27.46369122222222 ], [ -82.791091305555554, 27.464022055555557 ], [ -82.790308944444448, 27.464484944444443 ], [ -82.789631777777771, 27.465065 ], [ -82.789081611111115, 27.465743583333332 ], [ -82.788676138888889, 27.466498888888889 ], [ -82.788428361111116, 27.467306638888886 ], [ -82.78834625, 27.468140888888886 ] ] } },
{ "type": "Feature", "properties": { "style": "solid", "thickness": 1 }, "geometry": { "type": "LineString", "coordinates": [ [ -82.781467944444444, 27.468718416666665 ], [ -82.7837785, 27.46832372222222 ], [ -82.7859675, 27.467554972222221 ], [ -82.787959472222227, 27.466438611111112 ], [ -82.789685833333337, 27.465013138888889 ], [ -82.791087138888884, 27.463327611111112 ], [ -82.792115083333329, 27.461440166666666 ], [ -82.792734333333328, 27.45941575 ], [ -82.792923527777774, 27.45732413888889 ] ] } },
{ "type": "Feature", "properties": { "style": "solid", "thickness": 1 }, "geometry": { "type": "LineString", "coordinates": [ [ -82.792923527777774, 27.45732413888889 ], [ -82.793366166666658, 27.459385055555554 ], [ -82.794228138888883, 27.461337527777776 ], [ -82.79547975, 27.463114277777777 ], [ -82.797077888888893, 27.464654111111109 ], [ -82.798967555555549, 27.465903972222222 ], [ -82.801083638888883, 27.466820805555553 ], [ -82.80335325, 27.467373027777775 ], [ -82.805698166666659, 27.467541611111109 ] ] } },
{ "type": "Feature", "properties": { "style": "solid", "thickness": 1 }, "geometry": { "type": "LineString", "coordinates": [ [ -82.794242861111115, 27.478936916666665 ], [ -82.794432055555561, 27.476845305555553 ], [ -82.795051333333333, 27.474820888888889 ], [ -82.796079333333338, 27.472933388888887 ], [ -82.797480638888885, 27.471247833333333 ], [ -82.79920694444445, 27.46982222222222 ], [ -82.801198833333331, 27.468705694444441 ], [ -82.803387694444439, 27.467936638888887 ], [ -82.805698166666659, 27.467541611111109 ] ] } },
{ "type": "Feature", "properties": { "style": "solid", "thickness": 1 }, "geometry": { "type": "LineString", "coordinates": [ [ -82.794242861111115, 27.478936916666665 ], [ -82.793800111111111, 27.476876 ], [ -82.792938055555553, 27.474923527777776 ], [ -82.791686333333331, 27.47314675 ], [ -82.790088138888891, 27.471606861111109 ], [ -82.78819847222222, 27.470356888888887 ], [ -82.786082416666659, 27.469439861111109 ], [ -82.783812861111116, 27.468887361111108 ], [ -82.781467944444444, 27.468718416666665 ] ] } },
{ "type": "Feature", "properties": { "style": "solid", "thickness": 1 }, "geometry": { "type": "LineString", "coordinates": [ [ -82.681405500000011, 27.392914583333333 ], [ -82.681490833333342, 27.393748555555554 ], [ -82.681741638888894, 27.3945555 ], [ -82.682149833333341, 27.395309527777776 ], [ -82.682702333333339, 27.39598638888889 ], [ -82.683381333333344, 27.396564305555554 ], [ -82.68416508333334, 27.397024722222223 ], [ -82.685028305555562, 27.397352805555556 ], [ -82.685943333333341, 27.397538055555554 ], [ -82.686880694444454, 27.3975745 ], [ -82.687810277777785, 27.397460944444443 ], [ -82.688702194444446, 27.397201055555556 ], [ -82.689527805555556, 27.396803222222221 ], [ -82.690260555555554, 27.396280166666667 ], [ -82.690876861111121, 27.39564875 ], [ -82.691356972222223, 27.39492925 ], [ -82.691685388888899, 27.394144805555555 ], [ -82.691851638888892, 27.393320611111111 ], [ -82.691850305555562, 27.392483166666665 ], [ -82.6916815, 27.39165938888889 ], [ -82.691350611111119, 27.390875777777776 ], [ -82.690868277777781, 27.390157472222221 ], [ -82.690250027777779, 27.389527583333333 ], [ -82.689515722222225, 27.389006361111111 ], [ -82.688688944444451, 27.388610527777779 ], [ -82.687796277777778, 27.388352833333332 ], [ -82.686866444444448, 27.388241555555556 ], [ -82.68592925, 27.388280277777778 ], [ -82.685014888888887, 27.38846772222222 ], [ -82.684152722222223, 27.388797888888888 ], [ -82.683370416666676, 27.389260166666666 ], [ -82.682693166666667, 27.389839694444444 ], [ -82.682142722222224, 27.39051786111111 ], [ -82.681736777777786, 27.391272861111112 ], [ -82.681488361111121, 27.392080416666666 ], [ -82.681405500000011, 27.392914583333333 ] ] } },
{ "type": "Feature", "properties": { "style": "solid", "thickness": 1 }, "geometry": { "type": "LineString", "coordinates": [ [ -82.674531388888894, 27.393486722222221 ], [ -82.676840750000011, 27.393093833333332 ], [ -82.679028972222227, 27.392326805555555 ], [ -82.681020666666669, 27.391212 ], [ -82.68274725, 27.38978786111111 ], [ -82.684149222222231, 27.388103472222223 ], [ -82.68517833333334, 27.386216805555556 ], [ -82.685799111111109, 27.38419288888889 ], [ -82.68599025, 27.382101416666668 ] ] } },
{ "type": "Feature", "properties": { "style": "solid", "thickness": 1 }, "geometry": { "type": "LineString", "coordinates": [ [ -82.68599025, 27.382101416666668 ], [ -82.68643055555556, 27.384162694444445 ], [ -82.68729, 27.386115833333331 ], [ -82.688539, 27.387893555555554 ], [ -82.690134555555559, 27.38943463888889 ], [ -82.692021666666676, 27.390685972222222 ], [ -82.694135388888895, 27.391604444444443 ], [ -82.696402888888898, 27.392158444444444 ], [ -82.698746027777787, 27.39232886111111 ] ] } },
{ "type": "Feature", "properties": { "style": "solid", "thickness": 1 }, "geometry": { "type": "LineString", "coordinates": [ [ -82.687287444444451, 27.403715194444445 ], [ -82.687478555555558, 27.401623722222222 ], [ -82.688099388888887, 27.399599805555557 ], [ -82.689128527777783, 27.397713111111109 ], [ -82.690530527777781, 27.39602863888889 ], [ -82.692257055555558, 27.394604416666667 ], [ -82.694248666666667, 27.393489416666664 ], [ -82.696436777777777, 27.392722111111112 ], [ -82.698746027777787, 27.39232886111111 ] ] } },
{ "type": "Feature", "properties": { "style": "solid", "thickness": 1 }, "geometry": { "type": "LineString", "coordinates": [ [ -82.687287444444451, 27.403715194444445 ], [ -82.686847027777787, 27.401653916666664 ], [ -82.685987472222223, 27.399700777777777 ], [ -82.684738361111116, 27.397923055555555 ], [ -82.683142777777789, 27.396381916666666 ], [ -82.681255638888899, 27.395130444444444 ], [ -82.679141972222226, 27.394211777777777 ], [ -82.676874527777784, 27.3936575 ], [ -82.674531388888894, 27.393486722222221 ] ] } },
{ "type": "Feature", "properties": { "style": "solid", "thickness": 1 }, "geometry": { "type": "LineString", "coordinates": [ [ -82.49676325, 27.466101944444443 ], [ -82.496847222222229, 27.466936027777777 ], [ -82.497096805555557, 27.467743333333331 ], [ -82.497504, 27.468497916666664 ], [ -82.498055722222219, 27.469175527777775 ], [ -82.498734222222225, 27.469754361111111 ], [ -82.499517694444449, 27.470215805555554 ], [ -82.500380944444444, 27.470545083333331 ], [ -82.501296277777783, 27.470731555555552 ], [ -82.502234194444441, 27.47076925 ], [ -82.503164611111117, 27.470656972222219 ], [ -82.504057583333335, 27.470398305555555 ], [ -82.50488441666667, 27.470001555555555 ], [ -82.505618527777784, 27.4694795 ], [ -82.506236333333334, 27.468848916666666 ], [ -82.506717972222219, 27.468130055555555 ], [ -82.507047944444437, 27.467346055555552 ], [ -82.50721569444444, 27.466522083333334 ], [ -82.50721580555556, 27.465684638888888 ], [ -82.507048277777784, 27.464860638888887 ], [ -82.506718472222218, 27.464076555555554 ], [ -82.506237055555559, 27.46335761111111 ], [ -82.505619444444449, 27.462726888888888 ], [ -82.504885527777773, 27.462204666666665 ], [ -82.504058888888892, 27.46180775 ], [ -82.503166055555553, 27.461548833333332 ], [ -82.502235777777784, 27.461436305555555 ], [ -82.501297888888885, 27.46147375 ], [ -82.500382611111107, 27.461659972222222 ], [ -82.499519277777779, 27.461988972222223 ], [ -82.498735666666661, 27.462450194444443 ], [ -82.498057, 27.463028805555556 ], [ -82.497505027777777, 27.463706222222221 ], [ -82.497097527777782, 27.464460666666668 ], [ -82.496847583333334, 27.465267888888889 ], [ -82.49676325, 27.466101944444443 ] ] } },
{ "type": "Feature", "properties": { "style": "solid", "thickness": 1 }, "geometry": { "type": "LineString", "coordinates": [ [ -82.489883527777778, 27.466664805555556 ], [ -82.492195111111116, 27.466275055555556 ], [ -82.494386111111112, 27.465510944444443 ], [ -82.496381027777772, 27.464398861111111 ], [ -82.498111194444448, 27.462977055555555 ], [ -82.499516972222224, 27.461294527777778 ], [ -82.500549944444444, 27.459409277777777 ], [ -82.501174583333338, 27.457386194444442 ], [ -82.501369388888889, 27.455294972222223 ] ] } },
{ "type": "Feature", "properties": { "style": "solid", "thickness": 1 }, "geometry": { "type": "LineString", "coordinates": [ [ -82.501369388888889, 27.455294972222223 ], [ -82.5018065, 27.457356861111112 ], [ -82.502663222222225, 27.459311138888889 ], [ -82.503910055555551, 27.461090555555554 ], [ -82.505504055555562, 27.462633805555555 ], [ -82.507390333333333, 27.463887666666665 ], [ -82.509503916666674, 27.464809027777775 ], [ -82.51177197222222, 27.465366055555556 ], [ -82.514116416666667, 27.465539638888888 ] ] } },
{ "type": "Feature", "properties": { "style": "solid", "thickness": 1 }, "geometry": { "type": "LineString", "coordinates": [ [ -82.502630805555555, 27.476910527777775 ], [ -82.502825611111106, 27.474819305555553 ], [ -82.503450277777773, 27.472796222222222 ], [ -82.50448333333334, 27.470910916666664 ], [ -82.505889111111117, 27.46922836111111 ], [ -82.507619194444445, 27.467806444444442 ], [ -82.509614055555559, 27.466694138888887 ], [ -82.511804916666662, 27.465929777777777 ], [ -82.514116416666667, 27.465539638888888 ] ] } },
{ "type": "Feature", "properties": { "style": "solid", "thickness": 1 }, "geometry": { "type": "LineString", "coordinates": [ [ -82.502630805555555, 27.476910527777775 ], [ -82.502193583333337, 27.474848666666666 ], [ -82.50133677777778, 27.472894361111109 ], [ -82.500089861111107, 27.471114916666664 ], [ -82.49849580555555, 27.469571638888887 ], [ -82.496609527777778, 27.468317638888887 ], [ -82.494495972222225, 27.46739608333333 ], [ -82.492227944444451, 27.46683875 ], [ -82.489883527777778, 27.466664805555556 ] ] } },
{ "type": "Feature", "properties": { "style": "solid", "thickness": 1 }, "geometry": { "type": "LineString", "coordinates": [ [ -82.220582055555553, 27.772035805555554 ], [ -82.220664138888893, 27.772870055555554 ], [ -82.220912388888891, 27.773677861111111 ], [ -82.221318833333342, 27.77443325 ], [ -82.221870361111115, 27.775111944444443 ], [ -82.22254930555556, 27.775692138888889 ], [ -82.223333805555555, 27.776155194444442 ], [ -82.224198666666666, 27.776486194444445 ], [ -82.225116083333333, 27.776674527777775 ], [ -82.226056555555559, 27.776714111111112 ], [ -82.226989861111107, 27.776603694444443 ], [ -82.227886, 27.776346833333331 ], [ -82.228716194444445, 27.77595175 ], [ -82.229453694444445, 27.775431194444444 ], [ -82.230074833333333, 27.774801861111111 ], [ -82.230559666666664, 27.774084 ], [ -82.230892583333329, 27.773300638888887 ], [ -82.231062888888886, 27.772477027777779 ], [ -82.231065111111107, 27.771639611111109 ], [ -82.230899194444447, 27.770815277777778 ], [ -82.230570472222226, 27.770030527777777 ], [ -82.230089527777778, 27.769310611111109 ], [ -82.229471777777775, 27.768678666666666 ], [ -82.228737138888889, 27.76815497222222 ], [ -82.227909166666663, 27.767756361111111 ], [ -82.227014472222223, 27.767495666666665 ], [ -82.226081861111112, 27.767381277777776 ], [ -82.22514125, 27.767416833333332 ], [ -82.224222888888889, 27.767601194444442 ], [ -82.223356305555555, 27.767928444444443 ], [ -82.22256933333334, 27.768388083333331 ], [ -82.221887277777782, 27.768965333333334 ], [ -82.221332027777777, 27.769641611111108 ], [ -82.220921444444443, 27.77039522222222 ], [ -82.22066875, 27.771201944444442 ], [ -82.220582055555553, 27.772035805555554 ] ] } },
{ "type": "Feature", "properties": { "style": "solid", "thickness": 1 }, "geometry": { "type": "LineString", "coordinates": [ [ -82.213681555555553, 27.772584777777777 ], [ -82.216000638888886, 27.772199694444442 ], [ -82.218199722222224, 27.771440027777778 ], [ -82.220203111111118, 27.770331944444443 ], [ -82.22194175, 27.768913666666666 ], [ -82.223355777777783, 27.767234 ], [ -82.224396472222224, 27.765350861111113 ], [ -82.225028, 27.763329055555555 ], [ -82.225228666666666, 27.76123825 ] ] } },
{ "type": "Feature", "properties": { "style": "solid", "thickness": 1 }, "geometry": { "type": "LineString", "coordinates": [ [ -82.225228666666666, 27.76123825 ], [ -82.225661777777773, 27.763300972222222 ], [ -82.226515916666671, 27.765257 ], [ -82.22776175, 27.767038888888887 ], [ -82.229356305555555, 27.768585333333334 ], [ -82.231244694444442, 27.769843 ], [ -82.233361888888894, 27.770768611111109 ], [ -82.235634944444442, 27.771330222222222 ], [ -82.237985527777781, 27.771508527777776 ] ] } },
{ "type": "Feature", "properties": { "style": "solid", "thickness": 1 }, "geometry": { "type": "LineString", "coordinates": [ [ -82.226438638888894, 27.782856083333332 ], [ -82.226639305555551, 27.780765305555555 ], [ -82.227270916666669, 27.7787435 ], [ -82.228311638888897, 27.776860305555555 ], [ -82.229725666666667, 27.775180583333331 ], [ -82.231464277777775, 27.773762194444444 ], [ -82.233467555555563, 27.772653916666666 ], [ -82.235666555555554, 27.771894 ], [ -82.237985527777781, 27.771508527777776 ] ] } },
{ "type": "Feature", "properties": { "style": "solid", "thickness": 1 }, "geometry": { "type": "LineString", "coordinates": [ [ -82.226438638888894, 27.782856083333332 ], [ -82.226005444444439, 27.780793361111112 ], [ -82.22515119444445, 27.778837361111112 ], [ -82.223905277777774, 27.777055444444443 ], [ -82.222310666666672, 27.775508944444443 ], [ -82.220422277777786, 27.774251138888889 ], [ -82.218305138888894, 27.773325361111109 ], [ -82.216032138888892, 27.772763444444443 ], [ -82.213681555555553, 27.772584777777777 ] ] } },
{ "type": "Feature", "properties": { "style": "solid", "thickness": 1 }, "geometry": { "type": "LineString", "coordinates": [ [ -82.059138694444442, 28.32430738888889 ], [ -82.059219944444436, 28.325141638888887 ], [ -82.05946825, 28.325949666666666 ], [ -82.059875638888883, 28.326705472222223 ], [ -82.060428972222226, 28.327384777777777 ], [ -82.061110527777771, 28.327965722222221 ], [ -82.061898333333332, 28.328429638888888 ], [ -82.062767138888887, 28.328761638888889 ], [ -82.063688944444436, 28.328951027777777 ], [ -82.064634166666664, 28.328991722222224 ], [ -82.065572416666669, 28.328882416666666 ], [ -82.066473527777774, 28.328626611111112 ], [ -82.067308555555556, 28.328232555555555 ], [ -82.068050611111104, 28.327712916666666 ], [ -82.06867588888889, 28.327084361111112 ], [ -82.06916425, 28.326367138888887 ], [ -82.069500027777778, 28.32558425 ], [ -82.069672444444436, 28.324760916666666 ], [ -82.069675944444441, 28.323923555555556 ], [ -82.06951041666666, 28.323099111111112 ], [ -82.06918119444444, 28.322314055555555 ], [ -82.068698861111102, 28.321593638888888 ], [ -82.068078916666664, 28.320961 ], [ -82.067341277777771, 28.3204365 ], [ -82.066509666666661, 28.320036944444443 ], [ -82.065610805555551, 28.319775222222223 ], [ -82.064673583333331, 28.319659722222223 ], [ -82.063728111111104, 28.319694166666668 ], [ -82.062804805555558, 28.319877444444444 ], [ -82.061933277777769, 28.320203666666668 ], [ -82.061141583333324, 28.320662333333335 ], [ -82.060455166666671, 28.321238722222223 ], [ -82.059896083333328, 28.321914277777779 ], [ -82.059482277777775, 28.322667333333332 ], [ -82.059227083333326, 28.323473694444445 ], [ -82.059138694444442, 28.32430738888889 ] ] } },
{ "type": "Feature", "properties": { "style": "solid", "thickness": 1 }, "geometry": { "type": "LineString", "coordinates": [ [ -82.052202083333327, 28.324848194444446 ], [ -82.054533583333324, 28.324465861111111 ], [ -82.056745083333325, 28.323708861111111 ], [ -82.058760361111112, 28.32260325 ], [ -82.06051, 28.321187138888888 ], [ -82.06193375, 28.319509277777776 ], [ -82.062982583333337, 28.3176275 ], [ -82.063620388888893, 28.315606638888891 ], [ -82.063825194444448, 28.313516277777779 ] ] } },
{ "type": "Feature", "properties": { "style": "solid", "thickness": 1 }, "geometry": { "type": "LineString", "coordinates": [ [ -82.063825194444448, 28.313516277777779 ], [ -82.064257444444436, 28.315579305555556 ], [ -82.06511302777777, 28.317536166666667 ], [ -82.066362555555557, 28.319319361111109 ], [ -82.067962944444446, 28.320867527777779 ], [ -82.069859138888887, 28.322127333333334 ], [ -82.071985777777769, 28.323055333333333 ], [ -82.074269611111106, 28.323619583333333 ], [ -82.076631944444443, 28.32380061111111 ] ] } },
{ "type": "Feature", "properties": { "style": "solid", "thickness": 1 }, "geometry": { "type": "LineString", "coordinates": [ [ -82.065009055555549, 28.335133583333331 ], [ -82.065213888888891, 28.333043222222223 ], [ -82.06585172222222, 28.33102236111111 ], [ -82.066900611111109, 28.329140555555554 ], [ -82.06832436111111, 28.327462638888889 ], [ -82.070073972222218, 28.326046416666667 ], [ -82.072089166666657, 28.32494061111111 ], [ -82.07430052777778, 28.324183333333334 ], [ -82.076631944444443, 28.32380061111111 ] ] } },
{ "type": "Feature", "properties": { "style": "solid", "thickness": 1 }, "geometry": { "type": "LineString", "coordinates": [ [ -82.065009055555549, 28.335133583333331 ], [ -82.064576722222213, 28.333070555555555 ], [ -82.063721027777774, 28.331113722222224 ], [ -82.062471416666668, 28.329330472222221 ], [ -82.060870944444446, 28.32778225 ], [ -82.058974777777777, 28.326522333333333 ], [ -82.056848194444441, 28.325594138888889 ], [ -82.054564416666665, 28.325029611111113 ], [ -82.052202083333327, 28.324848194444446 ] ] } },
{ "type": "Feature", "properties": { "style": "solid", "thickness": 1 }, "geometry": { "type": "LineString", "coordinates": [ [ -82.084325138888886, 28.487197222222225 ], [ -82.084406722222212, 28.488031444444445 ], [ -82.08465558333333, 28.488839388888891 ], [ -82.085063749999989, 28.489595083333334 ], [ -82.08561808333333, 28.49027425 ], [ -82.086300805555553, 28.49085502777778 ], [ -82.087089916666656, 28.491318805555558 ], [ -82.087960111111101, 28.491650611111112 ], [ -82.088883361111101, 28.491839833333334 ], [ -82.089830027777779, 28.491880361111111 ], [ -82.09076966666666, 28.49177088888889 ], [ -82.091672083333322, 28.491514944444447 ], [ -82.09250825, 28.49112075 ], [ -82.093251305555555, 28.490600972222222 ], [ -82.093877388888885, 28.489972361111111 ], [ -82.094366333333326, 28.489255055555557 ], [ -82.094702444444437, 28.488472166666668 ], [ -82.094874916666669, 28.487648805555555 ], [ -82.094878222222221, 28.4868115 ], [ -82.09471225, 28.485987111111111 ], [ -82.094382333333328, 28.485202138888891 ], [ -82.093899111111099, 28.484481861111114 ], [ -82.093278083333331, 28.483849361111112 ], [ -82.092539194444441, 28.483325 ], [ -82.09170625, 28.482925638888887 ], [ -82.090805972222213, 28.482664111111109 ], [ -82.089867305555558, 28.482548777777776 ], [ -82.088920416666667, 28.482583388888887 ], [ -82.08799575, 28.482766833333333 ], [ -82.087123, 28.483093166666666 ], [ -82.086330222222216, 28.483551972222223 ], [ -82.085642888888884, 28.484128444444444 ], [ -82.085083111111103, 28.484804111111114 ], [ -82.084668861111112, 28.485557194444446 ], [ -82.084413472222224, 28.486363555555556 ], [ -82.084325138888886, 28.487197222222225 ] ] } },
{ "type": "Feature", "properties": { "style": "solid", "thickness": 1 }, "geometry": { "type": "LineString", "coordinates": [ [ -82.077378166666662, 28.487739277777777 ], [ -82.079713111111104, 28.487356555555557 ], [ -82.08192775, 28.486599166666668 ], [ -82.083945833333331, 28.48549325 ], [ -82.085697805555554, 28.484076861111113 ], [ -82.087123305555551, 28.482398833333331 ], [ -82.08817327777777, 28.480516944444442 ], [ -82.088811555555552, 28.478496055555553 ], [ -82.08901619444444, 28.476405722222221 ] ] } },
{ "type": "Feature", "properties": { "style": "solid", "thickness": 1 }, "geometry": { "type": "LineString", "coordinates": [ [ -82.08901619444444, 28.476405722222221 ], [ -82.089449555555547, 28.478468611111108 ], [ -82.090306916666663, 28.48042522222222 ], [ -82.09155875, 28.48220811111111 ], [ -82.093161916666659, 28.483755916666667 ], [ -82.095061277777774, 28.485015305555557 ], [ -82.097191333333328, 28.485942888888889 ], [ -82.099478749999989, 28.486506694444447 ], [ -82.101844694444438, 28.486687305555556 ] ] } },
{ "type": "Feature", "properties": { "style": "solid", "thickness": 1 }, "geometry": { "type": "LineString", "coordinates": [ [ -82.090206888888886, 28.498021888888889 ], [ -82.090411555555548, 28.495931583333334 ], [ -82.09104988888889, 28.493910666666668 ], [ -82.092099888888882, 28.492028777777779 ], [ -82.093525416666665, 28.490350694444444 ], [ -82.095277333333328, 28.488934194444447 ], [ -82.097295305555548, 28.487828055555557 ], [ -82.099509861111102, 28.487070416666668 ], [ -82.101844694444438, 28.486687305555556 ] ] } },
{ "type": "Feature", "properties": { "style": "solid", "thickness": 1 }, "geometry": { "type": "LineString", "coordinates": [ [ -82.090206888888886, 28.498021888888889 ], [ -82.089773444444447, 28.495959027777779 ], [ -82.088915972222225, 28.494002416666667 ], [ -82.08766405555555, 28.4922195 ], [ -82.086060833333335, 28.490671638888891 ], [ -82.0841615, 28.489412138888891 ], [ -82.082031472222212, 28.488484361111112 ], [ -82.079744111111111, 28.487920277777778 ], [ -82.077378166666662, 28.487739277777777 ] ] } },
{ "type": "Feature", "properties": { "style": "solid", "thickness": 1 }, "geometry": { "type": "LineString", "coordinates": [ [ -83.166039972222222, 27.913931222222221 ], [ -83.166109055555566, 27.91434525 ], [ -83.166260277777781, 27.914741666666664 ], [ -83.16648875, 27.91510775 ], [ -83.16678711111112, 27.915431694444443 ], [ -83.167145833333336, 27.91570311111111 ], [ -83.167553333333345, 27.91591325 ], [ -83.167996527777788, 27.916055388888889 ], [ -83.168461166666674, 27.916124944444444 ], [ -83.168932333333345, 27.916119694444443 ], [ -83.169394861111115, 27.916039805555553 ], [ -83.169833916666676, 27.915887805555553 ], [ -83.170235333333338, 27.915668638888889 ], [ -83.17058625, 27.915389305555554 ], [ -83.170875388888888, 27.915058805555553 ], [ -83.171093444444452, 27.914687777777775 ], [ -83.171233416666666, 27.914288111111109 ], [ -83.171290777777784, 27.913872638888886 ], [ -83.171263722222221, 27.913454777777776 ], [ -83.17115311111111, 27.913047916666667 ], [ -83.170962472222229, 27.912665138888887 ], [ -83.170697972222229, 27.91231875 ], [ -83.170368111111117, 27.912019888888889 ], [ -83.169983472222228, 27.911778138888888 ], [ -83.169556416666666, 27.911601277777777 ], [ -83.169100666666665, 27.911495 ], [ -83.168630888888899, 27.911462722222222 ], [ -83.168162166666676, 27.91150547222222 ], [ -83.167709583333334, 27.911621861111108 ], [ -83.167287666666667, 27.911808194444443 ], [ -83.166909972222228, 27.912058444444444 ], [ -83.166588638888896, 27.912364583333332 ], [ -83.166334027777779, 27.912716777777778 ], [ -83.166154277777778, 27.913103666666665 ], [ -83.166055194444453, 27.913512888888889 ], [ -83.166039972222222, 27.913931222222221 ] ] } },
{ "type": "Feature", "properties": { "style": "solid", "thickness": 1 }, "geometry": { "type": "LineString", "coordinates": [ [ -83.169013444444445, 27.919197416666666 ], [ -83.16878775, 27.918167944444445 ], [ -83.168351777777787, 27.91719327777778 ], [ -83.167720555555562, 27.916306944444443 ], [ -83.166915833333334, 27.915539472222221 ], [ -83.165965305555559, 27.914917277777775 ], [ -83.164901750000013, 27.914461833333331 ], [ -83.163761777777779, 27.914188805555554 ], [ -83.162584638888902, 27.914107583333333 ] ] } },
{ "type": "Feature", "properties": { "style": "solid", "thickness": 1 }, "geometry": { "type": "LineString", "coordinates": [ [ -83.162584638888902, 27.914107583333333 ], [ -83.163743555555556, 27.913907138888888 ], [ -83.164840833333344, 27.913519916666665 ], [ -83.165838611111113, 27.91295925 ], [ -83.166702583333333, 27.912244416666667 ], [ -83.16740297222222, 27.911400083333334 ], [ -83.167915666666673, 27.910455333333331 ], [ -83.168222972222225, 27.909442666666664 ], [ -83.168314361111115, 27.908397027777777 ] ] } },
{ "type": "Feature", "properties": { "style": "solid", "thickness": 1 }, "geometry": { "type": "LineString", "coordinates": [ [ -83.168314361111115, 27.908397027777777 ], [ -83.168540055555567, 27.909426472222222 ], [ -83.168976, 27.910401166666666 ], [ -83.169607194444453, 27.9112875 ], [ -83.170411888888893, 27.912054972222222 ], [ -83.171362416666668, 27.912677111111108 ], [ -83.172425972222229, 27.9131325 ], [ -83.173565972222221, 27.91340547222222 ], [ -83.174743111111113, 27.913486583333331 ] ] } },
{ "type": "Feature", "properties": { "style": "solid", "thickness": 1 }, "geometry": { "type": "LineString", "coordinates": [ [ -83.174743111111113, 27.913486583333331 ], [ -83.173584194444445, 27.913687111111109 ], [ -83.172486972222231, 27.914074416666665 ], [ -83.171489194444447, 27.914635138888887 ], [ -83.17062525, 27.91535 ], [ -83.169924861111113, 27.916194333333333 ], [ -83.169412166666675, 27.917139111111112 ], [ -83.169104833333336, 27.91815175 ], [ -83.169013444444445, 27.919197416666666 ] ] } },
{ "type": "Feature", "properties": { "style": "solid", "thickness": 1 }, "geometry": { "type": "LineString", "coordinates": [ [ -82.609522388888877, 28.00705411111111 ], [ -82.609607638888889, 28.007888083333334 ], [ -82.609859333333333, 28.008695166666666 ], [ -82.610269333333321, 28.009449388888889 ], [ -82.610824527777766, 28.0101265 ], [ -82.611507, 28.01070475 ], [ -82.61229486111111, 28.011165555555557 ], [ -82.613162777777774, 28.011494083333332 ], [ -82.6140828611111, 28.011679805555556 ], [ -82.615025527777775, 28.01171675 ], [ -82.61596044444444, 28.011603694444446 ], [ -82.616857611111101, 28.011344277777777 ], [ -82.617688166666653, 28.010946888888888 ], [ -82.618425416666653, 28.01042425 ], [ -82.619045638888878, 28.009793166666668 ], [ -82.61952894444444, 28.009073944444445 ], [ -82.619859749999989, 28.008289694444443 ], [ -82.620027472222219, 28.007465611111112 ], [ -82.620026694444434, 28.006628194444446 ], [ -82.619857472222222, 28.00580436111111 ], [ -82.619525222222222, 28.005020583333334 ], [ -82.619040638888876, 28.004302055555556 ], [ -82.618419305555548, 28.003671861111112 ], [ -82.617681166666657, 28.003150277777777 ], [ -82.616849972222212, 28.002754027777776 ], [ -82.615952444444446, 28.002495888888888 ], [ -82.615017388888887, 28.002384111111112 ], [ -82.614074861111106, 28.002422333333332 ], [ -82.613155194444445, 28.002609305555556 ], [ -82.612287888888886, 28.002939 ], [ -82.611500861111111, 28.00340086111111 ], [ -82.610819388888885, 28.00398 ], [ -82.610265361111104, 28.004657861111109 ], [ -82.609856611111098, 28.005412611111112 ], [ -82.609606277777772, 28.00622 ], [ -82.609522388888877, 28.00705411111111 ] ] } },
{ "type": "Feature", "properties": { "style": "solid", "thickness": 1 }, "geometry": { "type": "LineString", "coordinates": [ [ -82.602608916666668, 28.00762261111111 ], [ -82.604931611111112, 28.007230972222221 ], [ -82.60713275, 28.006465083333332 ], [ -82.6091365, 28.00535138888889 ], [ -82.610873805555556, 28.003928194444445 ], [ -82.612284861111107, 28.002244583333333 ], [ -82.613321027777772, 28.000358527777777 ], [ -82.613946694444437, 27.998335027777777 ], [ -82.614140277777778, 27.996243722222225 ] ] } },
{ "type": "Feature", "properties": { "style": "solid", "thickness": 1 }, "geometry": { "type": "LineString", "coordinates": [ [ -82.614140277777778, 27.996243722222225 ], [ -82.614581722222212, 27.998305166666668 ], [ -82.61544475, 28.000258666666667 ], [ -82.616699666666662, 28.002037 ], [ -82.61830322222221, 28.003578861111112 ], [ -82.620200222222209, 28.004831138888889 ], [ -82.622325333333322, 28.005750694444444 ], [ -82.624605305555548, 28.006305861111112 ], [ -82.626961611111099, 28.0064775 ] ] } },
{ "type": "Feature", "properties": { "style": "solid", "thickness": 1 }, "geometry": { "type": "LineString", "coordinates": [ [ -82.615430499999988, 28.017857444444445 ], [ -82.615624111111103, 28.015766166666666 ], [ -82.616249805555555, 28.013742638888889 ], [ -82.617286027777766, 28.011856555555557 ], [ -82.618697083333331, 28.010172861111112 ], [ -82.620434333333321, 28.008749583333334 ], [ -82.622437972222215, 28.007635666666665 ], [ -82.624639, 28.006869527777777 ], [ -82.626961611111099, 28.0064775 ] ] } },
{ "type": "Feature", "properties": { "style": "solid", "thickness": 1 }, "geometry": { "type": "LineString", "coordinates": [ [ -82.615430499999988, 28.017857444444445 ], [ -82.614988972222221, 28.015796027777778 ], [ -82.614125833333333, 28.0138425 ], [ -82.612870833333332, 28.012064166666665 ], [ -82.61126722222221, 28.01052225 ], [ -82.609370194444438, 28.009269833333335 ], [ -82.607245138888885, 28.008350083333333 ], [ -82.604965222222219, 28.007794611111112 ], [ -82.602608916666668, 28.00762261111111 ] ] } }
]
}
