{
"type": "FeatureCollection",
"name": "tpa807sgp",
"features": [
{ "type": "Feature", "properties": { "style": "solid", "thickness": 1 }, "geometry": { "type": "LineString", "coordinates": [ [ -82.521223194444445, 27.986027333333336 ], [ -82.521223194444445, 27.987861555555558 ] ] } },
{ "type": "Feature", "properties": { "style": "solid", "thickness": 1 }, "geometry": { "type": "LineString", "coordinates": [ [ -82.520706611111109, 27.985843888888891 ], [ -82.520706638888882, 27.988045 ] ] } },
{ "type": "Feature", "properties": { "style": "solid", "thickness": 1 }, "geometry": { "type": "LineString", "coordinates": [ [ -82.52019005555556, 27.985843888888891 ], [ -82.52019005555556, 27.988045 ] ] } },
{ "type": "Feature", "properties": { "style": "solid", "thickness": 1 }, "geometry": { "type": "LineString", "coordinates": [ [ -82.519673472222223, 27.986027305555556 ], [ -82.519673472222223, 27.987861555555558 ] ] } },
{ "type": "Feature", "properties": { "style": "solid", "thickness": 1 }, "geometry": { "type": "LineString", "coordinates": [ [ -82.519156888888887, 27.986944444444447 ], [ -82.519164916666668, 27.987074472222222 ], [ -82.51919075, 27.98721038888889 ], [ -82.519236861111111, 27.987349666666667 ], [ -82.519305138888882, 27.987488916666667 ], [ -82.519396611111105, 27.987624222222223 ], [ -82.519511083333327, 27.987751194444446 ], [ -82.519646944444446, 27.987865333333335 ], [ -82.519801222222227, 27.987962638888892 ], [ -82.519969666666668, 27.988039833333335 ], [ -82.520147166666661, 27.988094833333335 ], [ -82.52032825, 27.988126916666669 ], [ -82.520507638888887, 27.988136694444446 ], [ -82.520680666666664, 27.988125861111111 ], [ -82.520843583333331, 27.98809702777778 ], [ -82.52099375, 27.988053222222224 ], [ -82.521129583333334, 27.987997583333335 ], [ -82.521253638888894, 27.987931305555556 ], [ -82.52137477777778, 27.98784913888889 ], [ -82.52149030555556, 27.987749833333336 ], [ -82.521596222222215, 27.987633305555555 ], [ -82.521688111111104, 27.987500416666666 ], [ -82.521761722222223, 27.987353111111112 ], [ -82.521813222222221, 27.9871945 ], [ -82.52183975, 27.987028611111111 ], [ -82.521839722222225, 27.98686025 ], [ -82.521813222222221, 27.986694388888889 ], [ -82.521761722222223, 27.986535777777778 ], [ -82.521688111111104, 27.986388472222224 ], [ -82.521596194444442, 27.986255555555555 ], [ -82.52149030555556, 27.986139027777778 ], [ -82.52137475, 27.98603975 ], [ -82.521253611111106, 27.985957555555558 ], [ -82.521129583333334, 27.985891305555558 ], [ -82.52099375, 27.985835666666667 ], [ -82.520843583333331, 27.985791861111114 ], [ -82.520680666666664, 27.985763027777779 ], [ -82.520507638888887, 27.985752194444444 ], [ -82.52032825, 27.985761972222225 ], [ -82.520147166666661, 27.985794055555555 ], [ -82.519969666666668, 27.985849055555555 ], [ -82.519801222222227, 27.98592625 ], [ -82.519646944444446, 27.986023527777778 ], [ -82.519511083333327, 27.986137694444444 ], [ -82.519396611111105, 27.98626463888889 ], [ -82.519305138888882, 27.986399944444447 ], [ -82.519236861111111, 27.986539222222223 ], [ -82.51919075, 27.986678472222223 ], [ -82.519164916666668, 27.986814388888888 ], [ -82.519156888888887, 27.986944444444447 ] ] } },
{ "type": "Feature", "properties": { "style": "solid", "thickness": 1 }, "geometry": { "type": "LineString", "coordinates": [ [ -82.561720944444446, 27.55151013888889 ], [ -82.574034777777769, 27.550061166666666 ], [ -82.586213555555545, 27.547887694444444 ], [ -82.59820358333333, 27.544999333333337 ], [ -82.609952055555553, 27.541408777777779 ], [ -82.621407194444444, 27.537131861111114 ], [ -82.632518611111109, 27.532187416666666 ], [ -82.643237388888892, 27.52659725 ], [ -82.653516361111116, 27.520385972222222 ], [ -82.663310333333342, 27.513580944444445 ], [ -82.672576333333339, 27.506212111111111 ], [ -82.681273611111109, 27.498311916666669 ], [ -82.689364055555558, 27.48991513888889 ], [ -82.696812166666675, 27.481058722222219 ], [ -82.703585361111109, 27.471781638888888 ], [ -82.709654027777788, 27.462124694444444 ], [ -82.714991666666663, 27.452130333333333 ], [ -82.719575, 27.4418425 ], [ -82.723384111111116, 27.431306416666668 ], [ -82.7264025, 27.420568333333335 ], [ -82.728617111111106, 27.4096755 ], [ -82.730018472222227, 27.398675666666666 ], [ -82.730091, 27.397842944444445 ] ] } },
{ "type": "Feature", "properties": { "style": "solid", "thickness": 1 }, "geometry": { "type": "LineString", "coordinates": [ [ -82.715404555555565, 27.643986805555556 ], [ -82.729532, 27.636091694444445 ], [ -82.743202527777783, 27.627583833333333 ], [ -82.756382722222227, 27.618484055555555 ], [ -82.769040388888882, 27.60881475 ], [ -82.781144555555557, 27.598599611111108 ], [ -82.79266575, 27.587863666666667 ], [ -82.803575916666659, 27.576633277777777 ], [ -82.813848472222219, 27.564935916666666 ], [ -82.823458444444441, 27.552800277777777 ], [ -82.832382555555554, 27.540256083333336 ], [ -82.837428194444442, 27.532499333333334 ] ] } },
{ "type": "Feature", "properties": { "style": "solid", "thickness": 1 }, "geometry": { "type": "LineString", "coordinates": [ [ -82.737396888888895, 27.413671472222219 ], [ -82.718915111111116, 27.41096961111111 ] ] } },
{ "type": "Feature", "properties": { "style": "solid", "thickness": 1 }, "geometry": { "type": "LineString", "coordinates": [ [ -82.579644472222213, 27.557663055555555 ], [ -82.576186305555552, 27.541236444444447 ] ] } },
{ "type": "Feature", "properties": { "style": "solid", "thickness": 1 }, "geometry": { "type": "LineString", "coordinates": [ [ -82.670622305555554, 27.496188555555555 ], [ -82.684030722222232, 27.507866972222221 ] ] } },
{ "type": "Feature", "properties": { "style": "solid", "thickness": 1 }, "geometry": { "type": "LineString", "coordinates": [ [ -82.77796925, 27.589579027777777 ], [ -82.791400416666661, 27.601246861111111 ] ] } },
{ "type": "Feature", "properties": { "style": "solid", "thickness": 1 }, "geometry": { "type": "LineString", "coordinates": [ [ -82.720754611111118, 27.397215722222221 ], [ -82.7394275, 27.398469527777777 ] ] } },
{ "type": "Feature", "properties": { "style": "solid", "thickness": 1 }, "geometry": { "type": "LineString", "coordinates": [ [ -82.560802833333327, 27.543193638888891 ], [ -82.562639194444444, 27.559826611111113 ] ] } },
{ "type": "Feature", "properties": { "style": "solid", "thickness": 1 }, "geometry": { "type": "LineString", "coordinates": [ [ -82.814183055555546, 27.550110583333336 ], [ -82.82968175, 27.559519138888888 ] ] } },
{ "type": "Feature", "properties": { "style": "solid", "thickness": 1 }, "geometry": { "type": "LineString", "coordinates": [ [ -82.829249722222215, 27.528415583333331 ], [ -82.845607277777773, 27.536582611111111 ] ] } },
{ "type": "Feature", "properties": { "style": "solid", "thickness": 1 }, "geometry": { "type": "LineString", "coordinates": [ [ -82.734588444444441, 27.622831416666667 ], [ -82.74553933333334, 27.63640336111111 ] ] } },
{ "type": "Feature", "properties": { "style": "solid", "thickness": 1 }, "geometry": { "type": "LineString", "coordinates": [ [ -82.710615277777777, 27.636800694444442 ], [ -82.720194444444445, 27.65117275 ] ] } },
{ "type": "Feature", "properties": { "style": "solid", "thickness": 1 }, "geometry": { "type": "LineString", "coordinates": [ [ -82.553569722222221, 27.375890972222223 ], [ -82.551650194444449, 27.380137527777777 ], [ -82.54899669444444, 27.384056555555556 ], [ -82.545677083333331, 27.387547805555556 ], [ -82.541776222222225, 27.390521916666668 ], [ -82.537393916666659, 27.392902805555554 ], [ -82.533199111111117, 27.394467166666665 ] ] } },
{ "type": "Feature", "properties": { "style": "solid", "thickness": 1 }, "geometry": { "type": "LineString", "coordinates": [ [ -82.553569722222221, 27.375890972222223 ], [ -82.548854416666671, 27.377696944444445 ], [ -82.544521611111108, 27.380150555555556 ], [ -82.540682, 27.383189111111111 ], [ -82.537433722222218, 27.386735027777778 ], [ -82.534859833333329, 27.390697638888888 ], [ -82.533199111111117, 27.394467166666665 ] ] } },
{ "type": "Feature", "properties": { "style": "solid", "thickness": 1 }, "geometry": { "type": "LineString", "coordinates": [ [ -82.816492388888889, 27.613164305555557 ], [ -82.812573222222213, 27.613354916666669 ], [ -82.810428083333335, 27.611527305555558 ], [ -82.810113555555546, 27.610818138888892 ], [ -82.80980641666666, 27.610229333333336 ], [ -82.809717916666671, 27.608784722222225 ], [ -82.810192111111107, 27.607675 ], [ -82.81093658333333, 27.60655213888889 ], [ -82.811717888888893, 27.606031166666668 ], [ -82.812236305555558, 27.60564375 ], [ -82.81329525, 27.605230027777779 ], [ -82.81572766666666, 27.605111722222222 ], [ -82.816830861111114, 27.605420277777778 ], [ -82.817678583333333, 27.60598275 ], [ -82.818405944444436, 27.606792555555558 ], [ -82.818870388888882, 27.60773588888889 ], [ -82.819057222222213, 27.608572 ], [ -82.819131055555545, 27.609775833333334 ], [ -82.819032833333324, 27.610384333333336 ], [ -82.818671694444447, 27.611126361111111 ], [ -82.818153277777768, 27.611513833333333 ], [ -82.816492388888889, 27.613164305555557 ], [ -82.817767722222214, 27.614068194444446 ], [ -82.818502527777767, 27.614998388888889 ], [ -82.818809722222213, 27.615587138888891 ], [ -82.818927861111106, 27.617513277777778 ], [ -82.818340722222217, 27.618990777777778 ], [ -82.817957416666658, 27.619371666666666 ], [ -82.816770583333323, 27.619912361111112 ], [ -82.815981805555552, 27.620312972222223 ], [ -82.814224833333327, 27.620398416666667 ], [ -82.812986305555555, 27.620096416666666 ], [ -82.811148222222215, 27.61885761111111 ], [ -82.810841027777769, 27.618268805555555 ], [ -82.810708277777778, 27.616101888888892 ], [ -82.81104, 27.614878361111113 ], [ -82.81116775, 27.614751388888891 ], [ -82.811813972222225, 27.614237027777779 ], [ -82.812573222222213, 27.613354916666669 ] ] } },
{ "type": "Feature", "properties": { "style": "solid", "thickness": 1 }, "geometry": { "type": "LineString", "coordinates": [ [ -82.793644666666665, 27.620793972222224 ], [ -82.794485027777782, 27.621236194444446 ], [ -82.795445805555559, 27.621431083333334 ], [ -82.798689527777782, 27.62127375 ], [ -82.799891194444442, 27.620973944444444 ], [ -82.800289305555552, 27.620833888888889 ], [ -82.802250305555546, 27.619652027777779 ], [ -82.803393027777773, 27.61838913888889 ], [ -82.803724805555547, 27.617165611111112 ], [ -82.80453822222222, 27.61495275 ], [ -82.804368777777782, 27.61218391666667 ], [ -82.80401744444444, 27.610872805555555 ], [ -82.803545722222225, 27.609809027777779 ], [ -82.802931527777773, 27.608631416666668 ], [ -82.801499138888886, 27.607372805555556 ], [ -82.798857916666663, 27.606293555555556 ], [ -82.797079055555557, 27.60601763888889 ], [ -82.795592555555558, 27.60608975 ], [ -82.793722722222213, 27.606542638888889 ], [ -82.793069111111109, 27.606936555555556 ], [ -82.79254325, 27.607203527777781 ] ] } },
{ "type": "Feature", "properties": { "style": "solid", "thickness": 1 }, "geometry": { "type": "LineString", "coordinates": [ [ -82.496619361111115, 27.379294277777777 ], [ -82.489255277777772, 27.364303333333336 ], [ -82.483940888888895, 27.379882416666668 ] ] } },
{ "type": "Feature", "properties": { "style": "solid", "thickness": 1 }, "geometry": { "type": "LineString", "coordinates": [ [ -82.552880361111107, 27.526735944444443 ], [ -82.553092944444444, 27.530347916666667 ], [ -82.553618611111105, 27.53237575 ], [ -82.553945444444437, 27.533326333333331 ], [ -82.554393166666671, 27.53402975 ], [ -82.556099, 27.535398722222222 ], [ -82.557755222222212, 27.535924861111113 ], [ -82.558295472222213, 27.535899555555556 ], [ -82.559880777777778, 27.535221694444445 ], [ -82.561281305555553, 27.533707333333336 ], [ -82.561778972222214, 27.53295961111111 ], [ -82.561992333333336, 27.531983777777778 ], [ -82.562276861111101, 27.529918027777775 ], [ -82.562063944444446, 27.526306055555555 ], [ -82.561538166666665, 27.524278222222222 ], [ -82.56121130555556, 27.523327694444443 ], [ -82.56062852777778, 27.522630611111111 ], [ -82.559057888888887, 27.521255388888889 ], [ -82.55740188888889, 27.52072925 ], [ -82.556861694444436, 27.520754527777775 ], [ -82.555276583333324, 27.521432388888886 ], [ -82.553741083333335, 27.522953 ], [ -82.553378444444448, 27.523694361111112 ], [ -82.55316502777778, 27.524670194444443 ], [ -82.552880361111107, 27.526735944444443 ] ] } },
{ "type": "Feature", "properties": { "style": "solid", "thickness": 1 }, "geometry": { "type": "LineString", "coordinates": [ [ -82.593142277777773, 27.569921194444444 ], [ -82.593356277777772, 27.573533111111111 ], [ -82.593882888888885, 27.575560777777778 ], [ -82.594210194444443, 27.576511222222223 ], [ -82.594658333333328, 27.577214527777777 ], [ -82.596365333333324, 27.578582972222222 ], [ -82.598022416666666, 27.57910863888889 ], [ -82.598562861111105, 27.579083194444443 ], [ -82.600148527777776, 27.57840486111111 ], [ -82.601549083333325, 27.576890083333332 ], [ -82.602046666666666, 27.57614225 ], [ -82.602259749999988, 27.575166361111112 ], [ -82.602543611111102, 27.573100527777779 ], [ -82.602329305555557, 27.569488638888888 ], [ -82.601802583333324, 27.567461 ], [ -82.60147525, 27.566510555555556 ], [ -82.600892, 27.565813638888891 ], [ -82.599320222222218, 27.56443886111111 ], [ -82.597663361111103, 27.563913222222222 ], [ -82.597123, 27.563938666666669 ], [ -82.5955375, 27.564616972222222 ], [ -82.594001944444443, 27.566138027777779 ], [ -82.593639444444435, 27.5668795 ], [ -82.593426305555553, 27.567855388888887 ], [ -82.593142277777773, 27.569921194444444 ] ] } },
{ "type": "Feature", "properties": { "style": "solid", "thickness": 1 }, "geometry": { "type": "LineString", "coordinates": [ [ -82.701405861111112, 27.515633416666667 ], [ -82.701623305555557, 27.519245166666664 ], [ -82.702151638888893, 27.521272444444442 ], [ -82.702479694444449, 27.522222638888888 ], [ -82.702928333333332, 27.522925611111109 ], [ -82.704635833333342, 27.524292722222221 ], [ -82.706292583333337, 27.524817111111108 ], [ -82.70683275, 27.52479122222222 ], [ -82.708416972222224, 27.524111666666666 ], [ -82.709815333333339, 27.522595777777777 ], [ -82.710311944444442, 27.521847555555553 ], [ -82.710523972222219, 27.5208715 ], [ -82.710805666666673, 27.518805416666666 ], [ -82.710587944444441, 27.515193694444445 ], [ -82.710059472222227, 27.513166444444444 ], [ -82.70973136111111, 27.51221625 ], [ -82.709147722222227, 27.511519777777778 ], [ -82.707575388888898, 27.51014625 ], [ -82.705918833333342, 27.509621888888891 ], [ -82.705378722222221, 27.50964775 ], [ -82.703794694444454, 27.510327305555556 ], [ -82.702261388888886, 27.511849555555557 ], [ -82.701899805555556, 27.512591305555556 ], [ -82.701687722222232, 27.513567361111111 ], [ -82.701405861111112, 27.515633416666667 ] ] } },
{ "type": "Feature", "properties": { "style": "solid", "thickness": 1 }, "geometry": { "type": "LineString", "coordinates": [ [ -82.685054638888886, 27.525228805555553 ], [ -82.685893833333338, 27.525671722222221 ], [ -82.686853611111118, 27.525867361111111 ], [ -82.690094666666667, 27.525712583333334 ], [ -82.691295583333343, 27.525413722222222 ], [ -82.691693472222227, 27.525273972222223 ], [ -82.693653972222222, 27.524093638888889 ], [ -82.694796944444448, 27.522831611111108 ], [ -82.695129638888886, 27.521608333333333 ], [ -82.695944555555556, 27.519396083333334 ], [ -82.695777972222231, 27.516627055555556 ], [ -82.69542825, 27.515315666666666 ], [ -82.694958, 27.5142515 ], [ -82.694345472222224, 27.513073388888888 ], [ -82.692915583333331, 27.511813611111112 ], [ -82.690277694444447, 27.510732305555557 ], [ -82.68850066666667, 27.510454972222224 ], [ -82.687015388888895, 27.510525916666666 ], [ -82.685146722222228, 27.510977361111109 ], [ -82.684493277777776, 27.51137075 ], [ -82.683967611111115, 27.511637333333333 ] ] } },
{ "type": "Feature", "properties": { "style": "solid", "thickness": 1 }, "geometry": { "type": "LineString", "coordinates": [ [ -82.7579945, 27.422642083333333 ], [ -82.75821358333333, 27.426253777777777 ], [ -82.758742527777784, 27.428280861111112 ], [ -82.759070805555552, 27.429230944444445 ], [ -82.75951938888889, 27.429933722222223 ], [ -82.761226138888887, 27.431300194444447 ], [ -82.762881777777778, 27.431823888888889 ], [ -82.7634215, 27.431797777777778 ], [ -82.765004027777778, 27.431117555555556 ], [ -82.766400444444443, 27.429601111111111 ], [ -82.76689625, 27.428852694444444 ], [ -82.767107583333328, 27.42787652777778 ], [ -82.767388, 27.425810333333335 ], [ -82.767168611111117, 27.42219863888889 ], [ -82.766639555555557, 27.420171583333335 ], [ -82.766311222222228, 27.419221527777779 ], [ -82.765727722222223, 27.418525277777778 ], [ -82.764156027777773, 27.417152361111111 ], [ -82.762500583333335, 27.416628694444444 ], [ -82.761960972222226, 27.416654777777776 ], [ -82.760378611111108, 27.417334944444445 ], [ -82.758847361111108, 27.418857861111114 ], [ -82.758486472222216, 27.41959975 ], [ -82.758275083333331, 27.420575916666667 ], [ -82.7579945, 27.422642083333333 ] ] } },
{ "type": "Feature", "properties": { "style": "solid", "thickness": 1 }, "geometry": { "type": "LineString", "coordinates": [ [ -82.751977861111115, 27.417136944444447 ], [ -82.752904611111106, 27.432426527777778 ], [ -82.746967833333329, 27.432712916666667 ], [ -82.745334138888893, 27.432550194444445 ], [ -82.744637638888889, 27.432221555555557 ], [ -82.743507194444447, 27.431430833333334 ], [ -82.741807944444446, 27.430184583333336 ], [ -82.740633833333334, 27.4286715 ], [ -82.740291166666665, 27.427480583333335 ], [ -82.740050777777782, 27.423507694444446 ], [ -82.740255055555551, 27.422411166666667 ], [ -82.740977138888894, 27.420927472222225 ], [ -82.741870527777778, 27.420039222222222 ], [ -82.742749333333336, 27.418910194444447 ], [ -82.744047416666675, 27.418002444444447 ], [ -82.745644472222224, 27.417563222222224 ], [ -82.746581527777778, 27.417397277777781 ], [ -82.751977861111115, 27.417136944444447 ] ] } },
{ "type": "Feature", "properties": { "style": "solid", "thickness": 1 }, "geometry": { "type": "LineString", "coordinates": [ [ -82.82531788888889, 27.516264611111112 ], [ -82.821402166666658, 27.516455444444443 ], [ -82.819258777777776, 27.514627944444445 ], [ -82.818944472222213, 27.513918805555555 ], [ -82.818637555555554, 27.513330027777776 ], [ -82.81854905555555, 27.511885388888889 ], [ -82.81902275, 27.510775611111111 ], [ -82.81976644444444, 27.509652694444444 ], [ -82.820547055555551, 27.509131694444445 ], [ -82.821064972222217, 27.508744222222223 ], [ -82.822122944444445, 27.508330416666666 ], [ -82.824553222222221, 27.508211972222224 ], [ -82.825655472222223, 27.508520472222223 ], [ -82.826502499999989, 27.509082888888887 ], [ -82.82722925, 27.509892666666666 ], [ -82.827693388888889, 27.510836 ], [ -82.827880111111114, 27.51167211111111 ], [ -82.827953972222218, 27.512875944444446 ], [ -82.827855861111104, 27.513484444444444 ], [ -82.827495111111105, 27.51422652777778 ], [ -82.826977194444439, 27.514614027777778 ], [ -82.82531788888889, 27.516264611111112 ], [ -82.826592166666657, 27.517168444444444 ], [ -82.827326388888892, 27.518098583333334 ], [ -82.827633361111111, 27.518687333333332 ], [ -82.827751555555551, 27.5206135 ], [ -82.827165027777781, 27.522091027777776 ], [ -82.826782083333327, 27.522471944444444 ], [ -82.825596333333323, 27.52301275 ], [ -82.824808277777777, 27.523413388888887 ], [ -82.823052861111108, 27.523498944444444 ], [ -82.821815416666666, 27.523197 ], [ -82.819978833333323, 27.521958305555554 ], [ -82.819671888888891, 27.521369527777775 ], [ -82.819539083333325, 27.519202583333332 ], [ -82.81987041666666, 27.517979 ], [ -82.819998055555558, 27.517852055555554 ], [ -82.820643666666669, 27.51733761111111 ], [ -82.821402166666658, 27.516455444444443 ] ] } },
{ "type": "Feature", "properties": { "style": "solid", "thickness": 1 }, "geometry": { "type": "LineString", "coordinates": [ [ -82.858297583333325, 27.57013475 ], [ -82.854380027777779, 27.570326527777777 ], [ -82.852235055555553, 27.568499555555555 ], [ -82.851920361111112, 27.567790472222221 ], [ -82.851613138888879, 27.567201777777779 ], [ -82.851524138888877, 27.565757194444444 ], [ -82.851997722222222, 27.564647305555557 ], [ -82.85274147222222, 27.563524222222224 ], [ -82.85352227777777, 27.563003027777778 ], [ -82.85404033333333, 27.562615444444447 ], [ -82.855098722222223, 27.562201388888891 ], [ -82.85753013888889, 27.562082361111113 ], [ -82.858633027777771, 27.562390583333332 ], [ -82.85948061111111, 27.562952805555557 ], [ -82.860207972222213, 27.56376238888889 ], [ -82.860672611111099, 27.564705611111112 ], [ -82.860859694444443, 27.565541666666668 ], [ -82.86093394444444, 27.566745472222223 ], [ -82.860835972222219, 27.567354027777778 ], [ -82.860475277777766, 27.568096166666667 ], [ -82.859957222222221, 27.568483777777779 ], [ -82.858297583333325, 27.57013475 ], [ -82.859572777777771, 27.57103825 ], [ -82.860307638888884, 27.57196825 ], [ -82.860614944444436, 27.572556916666667 ], [ -82.86073375, 27.574483027777777 ], [ -82.860147388888876, 27.575960694444444 ], [ -82.859764388888877, 27.576341694444444 ], [ -82.858578222222221, 27.57688275 ], [ -82.857789916666661, 27.57728361111111 ], [ -82.856033638888889, 27.577369583333333 ], [ -82.854795527777767, 27.577067944444444 ], [ -82.852957666666654, 27.575829666666667 ], [ -82.85265038888889, 27.575240972222222 ], [ -82.852516888888886, 27.573074083333331 ], [ -82.852847972222222, 27.571850444444443 ], [ -82.852975638888879, 27.571723444444444 ], [ -82.853621444444443, 27.57120886111111 ], [ -82.854380027777779, 27.570326527777777 ] ] } },
{ "type": "Feature", "properties": { "style": "solid", "thickness": 1 }, "geometry": { "type": "LineString", "coordinates": [ [ -82.845778277777768, 27.562657305555557 ], [ -82.846719333333326, 27.577945944444444 ], [ -82.840775, 27.578236361111109 ], [ -82.839139, 27.578074777777779 ], [ -82.838441277777775, 27.57774661111111 ], [ -82.837308694444445, 27.576956694444444 ], [ -82.835606138888878, 27.575711583333334 ], [ -82.834429194444439, 27.574199333333333 ], [ -82.834085027777775, 27.573008694444443 ], [ -82.833840944444447, 27.569036027777777 ], [ -82.83404455555555, 27.567939388888888 ], [ -82.834766305555547, 27.56645525 ], [ -82.83566011111111, 27.565566416666666 ], [ -82.836539111111108, 27.564436805555555 ], [ -82.837838138888884, 27.563528166666668 ], [ -82.839436916666656, 27.563087861111111 ], [ -82.840375055555555, 27.562921305555555 ], [ -82.845778277777768, 27.562657305555557 ] ] } },
{ "type": "Feature", "properties": { "style": "solid", "thickness": 1 }, "geometry": { "type": "LineString", "coordinates": [ [ -82.767894444444437, 27.648227222222221 ], [ -82.763973944444444, 27.648416444444443 ], [ -82.761828916666673, 27.646588111111111 ], [ -82.76151461111111, 27.645878833333335 ], [ -82.761207611111118, 27.645289916666666 ], [ -82.76111975, 27.643845277777778 ], [ -82.761594583333334, 27.642735722222223 ], [ -82.762339777777783, 27.641613111111109 ], [ -82.76312158333333, 27.641092444444443 ], [ -82.763640333333328, 27.640705194444443 ], [ -82.764699805555551, 27.640291833333333 ], [ -82.767133027777774, 27.640174388888887 ], [ -82.76823644444444, 27.640483333333332 ], [ -82.769084194444446, 27.641046083333332 ], [ -82.76981141666667, 27.641856166666667 ], [ -82.770275611111117, 27.642799666666665 ], [ -82.770462111111115, 27.643635833333335 ], [ -82.770535444444448, 27.644839694444443 ], [ -82.770436916666668, 27.645448138888888 ], [ -82.770075361111111, 27.646190055555554 ], [ -82.769556611111113, 27.646577333333333 ], [ -82.767894444444437, 27.648227222222221 ], [ -82.769169805555549, 27.649131555555556 ], [ -82.769904416666662, 27.650062 ], [ -82.770211472222215, 27.65065086111111 ], [ -82.770328777777777, 27.652577027777777 ], [ -82.769740805555557, 27.654054305555555 ], [ -82.769357194444439, 27.654435055555552 ], [ -82.76816975, 27.654975361111109 ], [ -82.767380555555548, 27.655375666666664 ], [ -82.765622972222218, 27.6554605 ], [ -82.764384194444446, 27.655158083333333 ], [ -82.762546055555561, 27.653918611111109 ], [ -82.762239027777781, 27.653329722222221 ], [ -82.76210719444444, 27.651162777777778 ], [ -82.762439555555559, 27.649939361111112 ], [ -82.76256741666667, 27.649812444444443 ], [ -82.763214083333338, 27.649298277777778 ], [ -82.763973944444444, 27.648416444444443 ] ] } },
{ "type": "Feature", "properties": { "style": "solid", "thickness": 1 }, "geometry": { "type": "LineString", "coordinates": [ [ -82.707751166666668, 27.621995333333334 ], [ -82.70383147222222, 27.62218286111111 ], [ -82.701687972222231, 27.620353583333333 ], [ -82.701374111111107, 27.619644166666667 ], [ -82.701067527777781, 27.619055138888889 ], [ -82.700980472222227, 27.617610444444445 ], [ -82.701455805555554, 27.616501083333336 ], [ -82.702201416666668, 27.615378805555558 ], [ -82.702983333333336, 27.614858444444447 ], [ -82.703502166666667, 27.614471416666667 ], [ -82.704561611111117, 27.614058527777779 ], [ -82.706994333333341, 27.613942138888891 ], [ -82.708097333333342, 27.614251555555558 ], [ -82.708944555555561, 27.614814694444444 ], [ -82.709671166666666, 27.615625083333335 ], [ -82.710134722222222, 27.616568777777779 ], [ -82.71032075, 27.617405027777778 ], [ -82.710393388888889, 27.618608944444446 ], [ -82.710294555555564, 27.619217361111112 ], [ -82.709932666666674, 27.619959111111111 ], [ -82.709413833333329, 27.620346166666668 ], [ -82.707751166666668, 27.621995333333334 ], [ -82.709025722222222, 27.622900222222224 ], [ -82.709759638888897, 27.623831 ], [ -82.710066305555557, 27.62442 ], [ -82.710182527777775, 27.626346222222224 ], [ -82.709593861111117, 27.62782325 ], [ -82.709210166666665, 27.628203833333334 ], [ -82.708022694444452, 27.628743638888889 ], [ -82.707233472222228, 27.629143611111111 ], [ -82.70547625, 27.629227666666669 ], [ -82.704237944444444, 27.628924694444446 ], [ -82.702400916666676, 27.627684444444444 ], [ -82.702094277777775, 27.627095416666666 ], [ -82.701963666666671, 27.62492838888889 ], [ -82.702296611111109, 27.623705111111111 ], [ -82.702424527777779, 27.62357825 ], [ -82.703071305555554, 27.623064388888888 ], [ -82.70383147222222, 27.62218286111111 ] ] } },
{ "type": "Feature", "properties": { "style": "solid", "thickness": 1 }, "geometry": { "type": "LineString", "coordinates": [ [ -82.711754555555558, 27.382884027777777 ], [ -82.711972055555563, 27.386495805555555 ], [ -82.712499944444446, 27.388523083333332 ], [ -82.712827722222229, 27.389473277777778 ], [ -82.713275861111114, 27.390176222222223 ], [ -82.714981416666674, 27.39154325 ], [ -82.71663625, 27.3920675 ], [ -82.717175777777783, 27.392041583333334 ], [ -82.718758027777781, 27.391361888888888 ], [ -82.720154555555553, 27.389845888888889 ], [ -82.7206505, 27.389097611111112 ], [ -82.720862166666663, 27.388121527777777 ], [ -82.721143361111118, 27.386055416666665 ], [ -82.720925555555553, 27.382443638888891 ], [ -82.720397555555564, 27.380416388888889 ], [ -82.72006975, 27.379466222222224 ], [ -82.71948675, 27.378769777777777 ], [ -82.717916166666669, 27.377396333333333 ], [ -82.716261555555562, 27.376872083333335 ], [ -82.71572211111112, 27.376898 ], [ -82.714140055555561, 27.377577666666667 ], [ -82.712608722222228, 27.379100055555558 ], [ -82.712247638888897, 27.379841833333334 ], [ -82.712035888888892, 27.380817916666668 ], [ -82.711754555555558, 27.382884027777777 ] ] } },
{ "type": "Feature", "properties": { "style": "solid", "thickness": 1 }, "geometry": { "type": "LineString", "coordinates": [ [ -82.522604055555561, 27.370358388888889 ], [ -82.514916777777785, 27.37071661111111 ] ] } },
{ "type": "Feature", "properties": { "style": "solid", "thickness": 1 }, "geometry": { "type": "LineString", "coordinates": [ [ -82.51496244444445, 27.378441277777778 ], [ -82.523054888888893, 27.378064194444445 ], [ -82.522160361111105, 27.362773 ] ] } },
{ "type": "Feature", "properties": { "style": "solid", "thickness": 1 }, "geometry": { "type": "LineString", "coordinates": [ [ -82.509387305555549, 27.370974027777777 ], [ -82.501699916666666, 27.3713315 ] ] } },
{ "type": "Feature", "properties": { "style": "solid", "thickness": 1 }, "geometry": { "type": "LineString", "coordinates": [ [ -82.501744666666667, 27.379056166666668 ], [ -82.509837194444444, 27.378679861111113 ], [ -82.5089445, 27.363388583333336 ] ] } },
{ "type": "Feature", "properties": { "style": "solid", "thickness": 1 }, "geometry": { "type": "LineString", "coordinates": [ [ -82.547003305555549, 27.521215666666667 ], [ -82.54047391666667, 27.536853444444446 ], [ -82.532553166666659, 27.521890277777779 ] ] } },
{ "type": "Feature", "properties": { "style": "solid", "thickness": 1 }, "geometry": { "type": "LineString", "coordinates": [ [ -82.544862611111114, 27.526265638888887 ], [ -82.53513875, 27.526719611111112 ] ] } },
{ "type": "Feature", "properties": { "style": "solid", "thickness": 1 }, "geometry": { "type": "LineString", "coordinates": [ [ -82.587125805555544, 27.564409 ], [ -82.588030972222214, 27.579699416666667 ], [ -82.582356083333323, 27.579966083333332 ], [ -82.581140027777778, 27.580023194444443 ], [ -82.580151472222212, 27.579345222222223 ], [ -82.579426055555558, 27.578534166666667 ], [ -82.579397583333332, 27.578052583333331 ], [ -82.579255222222216, 27.575644611111112 ], [ -82.579368972222213, 27.575277083333333 ], [ -82.579717361111108, 27.57429488888889 ], [ -82.58099725, 27.573027472222222 ], [ -82.579603444444444, 27.572368527777776 ], [ -82.578906555555548, 27.572039027777777 ], [ -82.578195444444447, 27.571468777777778 ], [ -82.577726055555559, 27.570404222222223 ], [ -82.577541055555557, 27.567273861111111 ], [ -82.577896527777767, 27.566412055555556 ], [ -82.578799527777775, 27.565645277777779 ], [ -82.579446555555549, 27.565131972222222 ], [ -82.58010069444444, 27.564739055555556 ], [ -82.587125805555544, 27.564409 ] ] } },
{ "type": "Feature", "properties": { "style": "solid", "thickness": 1 }, "geometry": { "type": "LineString", "coordinates": [ [ -82.587617555555553, 27.572716388888889 ], [ -82.58099725, 27.573027472222222 ] ] } },
{ "type": "Feature", "properties": { "style": "solid", "thickness": 1 }, "geometry": { "type": "LineString", "coordinates": [ [ -82.805505777777782, 27.524473694444442 ], [ -82.813742916666669, 27.524073083333331 ], [ -82.812806916666659, 27.508784111111112 ], [ -82.804435888888889, 27.509191222222221 ] ] } },
{ "type": "Feature", "properties": { "style": "solid", "thickness": 1 }, "geometry": { "type": "LineString", "coordinates": [ [ -82.81327119444444, 27.516368388888889 ], [ -82.805304694444445, 27.516755861111111 ] ] } },
{ "type": "Feature", "properties": { "style": "solid", "thickness": 1 }, "geometry": { "type": "LineString", "coordinates": [ [ -82.755372333333327, 27.640741694444444 ], [ -82.756301527777779, 27.656030805555552 ], [ -82.750623111111111, 27.656304361111111 ], [ -82.749406305555553, 27.656362944444442 ], [ -82.748416055555552, 27.655686194444442 ], [ -82.747688888888888, 27.654876027777778 ], [ -82.747659666666664, 27.654394472222222 ], [ -82.7475135, 27.651986722222222 ], [ -82.747626777777782, 27.651619055555553 ], [ -82.747973888888893, 27.650636444444444 ], [ -82.74925275, 27.64936747222222 ], [ -82.747856972222223, 27.64871025 ], [ -82.747159083333329, 27.648381611111109 ], [ -82.746446611111111, 27.647812222222221 ], [ -82.745975277777774, 27.64674825 ], [ -82.74578533333333, 27.643618166666666 ], [ -82.74613975, 27.642755944444446 ], [ -82.747042194444447, 27.641988083333334 ], [ -82.747688888888888, 27.641474 ], [ -82.748342888888885, 27.641080277777778 ], [ -82.755372333333327, 27.640741694444444 ] ] } },
{ "type": "Feature", "properties": { "style": "solid", "thickness": 1 }, "geometry": { "type": "LineString", "coordinates": [ [ -82.755877138888891, 27.64904838888889 ], [ -82.74925275, 27.64936747222222 ] ] } },
{ "type": "Feature", "properties": { "style": "solid", "thickness": 1 }, "geometry": { "type": "LineString", "coordinates": [ [ -82.69537125, 27.614497888888891 ], [ -82.688857444444452, 27.630142416666668 ], [ -82.680909833333331, 27.615187944444447 ] ] } },
{ "type": "Feature", "properties": { "style": "solid", "thickness": 1 }, "geometry": { "type": "LineString", "coordinates": [ [ -82.693235583333333, 27.619550083333333 ], [ -82.683504083333332, 27.620014472222223 ] ] } },
{ "type": "Feature", "properties": { "style": "solid", "thickness": 1 }, "geometry": { "type": "LineString", "coordinates": [ [ -82.698434638888898, 27.393061055555556 ], [ -82.706662388888887, 27.392666805555557 ], [ -82.705742388888893, 27.377376833333333 ], [ -82.697380916666674, 27.3777775 ] ] } },
{ "type": "Feature", "properties": { "style": "solid", "thickness": 1 }, "geometry": { "type": "LineString", "coordinates": [ [ -82.706198722222226, 27.384961638888889 ], [ -82.698241305555555, 27.385342916666666 ] ] } }
]
}
