{
"type": "FeatureCollection",
"name": "tpa130sgp",
"features": [
{ "type": "Feature", "properties": { "style": "solid", "thickness": 1 }, "geometry": { "type": "LineString", "coordinates": [ [ -82.604194972222217, 27.834957055555556 ], [ -82.603716222222218, 27.83275463888889 ], [ -82.602410916666656, 27.828290944444444 ] ] } },
{ "type": "Feature", "properties": { "style": "solid", "thickness": 1 }, "geometry": { "type": "LineString", "coordinates": [ [ -82.602410916666656, 27.828290944444444 ], [ -82.60997688888888, 27.830228972222223 ], [ -82.617729555555556, 27.831452611111111 ], [ -82.621729916666666, 27.831797055555555 ] ] } },
{ "type": "Feature", "properties": { "style": "solid", "thickness": 1 }, "geometry": { "type": "LineString", "coordinates": [ [ -82.656268944444449, 27.82653488888889 ], [ -82.655373833333343, 27.826865138888888 ], [ -82.654155222222229, 27.827292722222221 ], [ -82.652928388888895, 27.827701305555554 ], [ -82.651693722222234, 27.828090805555554 ], [ -82.650451583333336, 27.828461055555554 ], [ -82.649202333333335, 27.828812 ], [ -82.64794641666667, 27.829143472222221 ], [ -82.646684138888901, 27.829455416666665 ], [ -82.645415944444451, 27.829747694444443 ], [ -82.644142194444456, 27.83002025 ], [ -82.642863305555565, 27.830273 ], [ -82.641579611111112, 27.83050586111111 ], [ -82.640291555555564, 27.83071875 ], [ -82.638999500000011, 27.830911611111112 ], [ -82.638210333333333, 27.83101686111111 ] ] } },
{ "type": "Feature", "properties": { "style": "solid", "thickness": 1 }, "geometry": { "type": "LineString", "coordinates": [ [ -82.68592625, 27.806568083333335 ], [ -82.68557, 27.806967055555557 ], [ -82.684737694444451, 27.807866416666666 ], [ -82.68388788888889, 27.808752694444443 ], [ -82.683020777777784, 27.809625694444446 ], [ -82.682136638888892, 27.810485055555556 ], [ -82.681235777777786, 27.811330583333334 ], [ -82.680318444444453, 27.812162 ], [ -82.67938488888889, 27.812979027777779 ], [ -82.678435444444446, 27.813781472222225 ], [ -82.677470388888892, 27.814569027777779 ], [ -82.67649, 27.8153415 ], [ -82.67549461111112, 27.816098638888889 ], [ -82.674484472222233, 27.816840194444445 ], [ -82.673459916666673, 27.817565944444443 ], [ -82.67251325, 27.81821286111111 ] ] } },
{ "type": "Feature", "properties": { "style": "solid", "thickness": 1 }, "geometry": { "type": "LineString", "coordinates": [ [ -82.701150527777784, 27.7763905 ], [ -82.7011215, 27.776545666666667 ], [ -82.700884111111108, 27.777691055555554 ], [ -82.700624277777777, 27.77883261111111 ], [ -82.700342055555552, 27.779969944444442 ], [ -82.700037583333341, 27.78110275 ], [ -82.699710888888887, 27.782230638888887 ], [ -82.699362138888887, 27.783353277777781 ], [ -82.698991388888899, 27.784470333333335 ], [ -82.698598777777775, 27.785581472222223 ], [ -82.698184416666678, 27.786686333333336 ], [ -82.697748444444443, 27.787784611111114 ], [ -82.697290944444447, 27.788875944444445 ], [ -82.696812111111115, 27.78996 ], [ -82.696312083333339, 27.791036472222224 ], [ -82.695790972222227, 27.792105027777779 ], [ -82.695675111111115, 27.792331694444446 ] ] } },
{ "type": "Feature", "properties": { "style": "solid", "thickness": 1 }, "geometry": { "type": "LineString", "coordinates": [ [ -82.698208972222233, 27.743418111111112 ], [ -82.698555805555557, 27.744337583333333 ], [ -82.698950583333342, 27.745448055555556 ], [ -82.699323527777779, 27.746564527777778 ], [ -82.699674527777788, 27.747686583333333 ], [ -82.7000035, 27.748813944444446 ], [ -82.700310277777774, 27.749946222222224 ], [ -82.700594833333341, 27.751083083333334 ], [ -82.700857027777786, 27.752224194444445 ], [ -82.701096805555565, 27.753369222222222 ], [ -82.701314111111117, 27.754517777777778 ], [ -82.701508833333335, 27.755669527777776 ], [ -82.701680944444448, 27.756824138888888 ], [ -82.701830388888894, 27.757981222222224 ], [ -82.701957111111113, 27.759140472222221 ], [ -82.702010777777787, 27.759739722222221 ] ] } },
{ "type": "Feature", "properties": { "style": "solid", "thickness": 1 }, "geometry": { "type": "LineString", "coordinates": [ [ -82.677839611111111, 27.715750611111112 ], [ -82.678351722222232, 27.716167638888887 ], [ -82.679301694444447, 27.716968805555553 ], [ -82.680235833333342, 27.717784555555554 ], [ -82.681153861111113, 27.718614694444444 ], [ -82.682055472222231, 27.71945897222222 ], [ -82.682940416666668, 27.720317111111111 ], [ -82.683808388888892, 27.721188861111109 ], [ -82.684659166666677, 27.722073944444443 ], [ -82.685492472222222, 27.722972083333332 ], [ -82.686308027777784, 27.723883055555554 ], [ -82.687105638888895, 27.724806527777776 ], [ -82.687885, 27.72574225 ], [ -82.688645916666673, 27.726689916666665 ], [ -82.689388166666674, 27.727649277777775 ], [ -82.689980166666672, 27.72844375 ] ] } },
{ "type": "Feature", "properties": { "style": "solid", "thickness": 1 }, "geometry": { "type": "LineString", "coordinates": [ [ -82.645053666666669, 27.700176194444445 ], [ -82.645343916666675, 27.700238111111112 ], [ -82.646610944444447, 27.700529277777775 ], [ -82.64787208333334, 27.700840055555556 ], [ -82.649126944444447, 27.701170388888887 ], [ -82.65037513888889, 27.701520138888888 ], [ -82.651616277777777, 27.701889222222221 ], [ -82.652850027777788, 27.7022775 ], [ -82.65407597222223, 27.702684888888889 ], [ -82.655293750000013, 27.703111222222223 ], [ -82.656503, 27.703556416666665 ], [ -82.657703333333345, 27.704020305555556 ], [ -82.658894416666669, 27.704502777777776 ], [ -82.66007586111111, 27.70500363888889 ], [ -82.661247305555563, 27.705522777777777 ], [ -82.662408416666679, 27.706060027777777 ], [ -82.662547361111123, 27.706127055555555 ] ] } },
{ "type": "Feature", "properties": { "style": "solid", "thickness": 1 }, "geometry": { "type": "LineString", "coordinates": [ [ -82.607893972222215, 27.700515611111111 ], [ -82.60906683333333, 27.700245555555554 ], [ -82.610339222222223, 27.699973583333332 ], [ -82.61161675, 27.699721388888889 ], [ -82.612899027777772, 27.699489083333333 ], [ -82.614185666666657, 27.699276694444446 ], [ -82.61547625, 27.699084333333335 ], [ -82.616770416666654, 27.698912027777777 ], [ -82.61806775, 27.698759833333334 ], [ -82.619367861111101, 27.698627805555557 ], [ -82.620670388888882, 27.698515972222221 ], [ -82.621974888888886, 27.698424388888888 ], [ -82.623280972222219, 27.698353055555557 ], [ -82.624588277777775, 27.698302027777778 ], [ -82.625896361111103, 27.698271277777778 ], [ -82.626449944444431, 27.698266888888888 ] ] } },
{ "type": "Feature", "properties": { "style": "solid", "thickness": 1 }, "geometry": { "type": "LineString", "coordinates": [ [ -82.57547525, 27.71668847222222 ], [ -82.576067333333327, 27.716188694444444 ], [ -82.577032444444441, 27.715402027777778 ], [ -82.578012861111105, 27.714630472222222 ], [ -82.579008194444441, 27.71387422222222 ], [ -82.580018222222222, 27.713133555555554 ], [ -82.581042611111101, 27.712408694444445 ], [ -82.582081027777775, 27.711699833333334 ], [ -82.583133194444443, 27.711007194444445 ], [ -82.58419875, 27.710331 ], [ -82.585277388888883, 27.709671444444442 ], [ -82.586368777777778, 27.709028722222222 ], [ -82.58747261111111, 27.708403055555554 ], [ -82.588588527777773, 27.707794611111112 ], [ -82.589716166666662, 27.707203611111112 ], [ -82.590542388888878, 27.706787666666667 ] ] } },
{ "type": "Feature", "properties": { "style": "solid", "thickness": 1 }, "geometry": { "type": "LineString", "coordinates": [ [ -82.55575125, 27.744723722222222 ], [ -82.555877888888887, 27.744366944444444 ], [ -82.556293805555555, 27.743262583333333 ], [ -82.556731333333332, 27.742164833333334 ], [ -82.557190305555551, 27.741074055555558 ], [ -82.557670583333334, 27.739990583333334 ], [ -82.558172055555559, 27.738914694444446 ], [ -82.558694527777774, 27.737846777777779 ], [ -82.559237833333327, 27.736787138888889 ], [ -82.559801861111112, 27.735736083333336 ], [ -82.560386388888887, 27.734693944444444 ], [ -82.56099125, 27.733661027777778 ], [ -82.561616277777773, 27.732637666666665 ], [ -82.562261277777779, 27.731624166666666 ], [ -82.562926027777777, 27.730620833333333 ], [ -82.563610361111103, 27.729627972222222 ], [ -82.563629777777777, 27.729600833333333 ] ] } },
{ "type": "Feature", "properties": { "style": "solid", "thickness": 1 }, "geometry": { "type": "LineString", "coordinates": [ [ -82.551821583333336, 27.765134194444446 ], [ -82.552233916666665, 27.77212447222222 ], [ -82.55346588888888, 27.779038055555553 ], [ -82.553679361111108, 27.779902555555555 ] ] } },
{ "type": "Feature", "properties": { "style": "solid", "thickness": 1 }, "geometry": { "type": "LineString", "coordinates": [ [ -82.553679361111108, 27.779902555555555 ], [ -82.548865, 27.778266916666666 ], [ -82.5437415, 27.77685 ], [ -82.543533305555556, 27.776805055555556 ] ] } },
{ "type": "Feature", "properties": { "style": "solid", "thickness": 1 }, "geometry": { "type": "LineString", "coordinates": [ [ -82.525007194444441, 27.774242777777776 ], [ -82.522552277777777, 27.774138388888886 ], [ -82.517187666666672, 27.774213138888889 ], [ -82.511839138888888, 27.77459013888889 ], [ -82.506528194444442, 27.775267944444444 ], [ -82.5062975, 27.775310805555556 ] ] } },
{ "type": "Feature", "properties": { "style": "solid", "thickness": 1 }, "geometry": { "type": "LineString", "coordinates": [ [ -82.474969944444453, 27.78688125 ], [ -82.475280444444451, 27.78669852777778 ], [ -82.476518777777784, 27.785997194444445 ], [ -82.477770666666672, 27.785315166666667 ], [ -82.47903575, 27.78465266666667 ], [ -82.480313611111114, 27.784009861111112 ], [ -82.481603861111111, 27.783387 ], [ -82.482906138888893, 27.78278425 ], [ -82.484220027777781, 27.782201777777775 ], [ -82.485545138888895, 27.781639777777777 ], [ -82.486881055555557, 27.781098444444442 ], [ -82.488227361111115, 27.780577888888889 ], [ -82.489583694444448, 27.780078277777775 ], [ -82.490949583333332, 27.779599805555556 ], [ -82.491700444444447, 27.779350166666667 ] ] } },
{ "type": "Feature", "properties": { "style": "solid", "thickness": 1 }, "geometry": { "type": "LineString", "coordinates": [ [ -82.449092833333339, 27.81073875 ], [ -82.449747638888894, 27.809789555555557 ], [ -82.450537166666663, 27.808688666666669 ], [ -82.451348138888889, 27.807600166666667 ], [ -82.452180333333331, 27.806524416666669 ], [ -82.4530335, 27.80546175 ], [ -82.453907361111121, 27.804412472222221 ], [ -82.454801666666668, 27.803376916666668 ], [ -82.455716166666676, 27.802355388888891 ], [ -82.456650527777782, 27.801348194444444 ], [ -82.457604527777775, 27.800355666666668 ], [ -82.458577833333337, 27.799378055555557 ], [ -82.459570138888893, 27.798415722222224 ], [ -82.460527361111119, 27.797519305555557 ] ] } },
{ "type": "Feature", "properties": { "style": "solid", "thickness": 1 }, "geometry": { "type": "LineString", "coordinates": [ [ -82.437340527777778, 27.842195388888889 ], [ -82.43740455555556, 27.841607861111111 ], [ -82.437571638888897, 27.840310666666664 ], [ -82.437764166666668, 27.839016277777777 ], [ -82.437982083333338, 27.837725055555556 ], [ -82.438225277777775, 27.836437388888889 ], [ -82.43849375, 27.83515372222222 ], [ -82.438787333333337, 27.833874416666667 ], [ -82.439106, 27.832599833333333 ], [ -82.439449638888888, 27.831330416666667 ], [ -82.439818138888896, 27.8300665 ], [ -82.44021136111111, 27.8288085 ], [ -82.440629222222228, 27.827556777777776 ], [ -82.44107158333334, 27.82631175 ], [ -82.441233777777782, 27.825881527777778 ] ] } },
{ "type": "Feature", "properties": { "style": "solid", "thickness": 1 }, "geometry": { "type": "LineString", "coordinates": [ [ -82.442025111111121, 27.87507925 ], [ -82.441998777777783, 27.8750165 ], [ -82.441509083333344, 27.8737855 ], [ -82.4410436388889, 27.872547083333334 ], [ -82.440602611111117, 27.871301638888891 ], [ -82.440186111111117, 27.870049527777777 ], [ -82.439794277777779, 27.868791138888888 ], [ -82.439427222222221, 27.867526888888889 ], [ -82.439085083333339, 27.866257138888891 ], [ -82.43876788888889, 27.86498225 ], [ -82.438475833333342, 27.863702638888892 ], [ -82.438208916666667, 27.862418722222223 ], [ -82.437967277777787, 27.861130833333334 ], [ -82.437750944444446, 27.85983938888889 ], [ -82.43760808333333, 27.858870638888892 ] ] } },
{ "type": "Feature", "properties": { "style": "solid", "thickness": 1 }, "geometry": { "type": "LineString", "coordinates": [ [ -82.454701805555558, 27.895792916666664 ], [ -82.456340583333329, 27.897647083333332 ], [ -82.45991925, 27.901205805555556 ], [ -82.463745, 27.90455561111111 ], [ -82.467802444444445, 27.907683 ], [ -82.467836555555564, 27.907706083333331 ] ] } },
{ "type": "Feature", "properties": { "style": "solid", "thickness": 1 }, "geometry": { "type": "LineString", "coordinates": [ [ -82.483651277777781, 27.916691083333333 ], [ -82.486009444444448, 27.9177305 ], [ -82.490963722222219, 27.919576194444446 ], [ -82.496039972222221, 27.921138888888891 ], [ -82.499914638888896, 27.922091805555556 ] ] } },
{ "type": "Feature", "properties": { "style": "solid", "thickness": 1 }, "geometry": { "type": "LineString", "coordinates": [ [ -82.589573083333335, 27.894107333333334 ], [ -82.594160111111108, 27.887888833333331 ], [ -82.596640416666659, 27.883858055555557 ] ] } },
{ "type": "Feature", "properties": { "style": "solid", "thickness": 1 }, "geometry": { "type": "LineString", "coordinates": [ [ -82.597441277777776, 27.882413555555555 ], [ -82.596640416666659, 27.883858055555557 ] ] } },
{ "type": "Feature", "properties": { "style": "solid", "thickness": 1 }, "geometry": { "type": "LineString", "coordinates": [ [ -82.553679361111108, 27.779902555555555 ], [ -82.602410916666656, 27.828290944444444 ] ] } },
{ "type": "Feature", "properties": { "style": "solid", "thickness": 1 }, "geometry": { "type": "LineString", "coordinates": [ [ -82.520112166666664, 27.907173333333333 ], [ -82.515277777777783, 27.908388888888886 ], [ -82.51193111111111, 27.911370166666664 ] ] } },
{ "type": "Feature", "properties": { "style": "solid", "thickness": 1 }, "geometry": { "type": "LineString", "coordinates": [ [ -82.532840694444445, 27.904967166666665 ], [ -82.536236305555548, 27.904646333333332 ], [ -82.53787058333333, 27.904531833333333 ], [ -82.539506861111107, 27.904442666666665 ], [ -82.541144638888881, 27.904378833333332 ], [ -82.542783416666666, 27.904340416666667 ], [ -82.544422694444449, 27.904327388888888 ], [ -82.546062, 27.90433975 ], [ -82.547700777777777, 27.9043775 ], [ -82.549338611111111, 27.904440638888886 ], [ -82.550974916666661, 27.904529138888886 ], [ -82.551597222222213, 27.904571 ] ] } },
{ "type": "Feature", "properties": { "style": "solid", "thickness": 1 }, "geometry": { "type": "LineString", "coordinates": [ [ -82.564536027777777, 27.906260638888888 ], [ -82.565553111111115, 27.906459944444443 ], [ -82.567147361111111, 27.906799333333332 ], [ -82.568734722222217, 27.907163333333333 ], [ -82.570314666666661, 27.907551888888886 ], [ -82.571886777777777, 27.907964861111111 ], [ -82.573583333333332, 27.908416666666664 ], [ -82.574606166666669, 27.90818033333333 ] ] } },
{ "type": "Feature", "properties": { "style": "solid", "thickness": 1 }, "geometry": { "type": "LineString", "coordinates": [ [ -82.50302116666667, 27.919322138888891 ], [ -82.499914638888896, 27.922091805555556 ] ] } },
{ "type": "Feature", "properties": { "style": "solid", "thickness": 1 }, "geometry": { "type": "LineString", "coordinates": [ [ -82.580951333333331, 27.903060166666666 ], [ -82.580099277777776, 27.903858111111109 ], [ -82.574606166666669, 27.90818033333333 ] ] } },
{ "type": "Feature", "properties": { "style": "solid", "thickness": 1 }, "geometry": { "type": "LineString", "coordinates": [ [ -82.603169055555554, 27.868137472222223 ], [ -82.604812527777767, 27.860757833333334 ], [ -82.605639888888888, 27.853271055555556 ], [ -82.605742638888884, 27.8489305 ] ] } },
{ "type": "Feature", "properties": { "style": "solid", "thickness": 1 }, "geometry": { "type": "LineString", "coordinates": [ [ -82.521168111111109, 27.985995416666668 ], [ -82.521275833333334, 27.987826555555557 ] ] } },
{ "type": "Feature", "properties": { "style": "solid", "thickness": 1 }, "geometry": { "type": "LineString", "coordinates": [ [ -82.520641666666663, 27.985836222222222 ], [ -82.52077088888889, 27.988033555555557 ] ] } },
{ "type": "Feature", "properties": { "style": "solid", "thickness": 1 }, "geometry": { "type": "LineString", "coordinates": [ [ -82.520125972222218, 27.985860111111112 ], [ -82.520255194444445, 27.988057444444447 ] ] } },
{ "type": "Feature", "properties": { "style": "solid", "thickness": 1 }, "geometry": { "type": "LineString", "coordinates": [ [ -82.519621055555561, 27.986067111111112 ], [ -82.519728722222226, 27.98789825 ] ] } },
{ "type": "Feature", "properties": { "style": "solid", "thickness": 1 }, "geometry": { "type": "LineString", "coordinates": [ [ -82.519159194444441, 27.987006583333333 ], [ -82.519174805555551, 27.98713602777778 ], [ -82.519208583333338, 27.987270527777778 ], [ -82.519262777777783, 27.987407416666667 ], [ -82.519339138888881, 27.987543277777778 ], [ -82.519438388888886, 27.987674138888888 ], [ -82.519560111111105, 27.987795555555557 ], [ -82.519702472222221, 27.98790325 ], [ -82.519862194444443, 27.987993222222222 ], [ -82.520034888888887, 27.9880625 ], [ -82.520215305555553, 27.988109194444444 ], [ -82.520397972222227, 27.988132861111112 ], [ -82.520577638888895, 27.988134305555558 ], [ -82.52074972222222, 27.9881155 ], [ -82.520910666666666, 27.988079166666669 ], [ -82.521058027777784, 27.988028472222222 ], [ -82.52119036111111, 27.987966666666669 ], [ -82.521310305555559, 27.987894777777779 ], [ -82.521426388888884, 27.98780713888889 ], [ -82.521535916666664, 27.987702638888891 ], [ -82.52163480555555, 27.987581416666668 ], [ -82.52171875, 27.9874445 ], [ -82.521783583333331, 27.987294027777779 ], [ -82.521825666666672, 27.987133305555556 ], [ -82.521842388888885, 27.9869665 ], [ -82.5218325, 27.986798416666666 ], [ -82.521796305555554, 27.986634055555555 ], [ -82.521735583333339, 27.986478083333335 ], [ -82.521653444444439, 27.986334444444445 ], [ -82.521553888888889, 27.986206027777779 ], [ -82.521441333333328, 27.986094583333333 ], [ -82.521320138888882, 27.986000805555555 ], [ -82.521194388888887, 27.98592438888889 ], [ -82.52106666666667, 27.985863944444446 ], [ -82.520927805555559, 27.985814722222223 ], [ -82.52077530555556, 27.985777916666667 ], [ -82.520610972222215, 27.985756666666667 ], [ -82.520437638888893, 27.98575388888889 ], [ -82.520259111111116, 27.985771916666668 ], [ -82.520080222222219, 27.985812333333335 ], [ -82.519906277777778, 27.985875472222222 ], [ -82.519742638888886, 27.985960305555558 ], [ -82.51959433333333, 27.986064583333334 ], [ -82.519465388888889, 27.986184805555556 ], [ -82.519358583333329, 27.986316833333333 ], [ -82.51927522222222, 27.986456166666667 ], [ -82.519215222222215, 27.986598333333333 ], [ -82.519177361111105, 27.9867395 ], [ -82.519159555555561, 27.986876388888891 ], [ -82.519159194444441, 27.987006583333333 ] ] } }
]
}
