{
"type": "FeatureCollection",
"name": "tpa801sgp",
"features": [
{ "type": "Feature", "properties": { "style": "solid", "thickness": 1 }, "geometry": { "type": "LineString", "coordinates": [ [ -82.521223194444445, 27.986027333333336 ], [ -82.521223194444445, 27.987861555555558 ] ] } },
{ "type": "Feature", "properties": { "style": "solid", "thickness": 1 }, "geometry": { "type": "LineString", "coordinates": [ [ -82.520706611111109, 27.985843888888891 ], [ -82.520706638888882, 27.988045 ] ] } },
{ "type": "Feature", "properties": { "style": "solid", "thickness": 1 }, "geometry": { "type": "LineString", "coordinates": [ [ -82.52019005555556, 27.985843888888891 ], [ -82.52019005555556, 27.988045 ] ] } },
{ "type": "Feature", "properties": { "style": "solid", "thickness": 1 }, "geometry": { "type": "LineString", "coordinates": [ [ -82.519673472222223, 27.986027305555556 ], [ -82.519673472222223, 27.987861555555558 ] ] } },
{ "type": "Feature", "properties": { "style": "solid", "thickness": 1 }, "geometry": { "type": "LineString", "coordinates": [ [ -82.519156888888887, 27.986944444444447 ], [ -82.519164916666668, 27.987074472222222 ], [ -82.51919075, 27.98721038888889 ], [ -82.519236861111111, 27.987349666666667 ], [ -82.519305138888882, 27.987488916666667 ], [ -82.519396611111105, 27.987624222222223 ], [ -82.519511083333327, 27.987751194444446 ], [ -82.519646944444446, 27.987865333333335 ], [ -82.519801222222227, 27.987962638888892 ], [ -82.519969666666668, 27.988039833333335 ], [ -82.520147166666661, 27.988094833333335 ], [ -82.52032825, 27.988126916666669 ], [ -82.520507638888887, 27.988136694444446 ], [ -82.520680666666664, 27.988125861111111 ], [ -82.520843583333331, 27.98809702777778 ], [ -82.52099375, 27.988053222222224 ], [ -82.521129583333334, 27.987997583333335 ], [ -82.521253638888894, 27.987931305555556 ], [ -82.52137477777778, 27.98784913888889 ], [ -82.52149030555556, 27.987749833333336 ], [ -82.521596222222215, 27.987633305555555 ], [ -82.521688111111104, 27.987500416666666 ], [ -82.521761722222223, 27.987353111111112 ], [ -82.521813222222221, 27.9871945 ], [ -82.52183975, 27.987028611111111 ], [ -82.521839722222225, 27.98686025 ], [ -82.521813222222221, 27.986694388888889 ], [ -82.521761722222223, 27.986535777777778 ], [ -82.521688111111104, 27.986388472222224 ], [ -82.521596194444442, 27.986255555555555 ], [ -82.52149030555556, 27.986139027777778 ], [ -82.52137475, 27.98603975 ], [ -82.521253611111106, 27.985957555555558 ], [ -82.521129583333334, 27.985891305555558 ], [ -82.52099375, 27.985835666666667 ], [ -82.520843583333331, 27.985791861111114 ], [ -82.520680666666664, 27.985763027777779 ], [ -82.520507638888887, 27.985752194444444 ], [ -82.52032825, 27.985761972222225 ], [ -82.520147166666661, 27.985794055555555 ], [ -82.519969666666668, 27.985849055555555 ], [ -82.519801222222227, 27.98592625 ], [ -82.519646944444446, 27.986023527777778 ], [ -82.519511083333327, 27.986137694444444 ], [ -82.519396611111105, 27.98626463888889 ], [ -82.519305138888882, 27.986399944444447 ], [ -82.519236861111111, 27.986539222222223 ], [ -82.51919075, 27.986678472222223 ], [ -82.519164916666668, 27.986814388888888 ], [ -82.519156888888887, 27.986944444444447 ] ] } },
{ "type": "Feature", "properties": { "style": "solid", "thickness": 1 }, "geometry": { "type": "LineString", "coordinates": [ [ -82.592865361111109, 28.5828635 ], [ -82.600556, 28.574121722222223 ], [ -82.607572916666655, 28.564949305555555 ], [ -82.613885444444435, 28.555386583333334 ], [ -82.619466, 28.545475611111112 ], [ -82.624290305555547, 28.535259972222224 ], [ -82.62833733333332, 28.524784555555556 ], [ -82.6315895, 28.51409538888889 ], [ -82.634032833333336, 28.503239416666666 ], [ -82.635656777777783, 28.492264333333335 ], [ -82.636454527777786, 28.481218305555554 ], [ -82.636422777777781, 28.47014983333333 ], [ -82.635561916666674, 28.459107444444445 ], [ -82.633876027777788, 28.448139611111113 ], [ -82.63137272222221, 28.437294416666667 ], [ -82.62806322222221, 28.426619361111111 ], [ -82.623962277777778, 28.416161277777775 ], [ -82.619088055555551, 28.405965972222219 ], [ -82.613462138888877, 28.396078083333332 ], [ -82.6071093611111, 28.386540916666664 ], [ -82.600057694444445, 28.377396194444444 ], [ -82.592338222222224, 28.368684 ], [ -82.591729777777772, 28.368045444444444 ] ] } },
{ "type": "Feature", "properties": { "style": "solid", "thickness": 1 }, "geometry": { "type": "LineString", "coordinates": [ [ -82.776776305555558, 28.552419888888888 ], [ -82.78062530555556, 28.537963444444447 ], [ -82.78366063888889, 28.523356722222221 ], [ -82.785875222222217, 28.508635388888887 ], [ -82.78726402777778, 28.49383538888889 ], [ -82.78782394444444, 28.478992805555553 ], [ -82.787554, 28.464143833333331 ], [ -82.786455194444443, 28.449324666666666 ], [ -82.784530527777775, 28.434571416666667 ], [ -82.781785027777772, 28.41992 ], [ -82.778225722222217, 28.405406111111109 ], [ -82.775687083333338, 28.396726722222223 ] ] } },
{ "type": "Feature", "properties": { "style": "solid", "thickness": 1 }, "geometry": { "type": "LineString", "coordinates": [ [ -82.609537805555547, 28.374744 ], [ -82.59411175, 28.38439375 ] ] } },
{ "type": "Feature", "properties": { "style": "solid", "thickness": 1 }, "geometry": { "type": "LineString", "coordinates": [ [ -82.610635055555548, 28.576016194444446 ], [ -82.595078305555546, 28.566497083333335 ] ] } },
{ "type": "Feature", "properties": { "style": "solid", "thickness": 1 }, "geometry": { "type": "LineString", "coordinates": [ [ -82.627084944444434, 28.475308055555555 ], [ -82.64599625000001, 28.475223944444444 ] ] } },
{ "type": "Feature", "properties": { "style": "solid", "thickness": 1 }, "geometry": { "type": "LineString", "coordinates": [ [ -82.778374416666665, 28.474562388888888 ], [ -82.797285388888881, 28.474457527777776 ] ] } },
{ "type": "Feature", "properties": { "style": "solid", "thickness": 1 }, "geometry": { "type": "LineString", "coordinates": [ [ -82.5845215, 28.373445777777778 ], [ -82.598937361111112, 28.36264475 ] ] } },
{ "type": "Feature", "properties": { "style": "solid", "thickness": 1 }, "geometry": { "type": "LineString", "coordinates": [ [ -82.585586555555551, 28.57752286111111 ], [ -82.600144916666665, 28.588203722222222 ] ] } },
{ "type": "Feature", "properties": { "style": "solid", "thickness": 1 }, "geometry": { "type": "LineString", "coordinates": [ [ -82.772993027777773, 28.423811083333334 ], [ -82.791587222222219, 28.42080688888889 ] ] } },
{ "type": "Feature", "properties": { "style": "solid", "thickness": 1 }, "geometry": { "type": "LineString", "coordinates": [ [ -82.766575305555563, 28.398938722222223 ], [ -82.784798527777781, 28.394514111111111 ] ] } },
{ "type": "Feature", "properties": { "style": "solid", "thickness": 1 }, "geometry": { "type": "LineString", "coordinates": [ [ -82.773700777777776, 28.525367916666667 ], [ -82.792354, 28.52816686111111 ] ] } },
{ "type": "Feature", "properties": { "style": "solid", "thickness": 1 }, "geometry": { "type": "LineString", "coordinates": [ [ -82.767621388888884, 28.550307166666666 ], [ -82.785931583333337, 28.554532027777778 ] ] } },
{ "type": "Feature", "properties": { "style": "solid", "thickness": 1 }, "geometry": { "type": "LineString", "coordinates": [ [ -82.447377138888896, 28.462983083333334 ], [ -82.449368888888898, 28.467209583333332 ], [ -82.450572861111112, 28.47166261111111 ], [ -82.450958138888893, 28.47622825 ], [ -82.450514777777784, 28.480789805555553 ], [ -82.449254, 28.48523052777778 ], [ -82.447479527777787, 28.488972416666666 ] ] } },
{ "type": "Feature", "properties": { "style": "solid", "thickness": 1 }, "geometry": { "type": "LineString", "coordinates": [ [ -82.447377138888896, 28.462983083333334 ], [ -82.445419416666667, 28.467223333333333 ], [ -82.444251305555554, 28.471685055555554 ], [ -82.443902805555553, 28.476254277777777 ], [ -82.444382861111109, 28.480814166666665 ], [ -82.445679361111118, 28.485248138888888 ], [ -82.447479527777787, 28.488972416666666 ] ] } },
{ "type": "Feature", "properties": { "style": "solid", "thickness": 1 }, "geometry": { "type": "LineString", "coordinates": [ [ -82.827028055555559, 28.473198083333333 ], [ -82.823077805555556, 28.473389083333331 ], [ -82.820915388888892, 28.471562 ], [ -82.820598277777776, 28.470853 ], [ -82.820288638888883, 28.470264333333333 ], [ -82.82019925, 28.46882 ], [ -82.820677055555549, 28.467710416666666 ], [ -82.821427277777772, 28.466587638888889 ], [ -82.822214722222213, 28.466066694444443 ], [ -82.822737194444443, 28.465679277777777 ], [ -82.8238045, 28.465265527777778 ], [ -82.82625619444444, 28.465147 ], [ -82.827368194444446, 28.465455388888888 ], [ -82.828222722222222, 28.466017666666666 ], [ -82.828955944444445, 28.46682725 ], [ -82.829424222222215, 28.467770388888887 ], [ -82.829612638888889, 28.46860633333333 ], [ -82.829687194444446, 28.469809944444442 ], [ -82.829588277777773, 28.470418361111108 ], [ -82.829224388888889, 28.471160277777777 ], [ -82.82870191666666, 28.471547722222219 ], [ -82.827028055555559, 28.473198083333333 ], [ -82.828313638888886, 28.474101694444443 ], [ -82.829054388888892, 28.475031638888886 ], [ -82.829364111111104, 28.475620277777775 ], [ -82.829483444444435, 28.477546055555553 ], [ -82.82889183333333, 28.479023361111111 ], [ -82.828505527777779, 28.479404222222222 ], [ -82.827309361111105, 28.479944944444444 ], [ -82.826514361111109, 28.480345555555555 ], [ -82.824743444444437, 28.480431194444442 ], [ -82.823495083333327, 28.480129361111111 ], [ -82.821642222222223, 28.478890944444444 ], [ -82.82133252777777, 28.478302305555555 ], [ -82.821198444444434, 28.476135777777777 ], [ -82.82153261111111, 28.474912416666665 ], [ -82.821661388888884, 28.474785472222219 ], [ -82.822312666666662, 28.474271111111108 ], [ -82.823077805555556, 28.473389083333331 ] ] } },
{ "type": "Feature", "properties": { "style": "solid", "thickness": 1 }, "geometry": { "type": "LineString", "coordinates": [ [ -82.804, 28.480828777777777 ], [ -82.804847055555555, 28.481270833333333 ], [ -82.805815527777781, 28.481465611111108 ], [ -82.809084972222223, 28.481307972222222 ], [ -82.810296138888887, 28.481008111111109 ], [ -82.81069736111111, 28.480868027777777 ], [ -82.812673805555548, 28.479686166666664 ], [ -82.81382541666666, 28.478423388888888 ], [ -82.814159666666669, 28.477200027777776 ], [ -82.81497925, 28.474987472222221 ], [ -82.814808111111105, 28.472219138888889 ], [ -82.814453833333332, 28.470908277777777 ], [ -82.813978222222218, 28.46984475 ], [ -82.813358972222218, 28.468667416666666 ], [ -82.811915055555559, 28.467409138888886 ], [ -82.809252722222226, 28.466330361111112 ], [ -82.80745972222222, 28.466054666666665 ], [ -82.805961444444435, 28.466126916666667 ], [ -82.804076833333326, 28.466579916666667 ], [ -82.803418083333327, 28.466973833333331 ], [ -82.802888083333329, 28.467240833333332 ] ] } },
{ "type": "Feature", "properties": { "style": "solid", "thickness": 1 }, "geometry": { "type": "LineString", "coordinates": [ [ -82.426634916666671, 28.506461055555555 ], [ -82.429088, 28.506349583333332 ], [ -82.4303075, 28.506173444444446 ], [ -82.43269741666667, 28.504978472222223 ], [ -82.434894861111118, 28.502826583333334 ], [ -82.435621277777784, 28.501224416666666 ], [ -82.435917777777775, 28.499279694444446 ], [ -82.435826527777778, 28.497714722222224 ], [ -82.435469777777783, 28.496282555555556 ], [ -82.434697194444453, 28.494748583333333 ], [ -82.433086027777776, 28.492890638888891 ], [ -82.432505888888898, 28.492313527777778 ], [ -82.431373694444446, 28.491640805555555 ], [ -82.429015166666673, 28.491023805555557 ], [ -82.426153666666664, 28.491153861111112 ], [ -82.424805055555566, 28.491456527777778 ], [ -82.423470444444447, 28.491999944444444 ], [ -82.422673861111122, 28.492398222222224 ], [ -82.42136725, 28.493423166666666 ], [ -82.420224861111109, 28.494923444444446 ], [ -82.419872083333331, 28.495905055555557 ], [ -82.419568277777785, 28.497729361111112 ], [ -82.41973630555556, 28.500618555555555 ], [ -82.421130833333336, 28.503452083333332 ], [ -82.42200455555556, 28.504378027777779 ], [ -82.423007527777784, 28.505177388888889 ], [ -82.423996527777788, 28.505736 ], [ -82.424276111111112, 28.505844 ], [ -82.426634916666671, 28.506461055555555 ] ] } },
{ "type": "Feature", "properties": { "style": "solid", "thickness": 1 }, "geometry": { "type": "LineString", "coordinates": [ [ -82.406783083333337, 28.505792416666665 ], [ -82.408079527777787, 28.506940722222222 ], [ -82.408359083333337, 28.50704875 ], [ -82.41014475, 28.50720925 ], [ -82.411629861111123, 28.506900555555557 ], [ -82.412419583333346, 28.506381944444446 ], [ -82.413202305555558, 28.505742972222222 ], [ -82.413820777777786, 28.504628611111112 ], [ -82.413659888888901, 28.501859805555554 ], [ -82.412779277777787, 28.500813416666666 ], [ -82.412206222222224, 28.500356611111112 ], [ -82.410120166666673, 28.499726944444447 ], [ -82.407768555555563, 28.499229972222224 ], [ -82.406091361111123, 28.49858175 ], [ -82.405504361111113, 28.497884138888889 ], [ -82.405134027777777, 28.496211083333336 ], [ -82.40531575, 28.49463375 ], [ -82.405941222222225, 28.493639833333333 ], [ -82.406594611111117, 28.493127444444447 ], [ -82.407118722222222, 28.492741611111111 ], [ -82.407779083333338, 28.492349583333333 ], [ -82.409257027777784, 28.491920527777779 ], [ -82.410074611111114, 28.491883472222224 ], [ -82.410906166666678, 28.492087194444444 ], [ -82.41202425, 28.492519305555557 ], [ -82.412733555555562, 28.492969972222223 ], [ -82.413743361111116, 28.493889777777778 ] ] } },
{ "type": "Feature", "properties": { "style": "solid", "thickness": 1 }, "geometry": { "type": "LineString", "coordinates": [ [ -82.400059722222224, 28.507665833333334 ], [ -82.392632666666671, 28.492672805555557 ], [ -82.387248888888891, 28.508244777777779 ] ] } },
{ "type": "Feature", "properties": { "style": "solid", "thickness": 1 }, "geometry": { "type": "LineString", "coordinates": [ [ -82.567682944444442, 28.574223416666666 ], [ -82.567898111111106, 28.577834611111111 ], [ -82.568429138888888, 28.579861944444445 ], [ -82.56875925, 28.580812277777778 ], [ -82.569211388888888, 28.5815155 ], [ -82.570933944444434, 28.582883972222223 ], [ -82.57260627777778, 28.583409833333331 ], [ -82.57315175, 28.583384472222221 ], [ -82.574752305555549, 28.582706583333334 ], [ -82.57616619444444, 28.581192388888887 ], [ -82.576668555555557, 28.580444777777778 ], [ -82.576883833333326, 28.579469111111109 ], [ -82.577170833333327, 28.577403777777779 ], [ -82.576955361111104, 28.573792583333333 ], [ -82.576424194444442, 28.571765277777779 ], [ -82.576094027777771, 28.570814972222223 ], [ -82.575505527777779, 28.570118083333334 ], [ -82.5739195, 28.568743333333334 ], [ -82.572247388888883, 28.5682175 ], [ -82.571701972222215, 28.568242861111109 ], [ -82.570101611111113, 28.568920722222224 ], [ -82.568551444444438, 28.570441194444445 ], [ -82.568185416666665, 28.571182416666666 ], [ -82.567970083333336, 28.572158083333335 ], [ -82.567682944444442, 28.574223416666666 ] ] } },
{ "type": "Feature", "properties": { "style": "solid", "thickness": 1 }, "geometry": { "type": "LineString", "coordinates": [ [ -82.635582694444452, 28.57819813888889 ], [ -82.635800138888897, 28.581809222222223 ], [ -82.636332472222236, 28.583836305555554 ], [ -82.636663222222225, 28.584786444444443 ], [ -82.63711583333334, 28.585489472222221 ], [ -82.638839305555564, 28.586857083333332 ], [ -82.640512027777788, 28.587382111111111 ], [ -82.6410575, 28.5873565 ], [ -82.642657694444452, 28.586677805555553 ], [ -82.644070666666678, 28.585162916666665 ], [ -82.644572583333343, 28.584415083333333 ], [ -82.64478725, 28.583439305555554 ], [ -82.645072944444451, 28.581373805555554 ], [ -82.644855166666673, 28.57776275 ], [ -82.644322694444455, 28.575735694444443 ], [ -82.643991944444451, 28.574785555555554 ], [ -82.643402972222233, 28.574088972222221 ], [ -82.641816, 28.572715 ], [ -82.6401435, 28.57219 ], [ -82.63959808333334, 28.572215611111112 ], [ -82.637998111111116, 28.572894277777777 ], [ -82.63644886111112, 28.5744155 ], [ -82.636083277777786, 28.575156916666668 ], [ -82.635868555555561, 28.576132666666666 ], [ -82.635582694444452, 28.57819813888889 ] ] } },
{ "type": "Feature", "properties": { "style": "solid", "thickness": 1 }, "geometry": { "type": "LineString", "coordinates": [ [ -82.670139472222232, 28.471786 ], [ -82.670357861111114, 28.475397138888887 ], [ -82.670890333333332, 28.477424138888889 ], [ -82.671221027777776, 28.47837425 ], [ -82.671673416666678, 28.479077166666666 ], [ -82.673395611111118, 28.480444388888888 ], [ -82.675066833333332, 28.480969 ], [ -82.675611777777789, 28.48094325 ], [ -82.677210166666669, 28.480264138888888 ], [ -82.67862125, 28.478748861111111 ], [ -82.679122444444445, 28.478000861111109 ], [ -82.679336583333338, 28.477025027777778 ], [ -82.679621333333344, 28.474959416666664 ], [ -82.679402611111115, 28.471348277777775 ], [ -82.678870027777776, 28.469321305555553 ], [ -82.678539277777787, 28.46837122222222 ], [ -82.677950694444448, 28.467674777777777 ], [ -82.676364861111111, 28.466301138888888 ], [ -82.674693833333336, 28.465776555555554 ], [ -82.674148972222227, 28.465802305555556 ], [ -82.672550805555559, 28.466481388888887 ], [ -82.671003555555558, 28.468003027777776 ], [ -82.670638583333343, 28.468744555555553 ], [ -82.67042438888889, 28.469720388888888 ], [ -82.670139472222232, 28.471786 ] ] } },
{ "type": "Feature", "properties": { "style": "solid", "thickness": 1 }, "geometry": { "type": "LineString", "coordinates": [ [ -82.653641472222233, 28.481376138888887 ], [ -82.654487944444455, 28.481819138888888 ], [ -82.655456138888894, 28.482014944444444 ], [ -82.658725833333335, 28.481860888888889 ], [ -82.659937416666679, 28.481562361111109 ], [ -82.660338861111114, 28.48142272222222 ], [ -82.662316972222229, 28.480243027777775 ], [ -82.663470333333336, 28.47898147222222 ], [ -82.663806305555568, 28.47775847222222 ], [ -82.664629, 28.475546805555553 ], [ -82.664461722222228, 28.472778277777778 ], [ -82.66410925000001, 28.471467055555554 ], [ -82.663635138888893, 28.470402972222221 ], [ -82.663017527777782, 28.469224972222221 ], [ -82.661575361111119, 28.467965138888886 ], [ -82.658914527777782, 28.466883444444441 ], [ -82.657121888888895, 28.466605777777776 ], [ -82.6556235, 28.466676388888889 ], [ -82.65373825, 28.46712736111111 ], [ -82.653078916666672, 28.467520555555552 ], [ -82.652548555555555, 28.467786944444441 ] ] } },
{ "type": "Feature", "properties": { "style": "solid", "thickness": 1 }, "geometry": { "type": "LineString", "coordinates": [ [ -82.636943722222227, 28.37014975 ], [ -82.63716077777778, 28.373761027777778 ], [ -82.637692111111122, 28.375788222222223 ], [ -82.638022194444446, 28.376738444444445 ], [ -82.638473944444456, 28.3774415 ], [ -82.640194083333341, 28.378809166666667 ], [ -82.641863583333347, 28.379334194444446 ], [ -82.64240802777779, 28.379308583333334 ], [ -82.644005111111113, 28.378629833333335 ], [ -82.645415333333347, 28.37711486111111 ], [ -82.645916277777786, 28.376366972222222 ], [ -82.646130527777785, 28.37539113888889 ], [ -82.646415638888897, 28.373325527777777 ], [ -82.646198277777785, 28.369714277777778 ], [ -82.645666805555564, 28.367687111111113 ], [ -82.64533666666668, 28.366736916666667 ], [ -82.644748833333338, 28.366040305555558 ], [ -82.643164916666677, 28.36466625 ], [ -82.641495638888898, 28.36414125 ], [ -82.640951277777788, 28.364166861111112 ], [ -82.639354416666677, 28.364845583333334 ], [ -82.637808166666673, 28.366366888888891 ], [ -82.637443305555564, 28.367108361111111 ], [ -82.637229, 28.368084166666666 ], [ -82.636943722222227, 28.37014975 ] ] } },
{ "type": "Feature", "properties": { "style": "solid", "thickness": 1 }, "geometry": { "type": "LineString", "coordinates": [ [ -82.630880638888883, 28.364640361111114 ], [ -82.631798777777774, 28.379928138888889 ], [ -82.625809916666654, 28.38020938888889 ], [ -82.624162166666665, 28.380045277777779 ], [ -82.623459944444434, 28.379716083333335 ], [ -82.622320527777774, 28.378924527777777 ], [ -82.620607833333324, 28.377677 ], [ -82.619425138888886, 28.376163166666668 ], [ -82.619080777777768, 28.374972166666666 ], [ -82.618842666666666, 28.370999722222223 ], [ -82.619049916666654, 28.369903555555556 ], [ -82.619779916666658, 28.36842075 ], [ -82.620682055555548, 28.367533416666667 ], [ -82.621569777777765, 28.366405333333336 ], [ -82.622880166666661, 28.365498861111114 ], [ -82.624491611111111, 28.365061083333334 ], [ -82.625437027777778, 28.364896 ], [ -82.630880638888883, 28.364640361111114 ] ] } },
{ "type": "Feature", "properties": { "style": "solid", "thickness": 1 }, "geometry": { "type": "LineString", "coordinates": [ [ -82.758018611111112, 28.399805166666667 ], [ -82.75407094444445, 28.399994166666666 ], [ -82.751911166666673, 28.398165972222223 ], [ -82.751594722222222, 28.397456777777776 ], [ -82.751285666666661, 28.396867972222221 ], [ -82.751197277777777, 28.395423555555556 ], [ -82.751675472222217, 28.394314166666668 ], [ -82.752425916666667, 28.393191777777776 ], [ -82.753213138888896, 28.392671222222223 ], [ -82.753735527777778, 28.392284055555557 ], [ -82.754802361111118, 28.391870805555556 ], [ -82.75725247222222, 28.3917535 ], [ -82.7583635, 28.392062472222221 ], [ -82.75921708333334, 28.392625194444445 ], [ -82.759949277777778, 28.393435166666666 ], [ -82.760416638888884, 28.394378555555555 ], [ -82.760604388888893, 28.395214611111111 ], [ -82.760678138888892, 28.396418277777776 ], [ -82.760578888888887, 28.397026638888889 ], [ -82.760214777777776, 28.397768416666665 ], [ -82.759692388888894, 28.398155611111111 ], [ -82.758018611111112, 28.399805166666667 ], [ -82.75930275, 28.400709444444445 ], [ -82.760042388888891, 28.401639777777778 ], [ -82.760351527777772, 28.402228583333333 ], [ -82.760469527777772, 28.404154472222221 ], [ -82.759877388888896, 28.4056315 ], [ -82.759491111111117, 28.406012166666667 ], [ -82.758295388888882, 28.406552305555554 ], [ -82.757500694444445, 28.406952527777776 ], [ -82.755730916666664, 28.407037277777775 ], [ -82.754483583333339, 28.406734805555555 ], [ -82.752632777777777, 28.405495444444444 ], [ -82.752323666666669, 28.404906638888889 ], [ -82.752191083333329, 28.40274 ], [ -82.75252580555555, 28.401516777777776 ], [ -82.752654555555551, 28.401389888888886 ], [ -82.75330575, 28.40087583333333 ], [ -82.75407094444445, 28.399994166666666 ] ] } },
{ "type": "Feature", "properties": { "style": "solid", "thickness": 1 }, "geometry": { "type": "LineString", "coordinates": [ [ -82.822818222222224, 28.416418388888886 ], [ -82.81887005555555, 28.41660925 ], [ -82.81670886111111, 28.414782083333332 ], [ -82.816391944444447, 28.414073055555555 ], [ -82.816082444444447, 28.413484388888886 ], [ -82.815993194444445, 28.41204 ], [ -82.816470805555554, 28.410930416666666 ], [ -82.817220666666657, 28.409807666666666 ], [ -82.81800772222222, 28.40928675 ], [ -82.818529944444435, 28.408899333333331 ], [ -82.819596694444442, 28.408485611111111 ], [ -82.822047083333331, 28.408367138888888 ], [ -82.8231585, 28.408675583333331 ], [ -82.824012527777768, 28.409237888888889 ], [ -82.824745333333325, 28.410047527777778 ], [ -82.825213333333323, 28.410990694444443 ], [ -82.825401611111104, 28.411826638888886 ], [ -82.825476111111101, 28.413030277777775 ], [ -82.825377194444442, 28.413638694444444 ], [ -82.825013472222224, 28.414380638888886 ], [ -82.82449125, 28.414768055555555 ], [ -82.822818222222224, 28.416418388888886 ], [ -82.824103083333327, 28.417322055555555 ], [ -82.82484338888888, 28.418252055555556 ], [ -82.82515294444444, 28.418840694444444 ], [ -82.825272138888892, 28.420766527777779 ], [ -82.82468075, 28.422243805555556 ], [ -82.82429466666666, 28.422624666666668 ], [ -82.823099083333332, 28.423165361111113 ], [ -82.8223045, 28.423565972222224 ], [ -82.820534527777781, 28.423651527777778 ], [ -82.819286805555549, 28.423349666666667 ], [ -82.817434972222216, 28.422111166666667 ], [ -82.817125472222216, 28.4215225 ], [ -82.816991555555546, 28.419355944444444 ], [ -82.817325583333329, 28.418132555555555 ], [ -82.817454305555557, 28.418005638888889 ], [ -82.818105277777775, 28.417491277777778 ], [ -82.81887005555555, 28.41660925 ] ] } },
{ "type": "Feature", "properties": { "style": "solid", "thickness": 1 }, "geometry": { "type": "LineString", "coordinates": [ [ -82.810203416666667, 28.408939305555553 ], [ -82.811147361111111, 28.424225666666668 ], [ -82.805156555555556, 28.424514666666667 ], [ -82.803507833333327, 28.424352722222224 ], [ -82.802804805555553, 28.424024444444445 ], [ -82.801663583333337, 28.42323438888889 ], [ -82.799948111111107, 28.421989111111113 ], [ -82.798762444444449, 28.420476861111112 ], [ -82.798415944444443, 28.419286305555556 ], [ -82.798171111111103, 28.41531425 ], [ -82.798376638888882, 28.414217833333332 ], [ -82.799104472222226, 28.412734083333334 ], [ -82.8000055, 28.411845611111108 ], [ -82.800891694444445, 28.410716388888886 ], [ -82.802201111111103, 28.409808222222221 ], [ -82.803812472222219, 28.40936836111111 ], [ -82.804758, 28.409202027777777 ], [ -82.810203416666667, 28.408939305555553 ] ] } },
{ "type": "Feature", "properties": { "style": "solid", "thickness": 1 }, "geometry": { "type": "LineString", "coordinates": [ [ -82.820065805555558, 28.528550722222221 ], [ -82.8161135, 28.5287415 ], [ -82.813950083333324, 28.52691436111111 ], [ -82.813632861111103, 28.526205333333333 ], [ -82.81332308333333, 28.525616694444444 ], [ -82.81323375, 28.524172333333333 ], [ -82.813711888888889, 28.523062805555554 ], [ -82.814462555555551, 28.521940083333334 ], [ -82.815250444444445, 28.521419194444444 ], [ -82.815773194444446, 28.521031805555555 ], [ -82.81684108333333, 28.520618111111109 ], [ -82.819294027777772, 28.520499694444442 ], [ -82.820406583333323, 28.520808138888889 ], [ -82.8212615, 28.521370444444443 ], [ -82.821995055555547, 28.522180055555555 ], [ -82.822463527777771, 28.523123194444445 ], [ -82.822652, 28.523959138888888 ], [ -82.822726527777775, 28.52516275 ], [ -82.822627527777769, 28.525771138888889 ], [ -82.822263388888885, 28.526513055555554 ], [ -82.82174061111111, 28.52690047222222 ], [ -82.820065805555558, 28.528550722222221 ], [ -82.821352, 28.52945436111111 ], [ -82.822093055555555, 28.530384333333334 ], [ -82.822402916666661, 28.530972972222223 ], [ -82.822522166666658, 28.53289875 ], [ -82.821930166666661, 28.534375972222225 ], [ -82.821543638888883, 28.534756805555556 ], [ -82.820346805555545, 28.5352975 ], [ -82.81955141666667, 28.535698055555557 ], [ -82.817779555555546, 28.535783583333334 ], [ -82.816530555555559, 28.535481694444446 ], [ -82.814676833333337, 28.534243222222223 ], [ -82.814367027777777, 28.533654583333334 ], [ -82.814233, 28.531488083333333 ], [ -82.814567416666662, 28.53026475 ], [ -82.81469625, 28.530137805555555 ], [ -82.815347916666667, 28.52962347222222 ], [ -82.8161135, 28.5287415 ] ] } },
{ "type": "Feature", "properties": { "style": "solid", "thickness": 1 }, "geometry": { "type": "LineString", "coordinates": [ [ -82.757702055555555, 28.54862566666667 ], [ -82.753748916666666, 28.548814666666669 ], [ -82.751586138888882, 28.546986555555556 ], [ -82.75126925, 28.546277388888889 ], [ -82.75095975, 28.545688583333334 ], [ -82.75087125, 28.544244222222225 ], [ -82.751350111111108, 28.54313488888889 ], [ -82.752101583333328, 28.542012527777779 ], [ -82.75288991666666, 28.541492 ], [ -82.753413, 28.541104861111112 ], [ -82.754481333333331, 28.540691638888891 ], [ -82.756934805555559, 28.540574333333335 ], [ -82.75804741666667, 28.54088327777778 ], [ -82.758902166666672, 28.541445972222224 ], [ -82.759635388888896, 28.542255916666669 ], [ -82.760103388888894, 28.54319925 ], [ -82.760291388888888, 28.54403527777778 ], [ -82.76036525, 28.545238916666669 ], [ -82.760265861111108, 28.54584725 ], [ -82.75990125, 28.546589 ], [ -82.759378138888891, 28.546976166666667 ], [ -82.757702055555555, 28.54862566666667 ], [ -82.758987972222229, 28.549529888888891 ], [ -82.759728638888888, 28.550460194444444 ], [ -82.760038194444448, 28.551048972222222 ], [ -82.760156361111115, 28.552974777777777 ], [ -82.759563388888893, 28.55445175 ], [ -82.759176583333328, 28.554832416666667 ], [ -82.757979222222218, 28.555372527777777 ], [ -82.757183416666663, 28.55577275 ], [ -82.755411194444449, 28.555857472222222 ], [ -82.754162138888887, 28.555555027777778 ], [ -82.752308777777785, 28.554315722222224 ], [ -82.751999222222224, 28.553726916666669 ], [ -82.751866444444445, 28.551560388888891 ], [ -82.752201638888891, 28.550337194444445 ], [ -82.752330583333332, 28.550210333333332 ], [ -82.752982666666668, 28.549696305555557 ], [ -82.753748916666666, 28.548814666666669 ] ] } },
{ "type": "Feature", "properties": { "style": "solid", "thickness": 1 }, "geometry": { "type": "LineString", "coordinates": [ [ -82.567566111111105, 28.37232061111111 ], [ -82.567780861111103, 28.375932 ], [ -82.568310888888888, 28.377959472222223 ], [ -82.56864038888888, 28.378909833333335 ], [ -82.569091666666665, 28.379613111111112 ], [ -82.570810972222219, 28.380981666666667 ], [ -82.572480166666665, 28.381507527777778 ], [ -82.573024638888882, 28.381482194444445 ], [ -82.574622194444444, 28.38080425 ], [ -82.576033416666661, 28.379289972222221 ], [ -82.576534861111114, 28.378542333333336 ], [ -82.576749722222218, 28.37756663888889 ], [ -82.577036194444446, 28.375501166666666 ], [ -82.576821138888889, 28.371889777777778 ], [ -82.576290972222225, 28.36986236111111 ], [ -82.575961416666658, 28.368912 ], [ -82.575374027777769, 28.368215083333332 ], [ -82.573790972222213, 28.36684025 ], [ -82.572122, 28.366314388888892 ], [ -82.57157761111111, 28.366339722222225 ], [ -82.56998025, 28.367017638888889 ], [ -82.568433, 28.368538194444444 ], [ -82.568067638888891, 28.369279472222221 ], [ -82.567852722222213, 28.370255166666666 ], [ -82.567566111111105, 28.37232061111111 ] ] } },
{ "type": "Feature", "properties": { "style": "solid", "thickness": 1 }, "geometry": { "type": "LineString", "coordinates": [ [ -82.56174825, 28.568704944444445 ], [ -82.555157805555552, 28.584340083333331 ], [ -82.547158416666662, 28.569380972222223 ] ] } },
{ "type": "Feature", "properties": { "style": "solid", "thickness": 1 }, "geometry": { "type": "LineString", "coordinates": [ [ -82.559587555555552, 28.573754083333334 ], [ -82.54976963888889, 28.574209 ] ] } },
{ "type": "Feature", "properties": { "style": "solid", "thickness": 1 }, "geometry": { "type": "LineString", "coordinates": [ [ -82.629507944444441, 28.572689 ], [ -82.630427694444435, 28.587975944444445 ], [ -82.6247, 28.588244333333332 ], [ -82.623472638888884, 28.588301805555556 ], [ -82.622474611111102, 28.587624305555554 ], [ -82.621742111111104, 28.586813638888888 ], [ -82.621713194444439, 28.586332166666665 ], [ -82.621568527777768, 28.58392475 ], [ -82.621683194444444, 28.58355725 ], [ -82.622034416666665, 28.582575138888888 ], [ -82.62332575, 28.581307583333334 ], [ -82.621918694444432, 28.58064922222222 ], [ -82.621215166666659, 28.580320027777777 ], [ -82.62049719444444, 28.57975011111111 ], [ -82.620023027777776, 28.578685916666668 ], [ -82.619835027777768, 28.575556305555555 ], [ -82.6201935, 28.574694555555556 ], [ -82.621104611111107, 28.57392763888889 ], [ -82.621757444444441, 28.57341425 ], [ -82.62241752777777, 28.573021222222224 ], [ -82.629507944444441, 28.572689 ] ] } },
{ "type": "Feature", "properties": { "style": "solid", "thickness": 1 }, "geometry": { "type": "LineString", "coordinates": [ [ -82.630007611111111, 28.5809945 ], [ -82.62332575, 28.581307583333334 ] ] } },
{ "type": "Feature", "properties": { "style": "solid", "thickness": 1 }, "geometry": { "type": "LineString", "coordinates": [ [ -82.738040416666664, 28.408003694444442 ], [ -82.746344833333339, 28.407606972222222 ], [ -82.74541025, 28.392320111111111 ], [ -82.736970888888891, 28.39272325 ] ] } },
{ "type": "Feature", "properties": { "style": "solid", "thickness": 1 }, "geometry": { "type": "LineString", "coordinates": [ [ -82.745873833333334, 28.399903361111111 ], [ -82.73784225, 28.400287055555555 ] ] } },
{ "type": "Feature", "properties": { "style": "solid", "thickness": 1 }, "geometry": { "type": "LineString", "coordinates": [ [ -82.807438, 28.521071638888888 ], [ -82.808382611111114, 28.536357555555558 ], [ -82.802658138888887, 28.536633333333334 ], [ -82.80143147222222, 28.536692388888891 ], [ -82.800432805555559, 28.53601616666667 ], [ -82.799699305555549, 28.535206444444444 ], [ -82.799669611111113, 28.534725 ], [ -82.799521027777772, 28.53231775 ], [ -82.799635027777782, 28.531950111111112 ], [ -82.799984472222221, 28.530967527777776 ], [ -82.801273055555555, 28.529698305555556 ], [ -82.799865611111116, 28.52904175 ], [ -82.799161888888889, 28.528713444444442 ], [ -82.798443305555551, 28.528144444444443 ], [ -82.797967611111105, 28.527080861111109 ], [ -82.797774527777776, 28.523951444444442 ], [ -82.798131388888891, 28.52308925 ], [ -82.799040777777776, 28.522321138888888 ], [ -82.799692444444446, 28.521806888888889 ], [ -82.800351555555551, 28.521413 ], [ -82.807438, 28.521071638888888 ] ] } },
{ "type": "Feature", "properties": { "style": "solid", "thickness": 1 }, "geometry": { "type": "LineString", "coordinates": [ [ -82.807951166666669, 28.529376583333331 ], [ -82.801273055555555, 28.529698305555556 ] ] } },
{ "type": "Feature", "properties": { "style": "solid", "thickness": 1 }, "geometry": { "type": "LineString", "coordinates": [ [ -82.7452125, 28.541134416666669 ], [ -82.7386505, 28.55677838888889 ], [ -82.730627611111117, 28.541829861111111 ] ] } },
{ "type": "Feature", "properties": { "style": "solid", "thickness": 1 }, "geometry": { "type": "LineString", "coordinates": [ [ -82.743061, 28.546186444444444 ], [ -82.733246416666674, 28.546654444444446 ] ] } },
{ "type": "Feature", "properties": { "style": "solid", "thickness": 1 }, "geometry": { "type": "LineString", "coordinates": [ [ -82.554111611111111, 28.382482055555556 ], [ -82.56241475, 28.382096416666666 ], [ -82.561506444444447, 28.366808166666669 ], [ -82.553068388888889, 28.367200055555557 ] ] } },
{ "type": "Feature", "properties": { "style": "solid", "thickness": 1 }, "geometry": { "type": "LineString", "coordinates": [ [ -82.561957, 28.37439211111111 ], [ -82.553926666666669, 28.374765083333333 ] ] } }
]
}
