{
"type": "FeatureCollection",
"name": "tpa812sgp",
"features": [
{ "type": "Feature", "properties": { "style": "solid", "thickness": 1 }, "geometry": { "type": "LineString", "coordinates": [ [ -82.521223194444445, 27.986027333333336 ], [ -82.521223194444445, 27.987861555555558 ] ] } },
{ "type": "Feature", "properties": { "style": "solid", "thickness": 1 }, "geometry": { "type": "LineString", "coordinates": [ [ -82.520706611111109, 27.985843888888891 ], [ -82.520706638888882, 27.988045 ] ] } },
{ "type": "Feature", "properties": { "style": "solid", "thickness": 1 }, "geometry": { "type": "LineString", "coordinates": [ [ -82.52019005555556, 27.985843888888891 ], [ -82.52019005555556, 27.988045 ] ] } },
{ "type": "Feature", "properties": { "style": "solid", "thickness": 1 }, "geometry": { "type": "LineString", "coordinates": [ [ -82.519673472222223, 27.986027305555556 ], [ -82.519673472222223, 27.987861555555558 ] ] } },
{ "type": "Feature", "properties": { "style": "solid", "thickness": 1 }, "geometry": { "type": "LineString", "coordinates": [ [ -82.519156888888887, 27.986944444444447 ], [ -82.519164916666668, 27.987074472222222 ], [ -82.51919075, 27.98721038888889 ], [ -82.519236861111111, 27.987349666666667 ], [ -82.519305138888882, 27.987488916666667 ], [ -82.519396611111105, 27.987624222222223 ], [ -82.519511083333327, 27.987751194444446 ], [ -82.519646944444446, 27.987865333333335 ], [ -82.519801222222227, 27.987962638888892 ], [ -82.519969666666668, 27.988039833333335 ], [ -82.520147166666661, 27.988094833333335 ], [ -82.52032825, 27.988126916666669 ], [ -82.520507638888887, 27.988136694444446 ], [ -82.520680666666664, 27.988125861111111 ], [ -82.520843583333331, 27.98809702777778 ], [ -82.52099375, 27.988053222222224 ], [ -82.521129583333334, 27.987997583333335 ], [ -82.521253638888894, 27.987931305555556 ], [ -82.52137477777778, 27.98784913888889 ], [ -82.52149030555556, 27.987749833333336 ], [ -82.521596222222215, 27.987633305555555 ], [ -82.521688111111104, 27.987500416666666 ], [ -82.521761722222223, 27.987353111111112 ], [ -82.521813222222221, 27.9871945 ], [ -82.52183975, 27.987028611111111 ], [ -82.521839722222225, 27.98686025 ], [ -82.521813222222221, 27.986694388888889 ], [ -82.521761722222223, 27.986535777777778 ], [ -82.521688111111104, 27.986388472222224 ], [ -82.521596194444442, 27.986255555555555 ], [ -82.52149030555556, 27.986139027777778 ], [ -82.52137475, 27.98603975 ], [ -82.521253611111106, 27.985957555555558 ], [ -82.521129583333334, 27.985891305555558 ], [ -82.52099375, 27.985835666666667 ], [ -82.520843583333331, 27.985791861111114 ], [ -82.520680666666664, 27.985763027777779 ], [ -82.520507638888887, 27.985752194444444 ], [ -82.52032825, 27.985761972222225 ], [ -82.520147166666661, 27.985794055555555 ], [ -82.519969666666668, 27.985849055555555 ], [ -82.519801222222227, 27.98592625 ], [ -82.519646944444446, 27.986023527777778 ], [ -82.519511083333327, 27.986137694444444 ], [ -82.519396611111105, 27.98626463888889 ], [ -82.519305138888882, 27.986399944444447 ], [ -82.519236861111111, 27.986539222222223 ], [ -82.51919075, 27.986678472222223 ], [ -82.519164916666668, 27.986814388888888 ], [ -82.519156888888887, 27.986944444444447 ] ] } },
{ "type": "Feature", "properties": { "style": "solid", "thickness": 1 }, "geometry": { "type": "LineString", "coordinates": [ [ -82.625418555555555, 27.701857944444445 ], [ -82.609320333333329, 27.697944777777778 ], [ -82.593025722222222, 27.694741722222222 ], [ -82.576574111111114, 27.6922565 ], [ -82.560005361111109, 27.690495166666668 ], [ -82.5433595, 27.689461972222222 ], [ -82.52667677777778, 27.689159388888889 ], [ -82.509997555555557, 27.689588166666667 ], [ -82.493362138888884, 27.69074725 ], [ -82.47681075, 27.692633861111112 ], [ -82.460383416666673, 27.695243444444444 ], [ -82.450544388888886, 27.697165944444446 ] ] } },
{ "type": "Feature", "properties": { "style": "solid", "thickness": 1 }, "geometry": { "type": "LineString", "coordinates": [ [ -82.653291361111116, 27.865206166666667 ], [ -82.6437185, 27.8581235 ], [ -82.633640277777786, 27.851618916666666 ], [ -82.623100805555552, 27.845720805555555 ], [ -82.612146222222222, 27.840454944444442 ], [ -82.600824472222214, 27.835844361111111 ], [ -82.589185083333334, 27.831909194444446 ], [ -82.577278861111111, 27.82866663888889 ], [ -82.565157916666664, 27.826130888888887 ], [ -82.552875194444439, 27.824312972222224 ], [ -82.540484305555552, 27.823220888888887 ], [ -82.528039416666672, 27.822859333333334 ], [ -82.515594861111111, 27.823229972222222 ], [ -82.503205, 27.82433111111111 ], [ -82.490923944444447, 27.826157972222223 ], [ -82.478805333333341, 27.828702583333332 ], [ -82.466902138888898, 27.831953833333333 ], [ -82.455266361111114, 27.835897472222221 ], [ -82.44394886111111, 27.840516305555553 ], [ -82.432999166666676, 27.845790166666667 ], [ -82.422465138888896, 27.851695972222224 ], [ -82.412392916666676, 27.858207916666668 ], [ -82.411653138888894, 27.858722916666668 ] ] } },
{ "type": "Feature", "properties": { "style": "solid", "thickness": 1 }, "geometry": { "type": "LineString", "coordinates": [ [ -82.646189916666671, 27.849294333333333 ], [ -82.634957833333345, 27.862697722222222 ] ] } },
{ "type": "Feature", "properties": { "style": "solid", "thickness": 1 }, "geometry": { "type": "LineString", "coordinates": [ [ -82.419821083333332, 27.843220777777777 ], [ -82.430122527777783, 27.857201944444444 ] ] } },
{ "type": "Feature", "properties": { "style": "solid", "thickness": 1 }, "geometry": { "type": "LineString", "coordinates": [ [ -82.538609388888887, 27.680940888888891 ], [ -82.538043722222227, 27.697646277777778 ] ] } },
{ "type": "Feature", "properties": { "style": "solid", "thickness": 1 }, "geometry": { "type": "LineString", "coordinates": [ [ -82.53407925, 27.814582972222222 ], [ -82.533512222222214, 27.831288 ] ] } },
{ "type": "Feature", "properties": { "style": "solid", "thickness": 1 }, "geometry": { "type": "LineString", "coordinates": [ [ -82.41746975, 27.865288305555556 ], [ -82.40583725, 27.852157277777778 ] ] } },
{ "type": "Feature", "properties": { "style": "solid", "thickness": 1 }, "geometry": { "type": "LineString", "coordinates": [ [ -82.647039361111112, 27.87144775 ], [ -82.659542666666667, 27.85896427777778 ] ] } },
{ "type": "Feature", "properties": { "style": "solid", "thickness": 1 }, "geometry": { "type": "LineString", "coordinates": [ [ -82.48085858333333, 27.700545583333334 ], [ -82.478165638888896, 27.684005388888888 ] ] } },
{ "type": "Feature", "properties": { "style": "solid", "thickness": 1 }, "geometry": { "type": "LineString", "coordinates": [ [ -82.452693611111116, 27.705300527777776 ], [ -82.4483955, 27.689031305555556 ] ] } },
{ "type": "Feature", "properties": { "style": "solid", "thickness": 1 }, "geometry": { "type": "LineString", "coordinates": [ [ -82.622722611111101, 27.709862527777776 ], [ -82.628114111111103, 27.693853305555557 ] ] } },
{ "type": "Feature", "properties": { "style": "solid", "thickness": 1 }, "geometry": { "type": "LineString", "coordinates": [ [ -82.594929611111112, 27.703606194444443 ], [ -82.598736972222213, 27.687240444444445 ] ] } },
{ "type": "Feature", "properties": { "style": "solid", "thickness": 1 }, "geometry": { "type": "LineString", "coordinates": [ [ -82.542750861111102, 27.99037325 ], [ -82.541470972222214, 27.990879694444445 ], [ -82.540154944444438, 27.991340416666667 ], [ -82.538805861111115, 27.99175275 ], [ -82.537427, 27.99211425 ], [ -82.536022, 27.992422666666666 ], [ -82.53459475, 27.992676111111113 ], [ -82.533149305555554, 27.99287288888889 ], [ -82.531690027777771, 27.993011694444444 ], [ -82.530221305555557, 27.993091527777779 ], [ -82.528747694444448, 27.993111805555557 ], [ -82.527273805555552, 27.993072277777777 ], [ -82.52580427777778, 27.992973027777779 ], [ -82.524343666666667, 27.992814583333335 ], [ -82.522896472222214, 27.992597805555558 ], [ -82.521467083333334, 27.99232388888889 ], [ -82.520059666666668, 27.991994416666667 ], [ -82.51867825, 27.991611222222222 ], [ -82.5173265, 27.991176472222222 ], [ -82.516007944444439, 27.990692555555558 ], [ -82.514725666666664, 27.990162138888891 ], [ -82.513482583333328, 27.989587972222225 ] ] } },
{ "type": "Feature", "properties": { "style": "solid", "thickness": 1 }, "geometry": { "type": "LineString", "coordinates": [ [ -82.542750861111102, 27.99037325 ], [ -82.541507444444449, 27.98979963888889 ], [ -82.540224972222219, 27.989269722222222 ], [ -82.538906222222224, 27.988786305555557 ], [ -82.537554416666666, 27.988352 ], [ -82.536172944444445, 27.987969194444446 ], [ -82.534765555555552, 27.987640055555556 ], [ -82.53333625, 27.987366416666667 ], [ -82.531889194444446, 27.987149861111114 ], [ -82.530428722222226, 27.986991555555555 ], [ -82.528959361111106, 27.98689238888889 ], [ -82.527485666666664, 27.986852833333334 ], [ -82.52601225, 27.986873055555556 ], [ -82.524543694444446, 27.98695277777778 ], [ -82.523084527777783, 27.987091361111112 ], [ -82.52163922222222, 27.98728788888889 ], [ -82.520212027777774, 27.987540972222224 ], [ -82.518807027777783, 27.987849 ], [ -82.517428138888889, 27.988210055555555 ], [ -82.516078944444445, 27.98862188888889 ], [ -82.51476275, 27.989082083333333 ], [ -82.513482583333328, 27.989587972222225 ] ] } },
{ "type": "Feature", "properties": { "style": "solid", "thickness": 1 }, "geometry": { "type": "LineString", "coordinates": [ [ -82.547122833333333, 27.667867027777778 ], [ -82.543201222222223, 27.668050027777777 ], [ -82.541059472222216, 27.666218277777777 ], [ -82.54074652777777, 27.6655085 ], [ -82.540440666666669, 27.664919138888887 ], [ -82.54035566666667, 27.66347436111111 ], [ -82.540832805555553, 27.662365555555553 ], [ -82.541580388888889, 27.661244138888886 ], [ -82.542363361111114, 27.660724694444443 ], [ -82.542882972222216, 27.66033825 ], [ -82.543943472222225, 27.659926583333331 ], [ -82.546377388888885, 27.659813 ], [ -82.547480388888886, 27.660123694444444 ], [ -82.548327138888894, 27.660687805555554 ], [ -82.54905288888888, 27.661499027777776 ], [ -82.549515277777772, 27.66244325 ], [ -82.54970013888888, 27.663279722222221 ], [ -82.549771083333326, 27.664483694444442 ], [ -82.549671305555549, 27.665092 ], [ -82.549308194444436, 27.665833333333332 ], [ -82.548788583333334, 27.666219777777776 ], [ -82.547122833333333, 27.667867027777778 ], [ -82.548396611111116, 27.668773388888891 ], [ -82.549129472222219, 27.669705 ], [ -82.549435388888881, 27.670294333333334 ], [ -82.549548888888893, 27.672220694444444 ], [ -82.548957833333333, 27.673697055555557 ], [ -82.54857341666667, 27.674077166666667 ], [ -82.547384666666659, 27.674615583333335 ], [ -82.546594527777771, 27.675014666666669 ], [ -82.544836444444442, 27.675096694444445 ], [ -82.543598055555549, 27.674792305555556 ], [ -82.541762055555552, 27.673549944444446 ], [ -82.541456166666663, 27.672960555555555 ], [ -82.541328666666658, 27.670793388888889 ], [ -82.5416635, 27.6695705 ], [ -82.541791666666668, 27.669443805555556 ], [ -82.542439472222213, 27.668930666666668 ], [ -82.543201222222223, 27.668050027777777 ] ] } },
{ "type": "Feature", "properties": { "style": "solid", "thickness": 1 }, "geometry": { "type": "LineString", "coordinates": [ [ -82.524245055555554, 27.675452388888889 ], [ -82.52508475, 27.675896222222224 ], [ -82.526045555555555, 27.676092972222225 ], [ -82.529291277777773, 27.675941944444446 ], [ -82.530494277777777, 27.675644472222224 ], [ -82.530892916666659, 27.675505194444444 ], [ -82.532857777777778, 27.674327138888891 ], [ -82.534004138888889, 27.673066472222224 ], [ -82.534339083333336, 27.671843583333334 ], [ -82.535158333333328, 27.669632305555556 ], [ -82.534995555555554, 27.666863138888889 ], [ -82.53464725, 27.66555136111111 ], [ -82.534177888888891, 27.664486694444442 ], [ -82.53356625, 27.663307916666664 ], [ -82.532136222222221, 27.6620465 ], [ -82.529496305555554, 27.660962166666664 ], [ -82.52771725, 27.660682805555552 ], [ -82.526229833333332, 27.660752027777775 ], [ -82.524357944444446, 27.661201305555554 ], [ -82.523703055555558, 27.661593944444444 ], [ -82.523176305555552, 27.661859888888888 ] ] } },
{ "type": "Feature", "properties": { "style": "solid", "thickness": 1 }, "geometry": { "type": "LineString", "coordinates": [ [ -82.65169275, 27.83042375 ], [ -82.65190922222223, 27.834035416666666 ], [ -82.652438194444457, 27.836062777777776 ], [ -82.652766805555558, 27.837013055555555 ], [ -82.653216388888893, 27.837716138888887 ], [ -82.654928194444452, 27.839083805555553 ], [ -82.65658950000001, 27.83960872222222 ], [ -82.657131222222233, 27.839583027777778 ], [ -82.658720277777789, 27.838904055555556 ], [ -82.660123333333345, 27.837388722222222 ], [ -82.660621694444444, 27.836640722222221 ], [ -82.660834722222233, 27.83566475 ], [ -82.661118166666668, 27.833598888888886 ], [ -82.660901388888888, 27.829987222222222 ], [ -82.660372277777782, 27.827959888888888 ], [ -82.660043666666667, 27.827009638888889 ], [ -82.659458638888893, 27.826313 ], [ -82.657882388888893, 27.82493897222222 ], [ -82.656221305555562, 27.824414055555554 ], [ -82.655679666666671, 27.824439722222223 ], [ -82.654090777777782, 27.825118694444445 ], [ -82.652552388888893, 27.82664036111111 ], [ -82.652189444444446, 27.827381944444443 ], [ -82.651976333333337, 27.828357888888888 ], [ -82.65169275, 27.83042375 ] ] } },
{ "type": "Feature", "properties": { "style": "solid", "thickness": 1 }, "geometry": { "type": "LineString", "coordinates": [ [ -82.64895113888889, 27.891554055555556 ], [ -82.649167666666671, 27.895165694444444 ], [ -82.649696888888897, 27.897193055555555 ], [ -82.650025638888891, 27.898143333333334 ], [ -82.650475472222226, 27.898846416666665 ], [ -82.652188194444449, 27.900214083333331 ], [ -82.653850416666671, 27.900739027777778 ], [ -82.654392444444454, 27.900713361111109 ], [ -82.655982416666674, 27.900034416666664 ], [ -82.657386277777789, 27.89851913888889 ], [ -82.657884944444447, 27.897771138888888 ], [ -82.658098138888889, 27.896795194444444 ], [ -82.658381777777777, 27.894729361111111 ], [ -82.658164944444451, 27.891117722222223 ], [ -82.657635611111118, 27.889090416666665 ], [ -82.657306805555564, 27.88814013888889 ], [ -82.6567215, 27.8874435 ], [ -82.6551443888889, 27.886069472222221 ], [ -82.653482388888889, 27.885544527777778 ], [ -82.652940444444454, 27.885570194444444 ], [ -82.651350666666673, 27.886249111111109 ], [ -82.649811388888892, 27.88777075 ], [ -82.649448194444446, 27.888512305555555 ], [ -82.649234944444444, 27.889488222222223 ], [ -82.64895113888889, 27.891554055555556 ] ] } },
{ "type": "Feature", "properties": { "style": "solid", "thickness": 1 }, "geometry": { "type": "LineString", "coordinates": [ [ -82.537049305555556, 27.79881691666667 ], [ -82.537261944444438, 27.802428777777777 ], [ -82.537788611111111, 27.80445661111111 ], [ -82.538116111111108, 27.805407166666669 ], [ -82.538564861111112, 27.806110611111112 ], [ -82.540274722222222, 27.807479694444446 ], [ -82.541935, 27.808006 ], [ -82.542476583333325, 27.807980777777779 ], [ -82.544065916666668, 27.807303083333334 ], [ -82.545470138888888, 27.805788916666668 ], [ -82.545969138888893, 27.805041305555555 ], [ -82.546183138888892, 27.80406552777778 ], [ -82.546468666666669, 27.80199988888889 ], [ -82.546255722222227, 27.798388027777779 ], [ -82.545728916666661, 27.79636025 ], [ -82.545401361111104, 27.795409694444444 ], [ -82.54481725, 27.794712583333336 ], [ -82.543242888888884, 27.793337222222224 ], [ -82.54158286111111, 27.792810944444447 ], [ -82.541041333333325, 27.792836166666667 ], [ -82.539452194444436, 27.793513833333336 ], [ -82.537912666666671, 27.795034222222224 ], [ -82.537549027777771, 27.7957755 ], [ -82.537334972222226, 27.79675127777778 ], [ -82.537049305555556, 27.79881691666667 ] ] } },
{ "type": "Feature", "properties": { "style": "solid", "thickness": 1 }, "geometry": { "type": "LineString", "coordinates": [ [ -82.520641611111117, 27.808392666666666 ], [ -82.521482305555551, 27.808836527777778 ], [ -82.52244425, 27.809033305555555 ], [ -82.525693916666668, 27.808882333333333 ], [ -82.526898388888881, 27.808584916666668 ], [ -82.527297527777776, 27.808445638888891 ], [ -82.529264833333329, 27.807267666666668 ], [ -82.530412611111103, 27.806007055555558 ], [ -82.530748, 27.804784194444444 ], [ -82.531568305555552, 27.802573 ], [ -82.531405416666672, 27.799803888888892 ], [ -82.53105675, 27.798492138888889 ], [ -82.530586861111104, 27.797427444444445 ], [ -82.5299745, 27.796248666666667 ], [ -82.528542777777773, 27.794987277777778 ], [ -82.525899722222221, 27.793902888888891 ], [ -82.5241185, 27.793623472222222 ], [ -82.522629277777781, 27.793692666666669 ], [ -82.520755111111114, 27.794141861111111 ], [ -82.520099388888895, 27.7945345 ], [ -82.519572, 27.794800416666668 ] ] } },
{ "type": "Feature", "properties": { "style": "solid", "thickness": 1 }, "geometry": { "type": "LineString", "coordinates": [ [ -82.63481933333334, 27.727891222222219 ], [ -82.63089575, 27.72807672222222 ], [ -82.6287513611111, 27.726246333333332 ], [ -82.628437666666656, 27.725536777777776 ], [ -82.628131166666662, 27.724947583333332 ], [ -82.628044972222213, 27.723502888888888 ], [ -82.6285215, 27.722393777777775 ], [ -82.629268583333328, 27.721271916666666 ], [ -82.630051555555553, 27.720751972222221 ], [ -82.630571166666655, 27.72036522222222 ], [ -82.631631888888876, 27.719952888888887 ], [ -82.634067055555562, 27.71983775 ], [ -82.635170916666667, 27.72014775 ], [ -82.636018583333339, 27.720711305555554 ], [ -82.636745361111124, 27.721522055555553 ], [ -82.637208777777786, 27.722466 ], [ -82.63739441666668, 27.723302333333333 ], [ -82.637466333333336, 27.72450625 ], [ -82.637367, 27.72511461111111 ], [ -82.637004277777791, 27.725856166666667 ], [ -82.636484694444448, 27.726242944444444 ], [ -82.63481933333334, 27.727891222222219 ], [ -82.636094527777786, 27.728796777777777 ], [ -82.636828555555567, 27.729727888888888 ], [ -82.637135111111121, 27.730317055555552 ], [ -82.637250222222235, 27.732243333333333 ], [ -82.636660027777779, 27.733720027777778 ], [ -82.63627569444445, 27.734100416666667 ], [ -82.635086722222226, 27.734639555555557 ], [ -82.634296472222232, 27.73503913888889 ], [ -82.6325375, 27.73512227777778 ], [ -82.63129819444444, 27.734818666666669 ], [ -82.629460194444434, 27.733577472222223 ], [ -82.629153666666653, 27.732988305555555 ], [ -82.629024361111107, 27.73082125 ], [ -82.629358416666662, 27.729598138888885 ], [ -82.629486527777772, 27.729471361111109 ], [ -82.630134277777771, 27.728957833333332 ], [ -82.63089575, 27.72807672222222 ] ] } },
{ "type": "Feature", "properties": { "style": "solid", "thickness": 1 }, "geometry": { "type": "LineString", "coordinates": [ [ -82.610053083333327, 27.671752805555556 ], [ -82.606131444444443, 27.671937611111112 ], [ -82.603988583333333, 27.670106833333335 ], [ -82.603675194444435, 27.669397194444446 ], [ -82.603369, 27.668807972222222 ], [ -82.603283166666657, 27.667363222222225 ], [ -82.603759694444435, 27.666254194444441 ], [ -82.604506638888878, 27.665132444444442 ], [ -82.605289361111105, 27.664612638888887 ], [ -82.605808777777767, 27.664226 ], [ -82.606869055555549, 27.663813833333332 ], [ -82.609303, 27.663699138888887 ], [ -82.61040622222221, 27.664009333333333 ], [ -82.611253333333323, 27.664573055555554 ], [ -82.61197955555555, 27.665383944444443 ], [ -82.6124425, 27.66632797222222 ], [ -82.612627861111108, 27.667164333333336 ], [ -82.612699472222218, 27.66836827777778 ], [ -82.612600055555546, 27.668976638888889 ], [ -82.612237361111099, 27.669718138888889 ], [ -82.611717944444436, 27.670104805555557 ], [ -82.610053083333327, 27.671752805555556 ], [ -82.611327416666654, 27.672658583333334 ], [ -82.612060861111104, 27.673589861111111 ], [ -82.612367138888885, 27.674179083333335 ], [ -82.612481722222213, 27.676105388888889 ], [ -82.6118915, 27.677582 ], [ -82.611507277777775, 27.677962305555557 ], [ -82.610318805555551, 27.67850125 ], [ -82.609528861111102, 27.678900694444447 ], [ -82.607770777777773, 27.678983527777778 ], [ -82.606532166666668, 27.678679694444444 ], [ -82.604695388888885, 27.677438166666668 ], [ -82.604389138888877, 27.676848916666668 ], [ -82.604260388888889, 27.674681833333334 ], [ -82.604594555555551, 27.673458777777778 ], [ -82.604722638888887, 27.673332 ], [ -82.60537016666666, 27.672818583333335 ], [ -82.606131444444443, 27.671937611111112 ] ] } },
{ "type": "Feature", "properties": { "style": "solid", "thickness": 1 }, "geometry": { "type": "LineString", "coordinates": [ [ -82.481777555555553, 27.669535666666668 ], [ -82.477855805555564, 27.669716833333336 ], [ -82.475715111111114, 27.667884055555557 ], [ -82.475402555555561, 27.667174138888889 ], [ -82.475097055555551, 27.666584611111109 ], [ -82.475012916666671, 27.665139805555555 ], [ -82.475490722222219, 27.664031222222221 ], [ -82.47623897222222, 27.662910166666666 ], [ -82.477022277777778, 27.662391083333333 ], [ -82.47754211111112, 27.662004916666664 ], [ -82.478602861111113, 27.66159375 ], [ -82.481036888888895, 27.661481305555554 ], [ -82.482139722222229, 27.6617925 ], [ -82.482986166666663, 27.662357 ], [ -82.483711416666665, 27.663168555555554 ], [ -82.484173277777785, 27.664113027777777 ], [ -82.484357638888895, 27.664949583333332 ], [ -82.484427861111115, 27.666153583333333 ], [ -82.484327722222218, 27.666761833333336 ], [ -82.483964166666667, 27.667503 ], [ -82.483444305555551, 27.667889194444445 ], [ -82.481777555555553, 27.669535666666668 ], [ -82.483050805555564, 27.670442611111113 ], [ -82.483783138888896, 27.671374583333336 ], [ -82.484088722222225, 27.671964083333336 ], [ -82.484201055555559, 27.673890472222222 ], [ -82.483609138888895, 27.675366555555556 ], [ -82.483224472222219, 27.6757465 ], [ -82.482035388888889, 27.676284361111112 ], [ -82.481245, 27.676683055555557 ], [ -82.47948683333334, 27.67676425 ], [ -82.478248611111113, 27.676459277777781 ], [ -82.47641333333334, 27.675216055555556 ], [ -82.476107777777784, 27.674626527777779 ], [ -82.475981555555563, 27.672459305555556 ], [ -82.476317138888888, 27.671236555555556 ], [ -82.476445361111118, 27.671109916666669 ], [ -82.4770935, 27.670597083333334 ], [ -82.477855805555564, 27.669716833333336 ] ] } },
{ "type": "Feature", "properties": { "style": "solid", "thickness": 1 }, "geometry": { "type": "LineString", "coordinates": [ [ -82.469272416666669, 27.662024388888888 ], [ -82.470162138888895, 27.677315361111113 ], [ -82.464211416666672, 27.677589694444446 ], [ -82.4625745, 27.67742366666667 ], [ -82.461877277777774, 27.677093611111111 ], [ -82.46074636111112, 27.676300611111113 ], [ -82.459046527777787, 27.675050944444447 ], [ -82.457873694444444, 27.67353552777778 ], [ -82.457533277777785, 27.672343944444446 ], [ -82.457302555555557, 27.668370694444445 ], [ -82.457510083333332, 27.667274611111111 ], [ -82.458237555555556, 27.665792444444442 ], [ -82.459135194444443, 27.664906027777775 ], [ -82.460018861111109, 27.663778833333332 ], [ -82.461322138888889, 27.662873722222219 ], [ -82.462923861111108, 27.662437777777775 ], [ -82.463863444444442, 27.66227375 ], [ -82.469272416666669, 27.662024388888888 ] ] } },
{ "type": "Feature", "properties": { "style": "solid", "thickness": 1 }, "geometry": { "type": "LineString", "coordinates": [ [ -82.461586055555557, 27.723001277777776 ], [ -82.457662361111119, 27.723181888888888 ], [ -82.455520944444444, 27.72134883333333 ], [ -82.455208388888892, 27.720638861111109 ], [ -82.454902833333335, 27.720049305555555 ], [ -82.45481894444444, 27.718604472222221 ], [ -82.455297194444441, 27.717495972222221 ], [ -82.456046, 27.716375027777776 ], [ -82.456829777777784, 27.715856083333332 ], [ -82.457349944444445, 27.71546997222222 ], [ -82.458411305555558, 27.71505897222222 ], [ -82.460846527777775, 27.714946888888889 ], [ -82.461949833333335, 27.71525825 ], [ -82.462796583333329, 27.715822888888887 ], [ -82.463522055555558, 27.716634527777778 ], [ -82.46398394444445, 27.717579055555554 ], [ -82.46416825, 27.718415611111109 ], [ -82.464238277777781, 27.719619638888886 ], [ -82.464138, 27.720227861111109 ], [ -82.463774111111107, 27.72096897222222 ], [ -82.463253944444446, 27.721355083333332 ], [ -82.461586055555557, 27.723001277777776 ], [ -82.46285977777778, 27.723908416666664 ], [ -82.463592277777778, 27.724840472222219 ], [ -82.463897916666667, 27.725430027777776 ], [ -82.464009944444442, 27.727356444444442 ], [ -82.463417444444445, 27.728832388888886 ], [ -82.463032527777784, 27.729212305555553 ], [ -82.461842777777775, 27.729749972222219 ], [ -82.461051916666676, 27.730148527777775 ], [ -82.459292888888896, 27.7302295 ], [ -82.458054138888897, 27.729924333333333 ], [ -82.456218166666673, 27.728680833333332 ], [ -82.45591258333333, 27.728091277777775 ], [ -82.455786694444441, 27.725924055555552 ], [ -82.456122666666673, 27.724701388888889 ], [ -82.456250972222222, 27.72457475 ], [ -82.456899527777779, 27.724062027777777 ], [ -82.457662361111119, 27.723181888888888 ] ] } },
{ "type": "Feature", "properties": { "style": "solid", "thickness": 1 }, "geometry": { "type": "LineString", "coordinates": [ [ -82.420697666666669, 27.823190305555556 ], [ -82.4209065, 27.826802333333333 ], [ -82.421431166666665, 27.828830583333332 ], [ -82.421757722222225, 27.829781416666666 ], [ -82.422205805555564, 27.83048525 ], [ -82.423914611111115, 27.83185575 ], [ -82.42557469444445, 27.832383444444446 ], [ -82.426116416666673, 27.832358666666668 ], [ -82.427706833333332, 27.831682333333333 ], [ -82.429112972222228, 27.830169361111111 ], [ -82.429612888888897, 27.829422166666667 ], [ -82.429827972222228, 27.828446583333331 ], [ -82.43011575, 27.826381166666668 ], [ -82.429906611111122, 27.822769166666667 ], [ -82.429381833333338, 27.820740944444445 ], [ -82.429055222222232, 27.819790138888887 ], [ -82.428471722222227, 27.8190925 ], [ -82.42689847222222, 27.817715861111111 ], [ -82.425238611111112, 27.817188194444444 ], [ -82.424696944444449, 27.817212944444446 ], [ -82.42310675, 27.81788925 ], [ -82.42156525, 27.819408361111112 ], [ -82.421200750000011, 27.820149333333333 ], [ -82.420985611111121, 27.821124916666665 ], [ -82.420697666666669, 27.823190305555556 ] ] } },
{ "type": "Feature", "properties": { "style": "solid", "thickness": 1 }, "geometry": { "type": "LineString", "coordinates": [ [ -82.414675944444454, 27.817670861111111 ], [ -82.41555925, 27.832961805555556 ], [ -82.409599944444452, 27.833233777777778 ], [ -82.407960805555561, 27.833067083333333 ], [ -82.40726275, 27.83273675 ], [ -82.406130638888897, 27.831943361111112 ], [ -82.404429, 27.830693027777777 ], [ -82.40325525, 27.829177166666668 ], [ -82.402914972222234, 27.8279855 ], [ -82.402685888888897, 27.82401225 ], [ -82.40289427777779, 27.822916277777779 ], [ -82.403623527777782, 27.821434444444446 ], [ -82.404522888888891, 27.820548416666668 ], [ -82.405408361111114, 27.819421583333334 ], [ -82.406713972222221, 27.818517027777776 ], [ -82.408318166666675, 27.818081722222221 ], [ -82.409259166666672, 27.817918055555555 ], [ -82.414675944444454, 27.817670861111111 ] ] } },
{ "type": "Feature", "properties": { "style": "solid", "thickness": 1 }, "geometry": { "type": "LineString", "coordinates": [ [ -82.420145305555565, 27.882230333333332 ], [ -82.42035422222223, 27.885842305555556 ], [ -82.420879138888893, 27.887870555555555 ], [ -82.421205888888892, 27.888821361111109 ], [ -82.421654194444443, 27.889525194444445 ], [ -82.423363916666673, 27.890895694444445 ], [ -82.425024888888899, 27.891423388888889 ], [ -82.425566916666668, 27.891398611111111 ], [ -82.427158194444445, 27.890722305555556 ], [ -82.428565111111112, 27.88920936111111 ], [ -82.429065277777781, 27.888462166666667 ], [ -82.4292805, 27.887486583333335 ], [ -82.429568444444456, 27.885421194444444 ], [ -82.429359194444444, 27.881809222222223 ], [ -82.428834166666675, 27.879781027777778 ], [ -82.428507388888889, 27.878830222222224 ], [ -82.427923555555566, 27.878132611111113 ], [ -82.426349472222228, 27.876755972222224 ], [ -82.42468875, 27.876228277777777 ], [ -82.424146777777779, 27.876253055555555 ], [ -82.422555694444455, 27.876929361111113 ], [ -82.421013361111122, 27.878448416666668 ], [ -82.420648666666665, 27.879189388888889 ], [ -82.420433388888895, 27.880164972222222 ], [ -82.420145305555565, 27.882230333333332 ] ] } },
{ "type": "Feature", "properties": { "style": "solid", "thickness": 1 }, "geometry": { "type": "LineString", "coordinates": [ [ -82.552408916666664, 28.022182138888887 ], [ -82.546892916666664, 28.007107277777777 ], [ -82.542098277777782, 28.022661888888887 ], [ -82.53644802777778, 28.007592916666667 ], [ -82.532330222222228, 28.023115694444442 ] ] } },
{ "type": "Feature", "properties": { "style": "solid", "thickness": 1 }, "geometry": { "type": "LineString", "coordinates": [ [ -82.519984361111113, 28.023688222222223 ], [ -82.519226527777775, 28.010806305555555 ], [ -82.519319694444448, 28.010077666666668 ], [ -82.519955472222222, 28.00932388888889 ], [ -82.520733972222217, 28.008684222222222 ], [ -82.521262388888886, 28.008418277777778 ], [ -82.522069222222228, 28.008260166666666 ], [ -82.523425722222228, 28.008197277777779 ], [ -82.524246694444443, 28.008279944444446 ], [ -82.52551716666666, 28.009066083333334 ], [ -82.52580975, 28.009414666666668 ] ] } },
{ "type": "Feature", "properties": { "style": "solid", "thickness": 1 }, "geometry": { "type": "LineString", "coordinates": [ [ -82.645659, 27.824914361111112 ], [ -82.646574638888893, 27.840203805555554 ], [ -82.640886388888902, 27.840472888888886 ], [ -82.639667472222229, 27.840530527777776 ], [ -82.63867622222223, 27.839853 ], [ -82.637948638888901, 27.839042277777775 ], [ -82.637919833333342, 27.838560722222223 ], [ -82.637775805555563, 27.836152944444443 ], [ -82.637889638888893, 27.83578536111111 ], [ -82.638238333333334, 27.834803055555554 ], [ -82.639520583333336, 27.833535138888887 ], [ -82.638123111111113, 27.832876805555554 ], [ -82.637424361111115, 27.83254763888889 ], [ -82.63671125, 27.831977694444443 ], [ -82.636240194444454, 27.830913388888888 ], [ -82.636053027777791, 27.82778325 ], [ -82.636408888888894, 27.826921333333335 ], [ -82.637313611111111, 27.826154194444445 ], [ -82.637961888888896, 27.825640611111112 ], [ -82.638617388888889, 27.825247444444443 ], [ -82.645659, 27.824914361111112 ] ] } },
{ "type": "Feature", "properties": { "style": "solid", "thickness": 1 }, "geometry": { "type": "LineString", "coordinates": [ [ -82.646156444444458, 27.833221222222221 ], [ -82.639520583333336, 27.833535138888887 ] ] } },
{ "type": "Feature", "properties": { "style": "solid", "thickness": 1 }, "geometry": { "type": "LineString", "coordinates": [ [ -82.643049638888897, 27.886038222222222 ], [ -82.636512388888889, 27.901679694444443 ], [ -82.628552, 27.886722944444443 ] ] } },
{ "type": "Feature", "properties": { "style": "solid", "thickness": 1 }, "geometry": { "type": "LineString", "coordinates": [ [ -82.640906305555561, 27.891089444444443 ], [ -82.631150472222217, 27.891550194444445 ] ] } },
{ "type": "Feature", "properties": { "style": "solid", "thickness": 1 }, "geometry": { "type": "LineString", "coordinates": [ [ -82.622432388888882, 27.720387444444444 ], [ -82.615902027777778, 27.73602838888889 ], [ -82.607956555555546, 27.721070027777778 ] ] } },
{ "type": "Feature", "properties": { "style": "solid", "thickness": 1 }, "geometry": { "type": "LineString", "coordinates": [ [ -82.6202913611111, 27.7254385 ], [ -82.610550166666656, 27.725897805555554 ] ] } },
{ "type": "Feature", "properties": { "style": "solid", "thickness": 1 }, "geometry": { "type": "LineString", "coordinates": [ [ -82.597538944444437, 27.664253138888888 ], [ -82.5984465, 27.679543277777778 ], [ -82.592766472222223, 27.679810388888889 ], [ -82.591549333333333, 27.679867611111113 ], [ -82.59055983333333, 27.679189722222223 ], [ -82.589833666666664, 27.678378722222224 ], [ -82.589805111111104, 27.677897138888891 ], [ -82.58966236111111, 27.67548925 ], [ -82.58977619444444, 27.675121694444446 ], [ -82.590124777777774, 27.674139472222222 ], [ -82.59140572222222, 27.672871972222225 ], [ -82.590010583333324, 27.672213166666669 ], [ -82.589313027777777, 27.67188375 ], [ -82.588601194444436, 27.67131352777778 ], [ -82.588131277777777, 27.670249027777778 ], [ -82.587945777777776, 27.66711875 ], [ -82.5883015, 27.666256916666665 ], [ -82.58920525, 27.665490083333331 ], [ -82.589852805555552, 27.664976722222221 ], [ -82.5905075, 27.664583777777775 ], [ -82.597538944444437, 27.664253138888888 ] ] } },
{ "type": "Feature", "properties": { "style": "solid", "thickness": 1 }, "geometry": { "type": "LineString", "coordinates": [ [ -82.598032, 27.67256038888889 ], [ -82.59140572222222, 27.672871972222225 ] ] } },
{ "type": "Feature", "properties": { "style": "solid", "thickness": 1 }, "geometry": { "type": "LineString", "coordinates": [ [ -82.441709583333335, 27.731158277777777 ], [ -82.449963527777783, 27.73077925 ], [ -82.449076222222232, 27.71548825 ], [ -82.440688138888888, 27.715873444444444 ] ] } },
{ "type": "Feature", "properties": { "style": "solid", "thickness": 1 }, "geometry": { "type": "LineString", "coordinates": [ [ -82.449516361111108, 27.723073555555555 ], [ -82.441533611111112, 27.723440138888886 ] ] } },
{ "type": "Feature", "properties": { "style": "solid", "thickness": 1 }, "geometry": { "type": "LineString", "coordinates": [ [ -82.406737805555565, 27.892378611111109 ], [ -82.415004055555556, 27.892001694444446 ], [ -82.414120361111117, 27.876710916666667 ], [ -82.405719805555563, 27.877093944444447 ] ] } },
{ "type": "Feature", "properties": { "style": "solid", "thickness": 1 }, "geometry": { "type": "LineString", "coordinates": [ [ -82.414558694444452, 27.884296111111112 ], [ -82.406564055555563, 27.884660666666665 ] ] } },
{ "type": "Feature", "properties": { "style": "solid", "thickness": 1 }, "geometry": { "type": "LineString", "coordinates": [ [ -82.567874694444441, 28.021461083333332 ], [ -82.558106861111114, 28.021916694444442 ] ] } },
{ "type": "Feature", "properties": { "style": "solid", "thickness": 1 }, "geometry": { "type": "LineString", "coordinates": [ [ -82.563126444444435, 28.021682666666667 ], [ -82.562220944444448, 28.006393166666665 ] ] } }
]
}
