{
"type": "FeatureCollection",
"name": "tpa215sgp",
"features": [
{ "type": "Feature", "properties": { "style": "solid", "thickness": 1 }, "geometry": { "type": "LineString", "coordinates": [ [ -81.791968416666663, 27.985687305555558 ], [ -81.792228055555555, 28.007827388888888 ], [ -81.793313916666662, 28.029947555555555 ], [ -81.795225333333335, 28.05202361111111 ], [ -81.797960694444441, 28.074031222222221 ], [ -81.801517472222216, 28.09594625 ], [ -81.805892277777772, 28.117744583333334 ], [ -81.811080805555548, 28.139402222222223 ], [ -81.817077805555556, 28.160895333333333 ], [ -81.823877138888889, 28.182200222222225 ], [ -81.831471805555552, 28.203293444444444 ], [ -81.839853916666655, 28.224151666666664 ], [ -81.849014611111102, 28.244751916666669 ], [ -81.858944277777766, 28.265071444444445 ], [ -81.869632361111101, 28.285087777777779 ], [ -81.88106744444444, 28.304778805555557 ], [ -81.893237333333346, 28.324122722222221 ], [ -81.906128888888901, 28.343098166666664 ], [ -81.91972825, 28.361684083333333 ], [ -81.934020722222229, 28.379859861111111 ], [ -81.948990805555553, 28.397605416666668 ], [ -81.964622222222232, 28.414901027777777 ], [ -81.98089794444445, 28.431727527777777 ], [ -81.997800222222224, 28.448066194444444 ], [ -82.015310527777771, 28.463898944444445 ], [ -82.033409694444444, 28.47920811111111 ], [ -82.052077861111101, 28.49397675 ], [ -82.07129447222222, 28.50818838888889 ], [ -82.091038361111103, 28.521827222222221 ], [ -82.111287777777775, 28.534878055555556 ], [ -82.13202033333333, 28.547326416666667 ], [ -82.153213083333341, 28.559158361111113 ], [ -82.174842583333344, 28.570360777777779 ], [ -82.196884861111116, 28.58092113888889 ], [ -82.219315444444447, 28.590827666666666 ], [ -82.242109416666665, 28.600069333333334 ], [ -82.265241416666669, 28.608635833333334 ], [ -82.28868575, 28.616517583333334 ], [ -82.312416277777771, 28.623705805555556 ], [ -82.336406583333329, 28.630192472222223 ], [ -82.360629916666667, 28.635970305555556 ], [ -82.385059222222225, 28.641032916666667 ], [ -82.409667277777785, 28.645374611111112 ], [ -82.434426583333334, 28.648990527777777 ], [ -82.45930947222223, 28.651876666666666 ], [ -82.484288194444446, 28.654029777777776 ], [ -82.509334777777781, 28.655447444444444 ], [ -82.534421277777781, 28.656128083333332 ], [ -82.559519638888887, 28.656070972222221 ], [ -82.584601777777777, 28.655276138888887 ], [ -82.609639694444439, 28.6537445 ], [ -82.6346053888889, 28.651477722222221 ], [ -82.659470972222223, 28.64847836111111 ], [ -82.684208666666677, 28.644749805555556 ], [ -82.708790833333339, 28.640296166666666 ], [ -82.733190027777781, 28.635122444444445 ], [ -82.75737905555556, 28.629234388888889 ], [ -82.781330861111115, 28.62263863888889 ], [ -82.805018833333335, 28.6153425 ], [ -82.8284165, 28.607354138888891 ], [ -82.851497861111099, 28.598682472222222 ], [ -82.87423722222222, 28.589337166666667 ], [ -82.896609277777785, 28.579328666666665 ], [ -82.918589250000011, 28.568668138888889 ], [ -82.94015269444445, 28.557367416666668 ], [ -82.961275722222226, 28.545439138888892 ], [ -82.98193497222222, 28.532896583333333 ], [ -83.002107555555554, 28.51975375 ], [ -83.021771222222227, 28.506025222222224 ], [ -83.040904305555557, 28.491726305555556 ], [ -83.059485694444447, 28.476872916666665 ], [ -83.077494972222212, 28.461481527777778 ], [ -83.094912388888886, 28.445569305555555 ], [ -83.111718833333327, 28.429153916666667 ], [ -83.12789597222222, 28.412253555555555 ], [ -83.143426083333338, 28.394887 ], [ -83.158292305555563, 28.377073555555555 ], [ -83.172478472222224, 28.358832916666668 ], [ -83.185969194444453, 28.340185361111111 ], [ -83.198749916666671, 28.3211515 ], [ -83.210806861111109, 28.301752416666666 ], [ -83.222127083333334, 28.282009583333334 ], [ -83.232698472222225, 28.261944861111111 ], [ -83.24250975, 28.241580388888888 ], [ -83.251550527777781, 28.220938722222222 ], [ -83.25981125, 28.200042583333332 ], [ -83.267283305555551, 28.178915083333333 ], [ -83.273958861111112, 28.1575795 ], [ -83.279831055555562, 28.136059361111112 ], [ -83.284893916666661, 28.114378361111111 ], [ -83.289142361111104, 28.092560388888888 ], [ -83.292572166666659, 28.070629472222222 ], [ -83.295180083333335, 28.048609666666668 ], [ -83.296963777777776, 28.026525194444442 ], [ -83.29792175, 28.004400361111109 ], [ -83.298053444444449, 27.982259388888888 ], [ -83.297359277777772, 27.960126583333334 ], [ -83.295840444444437, 27.938026222222224 ], [ -83.293499166666663, 27.915982527777775 ], [ -83.290338472222217, 27.894019638888889 ], [ -83.286362333333329, 27.872161583333334 ], [ -83.281575555555548, 27.85043225 ], [ -83.275983861111115, 27.828855444444443 ], [ -83.269593861111105, 27.807454694444445 ], [ -83.262412944444449, 27.786253361111111 ], [ -83.254449416666674, 27.76527463888889 ], [ -83.24571244444445, 27.744541361111111 ], [ -83.236211916666662, 27.724076138888886 ], [ -83.225958666666671, 27.703901277777778 ], [ -83.214964222222221, 27.684038722222223 ], [ -83.203240944444445, 27.664510138888886 ], [ -83.190802, 27.645336722222222 ], [ -83.177661222222227, 27.62653936111111 ], [ -83.163833277777783, 27.608138444444446 ], [ -83.149333527777785, 27.590153972222222 ], [ -83.134177972222233, 27.572605472222222 ], [ -83.11838341666666, 27.555512 ], [ -83.10196725, 27.538892055555557 ], [ -83.084947555555544, 27.522763722222223 ], [ -83.067343, 27.507144444444446 ], [ -83.04917288888889, 27.492051111111113 ], [ -83.030457166666665, 27.477500138888889 ], [ -83.011216222222217, 27.463507222222223 ], [ -82.99147111111111, 27.450087527777779 ], [ -82.971243333333334, 27.437255583333332 ], [ -82.950554944444448, 27.425025222222224 ], [ -82.929428388888894, 27.413409694444443 ], [ -82.907886694444457, 27.402421555555556 ], [ -82.885953166666667, 27.392072694444444 ], [ -82.863651638888882, 27.38237425 ], [ -82.84100625, 27.373336694444443 ], [ -82.81804152777778, 27.364969833333333 ], [ -82.794782305555557, 27.35728263888889 ], [ -82.771253722222227, 27.350283444444447 ], [ -82.74748122222222, 27.343979805555556 ], [ -82.723490444444451, 27.3383785 ], [ -82.699307305555564, 27.333485555555555 ], [ -82.674957888888898, 27.329306277777778 ], [ -82.650468444444456, 27.325845194444444 ], [ -82.625865388888883, 27.323105972222223 ], [ -82.60117522222221, 27.321091638888888 ], [ -82.576424555555548, 27.319804305555554 ], [ -82.551640055555552, 27.319245388888888 ], [ -82.52684844444444, 27.319415472222222 ], [ -82.502076416666668, 27.320314388888889 ], [ -82.477350666666666, 27.321941166666665 ], [ -82.452697833333332, 27.324294055555555 ], [ -82.428144472222229, 27.327370527777777 ], [ -82.403717083333333, 27.33116725 ], [ -82.379442, 27.33568011111111 ], [ -82.355345388888878, 27.340904277777778 ], [ -82.33145325, 27.346834111111111 ], [ -82.307791361111114, 27.353463194444444 ], [ -82.284385333333333, 27.360784388888892 ], [ -82.261260416666673, 27.368789777777778 ], [ -82.238441638888887, 27.377470777777777 ], [ -82.215953666666664, 27.386817944444445 ], [ -82.193820861111121, 27.39682125 ], [ -82.172067222222225, 27.40746983333333 ], [ -82.150716333333335, 27.418752222222224 ], [ -82.129791416666663, 27.430656222222222 ], [ -82.109315166666661, 27.443168972222221 ], [ -82.089309888888877, 27.456276944444443 ], [ -82.069797388888887, 27.469965944444443 ], [ -82.050798944444438, 27.484221194444444 ], [ -82.032335277777776, 27.499027222222225 ], [ -82.014426638888892, 27.514368027777778 ], [ -81.997092611111114, 27.53022697222222 ], [ -81.980352222222223, 27.546586888888889 ], [ -81.964223888888895, 27.563430055555557 ], [ -81.948725361111116, 27.580738194444443 ], [ -81.933873777777777, 27.598492527777776 ], [ -81.919685527777787, 27.61667375 ], [ -81.906176361111122, 27.635262194444444 ], [ -81.893361277777785, 27.65423758333333 ], [ -81.88125458333333, 27.673579333333336 ], [ -81.869869805555552, 27.693266416666667 ], [ -81.859219694444434, 27.713277416666667 ], [ -81.849316277777774, 27.7335905 ], [ -81.84017075, 27.75418361111111 ], [ -81.831793472222216, 27.77503425 ], [ -81.824194055555552, 27.796119694444446 ], [ -81.817381194444437, 27.817416972222222 ], [ -81.811362805555547, 27.838902777777776 ], [ -81.806145916666665, 27.860553722222225 ], [ -81.801736722222216, 27.882346055555555 ], [ -81.798140527777775, 27.904256027777777 ], [ -81.79536175, 27.92625963888889 ], [ -81.793403888888889, 27.948332777777779 ], [ -81.792269638888882, 27.970451277777777 ], [ -81.791968416666663, 27.985687305555558 ] ] } },
{ "type": "Feature", "properties": { "style": "solid", "thickness": 1 }, "geometry": { "type": "LineString", "coordinates": [ [ -82.521223194444445, 27.986027333333336 ], [ -82.521223194444445, 27.987861555555558 ] ] } },
{ "type": "Feature", "properties": { "style": "solid", "thickness": 1 }, "geometry": { "type": "LineString", "coordinates": [ [ -82.520706611111109, 27.985843888888891 ], [ -82.520706638888882, 27.988045 ] ] } },
{ "type": "Feature", "properties": { "style": "solid", "thickness": 1 }, "geometry": { "type": "LineString", "coordinates": [ [ -82.52019005555556, 27.985843888888891 ], [ -82.52019005555556, 27.988045 ] ] } },
{ "type": "Feature", "properties": { "style": "solid", "thickness": 1 }, "geometry": { "type": "LineString", "coordinates": [ [ -82.519673472222223, 27.986027305555556 ], [ -82.519673472222223, 27.987861555555558 ] ] } },
{ "type": "Feature", "properties": { "style": "solid", "thickness": 1 }, "geometry": { "type": "LineString", "coordinates": [ [ -82.519156888888887, 27.986944444444447 ], [ -82.519164916666668, 27.987074472222222 ], [ -82.51919075, 27.98721038888889 ], [ -82.519236861111111, 27.987349666666667 ], [ -82.519305138888882, 27.987488916666667 ], [ -82.519396611111105, 27.987624222222223 ], [ -82.519511083333327, 27.987751194444446 ], [ -82.519646944444446, 27.987865333333335 ], [ -82.519801222222227, 27.987962638888892 ], [ -82.519969666666668, 27.988039833333335 ], [ -82.520147166666661, 27.988094833333335 ], [ -82.52032825, 27.988126916666669 ], [ -82.520507638888887, 27.988136694444446 ], [ -82.520680666666664, 27.988125861111111 ], [ -82.520843583333331, 27.98809702777778 ], [ -82.52099375, 27.988053222222224 ], [ -82.521129583333334, 27.987997583333335 ], [ -82.521253638888894, 27.987931305555556 ], [ -82.52137477777778, 27.98784913888889 ], [ -82.52149030555556, 27.987749833333336 ], [ -82.521596222222215, 27.987633305555555 ], [ -82.521688111111104, 27.987500416666666 ], [ -82.521761722222223, 27.987353111111112 ], [ -82.521813222222221, 27.9871945 ], [ -82.52183975, 27.987028611111111 ], [ -82.521839722222225, 27.98686025 ], [ -82.521813222222221, 27.986694388888889 ], [ -82.521761722222223, 27.986535777777778 ], [ -82.521688111111104, 27.986388472222224 ], [ -82.521596194444442, 27.986255555555555 ], [ -82.52149030555556, 27.986139027777778 ], [ -82.52137475, 27.98603975 ], [ -82.521253611111106, 27.985957555555558 ], [ -82.521129583333334, 27.985891305555558 ], [ -82.52099375, 27.985835666666667 ], [ -82.520843583333331, 27.985791861111114 ], [ -82.520680666666664, 27.985763027777779 ], [ -82.520507638888887, 27.985752194444444 ], [ -82.52032825, 27.985761972222225 ], [ -82.520147166666661, 27.985794055555555 ], [ -82.519969666666668, 27.985849055555555 ], [ -82.519801222222227, 27.98592625 ], [ -82.519646944444446, 27.986023527777778 ], [ -82.519511083333327, 27.986137694444444 ], [ -82.519396611111105, 27.98626463888889 ], [ -82.519305138888882, 27.986399944444447 ], [ -82.519236861111111, 27.986539222222223 ], [ -82.51919075, 27.986678472222223 ], [ -82.519164916666668, 27.986814388888888 ], [ -82.519156888888887, 27.986944444444447 ] ] } }
]
}
