{
"type": "FeatureCollection",
"name": "tpa183sgp",
"features": [
{ "type": "Feature", "properties": { "style": "solid", "thickness": 1 }, "geometry": { "type": "LineString", "coordinates": [ [ -82.002508027777779, 27.977559805555554 ], [ -82.000560166666673, 27.98015075 ], [ -81.99934591666667, 27.983073305555553 ], [ -81.99893219444445, 27.986166555555556 ], [ -81.999341805555559, 27.989260277777777 ], [ -82.000552333333331, 27.992184055555555 ], [ -82.002497111111111, 27.994776972222223 ], [ -82.005069138888885, 27.996896194444446 ], [ -82.008126805555563, 27.998425027777778 ], [ -82.01150175, 27.999279305555557 ], [ -82.015008027777782, 27.999411944444446 ], [ -82.018452611111115, 27.998815638888889 ], [ -82.02164575, 27.99752325 ], [ -82.024411611111105, 27.995605944444446 ], [ -82.02659791666666, 27.993169305555558 ], [ -82.028084277777779, 27.990347527777779 ], [ -82.02878891666667, 27.987295972222224 ], [ -82.028673111111104, 27.984182666666669 ], [ -82.02774330555556, 27.981179 ], [ -82.026050722222223, 27.978450361111108 ], [ -82.023688638888885, 27.976146916666664 ], [ -82.020787055555559, 27.97439547222222 ], [ -82.01750575, 27.973292444444443 ], [ -82.014025277777776, 27.9728985 ], [ -82.010537194444439, 27.973235361111108 ], [ -82.0072335, 27.974284444444443 ], [ -82.004296027777784, 27.975988055555554 ], [ -82.002508027777779, 27.977559805555554 ] ] } },
{ "type": "Feature", "properties": { "style": "solid", "thickness": 1 }, "geometry": { "type": "LineString", "coordinates": [ [ -82.001099527777782, 27.97929075 ], [ -81.909886611111119, 27.929993722222225 ] ] } },
{ "type": "Feature", "properties": { "style": "solid", "thickness": 1 }, "geometry": { "type": "LineString", "coordinates": [ [ -81.891985111111111, 27.93933625 ], [ -81.878689527777766, 27.951171194444445 ] ] } },
{ "type": "Feature", "properties": { "style": "solid", "thickness": 1 }, "geometry": { "type": "LineString", "coordinates": [ [ -81.865391055555548, 27.963004833333333 ], [ -81.827917083333332, 27.996330055555557 ] ] } },
{ "type": "Feature", "properties": { "style": "solid", "thickness": 1 }, "geometry": { "type": "LineString", "coordinates": [ [ -82.521223194444445, 27.986027333333336 ], [ -82.521223194444445, 27.987861555555558 ] ] } },
{ "type": "Feature", "properties": { "style": "solid", "thickness": 1 }, "geometry": { "type": "LineString", "coordinates": [ [ -82.520706611111109, 27.985843888888891 ], [ -82.520706638888882, 27.988045 ] ] } },
{ "type": "Feature", "properties": { "style": "solid", "thickness": 1 }, "geometry": { "type": "LineString", "coordinates": [ [ -82.52019005555556, 27.985843888888891 ], [ -82.52019005555556, 27.988045 ] ] } },
{ "type": "Feature", "properties": { "style": "solid", "thickness": 1 }, "geometry": { "type": "LineString", "coordinates": [ [ -82.519673472222223, 27.986027333333336 ], [ -82.519673472222223, 27.987861555555558 ] ] } },
{ "type": "Feature", "properties": { "style": "solid", "thickness": 1 }, "geometry": { "type": "LineString", "coordinates": [ [ -82.519156888888887, 27.986944444444447 ], [ -82.519164916666668, 27.987074472222222 ], [ -82.51919075, 27.98721038888889 ], [ -82.519236861111111, 27.987349666666667 ], [ -82.519305138888882, 27.987488916666667 ], [ -82.519396611111105, 27.987624222222223 ], [ -82.519511083333327, 27.987751194444446 ], [ -82.519646944444446, 27.987865333333335 ], [ -82.519801222222227, 27.987962638888892 ], [ -82.519969666666668, 27.988039833333335 ], [ -82.520147166666661, 27.988094833333335 ], [ -82.52032825, 27.988126916666669 ], [ -82.520507638888887, 27.988136694444446 ], [ -82.520680666666664, 27.988125861111111 ], [ -82.520843583333331, 27.98809702777778 ], [ -82.52099375, 27.988053222222224 ], [ -82.521129583333334, 27.987997583333335 ], [ -82.521253638888894, 27.987931305555556 ], [ -82.52137477777778, 27.98784913888889 ], [ -82.52149030555556, 27.987749833333336 ], [ -82.521596222222215, 27.987633305555555 ], [ -82.521688111111104, 27.987500416666666 ], [ -82.521761722222223, 27.987353111111112 ], [ -82.521813222222221, 27.9871945 ], [ -82.52183975, 27.987028611111111 ], [ -82.521839722222225, 27.98686025 ], [ -82.521813222222221, 27.986694388888889 ], [ -82.521761722222223, 27.986535777777778 ], [ -82.521688111111104, 27.986388472222224 ], [ -82.521596194444442, 27.986255555555555 ], [ -82.52149030555556, 27.986139027777778 ], [ -82.52137475, 27.98603975 ], [ -82.521253611111106, 27.985957555555558 ], [ -82.521129583333334, 27.985891305555558 ], [ -82.52099375, 27.985835666666667 ], [ -82.520843583333331, 27.985791861111114 ], [ -82.520680666666664, 27.985763027777779 ], [ -82.520507638888887, 27.985752194444444 ], [ -82.52032825, 27.985761972222225 ], [ -82.520147166666661, 27.985794055555555 ], [ -82.519969666666668, 27.985849055555555 ], [ -82.519801222222227, 27.98592625 ], [ -82.519646944444446, 27.986023527777778 ], [ -82.519511083333327, 27.986137694444444 ], [ -82.519396611111105, 27.98626463888889 ], [ -82.519305138888882, 27.986399944444447 ], [ -82.519236861111111, 27.986539222222223 ], [ -82.51919075, 27.986678472222223 ], [ -82.519164916666668, 27.986814388888888 ], [ -82.519156888888887, 27.986944444444447 ] ] } },
{ "type": "Feature", "properties": { "style": "solid", "thickness": 1 }, "geometry": { "type": "LineString", "coordinates": [ [ -81.803100861111105, 27.984312277777779 ], [ -81.79986913888888, 27.980665055555555 ] ] } },
{ "type": "Feature", "properties": { "style": "solid", "thickness": 1 }, "geometry": { "type": "LineString", "coordinates": [ [ -81.80533202777778, 27.98044047222222 ], [ -81.805728888888879, 27.98804425 ], [ -81.8023565, 27.988182916666666 ], [ -81.802080472222215, 27.98807427777778 ], [ -81.801460944444443, 27.987859722222222 ], [ -81.800822694444435, 27.987285944444444 ], [ -81.800521666666668, 27.986698305555556 ], [ -81.800484194444437, 27.985979833333335 ], [ -81.800722777777779, 27.98537002777778 ], [ -81.801298555555547, 27.984746361111114 ], [ -81.801893083333326, 27.984481916666667 ], [ -81.802156611111101, 27.984351083333333 ], [ -81.805528888888887, 27.984212416666669 ] ] } },
{ "type": "Feature", "properties": { "style": "solid", "thickness": 1 }, "geometry": { "type": "LineString", "coordinates": [ [ -81.793385916666665, 27.988551361111114 ], [ -81.79750025, 27.988382444444447 ], [ -81.797103944444444, 27.980778638888886 ], [ -81.792922472222216, 27.980950305555552 ] ] } },
{ "type": "Feature", "properties": { "style": "solid", "thickness": 1 }, "geometry": { "type": "LineString", "coordinates": [ [ -81.797300527777779, 27.984550611111111 ], [ -81.793321222222218, 27.984714 ] ] } },
{ "type": "Feature", "properties": { "style": "solid", "thickness": 1 }, "geometry": { "type": "LineString", "coordinates": [ [ -81.79075541666667, 27.988659305555558 ], [ -81.790359611111114, 27.98105547222222 ], [ -81.787054861111116, 27.981191 ] ] } },
{ "type": "Feature", "properties": { "style": "solid", "thickness": 1 }, "geometry": { "type": "LineString", "coordinates": [ [ -81.784289666666666, 27.98130433333333 ], [ -81.784685055555556, 27.988908194444445 ], [ -81.776668472222227, 27.981616444444441 ], [ -81.777063361111104, 27.989220277777779 ] ] } },
{ "type": "Feature", "properties": { "style": "solid", "thickness": 1 }, "geometry": { "type": "LineString", "coordinates": [ [ -81.770183555555548, 27.989501638888889 ], [ -81.774297944444442, 27.989333416666668 ], [ -81.773903277777777, 27.981729555555553 ], [ -81.769721694444442, 27.981900527777775 ] ] } },
{ "type": "Feature", "properties": { "style": "solid", "thickness": 1 }, "geometry": { "type": "LineString", "coordinates": [ [ -81.774099055555553, 27.985501555555558 ], [ -81.770119694444446, 27.985664277777779 ] ] } },
{ "type": "Feature", "properties": { "style": "solid", "thickness": 1 }, "geometry": { "type": "LineString", "coordinates": [ [ -82.070863444444441, 27.982977972222219 ], [ -82.070448, 27.975374944444443 ], [ -82.067143777777773, 27.975517222222219 ] ] } },
{ "type": "Feature", "properties": { "style": "solid", "thickness": 1 }, "geometry": { "type": "LineString", "coordinates": [ [ -82.064446472222215, 27.975633277777778 ], [ -82.061152416666658, 27.983395833333333 ], [ -82.057231111111108, 27.975943527777776 ] ] } },
{ "type": "Feature", "properties": { "style": "solid", "thickness": 1 }, "geometry": { "type": "LineString", "coordinates": [ [ -82.063366611111107, 27.978140027777776 ], [ -82.058511305555555, 27.978348777777775 ] ] } },
{ "type": "Feature", "properties": { "style": "solid", "thickness": 1 }, "geometry": { "type": "LineString", "coordinates": [ [ -82.05481325, 27.98366825 ], [ -82.054398888888883, 27.976065194444441 ], [ -82.051094638888884, 27.976207083333332 ] ] } },
{ "type": "Feature", "properties": { "style": "solid", "thickness": 1 }, "geometry": { "type": "LineString", "coordinates": [ [ -81.895554388888897, 27.91147275 ], [ -81.895957333333342, 27.919076361111113 ], [ -81.893126444444448, 27.919194694444446 ], [ -81.892519805555565, 27.919220055555556 ], [ -81.892028972222235, 27.91888052777778 ], [ -81.891669777777778, 27.91847552777778 ], [ -81.891657083333342, 27.91823602777778 ], [ -81.891593666666679, 27.917038611111114 ], [ -81.891651555555569, 27.916856194444446 ], [ -81.891828388888896, 27.916368777777777 ], [ -81.892470694444455, 27.915741888888888 ], [ -81.89177766666667, 27.915410833333333 ], [ -81.891431166666678, 27.915245305555555 ], [ -81.891078305555567, 27.914960027777777 ], [ -81.89084758333334, 27.914429638888887 ], [ -81.890765166666668, 27.912873 ], [ -81.890945166666668, 27.912445444444444 ], [ -81.891397916666676, 27.912066527777775 ], [ -81.89172225, 27.911812944444442 ], [ -81.892049722222225, 27.91161925 ], [ -81.895554388888897, 27.91147275 ] ] } },
{ "type": "Feature", "properties": { "style": "solid", "thickness": 1 }, "geometry": { "type": "LineString", "coordinates": [ [ -81.895773305555565, 27.915603833333332 ], [ -81.892470694444455, 27.915741888888888 ] ] } },
{ "type": "Feature", "properties": { "style": "solid", "thickness": 1 }, "geometry": { "type": "LineString", "coordinates": [ [ -81.884161861111124, 27.919569055555556 ], [ -81.888273444444451, 27.919397444444446 ], [ -81.887871027777791, 27.911793805555554 ], [ -81.883692361111116, 27.91196825 ] ] } },
{ "type": "Feature", "properties": { "style": "solid", "thickness": 1 }, "geometry": { "type": "LineString", "coordinates": [ [ -81.888070666666678, 27.915565694444442 ], [ -81.884094027777778, 27.915731694444442 ] ] } },
{ "type": "Feature", "properties": { "style": "solid", "thickness": 1 }, "geometry": { "type": "LineString", "coordinates": [ [ -81.881128749999988, 27.919695611111113 ], [ -81.876545333333326, 27.919886694444447 ], [ -81.876516861111099, 27.919347861111113 ], [ -81.881201777777775, 27.912132166666666 ], [ -81.881198611111103, 27.912072305555554 ], [ -81.875874138888889, 27.912294277777775 ] ] } },
{ "type": "Feature", "properties": { "style": "solid", "thickness": 1 }, "geometry": { "type": "LineString", "coordinates": [ [ -81.873312972222209, 27.912401 ], [ -81.873714388888885, 27.920004638888891 ], [ -81.870748611111111, 27.920128138888892 ], [ -81.869933472222215, 27.920042055555555 ], [ -81.869586972222208, 27.919876472222224 ], [ -81.869025638888886, 27.919479833333334 ], [ -81.86818205555555, 27.918854916666668 ], [ -81.867601777777764, 27.918099 ], [ -81.867435416666666, 27.917505916666666 ], [ -81.867331222222219, 27.915530166666667 ], [ -81.8674376111111, 27.914985694444443 ], [ -81.867804111111099, 27.914250416666665 ], [ -81.868253833333327, 27.913811694444444 ], [ -81.868697194444437, 27.913253194444444 ], [ -81.869349083333333, 27.912806055555553 ], [ -81.870148388888879, 27.912592777777775 ], [ -81.870617027777769, 27.91251325 ], [ -81.873312972222209, 27.912401 ] ] } },
{ "type": "Feature", "properties": { "style": "solid", "thickness": 1 }, "geometry": { "type": "LineString", "coordinates": [ [ -81.864817083333321, 27.920374944444447 ], [ -81.864498361111103, 27.914327944444445 ], [ -81.864415194444433, 27.914031388888887 ], [ -81.863911833333333, 27.913452277777775 ], [ -81.863555916666655, 27.913107083333333 ], [ -81.863004083333323, 27.91289 ], [ -81.862259555555553, 27.912860972222219 ], [ -81.861181166666654, 27.912905777777777 ], [ -81.860577722222217, 27.912990861111108 ], [ -81.859784694444443, 27.913323833333333 ], [ -81.859334972222214, 27.913762555555554 ], [ -81.859084277777768, 27.91413297222222 ], [ -81.8589778611111, 27.914677416666667 ], [ -81.859289972222214, 27.920604694444446 ] ] } },
{ "type": "Feature", "properties": { "style": "solid", "thickness": 1 }, "geometry": { "type": "LineString", "coordinates": [ [ -81.882768694444437, 27.905359277777777 ], [ -81.882787666666658, 27.9057185 ], [ -81.882675055555552, 27.906143222222219 ], [ -81.882433944444443, 27.906693305555553 ], [ -81.882183361111103, 27.907063777777775 ], [ -81.881791638888885, 27.907320138888888 ], [ -81.881258805555547, 27.907462361111111 ], [ -81.880247888888888, 27.907504527777775 ], [ -81.879500194444432, 27.907415694444442 ], [ -81.87915375, 27.907250138888887 ], [ -81.87865983333333, 27.90685072222222 ], [ -81.87850922222222, 27.906556972222219 ], [ -81.878349138888879, 27.906083638888887 ], [ -81.878298527777773, 27.905125694444443 ], [ -81.878414333333325, 27.904760833333331 ], [ -81.878954444444432, 27.90347825 ], [ -81.879718888888888, 27.902606333333331 ], [ -81.88093922222221, 27.901415388888889 ], [ -81.882410083333326, 27.899853944444445 ], [ -81.87816447222221, 27.900031027777775 ] ] } },
{ "type": "Feature", "properties": { "style": "solid", "thickness": 1 }, "geometry": { "type": "LineString", "coordinates": [ [ -81.870835666666665, 27.903216527777776 ], [ -81.87093044444444, 27.905012666666664 ], [ -81.871186333333327, 27.906022055555553 ], [ -81.871346388888881, 27.906495416666665 ], [ -81.871567527777771, 27.906846222222221 ], [ -81.872414194444431, 27.907531 ], [ -81.873238722222212, 27.907796666666666 ], [ -81.873508305555546, 27.907785444444443 ], [ -81.874301249999988, 27.907452388888888 ], [ -81.875004666666655, 27.906703055555553 ], [ -81.875255305555555, 27.906332583333331 ], [ -81.875364805555549, 27.905848 ], [ -81.87551322222221, 27.904821777777777 ], [ -81.875418388888889, 27.903025638888888 ], [ -81.875162472222215, 27.90201625 ], [ -81.875002388888888, 27.901542888888887 ], [ -81.874713861111104, 27.901194888888888 ], [ -81.873934638888883, 27.900507333333334 ], [ -81.873110138888876, 27.900241666666666 ], [ -81.872840583333328, 27.900252888888886 ], [ -81.87204766666666, 27.900585916666664 ], [ -81.871276888888886, 27.901338055555556 ], [ -81.871093666666667, 27.901705722222221 ], [ -81.870984138888886, 27.902190305555553 ], [ -81.870835666666665, 27.903216527777776 ] ] } },
{ "type": "Feature", "properties": { "style": "solid", "thickness": 1 }, "geometry": { "type": "LineString", "coordinates": [ [ -81.901234277777789, 27.92451327777778 ], [ -81.900248694444457, 27.926133777777778 ], [ -81.900045, 27.927966694444446 ], [ -81.900654861111121, 27.929727055555556 ], [ -81.901983527777787, 27.931141166666666 ], [ -81.903824416666666, 27.931989166666668 ], [ -81.905891305555556, 27.932139166666669 ], [ -81.90786277777778, 27.931567861111112 ], [ -81.909432305555555, 27.930364083333334 ], [ -81.910355861111114, 27.928715 ], [ -81.910489861111117, 27.926877027777778 ], [ -81.909813500000013, 27.925135916666669 ], [ -81.908432, 27.923762388888889 ], [ -81.906560138888892, 27.922969944444446 ], [ -81.904488916666679, 27.922881777777778 ], [ -81.902540333333334, 27.92351163888889 ], [ -81.901234277777789, 27.92451327777778 ] ] } },
{ "type": "Feature", "properties": { "style": "solid", "thickness": 1 }, "geometry": { "type": "LineString", "coordinates": [ [ -81.89310675, 27.928009194444446 ], [ -81.896266888888889, 27.927392 ], [ -81.899149722222234, 27.926087055555556 ], [ -81.901568916666676, 27.924178666666666 ], [ -81.903368222222227, 27.921790166666668 ], [ -81.904431361111122, 27.919075888888891 ], [ -81.904703944444449, 27.916689861111113 ] ] } },
{ "type": "Feature", "properties": { "style": "solid", "thickness": 1 }, "geometry": { "type": "LineString", "coordinates": [ [ -81.904703944444449, 27.916689861111113 ], [ -81.90539902777779, 27.919496638888891 ], [ -81.906868361111123, 27.922057055555555 ], [ -81.909017027777779, 27.924205694444446 ], [ -81.911706277777782, 27.925803722222224 ], [ -81.914762277777783, 27.926747861111114 ], [ -81.917448694444445, 27.92698975 ] ] } },
{ "type": "Feature", "properties": { "style": "solid", "thickness": 1 }, "geometry": { "type": "LineString", "coordinates": [ [ -81.905851722222224, 27.938310111111111 ], [ -81.906246444444449, 27.935457722222221 ], [ -81.907438111111119, 27.932785833333334 ], [ -81.909349666666671, 27.930467083333333 ], [ -81.911857611111117, 27.928651194444445 ], [ -81.914799916666666, 27.9274555 ], [ -81.917448694444445, 27.92698975 ] ] } },
{ "type": "Feature", "properties": { "style": "solid", "thickness": 1 }, "geometry": { "type": "LineString", "coordinates": [ [ -81.905851722222224, 27.938310111111111 ], [ -81.9051565, 27.93550336111111 ], [ -81.903687027777778, 27.932942944444445 ], [ -81.901538277777789, 27.930794222222222 ], [ -81.898849083333346, 27.929196 ], [ -81.895793138888891, 27.9282515 ], [ -81.89310675, 27.928009194444446 ] ] } },
{ "type": "Feature", "properties": { "style": "solid", "thickness": 1 }, "geometry": { "type": "LineString", "coordinates": [ [ -81.81994947222222, 27.996878111111112 ], [ -81.819077083333326, 27.998549222222223 ], [ -81.819000277777775, 28.00038975 ], [ -81.819731027777777, 28.002113555555557 ], [ -81.821155805555549, 28.003452611111111 ], [ -81.823053055555548, 28.004198722222224 ], [ -81.82512775, 28.004235861111113 ], [ -81.827057361111102, 28.00355825 ], [ -81.828541805555545, 28.002271277777776 ], [ -81.829350277777777, 28.000575027777778 ], [ -81.829357138888881, 27.998733222222224 ], [ -81.828561361111113, 27.99703225 ], [ -81.827086666666659, 27.995736555555556 ], [ -81.825162333333324, 27.995047555555555 ], [ -81.823087555555546, 27.995072361111113 ], [ -81.821184861111107, 27.995807111111112 ], [ -81.81994947222222, 27.996878111111112 ] ] } },
{ "type": "Feature", "properties": { "style": "solid", "thickness": 1 }, "geometry": { "type": "LineString", "coordinates": [ [ -81.812014944444442, 28.00014088888889 ], [ -81.815177638888883, 27.999525583333334 ], [ -81.818063333333328, 27.998222361111111 ], [ -81.820485583333323, 27.996315444444445 ], [ -81.822287861111107, 27.993928055555557 ], [ -81.82335375, 27.991214444444445 ], [ -81.823628305555545, 27.98882852777778 ] ] } },
{ "type": "Feature", "properties": { "style": "solid", "thickness": 1 }, "geometry": { "type": "LineString", "coordinates": [ [ -81.823628305555545, 27.98882852777778 ], [ -81.82432175, 27.991635638888891 ], [ -81.825790138888891, 27.99419688888889 ], [ -81.827938611111108, 27.996346777777777 ], [ -81.83062841666667, 27.997946388888892 ], [ -81.83368575, 27.998892333333334 ], [ -81.836373833333326, 27.999135805555557 ] ] } },
{ "type": "Feature", "properties": { "style": "solid", "thickness": 1 }, "geometry": { "type": "LineString", "coordinates": [ [ -81.824760666666663, 28.010449222222221 ], [ -81.825157805555548, 28.00759711111111 ], [ -81.82635225, 28.004925972222221 ], [ -81.82826677777777, 28.002608361111111 ], [ -81.830777722222223, 28.000793972222223 ], [ -81.833722861111113, 27.999600027777777 ], [ -81.836373833333326, 27.999135805555557 ] ] } },
{ "type": "Feature", "properties": { "style": "solid", "thickness": 1 }, "geometry": { "type": "LineString", "coordinates": [ [ -81.824760666666663, 28.010449222222221 ], [ -81.824067083333333, 28.00764211111111 ], [ -81.822598583333331, 28.005080861111111 ], [ -81.820450027777781, 28.002930888888891 ], [ -81.81776025, 28.001331083333334 ], [ -81.814703, 28.000384805555555 ], [ -81.812014944444442, 28.00014088888889 ] ] } }
]
}
