{
"type": "FeatureCollection",
"name": "tpa162sgp",
"features": [
{ "type": "Feature", "properties": { "style": "solid", "thickness": 1 }, "geometry": { "type": "LineString", "coordinates": [ [ -82.154349861111115, 28.199414472222223 ], [ -82.234488694444451, 28.121940194444445 ] ] } },
{ "type": "Feature", "properties": { "style": "solid", "thickness": 1 }, "geometry": { "type": "LineString", "coordinates": [ [ -82.247246333333337, 28.109587444444447 ], [ -82.260001083333336, 28.097233472222221 ] ] } },
{ "type": "Feature", "properties": { "style": "solid", "thickness": 1 }, "geometry": { "type": "LineString", "coordinates": [ [ -82.45258613888889, 28.19938725 ], [ -82.359731, 28.1990185 ] ] } },
{ "type": "Feature", "properties": { "style": "solid", "thickness": 1 }, "geometry": { "type": "LineString", "coordinates": [ [ -82.338406388888885, 28.198988166666666 ], [ -82.244723416666673, 28.198724083333335 ] ] } },
{ "type": "Feature", "properties": { "style": "solid", "thickness": 1 }, "geometry": { "type": "LineString", "coordinates": [ [ -82.348880805555552, 28.188456944444443 ], [ -82.349059111111103, 28.14718786111111 ] ] } },
{ "type": "Feature", "properties": { "style": "solid", "thickness": 1 }, "geometry": { "type": "LineString", "coordinates": [ [ -82.349089361111112, 28.130496666666666 ], [ -82.349222833333329, 28.113897277777781 ] ] } },
{ "type": "Feature", "properties": { "style": "solid", "thickness": 1 }, "geometry": { "type": "LineString", "coordinates": [ [ -82.402609388888891, 27.953349777777778 ], [ -82.411946444444453, 27.938968916666667 ] ] } },
{ "type": "Feature", "properties": { "style": "solid", "thickness": 1 }, "geometry": { "type": "LineString", "coordinates": [ [ -82.375788416666666, 27.742705027777777 ], [ -82.429039055555563, 27.903934722222221 ] ] } },
{ "type": "Feature", "properties": { "style": "solid", "thickness": 1 }, "geometry": { "type": "LineString", "coordinates": [ [ -82.421384138888897, 27.924428472222225 ], [ -82.42823416666667, 27.913871944444445 ] ] } },
{ "type": "Feature", "properties": { "style": "solid", "thickness": 1 }, "geometry": { "type": "LineString", "coordinates": [ [ -82.146435416666677, 28.200195527777776 ], [ -82.044487944444441, 28.13744725 ] ] } },
{ "type": "Feature", "properties": { "style": "solid", "thickness": 1 }, "geometry": { "type": "LineString", "coordinates": [ [ -82.521223194444445, 27.986027333333336 ], [ -82.521223194444445, 27.987861555555558 ] ] } },
{ "type": "Feature", "properties": { "style": "solid", "thickness": 1 }, "geometry": { "type": "LineString", "coordinates": [ [ -82.520706611111109, 27.985843888888891 ], [ -82.520706638888882, 27.988045 ] ] } },
{ "type": "Feature", "properties": { "style": "solid", "thickness": 1 }, "geometry": { "type": "LineString", "coordinates": [ [ -82.52019005555556, 27.985843888888891 ], [ -82.52019005555556, 27.988045 ] ] } },
{ "type": "Feature", "properties": { "style": "solid", "thickness": 1 }, "geometry": { "type": "LineString", "coordinates": [ [ -82.519673472222223, 27.986027305555556 ], [ -82.519673472222223, 27.987861555555558 ] ] } },
{ "type": "Feature", "properties": { "style": "solid", "thickness": 1 }, "geometry": { "type": "LineString", "coordinates": [ [ -82.519156888888887, 27.986944444444447 ], [ -82.519164916666668, 27.987074472222222 ], [ -82.51919075, 27.98721038888889 ], [ -82.519236861111111, 27.987349666666667 ], [ -82.519305138888882, 27.987488916666667 ], [ -82.519396611111105, 27.987624222222223 ], [ -82.519511083333327, 27.987751194444446 ], [ -82.519646944444446, 27.987865333333335 ], [ -82.519801222222227, 27.987962638888892 ], [ -82.519969666666668, 27.988039833333335 ], [ -82.520147166666661, 27.988094833333335 ], [ -82.52032825, 27.988126916666669 ], [ -82.520507638888887, 27.988136694444446 ], [ -82.520680666666664, 27.988125861111111 ], [ -82.520843583333331, 27.98809702777778 ], [ -82.52099375, 27.988053222222224 ], [ -82.521129583333334, 27.987997583333335 ], [ -82.521253638888894, 27.987931305555556 ], [ -82.52137477777778, 27.98784913888889 ], [ -82.52149030555556, 27.987749833333336 ], [ -82.521596222222215, 27.987633305555555 ], [ -82.521688111111104, 27.987500416666666 ], [ -82.521761722222223, 27.987353111111112 ], [ -82.521813222222221, 27.9871945 ], [ -82.52183975, 27.987028611111111 ], [ -82.521839722222225, 27.98686025 ], [ -82.521813222222221, 27.986694388888889 ], [ -82.521761722222223, 27.986535777777778 ], [ -82.521688111111104, 27.986388472222224 ], [ -82.521596194444442, 27.986255555555555 ], [ -82.52149030555556, 27.986139027777778 ], [ -82.52137475, 27.98603975 ], [ -82.521253611111106, 27.985957555555558 ], [ -82.521129583333334, 27.985891305555558 ], [ -82.52099375, 27.985835666666667 ], [ -82.520843583333331, 27.985791861111114 ], [ -82.520680666666664, 27.985763027777779 ], [ -82.520507638888887, 27.985752194444444 ], [ -82.52032825, 27.985761972222225 ], [ -82.520147166666661, 27.985794055555555 ], [ -82.519969666666668, 27.985849055555555 ], [ -82.519801222222227, 27.98592625 ], [ -82.519646944444446, 27.986023527777778 ], [ -82.519511083333327, 27.986137694444444 ], [ -82.519396611111105, 27.98626463888889 ], [ -82.519305138888882, 27.986399944444447 ], [ -82.519236861111111, 27.986539222222223 ], [ -82.51919075, 27.986678472222223 ], [ -82.519164916666668, 27.986814388888888 ], [ -82.519156888888887, 27.986944444444447 ] ] } },
{ "type": "Feature", "properties": { "style": "solid", "thickness": 1 }, "geometry": { "type": "LineString", "coordinates": [ [ -82.343987944444436, 28.09600711111111 ], [ -82.34439447222222, 28.097813277777778 ], [ -82.345556805555546, 28.099339666666665 ], [ -82.347294194444444, 28.100348916666668 ], [ -82.34933652777778, 28.100684138888891 ], [ -82.351366194444438, 28.100293166666667 ], [ -82.353067638888888, 28.099236833333332 ], [ -82.35417625, 28.097679361111108 ], [ -82.354519722222221, 28.095862916666665 ], [ -82.35404469444444, 28.094069944444442 ], [ -82.352825027777769, 28.092579194444443 ], [ -82.351050361111106, 28.091622444444443 ], [ -82.348996638888877, 28.091348416666666 ], [ -82.346983111111101, 28.09179972222222 ], [ -82.345322805555554, 28.092906194444442 ], [ -82.344273861111105, 28.094495805555553 ], [ -82.343987944444436, 28.09600711111111 ] ] } },
{ "type": "Feature", "properties": { "style": "solid", "thickness": 1 }, "geometry": { "type": "LineString", "coordinates": [ [ -82.337067388888883, 28.096562222222222 ], [ -82.340229944444445, 28.095934861111111 ], [ -82.343111888888885, 28.094620611111111 ], [ -82.345527027777777, 28.09270447222222 ], [ -82.347319305555544, 28.090310194444442 ], [ -82.348372944444435, 28.087592527777776 ], [ -82.348636138888878, 28.085205805555553 ] ] } },
{ "type": "Feature", "properties": { "style": "solid", "thickness": 1 }, "geometry": { "type": "LineString", "coordinates": [ [ -82.348636138888878, 28.085205805555553 ], [ -82.349343833333322, 28.08801025 ], [ -82.350825944444438, 28.090565861111109 ], [ -82.352986805555545, 28.0927075 ], [ -82.355686777777777, 28.094296777777778 ], [ -82.358751444444437, 28.095231 ], [ -82.361442888888888, 28.095464166666666 ] ] } },
{ "type": "Feature", "properties": { "style": "solid", "thickness": 1 }, "geometry": { "type": "LineString", "coordinates": [ [ -82.349874388888878, 28.106821666666669 ], [ -82.35025802777777, 28.103968055555558 ], [ -82.351440611111101, 28.10129238888889 ], [ -82.353345638888882, 28.098967527777777 ], [ -82.355850027777777, 28.097143583333331 ], [ -82.358792027777767, 28.095938444444442 ], [ -82.361442888888888, 28.095464166666666 ] ] } },
{ "type": "Feature", "properties": { "style": "solid", "thickness": 1 }, "geometry": { "type": "LineString", "coordinates": [ [ -82.349874388888878, 28.106821666666669 ], [ -82.349166583333329, 28.104017222222225 ], [ -82.347684305555546, 28.101461611111112 ], [ -82.345523388888878, 28.099319888888889 ], [ -82.342823416666661, 28.097730416666664 ], [ -82.339758833333335, 28.096795833333331 ], [ -82.337067388888883, 28.096562222222222 ] ] } },
{ "type": "Feature", "properties": { "style": "solid", "thickness": 1 }, "geometry": { "type": "LineString", "coordinates": [ [ -82.404599527777791, 28.084434083333331 ], [ -82.405038888888896, 28.092035916666667 ] ] } },
{ "type": "Feature", "properties": { "style": "solid", "thickness": 1 }, "geometry": { "type": "LineString", "coordinates": [ [ -82.394923194444445, 28.091475111111109 ], [ -82.395213916666677, 28.091822 ], [ -82.395842111111122, 28.092153583333332 ], [ -82.396254, 28.092254916666665 ], [ -82.397411805555564, 28.092382388888886 ], [ -82.397816777777791, 28.092364 ], [ -82.398619833333342, 28.092207527777777 ], [ -82.399284416666674, 28.091997305555555 ], [ -82.399415944444456, 28.091931305555555 ], [ -82.399871138888898, 28.091610555555555 ], [ -82.400322861111121, 28.091229972222219 ], [ -82.401074055555554, 28.09017561111111 ], [ -82.401356194444446, 28.089202555555556 ], [ -82.401280138888893, 28.087885694444441 ], [ -82.401103666666671, 28.087173555555555 ], [ -82.400802583333345, 28.086647111111109 ], [ -82.400369944444449, 28.086186638888886 ], [ -82.400008305555559, 28.085782972222223 ], [ -82.39943725, 28.085268777777777 ], [ -82.398883500000011, 28.08505386111111 ], [ -82.398329722222229, 28.084838972222222 ], [ -82.397850361111111, 28.084740694444442 ], [ -82.396635527777789, 28.084795861111111 ], [ -82.395967500000012, 28.084946222222221 ], [ -82.395441388888898, 28.085210138888886 ], [ -82.394851222222229, 28.085537 ], [ -82.394463555555561, 28.085854666666666 ], [ -82.393830055555568, 28.086603583333332 ], [ -82.393456166666667, 28.087160666666666 ], [ -82.393341916666671, 28.087525944444444 ], [ -82.393397166666674, 28.088483666666665 ], [ -82.396231916666679, 28.088355 ] ] } },
{ "type": "Feature", "properties": { "style": "solid", "thickness": 1 }, "geometry": { "type": "LineString", "coordinates": [ [ -82.39042625, 28.08507761111111 ], [ -82.390864611111112, 28.0926795 ], [ -82.38789475, 28.092814138888887 ], [ -82.387077861111123, 28.092731138888887 ], [ -82.386730027777787, 28.092566861111109 ], [ -82.38616591666667, 28.09217233333333 ], [ -82.385318027777785, 28.09155061111111 ], [ -82.384733222222224, 28.090796944444442 ], [ -82.384563750000012, 28.090204472222222 ], [ -82.384449944444455, 28.088229194444445 ], [ -82.384553888888902, 28.087684361111108 ], [ -82.384917472222227, 28.08694772222222 ], [ -82.385365805555566, 28.086507305555553 ], [ -82.385807222222226, 28.085947166666667 ], [ -82.386458, 28.085497583333332 ], [ -82.387257555555564, 28.085281305555554 ], [ -82.38772655555556, 28.085200027777777 ], [ -82.39042625, 28.08507761111111 ] ] } },
{ "type": "Feature", "properties": { "style": "solid", "thickness": 1 }, "geometry": { "type": "LineString", "coordinates": [ [ -82.381954972222218, 28.093083277777776 ], [ -82.381606861111109, 28.087037666666667 ], [ -82.38152211111111, 28.086741444444442 ], [ -82.381015194444444, 28.08616425 ], [ -82.380657055555545, 28.085820388888887 ], [ -82.380103333333324, 28.085605416666667 ], [ -82.37935747222221, 28.085579166666665 ], [ -82.378277583333329, 28.085628055555553 ], [ -82.377673583333333, 28.085715416666666 ], [ -82.376880888888877, 28.08605136111111 ], [ -82.376432555555553, 28.08649172222222 ], [ -82.37618322222221, 28.086863083333331 ], [ -82.376079249999989, 28.087407916666667 ], [ -82.376420166666662, 28.093333833333332 ] ] } },
{ "type": "Feature", "properties": { "style": "solid", "thickness": 1 }, "geometry": { "type": "LineString", "coordinates": [ [ -82.373364944444432, 28.089631194444443 ], [ -82.36951769444444, 28.089805138888888 ] ] } },
{ "type": "Feature", "properties": { "style": "solid", "thickness": 1 }, "geometry": { "type": "LineString", "coordinates": [ [ -82.369535388888877, 28.093645194444445 ], [ -82.373585277777778, 28.093462083333332 ], [ -82.373148111111107, 28.085860138888886 ] ] } },
{ "type": "Feature", "properties": { "style": "solid", "thickness": 1 }, "geometry": { "type": "LineString", "coordinates": [ [ -82.26644972222222, 28.08578422222222 ], [ -82.266855138888886, 28.087590583333331 ], [ -82.268016416666669, 28.089117527777777 ], [ -82.269753027777782, 28.090127611111111 ], [ -82.271794944444437, 28.090463805555554 ], [ -82.27382466666667, 28.090073833333332 ], [ -82.275526583333331, 28.089018305555555 ], [ -82.276636055555556, 28.08746136111111 ], [ -82.276980611111114, 28.085645083333333 ], [ -82.276506722222223, 28.083851888888887 ], [ -82.275288083333336, 28.082360555555557 ], [ -82.273514194444445, 28.081402944444445 ], [ -82.271460833333336, 28.081127916666667 ], [ -82.269447222222226, 28.08157825 ], [ -82.267786388888894, 28.082683916666667 ], [ -82.266736555555553, 28.084273027777776 ], [ -82.26644972222222, 28.08578422222222 ] ] } },
{ "type": "Feature", "properties": { "style": "solid", "thickness": 1 }, "geometry": { "type": "LineString", "coordinates": [ [ -82.259529444444439, 28.086335 ], [ -82.262692138888895, 28.085709388888887 ], [ -82.26557475, 28.084396777777776 ], [ -82.267991027777782, 28.082482 ], [ -82.269784861111106, 28.080088722222222 ], [ -82.270840361111112, 28.077371666666668 ], [ -82.271105222222218, 28.074985055555555 ] ] } },
{ "type": "Feature", "properties": { "style": "solid", "thickness": 1 }, "geometry": { "type": "LineString", "coordinates": [ [ -82.271105222222218, 28.074985055555555 ], [ -82.271810833333333, 28.077789916666667 ], [ -82.273291, 28.080346361111111 ], [ -82.275450111111113, 28.082489222222222 ], [ -82.27814869444444, 28.084080027777777 ], [ -82.281212388888889, 28.085015972222219 ], [ -82.283903416666661, 28.085250666666667 ] ] } },
{ "type": "Feature", "properties": { "style": "solid", "thickness": 1 }, "geometry": { "type": "LineString", "coordinates": [ [ -82.272327888888881, 28.096601638888888 ], [ -82.272713527777782, 28.093748277777777 ], [ -82.273897888888882, 28.091073277777777 ], [ -82.275804416666659, 28.088749472222222 ], [ -82.278309888888884, 28.086926944444443 ], [ -82.281252444444448, 28.085723444444444 ], [ -82.283903416666661, 28.085250666666667 ] ] } },
{ "type": "Feature", "properties": { "style": "solid", "thickness": 1 }, "geometry": { "type": "LineString", "coordinates": [ [ -82.272327888888881, 28.096601638888888 ], [ -82.271622138888887, 28.093796833333332 ], [ -82.270141833333327, 28.091240361111112 ], [ -82.267982666666668, 28.089097416666664 ], [ -82.265284111111114, 28.087506416666667 ], [ -82.262220472222225, 28.086570111111111 ], [ -82.259529444444439, 28.086335 ] ] } },
{ "type": "Feature", "properties": { "style": "solid", "thickness": 1 }, "geometry": { "type": "LineString", "coordinates": [ [ -82.145545111111119, 28.202875111111112 ], [ -82.145948722222229, 28.204681805555555 ], [ -82.14710936111112, 28.206209833333332 ], [ -82.148846583333338, 28.207221611111109 ], [ -82.150890305555563, 28.207559777777778 ], [ -82.152922694444456, 28.207171777777777 ], [ -82.15462775, 28.206117944444443 ], [ -82.155740361111114, 28.204562138888889 ], [ -82.156087555555558, 28.20274625 ], [ -82.15561538888889, 28.200952638888889 ], [ -82.154397305555563, 28.199460138888888 ], [ -82.152622694444446, 28.198500805555557 ], [ -82.150567472222221, 28.198223777777777 ], [ -82.148551111111118, 28.198672111111112 ], [ -82.146887111111113, 28.199776083333333 ], [ -82.145834138888901, 28.201364111111111 ], [ -82.145545111111119, 28.202875111111112 ] ] } },
{ "type": "Feature", "properties": { "style": "solid", "thickness": 1 }, "geometry": { "type": "LineString", "coordinates": [ [ -82.138616722222224, 28.203420277777777 ], [ -82.1417835, 28.202797472222223 ], [ -82.144670694444457, 28.201487444444442 ], [ -82.14709175, 28.199574833333333 ], [ -82.148890194444448, 28.197183222222222 ], [ -82.149949888888898, 28.194467166666666 ], [ -82.150217722222223, 28.192080777777779 ] ] } },
{ "type": "Feature", "properties": { "style": "solid", "thickness": 1 }, "geometry": { "type": "LineString", "coordinates": [ [ -82.150217722222223, 28.192080777777779 ], [ -82.150920944444451, 28.194886166666667 ], [ -82.152399833333334, 28.197443833333335 ], [ -82.154558861111113, 28.199588555555557 ], [ -82.157258583333345, 28.201181694444443 ], [ -82.160324527777789, 28.202120305555553 ], [ -82.16301827777778, 28.202357388888888 ] ] } },
{ "type": "Feature", "properties": { "style": "solid", "thickness": 1 }, "geometry": { "type": "LineString", "coordinates": [ [ -82.1514175, 28.213697944444444 ], [ -82.151806777777779, 28.210844972222223 ], [ -82.15299541666667, 28.208171083333333 ], [ -82.154906555555556, 28.205849 ], [ -82.157416777777783, 28.20402875 ], [ -82.160363861111122, 28.202827833333334 ], [ -82.16301827777778, 28.202357388888888 ] ] } },
{ "type": "Feature", "properties": { "style": "solid", "thickness": 1 }, "geometry": { "type": "LineString", "coordinates": [ [ -82.1514175, 28.213697944444444 ], [ -82.150714138888901, 28.210892555555557 ], [ -82.149235111111125, 28.208334888888889 ], [ -82.147076027777786, 28.206190083333333 ], [ -82.144376333333341, 28.20459675 ], [ -82.141310444444457, 28.203657777777778 ], [ -82.138616722222224, 28.203420277777777 ] ] } },
{ "type": "Feature", "properties": { "style": "solid", "thickness": 1 }, "geometry": { "type": "LineString", "coordinates": [ [ -82.515973, 28.209073555555555 ], [ -82.516616361111105, 28.209643972222221 ], [ -82.516755027777776, 28.209697583333334 ], [ -82.517640444444439, 28.209776694444443 ], [ -82.518376611111108, 28.209622638888888 ], [ -82.518767916666661, 28.209364472222223 ], [ -82.519155666666663, 28.209046472222223 ], [ -82.51946175, 28.208492166666666 ], [ -82.51938063888889, 28.207115555555553 ], [ -82.5189435, 28.206595638888889 ], [ -82.518659138888893, 28.206368722222223 ], [ -82.517624527777784, 28.206056444444442 ], [ -82.51645830555556, 28.205810277777775 ], [ -82.51562638888889, 28.205488638888887 ], [ -82.515335, 28.205142 ], [ -82.515150527777777, 28.204310305555556 ], [ -82.515239833333339, 28.20352597222222 ], [ -82.515549444444446, 28.203031555555555 ], [ -82.515873166666665, 28.202776527777775 ], [ -82.51613283333333, 28.20258447222222 ], [ -82.516460083333328, 28.202389305555556 ], [ -82.517192694444446, 28.20217538888889 ], [ -82.517598055555553, 28.202156638888887 ], [ -82.518010472222215, 28.202257611111111 ], [ -82.518565083333328, 28.202472027777777 ], [ -82.518917, 28.202695833333333 ], [ -82.519418138888895, 28.203152777777778 ] ] } },
{ "type": "Feature", "properties": { "style": "solid", "thickness": 1 }, "geometry": { "type": "LineString", "coordinates": [ [ -82.512260666666663, 28.202403277777776 ], [ -82.508991888888886, 28.210176194444443 ], [ -82.5050315, 28.202737 ] ] } },
{ "type": "Feature", "properties": { "style": "solid", "thickness": 1 }, "geometry": { "type": "LineString", "coordinates": [ [ -82.511188944444442, 28.204913416666667 ], [ -82.506324361111112, 28.205138 ] ] } },
{ "type": "Feature", "properties": { "style": "solid", "thickness": 1 }, "geometry": { "type": "LineString", "coordinates": [ [ -82.502640583333331, 28.21046925 ], [ -82.502193888888883, 28.202867888888889 ] ] } },
{ "type": "Feature", "properties": { "style": "solid", "thickness": 1 }, "geometry": { "type": "LineString", "coordinates": [ [ -82.497974916666664, 28.210624333333332 ], [ -82.502415472222225, 28.206638638888887 ], [ -82.4974645, 28.203085916666666 ] ] } },
{ "type": "Feature", "properties": { "style": "solid", "thickness": 1 }, "geometry": { "type": "LineString", "coordinates": [ [ -82.48845925, 28.21010225 ], [ -82.488750583333328, 28.210448944444444 ], [ -82.48937975, 28.210780083333333 ], [ -82.489792194444448, 28.210881138888887 ], [ -82.490951388888888, 28.211007833333333 ], [ -82.491356777777781, 28.210989166666668 ], [ -82.49216058333333, 28.21083211111111 ], [ -82.492825722222221, 28.210621444444445 ], [ -82.492957333333337, 28.210555388888888 ], [ -82.49341275, 28.210234333333332 ], [ -82.493864638888894, 28.209853444444445 ], [ -82.494615722222221, 28.208798583333333 ], [ -82.494897361111114, 28.207825361111109 ], [ -82.49482005555555, 28.206508583333331 ], [ -82.494642777777784, 28.205796583333331 ], [ -82.494340888888885, 28.205270333333331 ], [ -82.493907416666673, 28.204810194444445 ], [ -82.493545, 28.204406777777777 ], [ -82.492972888888886, 28.203892972222221 ], [ -82.492418333333333, 28.203678472222222 ], [ -82.49186377777778, 28.203463944444444 ], [ -82.491383805555557, 28.203366 ], [ -82.490167666666665, 28.203421972222223 ], [ -82.489499055555555, 28.203572777777776 ], [ -82.488972583333336, 28.203837083333333 ], [ -82.488382083333335, 28.204164333333331 ], [ -82.487994222222227, 28.20448225 ], [ -82.487360694444448, 28.205231583333333 ], [ -82.486986888888893, 28.205788916666666 ], [ -82.486872805555564, 28.20615425 ], [ -82.486928944444443, 28.207111916666666 ], [ -82.489766722222228, 28.206981333333331 ] ] } },
{ "type": "Feature", "properties": { "style": "solid", "thickness": 1 }, "geometry": { "type": "LineString", "coordinates": [ [ -82.479599888888885, 28.211529888888887 ], [ -82.480816138888898, 28.211473972222223 ], [ -82.48142075, 28.211386194444444 ], [ -82.482605416666672, 28.210791583333332 ], [ -82.483694444444438, 28.209721277777778 ], [ -82.484054277777773, 28.208924527777778 ], [ -82.484200861111105, 28.207957555555556 ], [ -82.48415525, 28.207179472222222 ], [ -82.483978027777781, 28.206467444444442 ], [ -82.483594611111116, 28.205704861111112 ], [ -82.482795305555555, 28.20478138888889 ], [ -82.4825075, 28.204494527777776 ], [ -82.481945972222221, 28.204160277777778 ], [ -82.480776333333338, 28.203853944444443 ], [ -82.4793575, 28.203919138888889 ], [ -82.47868886111111, 28.204069888888888 ], [ -82.47802725, 28.204340361111111 ], [ -82.47763236111112, 28.204538527777778 ], [ -82.47698475, 28.205048388888887 ], [ -82.476418694444448, 28.205794583333333 ], [ -82.476244027777781, 28.206282722222223 ], [ -82.476093888888897, 28.207189833333331 ], [ -82.476177944444444, 28.208626333333331 ], [ -82.476870138888884, 28.210034888888888 ], [ -82.477303555555551, 28.210495083333331 ], [ -82.47780105555556, 28.210892333333334 ], [ -82.478291555555558, 28.21116988888889 ], [ -82.478430194444442, 28.211223527777776 ], [ -82.479599888888885, 28.211529888888887 ] ] } },
{ "type": "Feature", "properties": { "style": "solid", "thickness": 1 }, "geometry": { "type": "LineString", "coordinates": [ [ -82.230445444444442, 28.198601416666666 ], [ -82.230850444444442, 28.20040786111111 ], [ -82.23201225, 28.201935194444445 ], [ -82.233750222222227, 28.202945888888888 ], [ -82.235794111111119, 28.203282805555556 ], [ -82.237826138888892, 28.202893555555555 ], [ -82.239530305555562, 28.201838666666667 ], [ -82.240641638888889, 28.200282138888888 ], [ -82.240987388888897, 28.198466055555556 ], [ -82.240513833333338, 28.196672722222221 ], [ -82.239294611111106, 28.195180972222222 ], [ -82.237519305555551, 28.19422275 ], [ -82.235463944444447, 28.193946972222221 ], [ -82.233448027777783, 28.194396555555556 ], [ -82.231784944444442, 28.195501583333332 ], [ -82.230733277777773, 28.197090277777779 ], [ -82.230445444444442, 28.198601416666666 ] ] } },
{ "type": "Feature", "properties": { "style": "solid", "thickness": 1 }, "geometry": { "type": "LineString", "coordinates": [ [ -82.22351775, 28.199150861111111 ], [ -82.226683944444446, 28.198526111111111 ], [ -82.22957, 28.197214277777778 ], [ -82.231989444444451, 28.195300166666666 ], [ -82.233785944444449, 28.192907444444444 ], [ -82.234843444444451, 28.190190722222223 ], [ -82.235109388888887, 28.187804194444446 ] ] } },
{ "type": "Feature", "properties": { "style": "solid", "thickness": 1 }, "geometry": { "type": "LineString", "coordinates": [ [ -82.235109388888887, 28.187804194444446 ], [ -82.235814805555563, 28.190609166666668 ], [ -82.237295638888895, 28.193165916666668 ], [ -82.239456277777776, 28.195309305555554 ], [ -82.242157166666672, 28.196900777777778 ], [ -82.245223722222221, 28.197837527777779 ], [ -82.247917527777773, 28.198072916666668 ] ] } },
{ "type": "Feature", "properties": { "style": "solid", "thickness": 1 }, "geometry": { "type": "LineString", "coordinates": [ [ -82.236326138888884, 28.209420638888886 ], [ -82.236713138888888, 28.206567416666665 ], [ -82.237899611111118, 28.203892805555554 ], [ -82.239808888888888, 28.201569527777778 ], [ -82.242317583333332, 28.199747722222224 ], [ -82.245263611111113, 28.198545 ], [ -82.247917527777773, 28.198072916666668 ] ] } },
{ "type": "Feature", "properties": { "style": "solid", "thickness": 1 }, "geometry": { "type": "LineString", "coordinates": [ [ -82.236326138888884, 28.209420638888886 ], [ -82.235620583333329, 28.206615694444444 ], [ -82.234139611111118, 28.204058916666664 ], [ -82.231978888888889, 28.201915444444445 ], [ -82.229278055555554, 28.200323777777776 ], [ -82.226211555555551, 28.199386694444446 ], [ -82.22351775, 28.199150861111111 ] ] } },
{ "type": "Feature", "properties": { "style": "solid", "thickness": 1 }, "geometry": { "type": "LineString", "coordinates": [ [ -82.343589388888887, 28.19899675 ], [ -82.343996277777777, 28.200802888888887 ], [ -82.34515966666666, 28.20232925 ], [ -82.346898694444434, 28.203338527777778 ], [ -82.348942972222218, 28.20367375 ], [ -82.350974583333326, 28.203282833333333 ], [ -82.352677638888878, 28.202226555555555 ], [ -82.353787361111102, 28.200669111111111 ], [ -82.354131222222222, 28.19885275 ], [ -82.353655749999987, 28.197059805555554 ], [ -82.352434972222213, 28.195569055555556 ], [ -82.350658666666661, 28.194612277777779 ], [ -82.348603, 28.194338222222221 ], [ -82.346587527777771, 28.194789472222222 ], [ -82.344925611111108, 28.195895861111111 ], [ -82.343875611111102, 28.197485444444446 ], [ -82.343589388888887, 28.19899675 ] ] } },
{ "type": "Feature", "properties": { "style": "solid", "thickness": 1 }, "geometry": { "type": "LineString", "coordinates": [ [ -82.336662249999989, 28.199551916666667 ], [ -82.339827805555558, 28.198924555555557 ], [ -82.3427125, 28.19761036111111 ], [ -82.345129944444437, 28.19569425 ], [ -82.346923944444441, 28.193300027777777 ], [ -82.347978611111103, 28.190582444444445 ], [ -82.348242055555545, 28.188195722222222 ] ] } },
{ "type": "Feature", "properties": { "style": "solid", "thickness": 1 }, "geometry": { "type": "LineString", "coordinates": [ [ -82.348242055555545, 28.188195722222222 ], [ -82.348950388888881, 28.191000111111112 ], [ -82.35043391666666, 28.193555666666668 ], [ -82.352596833333322, 28.195697277777779 ], [ -82.355299361111108, 28.197286527777777 ], [ -82.358366916666654, 28.19822075 ], [ -82.361060972222219, 28.198453916666669 ] ] } },
{ "type": "Feature", "properties": { "style": "solid", "thickness": 1 }, "geometry": { "type": "LineString", "coordinates": [ [ -82.349481416666663, 28.209811166666665 ], [ -82.34986541666666, 28.206957611111111 ], [ -82.351049111111109, 28.204282027777776 ], [ -82.352955972222219, 28.201957194444443 ], [ -82.35546275, 28.200133305555553 ], [ -82.358407555555544, 28.198928194444445 ], [ -82.361060972222219, 28.198453916666669 ] ] } },
{ "type": "Feature", "properties": { "style": "solid", "thickness": 1 }, "geometry": { "type": "LineString", "coordinates": [ [ -82.349481416666663, 28.209811166666665 ], [ -82.348772916666661, 28.207006777777778 ], [ -82.347289249999989, 28.204451222222222 ], [ -82.34512627777778, 28.202309527777778 ], [ -82.342423777777768, 28.200720083333334 ], [ -82.339356277777767, 28.1997855 ], [ -82.336662249999989, 28.199551916666667 ] ] } },
{ "type": "Feature", "properties": { "style": "solid", "thickness": 1 }, "geometry": { "type": "LineString", "coordinates": [ [ -82.371198861111111, 28.235226583333333 ], [ -82.368463527777777, 28.227728555555554 ], [ -82.366062277777772, 28.23545838888889 ], [ -82.363259694444437, 28.227963333333332 ], [ -82.361196, 28.235677833333334 ] ] } },
{ "type": "Feature", "properties": { "style": "solid", "thickness": 1 }, "geometry": { "type": "LineString", "coordinates": [ [ -82.3542345, 28.235991444444444 ], [ -82.358357333333331, 28.23580575 ], [ -82.357920694444445, 28.228203972222222 ], [ -82.353730555555543, 28.228392694444445 ] ] } },
{ "type": "Feature", "properties": { "style": "solid", "thickness": 1 }, "geometry": { "type": "LineString", "coordinates": [ [ -82.358137277777772, 28.231974944444442 ], [ -82.354149777777778, 28.232154555555553 ] ] } },
{ "type": "Feature", "properties": { "style": "solid", "thickness": 1 }, "geometry": { "type": "LineString", "coordinates": [ [ -82.351598583333327, 28.236110111111113 ], [ -82.351162416666668, 28.228508305555554 ], [ -82.347850833333325, 28.228657305555554 ] ] } },
{ "type": "Feature", "properties": { "style": "solid", "thickness": 1 }, "geometry": { "type": "LineString", "coordinates": [ [ -82.345515694444444, 28.23638375 ], [ -82.345169138888878, 28.230338194444442 ], [ -82.345084388888878, 28.230041972222221 ], [ -82.344577, 28.229464666666665 ], [ -82.3442185, 28.22912072222222 ], [ -82.34366411111111, 28.228905583333333 ], [ -82.342917277777772, 28.228879138888889 ], [ -82.341835944444441, 28.22892775 ], [ -82.341231111111099, 28.229014944444444 ], [ -82.34043725, 28.229350666666665 ], [ -82.339988166666657, 28.229790916666666 ], [ -82.33973838888889, 28.230162194444443 ], [ -82.339634083333323, 28.230707 ], [ -82.339973472222212, 28.236632805555555 ] ] } },
{ "type": "Feature", "properties": { "style": "solid", "thickness": 1 }, "geometry": { "type": "LineString", "coordinates": [ [ -82.336699583333328, 28.22915847222222 ], [ -82.33713475, 28.236760305555556 ], [ -82.333755333333329, 28.236912 ], [ -82.333478111111106, 28.236804416666669 ], [ -82.332856111111113, 28.236592277777778 ], [ -82.332213583333328, 28.236021 ], [ -82.331909, 28.235434583333333 ], [ -82.331867916666667, 28.234716277777778 ], [ -82.332104027777774, 28.234105583333335 ], [ -82.332678055555547, 28.233479722222224 ], [ -82.333272638888886, 28.233213 ], [ -82.333536138888888, 28.233081166666665 ], [ -82.336915444444443, 28.232929472222221 ] ] } },
{ "type": "Feature", "properties": { "style": "solid", "thickness": 1 }, "geometry": { "type": "LineString", "coordinates": [ [ -82.224631611111107, 28.213891888888888 ], [ -82.219766055555553, 28.214106333333334 ] ] } },
{ "type": "Feature", "properties": { "style": "solid", "thickness": 1 }, "geometry": { "type": "LineString", "coordinates": [ [ -82.22226641666667, 28.213996166666664 ], [ -82.221839416666668, 28.206393916666666 ] ] } },
{ "type": "Feature", "properties": { "style": "solid", "thickness": 1 }, "geometry": { "type": "LineString", "coordinates": [ [ -82.21212975, 28.214442555555554 ], [ -82.213346166666668, 28.214389027777777 ], [ -82.213951, 28.214302388888889 ], [ -82.215137166666665, 28.213710111111112 ], [ -82.216228888888892, 28.212641916666666 ], [ -82.216590666666676, 28.211845861111112 ], [ -82.216739666666669, 28.210879166666665 ], [ -82.216696, 28.210101 ], [ -82.216520527777774, 28.209388611111109 ], [ -82.216139, 28.208625305555554 ], [ -82.215341944444447, 28.207700277777779 ], [ -82.215054861111113, 28.207412888888889 ], [ -82.214494111111108, 28.207077527777777 ], [ -82.213325222222224, 28.206768916666665 ], [ -82.211906194444452, 28.20683136111111 ], [ -82.211237166666663, 28.206980805555556 ], [ -82.210574861111112, 28.20725 ], [ -82.210179472222222, 28.207447416666668 ], [ -82.209530583333333, 28.207956 ], [ -82.208962666666665, 28.208701083333331 ], [ -82.208786777777775, 28.209188888888889 ], [ -82.208634388888896, 28.210095694444444 ], [ -82.208714888888892, 28.211532361111111 ], [ -82.209403611111114, 28.21294225 ], [ -82.209835916666663, 28.213403305555556 ], [ -82.210332444444447, 28.213801527777775 ], [ -82.21082227777778, 28.214080027777776 ], [ -82.210960777777785, 28.214133916666665 ], [ -82.21212975, 28.214442555555554 ] ] } },
{ "type": "Feature", "properties": { "style": "solid", "thickness": 1 }, "geometry": { "type": "LineString", "coordinates": [ [ -82.200486166666664, 28.214594333333334 ], [ -82.200905055555552, 28.214815972222222 ], [ -82.201384805555563, 28.214914916666665 ], [ -82.203006694444454, 28.214843666666667 ], [ -82.203608194444442, 28.21469722222222 ], [ -82.203807555555557, 28.214628444444443 ], [ -82.20479105555556, 28.214045166666665 ], [ -82.20536575, 28.213419833333333 ], [ -82.205534944444452, 28.212812305555556 ], [ -82.205947611111114, 28.211714027777777 ], [ -82.2058705, 28.21033725 ], [ -82.205698472222224, 28.209684722222221 ], [ -82.205465555555563, 28.209154888888889 ], [ -82.205161722222229, 28.208568166666666 ], [ -82.204449111111117, 28.207939388888889 ], [ -82.203131694444451, 28.207397194444443 ], [ -82.202243166666676, 28.20725622222222 ], [ -82.201499861111117, 28.20728886111111 ], [ -82.200563861111121, 28.20751 ], [ -82.200236055555564, 28.207704416666665 ], [ -82.199972444444455, 28.207836027777777 ] ] } },
{ "type": "Feature", "properties": { "style": "solid", "thickness": 1 }, "geometry": { "type": "LineString", "coordinates": [ [ -82.192802277777787, 28.215291611111109 ], [ -82.194018722222225, 28.21523825 ], [ -82.194623583333339, 28.215151694444444 ], [ -82.195809861111115, 28.214559583333333 ], [ -82.196901777777782, 28.213491527777776 ], [ -82.197263722222232, 28.212695555555555 ], [ -82.197412861111118, 28.211728888888889 ], [ -82.197369333333342, 28.210950694444445 ], [ -82.197194, 28.210238305555556 ], [ -82.19681258333334, 28.209474944444445 ], [ -82.196015694444455, 28.208549777777776 ], [ -82.195728666666668, 28.20826236111111 ], [ -82.195167972222222, 28.207926916666665 ], [ -82.193999138888898, 28.20761813888889 ], [ -82.19258008333334, 28.207680388888889 ], [ -82.191911027777778, 28.20782975 ], [ -82.191248666666667, 28.208098833333331 ], [ -82.19085325, 28.208296194444443 ], [ -82.19020425, 28.208804694444442 ], [ -82.189636222222219, 28.209549694444444 ], [ -82.18946025000001, 28.210037472222222 ], [ -82.189307666666664, 28.210944277777777 ], [ -82.189387944444448, 28.212380944444444 ], [ -82.190076388888897, 28.213790916666667 ], [ -82.190508638888886, 28.214252027777778 ], [ -82.191005083333337, 28.214650333333331 ], [ -82.19149486111111, 28.214928888888888 ], [ -82.191633361111116, 28.214982805555554 ], [ -82.192802277777787, 28.215291611111109 ] ] } },
{ "type": "Feature", "properties": { "style": "solid", "thickness": 1 }, "geometry": { "type": "LineString", "coordinates": [ [ -82.186363222222226, 28.207952944444443 ], [ -82.18678775, 28.21555525 ], [ -82.183949416666664, 28.215679583333333 ], [ -82.183341194444452, 28.21570622222222 ], [ -82.18284808333334, 28.215367777777779 ], [ -82.182486805555556, 28.214963555555556 ], [ -82.182473444444454, 28.21472411111111 ], [ -82.182406638888892, 28.213526888888889 ], [ -82.182464194444449, 28.213344333333332 ], [ -82.182640222222233, 28.212856583333334 ], [ -82.183282583333337, 28.212228388888889 ], [ -82.18258675, 28.211898805555556 ], [ -82.182238861111117, 28.211734027777776 ], [ -82.181884277777783, 28.2114495 ], [ -82.181651472222228, 28.210919638888889 ], [ -82.181564638888887, 28.20936325 ], [ -82.181744, 28.208935333333333 ], [ -82.182196972222229, 28.208555472222223 ], [ -82.1825215, 28.208301222222222 ], [ -82.18284936111111, 28.208106861111112 ], [ -82.186363222222226, 28.207952944444443 ] ] } },
{ "type": "Feature", "properties": { "style": "solid", "thickness": 1 }, "geometry": { "type": "LineString", "coordinates": [ [ -82.18659386111112, 28.212083333333332 ], [ -82.183282583333337, 28.212228388888889 ] ] } },
{ "type": "Feature", "properties": { "style": "solid", "thickness": 1 }, "geometry": { "type": "LineString", "coordinates": [ [ -82.456734055555557, 28.199299222222223 ], [ -82.457142861111109, 28.201105027777778 ], [ -82.458307888888896, 28.202630416666665 ], [ -82.460048, 28.203638222222221 ], [ -82.462092611111117, 28.203971777777777 ], [ -82.464123833333332, 28.203579138888887 ], [ -82.465825777777781, 28.202521444444443 ], [ -82.466933833333329, 28.200963083333331 ], [ -82.46727575, 28.199146416666668 ], [ -82.46679838888889, 28.197353861111111 ], [ -82.465576, 28.195864166666667 ], [ -82.463798666666676, 28.194908861111113 ], [ -82.461742694444453, 28.194636527777778 ], [ -82.459727722222226, 28.195089472222222 ], [ -82.458066972222227, 28.19619725 ], [ -82.45701866666667, 28.197787694444443 ], [ -82.456734055555557, 28.199299222222223 ] ] } },
{ "type": "Feature", "properties": { "style": "solid", "thickness": 1 }, "geometry": { "type": "LineString", "coordinates": [ [ -82.449807472222233, 28.19986 ], [ -82.452972388888895, 28.199230055555557 ], [ -82.455855722222225, 28.197913472222222 ], [ -82.458271166666663, 28.195995388888889 ], [ -82.460062638888886, 28.193599694444444 ], [ -82.461114472222221, 28.19088125 ], [ -82.461375416666669, 28.188494333333335 ] ] } },
{ "type": "Feature", "properties": { "style": "solid", "thickness": 1 }, "geometry": { "type": "LineString", "coordinates": [ [ -82.461375416666669, 28.188494333333335 ], [ -82.462086694444451, 28.191298138888889 ], [ -82.463572916666664, 28.193852472222222 ], [ -82.465738055555562, 28.195992305555556 ], [ -82.468442277777783, 28.197579333333334 ], [ -82.47151083333334, 28.198511027777776 ], [ -82.474205111111118, 28.198742 ] ] } },
{ "type": "Feature", "properties": { "style": "solid", "thickness": 1 }, "geometry": { "type": "LineString", "coordinates": [ [ -82.462637388888893, 28.21010872222222 ], [ -82.463018444444444, 28.20725486111111 ], [ -82.46419933333334, 28.204578305555554 ], [ -82.46610375, 28.202251916666665 ], [ -82.468608638888895, 28.20042597222222 ], [ -82.471552194444442, 28.199218416666668 ], [ -82.474205111111118, 28.198742 ] ] } },
{ "type": "Feature", "properties": { "style": "solid", "thickness": 1 }, "geometry": { "type": "LineString", "coordinates": [ [ -82.462637388888893, 28.21010872222222 ], [ -82.461925972222218, 28.207304944444445 ], [ -82.460439638888886, 28.204750583333333 ], [ -82.458274416666669, 28.202610694444445 ], [ -82.455570222222221, 28.201023444444445 ], [ -82.45250175, 28.20009138888889 ], [ -82.449807472222233, 28.19986 ] ] } },
{ "type": "Feature", "properties": { "style": "solid", "thickness": 1 }, "geometry": { "type": "LineString", "coordinates": [ [ -82.357258222222214, 28.221760222222219 ], [ -82.357218138888882, 28.222242111111111 ], [ -82.357100166666655, 28.222547472222221 ], [ -82.356658055555556, 28.2231075 ], [ -82.356266333333323, 28.223365194444444 ], [ -82.355874583333332, 28.223622888888887 ], [ -82.35527325, 28.22377 ], [ -82.354935361111103, 28.223785222222222 ], [ -82.354185111111107, 28.22369897222222 ], [ -82.353552833333325, 28.223307361111111 ], [ -82.353123305555556, 28.22290661111111 ], [ -82.353035111111112, 28.222550527777777 ], [ -82.352966416666661, 28.221353388888886 ], [ -82.353216111111109, 28.220982083333332 ], [ -82.353665111111098, 28.220541777777775 ], [ -82.354245833333323, 28.220035555555555 ], [ -82.354718888888883, 28.22001425 ] ] } },
{ "type": "Feature", "properties": { "style": "solid", "thickness": 1 }, "geometry": { "type": "LineString", "coordinates": [ [ -82.354245833333323, 28.220035555555555 ], [ -82.353410861111101, 28.219653055555554 ], [ -82.353126805555547, 28.219425805555552 ], [ -82.352764888888885, 28.219022027777775 ], [ -82.352687, 28.2188455 ], [ -82.3525885, 28.218309833333333 ], [ -82.352578194444433, 28.21813025 ], [ -82.352618305555552, 28.21764836111111 ], [ -82.352732833333334, 28.217283138888888 ], [ -82.353046666666657, 28.216848916666667 ], [ -82.353434944444444, 28.216531388888889 ], [ -82.354090083333332, 28.216141805555555 ], [ -82.355644333333331, 28.216071805555554 ], [ -82.356127666666666, 28.216230083333333 ], [ -82.356898472222213, 28.216675444444444 ], [ -82.3570405, 28.216789055555555 ], [ -82.357277611111101, 28.2173785 ], [ -82.357291361111109, 28.217617916666665 ] ] } },
{ "type": "Feature", "properties": { "style": "solid", "thickness": 1 }, "geometry": { "type": "LineString", "coordinates": [ [ -82.34526725, 28.219419388888888 ], [ -82.345370166666669, 28.22121508333333 ], [ -82.345631222222224, 28.222223555555555 ], [ -82.345793833333332, 28.222696333333332 ], [ -82.346017166666655, 28.223046333333333 ], [ -82.346869305555558, 28.223728166666664 ], [ -82.347697416666662, 28.223990972222222 ], [ -82.34796775, 28.223978805555554 ], [ -82.348761527777768, 28.223643027777776 ], [ -82.349463722222211, 28.222891305555553 ], [ -82.349713444444433, 28.22252 ], [ -82.349821138888885, 28.222035055555555 ], [ -82.3499655, 28.221008388888887 ], [ -82.3498625, 28.219212666666664 ], [ -82.349601388888885, 28.218204222222219 ], [ -82.349438777777777, 28.217731444444443 ], [ -82.349147888888879, 28.217384472222221 ], [ -82.348363361111112, 28.216699638888887 ], [ -82.34753527777778, 28.216436833333333 ], [ -82.347265, 28.216449 ], [ -82.34647125, 28.21678475 ], [ -82.3457015, 28.2175395 ], [ -82.345519361111101, 28.217907777777775 ], [ -82.345411638888891, 28.218392694444443 ], [ -82.34526725, 28.219419388888888 ] ] } },
{ "type": "Feature", "properties": { "style": "solid", "thickness": 1 }, "geometry": { "type": "LineString", "coordinates": [ [ -82.387905611111123, 27.967883916666665 ], [ -82.388312416666679, 27.96969 ], [ -82.389473972222234, 27.971216055555555 ], [ -82.391209722222229, 27.972224777777775 ], [ -82.393249777777783, 27.972559333333333 ], [ -82.395276916666674, 27.97216772222222 ], [ -82.396975888888889, 27.971110805555554 ], [ -82.398082583333334, 27.969552944444441 ], [ -82.398424888888897, 27.967736361111111 ], [ -82.397949666666676, 27.9659435 ], [ -82.396730833333336, 27.964453111111112 ], [ -82.394957888888896, 27.963496916666667 ], [ -82.392906472222222, 27.963223555555555 ], [ -82.390895500000013, 27.963675527777777 ], [ -82.389237611111113, 27.964782583333331 ], [ -82.388190555555568, 27.966372583333332 ], [ -82.387905611111123, 27.967883916666665 ] ] } },
{ "type": "Feature", "properties": { "style": "solid", "thickness": 1 }, "geometry": { "type": "LineString", "coordinates": [ [ -82.380993499999988, 27.968441277777774 ], [ -82.38415205555556, 27.967812888888886 ], [ -82.387030055555556, 27.966497694444445 ], [ -82.389441583333337, 27.964580722222223 ], [ -82.39123075, 27.962185805555556 ], [ -82.392282055555569, 27.95946775 ], [ -82.392543944444455, 27.957080944444442 ] ] } },
{ "type": "Feature", "properties": { "style": "solid", "thickness": 1 }, "geometry": { "type": "LineString", "coordinates": [ [ -82.392543944444455, 27.957080944444442 ], [ -82.393251944444458, 27.959885222222223 ], [ -82.394733361111122, 27.962440416666666 ], [ -82.39689252777778, 27.964581388888888 ], [ -82.39958997222223, 27.966169861111112 ], [ -82.402651416666671, 27.967103111111108 ], [ -82.405339722222223, 27.967335416666664 ] ] } },
{ "type": "Feature", "properties": { "style": "solid", "thickness": 1 }, "geometry": { "type": "LineString", "coordinates": [ [ -82.393789500000011, 27.978696833333331 ], [ -82.394171527777786, 27.975843027777778 ], [ -82.395351611111124, 27.973166944444444 ], [ -82.397253472222232, 27.970841388888886 ], [ -82.399754194444455, 27.969016638888888 ], [ -82.402692222222228, 27.967810527777775 ], [ -82.405339722222223, 27.967335416666664 ] ] } },
{ "type": "Feature", "properties": { "style": "solid", "thickness": 1 }, "geometry": { "type": "LineString", "coordinates": [ [ -82.393789500000011, 27.978696833333331 ], [ -82.393081388888902, 27.975892555555554 ], [ -82.391599805555558, 27.97333736111111 ], [ -82.389440555555566, 27.971196277777775 ], [ -82.386743138888889, 27.969607638888888 ], [ -82.383681777777781, 27.968674027777777 ], [ -82.380993499999988, 27.968441277777774 ] ] } },
{ "type": "Feature", "properties": { "style": "solid", "thickness": 1 }, "geometry": { "type": "LineString", "coordinates": [ [ -82.425686222222225, 27.909690916666666 ], [ -82.426093416666674, 27.911496888888887 ], [ -82.427254888888896, 27.913022638888886 ], [ -82.428990083333332, 27.914030916666665 ], [ -82.431029138888888, 27.914364916666667 ], [ -82.433055055555556, 27.913972722222219 ], [ -82.434752777777788, 27.912915333333331 ], [ -82.435858305555556, 27.911357138888889 ], [ -82.43619980555556, 27.909540444444442 ], [ -82.435724194444447, 27.907747694444442 ], [ -82.434505472222227, 27.906257666666665 ], [ -82.432733138888892, 27.905301944444442 ], [ -82.43068272222223, 27.905029166666665 ], [ -82.42867297222223, 27.905481694444443 ], [ -82.427016388888887, 27.90658922222222 ], [ -82.425970472222232, 27.908179555555556 ], [ -82.425686222222225, 27.909690916666666 ] ] } },
{ "type": "Feature", "properties": { "style": "solid", "thickness": 1 }, "geometry": { "type": "LineString", "coordinates": [ [ -82.418778, 27.910250194444444 ], [ -82.421934638888899, 27.909620916666665 ], [ -82.424810666666673, 27.908304916666665 ], [ -82.427220222222232, 27.90638725 ], [ -82.429007611111118, 27.903991833333333 ], [ -82.430057388888898, 27.901273472222222 ], [ -82.430318305555559, 27.898886583333333 ] ] } },
{ "type": "Feature", "properties": { "style": "solid", "thickness": 1 }, "geometry": { "type": "LineString", "coordinates": [ [ -82.430318305555559, 27.898886583333333 ], [ -82.431026888888894, 27.901690694444444 ], [ -82.432508416666678, 27.9042455 ], [ -82.434667166666671, 27.906385916666665 ], [ -82.43736375, 27.907973638888887 ], [ -82.440423861111114, 27.908906055555555 ], [ -82.443110777777775, 27.909137638888886 ] ] } },
{ "type": "Feature", "properties": { "style": "solid", "thickness": 1 }, "geometry": { "type": "LineString", "coordinates": [ [ -82.431570694444446, 27.920502277777778 ], [ -82.431951555555557, 27.917648361111112 ], [ -82.433130083333339, 27.914971916666666 ], [ -82.435030111111118, 27.912645833333332 ], [ -82.437528833333332, 27.910820388888887 ], [ -82.440464888888897, 27.909613444444442 ], [ -82.443110777777775, 27.909137638888886 ] ] } },
{ "type": "Feature", "properties": { "style": "solid", "thickness": 1 }, "geometry": { "type": "LineString", "coordinates": [ [ -82.431570694444446, 27.920502277777778 ], [ -82.430862, 27.917698194444444 ], [ -82.429380333333341, 27.915143361111109 ], [ -82.427221472222229, 27.91300286111111 ], [ -82.424524944444443, 27.911414944444441 ], [ -82.421464888888892, 27.910482194444445 ], [ -82.418778, 27.910250194444444 ] ] } },
{ "type": "Feature", "properties": { "style": "solid", "thickness": 1 }, "geometry": { "type": "LineString", "coordinates": [ [ -82.368639027777775, 27.73693875 ], [ -82.36904463888888, 27.738744944444445 ], [ -82.370203499999988, 27.740271194444446 ], [ -82.371935388888886, 27.741280194444446 ], [ -82.373971055555543, 27.74161502777778 ], [ -82.375993944444431, 27.741223666666667 ], [ -82.377689499999988, 27.740166916666666 ], [ -82.378794083333332, 27.73860913888889 ], [ -82.379135972222215, 27.73679252777778 ], [ -82.378662, 27.734999583333334 ], [ -82.377445972222219, 27.733509 ], [ -82.375676888888876, 27.73255258333333 ], [ -82.373629861111098, 27.732279 ], [ -82.371623111111106, 27.732730777777775 ], [ -82.369968583333332, 27.733837694444446 ], [ -82.368923555555554, 27.73542763888889 ], [ -82.368639027777775, 27.73693875 ] ] } },
{ "type": "Feature", "properties": { "style": "solid", "thickness": 1 }, "geometry": { "type": "LineString", "coordinates": [ [ -82.3617415, 27.737495166666669 ], [ -82.364893472222221, 27.736867166666666 ], [ -82.367765638888883, 27.735552333333334 ], [ -82.370172361111102, 27.733635611111112 ], [ -82.371958166666658, 27.731240888888887 ], [ -82.373007694444439, 27.728522888888886 ], [ -82.373269416666659, 27.726136166666667 ] ] } },
{ "type": "Feature", "properties": { "style": "solid", "thickness": 1 }, "geometry": { "type": "LineString", "coordinates": [ [ -82.373269416666659, 27.726136166666667 ], [ -82.373975416666667, 27.728940638888886 ], [ -82.37545325, 27.73149611111111 ], [ -82.377607472222209, 27.733637472222224 ], [ -82.380298944444434, 27.735226333333333 ], [ -82.383353722222225, 27.73616 ], [ -82.386036138888898, 27.736392694444444 ] ] } },
{ "type": "Feature", "properties": { "style": "solid", "thickness": 1 }, "geometry": { "type": "LineString", "coordinates": [ [ -82.374508472222217, 27.747752722222224 ], [ -82.37489022222222, 27.744898916666667 ], [ -82.376068277777776, 27.74222288888889 ], [ -82.377966527777772, 27.739897555555558 ], [ -82.380462277777767, 27.738073111111113 ], [ -82.383394333333342, 27.736867388888889 ], [ -82.386036138888898, 27.736392694444444 ] ] } },
{ "type": "Feature", "properties": { "style": "solid", "thickness": 1 }, "geometry": { "type": "LineString", "coordinates": [ [ -82.374508472222217, 27.747752722222224 ], [ -82.373802361111103, 27.74494827777778 ], [ -82.372324361111112, 27.742392777777777 ], [ -82.370170055555548, 27.740251361111113 ], [ -82.367478638888883, 27.738662305555557 ], [ -82.364423916666667, 27.73772825 ], [ -82.3617415, 27.737495166666669 ] ] } },
{ "type": "Feature", "properties": { "style": "solid", "thickness": 1 }, "geometry": { "type": "LineString", "coordinates": [ [ -82.471747666666673, 27.908923222222221 ], [ -82.470736972222227, 27.908969722222221 ], [ -82.470304222222225, 27.901547472222219 ] ] } },
{ "type": "Feature", "properties": { "style": "solid", "thickness": 1 }, "geometry": { "type": "LineString", "coordinates": [ [ -82.465318388888889, 27.901776805555553 ], [ -82.464427416666666, 27.902718027777777 ], [ -82.463667722222226, 27.903593194444444 ], [ -82.46303925, 27.904402305555553 ], [ -82.462662861111113, 27.90489975 ], [ -82.462360833333335, 27.905513777777777 ], [ -82.462260944444452, 27.906118555555555 ], [ -82.462224916666671, 27.906660361111111 ], [ -82.462287666666668, 27.907737777777776 ], [ -82.462514194444452, 27.9081475 ], [ -82.462804638888898, 27.90849425 ], [ -82.463098555555561, 27.90890086111111 ], [ -82.46454144444445, 27.909314694444443 ], [ -82.46535, 27.909277527777775 ], [ -82.466201555555557, 27.90881825 ], [ -82.466329333333334, 27.908692333333331 ], [ -82.466840472222231, 27.908188694444444 ], [ -82.466900861111114, 27.908065888888888 ], [ -82.467121555555551, 27.907215472222219 ], [ -82.467086666666674, 27.906616916666664 ], [ -82.4669275, 27.906204111111109 ], [ -82.466771805555553, 27.905851166666665 ], [ -82.466477888888889, 27.905444555555555 ], [ -82.465914444444451, 27.905050361111108 ], [ -82.465361472222227, 27.904835694444444 ], [ -82.465021111111113, 27.904791333333332 ], [ -82.464549444444444, 27.904813027777777 ], [ -82.464216055555553, 27.904888361111109 ], [ -82.463098527777774, 27.90541986111111 ], [ -82.462257444444447, 27.906058694444443 ] ] } },
{ "type": "Feature", "properties": { "style": "solid", "thickness": 1 }, "geometry": { "type": "LineString", "coordinates": [ [ -82.450313055555554, 27.980707916666663 ], [ -82.447138888888887, 27.97611208333333 ], [ -82.444581861111118, 27.980970472222221 ] ] } },
{ "type": "Feature", "properties": { "style": "solid", "thickness": 1 }, "geometry": { "type": "LineString", "coordinates": [ [ -82.447138888888887, 27.97611208333333 ], [ -82.446975361111114, 27.973298805555554 ] ] } },
{ "type": "Feature", "properties": { "style": "solid", "thickness": 1 }, "geometry": { "type": "LineString", "coordinates": [ [ -82.441443361111112, 27.97349211111111 ], [ -82.438176388888891, 27.981263666666663 ], [ -82.43422925, 27.973822138888888 ] ] } },
{ "type": "Feature", "properties": { "style": "solid", "thickness": 1 }, "geometry": { "type": "LineString", "coordinates": [ [ -82.44037225000001, 27.976001805555555 ], [ -82.435517805555563, 27.976223861111109 ] ] } },
{ "type": "Feature", "properties": { "style": "solid", "thickness": 1 }, "geometry": { "type": "LineString", "coordinates": [ [ -82.431838333333332, 27.981553444444444 ], [ -82.426983611111112, 27.981775222222222 ] ] } },
{ "type": "Feature", "properties": { "style": "solid", "thickness": 1 }, "geometry": { "type": "LineString", "coordinates": [ [ -82.429478388888896, 27.981661277777775 ], [ -82.429037777777779, 27.974059388888886 ] ] } },
{ "type": "Feature", "properties": { "style": "solid", "thickness": 1 }, "geometry": { "type": "LineString", "coordinates": [ [ -82.424151666666674, 27.9819045 ], [ -82.423801527777783, 27.975858888888887 ], [ -82.423716777777784, 27.975562694444442 ], [ -82.423210166666678, 27.974985666666665 ], [ -82.42285225, 27.974641888888886 ], [ -82.422299, 27.974427083333332 ], [ -82.421553888888894, 27.974401055555553 ], [ -82.420475138888889, 27.974450277777777 ], [ -82.419871805555559, 27.974537833333333 ], [ -82.419080055555554, 27.974874 ], [ -82.418632333333335, 27.975314555555553 ], [ -82.418383416666671, 27.975686 ], [ -82.418279750000011, 27.976230861111109 ], [ -82.418622638888891, 27.98215675 ] ] } },
{ "type": "Feature", "properties": { "style": "solid", "thickness": 1 }, "geometry": { "type": "LineString", "coordinates": [ [ -82.409191416666673, 27.981566277777777 ], [ -82.409481888888891, 27.981913138888888 ], [ -82.410109472222231, 27.982244638888886 ], [ -82.41052097222223, 27.982345944444443 ], [ -82.411677611111116, 27.982473305555555 ], [ -82.412082166666679, 27.982454861111108 ], [ -82.412884388888898, 27.982298305555553 ], [ -82.413548277777778, 27.982088 ], [ -82.413679666666667, 27.982022 ], [ -82.414134361111124, 27.981701194444444 ], [ -82.414585583333334, 27.981320555555556 ], [ -82.415335861111117, 27.980266083333333 ], [ -82.415617583333344, 27.979293 ], [ -82.41554141666667, 27.977976111111108 ], [ -82.415365027777781, 27.977263972222222 ], [ -82.415064166666667, 27.976737555555555 ], [ -82.414631944444452, 27.976277138888886 ], [ -82.414270583333334, 27.9758735 ], [ -82.413700055555566, 27.97535936111111 ], [ -82.413146833333343, 27.9751445 ], [ -82.41259361111112, 27.974929638888888 ], [ -82.412114722222228, 27.974831444444444 ], [ -82.410901111111116, 27.97488672222222 ], [ -82.410233805555563, 27.975037138888887 ], [ -82.40970825, 27.975301138888888 ], [ -82.409118722222232, 27.975628055555553 ], [ -82.408731472222229, 27.975945777777778 ], [ -82.40809875, 27.976694777777777 ], [ -82.407725305555559, 27.977251916666663 ], [ -82.407611194444456, 27.977617194444441 ], [ -82.407666527777778, 27.978574916666666 ], [ -82.410498388888897, 27.978445972222222 ] ] } },
{ "type": "Feature", "properties": { "style": "solid", "thickness": 1 }, "geometry": { "type": "LineString", "coordinates": [ [ -82.48437530555556, 27.913075277777775 ], [ -82.484819555555561, 27.920677027777778 ] ] } },
{ "type": "Feature", "properties": { "style": "solid", "thickness": 1 }, "geometry": { "type": "LineString", "coordinates": [ [ -82.477496305555562, 27.920234305555557 ], [ -82.478137722222229, 27.920804944444445 ], [ -82.478276, 27.920858583333334 ], [ -82.479159027777783, 27.920937944444447 ], [ -82.479893277777776, 27.920784083333334 ], [ -82.480283638888892, 27.920526027777779 ], [ -82.480670472222229, 27.920208111111112 ], [ -82.480975944444452, 27.919653861111112 ], [ -82.480895527777776, 27.91827716666667 ], [ -82.48045975, 27.917757083333335 ], [ -82.480176222222227, 27.917530083333336 ], [ -82.479144472222231, 27.91721752777778 ], [ -82.477981472222226, 27.916971 ], [ -82.477151888888898, 27.916649111111109 ], [ -82.476861361111119, 27.916302388888887 ], [ -82.476677694444447, 27.915470611111111 ], [ -82.476767055555555, 27.91468625 ], [ -82.477076, 27.914191888888887 ], [ -82.477398944444445, 27.913936944444444 ], [ -82.477658, 27.913744944444442 ], [ -82.477984444444445, 27.913549861111111 ], [ -82.478715166666674, 27.913336138888887 ], [ -82.479119472222223, 27.913317527777778 ], [ -82.47953075, 27.913418611111108 ], [ -82.480083805555552, 27.913633194444444 ], [ -82.48043469444444, 27.91385711111111 ], [ -82.480934333333337, 27.91431422222222 ] ] } },
{ "type": "Feature", "properties": { "style": "solid", "thickness": 1 }, "geometry": { "type": "LineString", "coordinates": [ [ -82.469387805555556, 27.92138775 ], [ -82.470600777777776, 27.921331944444447 ], [ -82.471203777777774, 27.921244194444444 ], [ -82.472385333333335, 27.920649666666669 ], [ -82.473471555555562, 27.919579361111111 ], [ -82.473830472222218, 27.918782611111112 ], [ -82.473976777777779, 27.917815611111113 ], [ -82.473931361111113, 27.917037472222223 ], [ -82.473754694444452, 27.916325388888886 ], [ -82.473372361111117, 27.915562777777776 ], [ -82.472575277777779, 27.914639166666664 ], [ -82.472288277777778, 27.914352305555553 ], [ -82.471728277777785, 27.914017972222222 ], [ -82.470561805555562, 27.913711527777778 ], [ -82.46914677777778, 27.913776638888887 ], [ -82.468479916666666, 27.913927333333334 ], [ -82.467820027777776, 27.914197777777776 ], [ -82.467426194444442, 27.914395944444443 ], [ -82.46678025, 27.914905777777776 ], [ -82.46621566666667, 27.915651944444441 ], [ -82.46604141666667, 27.916140083333332 ], [ -82.465891555555558, 27.91704725 ], [ -82.465975277777787, 27.918483805555557 ], [ -82.466665472222232, 27.9198925 ], [ -82.467097694444448, 27.92035275 ], [ -82.467593833333339, 27.920750055555558 ], [ -82.468083, 27.921027638888891 ], [ -82.46822125, 27.921081305555557 ], [ -82.469387805555556, 27.92138775 ] ] } },
{ "type": "Feature", "properties": { "style": "solid", "thickness": 1 }, "geometry": { "type": "LineString", "coordinates": [ [ -82.46339025, 27.9216635 ], [ -82.459713055555554, 27.914210277777777 ], [ -82.457055722222222, 27.921954472222222 ] ] } },
{ "type": "Feature", "properties": { "style": "solid", "thickness": 1 }, "geometry": { "type": "LineString", "coordinates": [ [ -82.450114666666664, 27.922272944444444 ], [ -82.454225388888887, 27.922084388888891 ], [ -82.45378325, 27.914482527777775 ], [ -82.449605444444444, 27.914674166666664 ] ] } },
{ "type": "Feature", "properties": { "style": "solid", "thickness": 1 }, "geometry": { "type": "LineString", "coordinates": [ [ -82.454002583333335, 27.918253527777779 ], [ -82.45002675, 27.918435916666667 ] ] } },
{ "type": "Feature", "properties": { "style": "solid", "thickness": 1 }, "geometry": { "type": "LineString", "coordinates": [ [ -82.431578166666668, 27.735016722222223 ], [ -82.431141888888888, 27.7274745 ] ] } },
{ "type": "Feature", "properties": { "style": "solid", "thickness": 1 }, "geometry": { "type": "LineString", "coordinates": [ [ -82.425859916666667, 27.7352785 ], [ -82.425424, 27.727736277777776 ] ] } },
{ "type": "Feature", "properties": { "style": "solid", "thickness": 1 }, "geometry": { "type": "LineString", "coordinates": [ [ -82.431373861111112, 27.731485055555552 ], [ -82.425655805555564, 27.731746833333332 ] ] } },
{ "type": "Feature", "properties": { "style": "solid", "thickness": 1 }, "geometry": { "type": "LineString", "coordinates": [ [ -82.4231051388889, 27.735464555555556 ], [ -82.422755888888901, 27.729418777777777 ], [ -82.422671305555554, 27.729122583333332 ], [ -82.422165861111111, 27.728545527777776 ], [ -82.421808750000011, 27.72820175 ], [ -82.421256777777785, 27.727986916666666 ], [ -82.420513361111119, 27.727960888888887 ], [ -82.419437027777789, 27.728010111111111 ], [ -82.418835083333335, 27.728097638888887 ], [ -82.418045111111113, 27.72843383333333 ], [ -82.417598416666678, 27.72887436111111 ], [ -82.417350055555559, 27.72924583333333 ], [ -82.417246611111111, 27.729790694444443 ], [ -82.417588666666674, 27.73571675 ] ] } },
{ "type": "Feature", "properties": { "style": "solid", "thickness": 1 }, "geometry": { "type": "LineString", "coordinates": [ [ -82.414324555555567, 27.72824375 ], [ -82.412475805555559, 27.735950333333335 ], [ -82.409212027777784, 27.728477194444444 ], [ -82.40729566666667, 27.736186777777778 ], [ -82.404368583333337, 27.728698166666664 ] ] } },
{ "type": "Feature", "properties": { "style": "solid", "thickness": 1 }, "geometry": { "type": "LineString", "coordinates": [ [ -82.401980944444446, 27.736429138888891 ], [ -82.40154322222223, 27.728827 ] ] } },
{ "type": "Feature", "properties": { "style": "solid", "thickness": 1 }, "geometry": { "type": "LineString", "coordinates": [ [ -82.397335500000011, 27.736580833333335 ], [ -82.401760361111116, 27.732598138888886 ], [ -82.396834277777785, 27.729041583333331 ] ] } },
{ "type": "Feature", "properties": { "style": "solid", "thickness": 1 }, "geometry": { "type": "LineString", "coordinates": [ [ -82.394008916666678, 27.72917025 ], [ -82.394446083333335, 27.736772444444444 ] ] } },
{ "type": "Feature", "properties": { "style": "solid", "thickness": 1 }, "geometry": { "type": "LineString", "coordinates": [ [ -82.034841972222225, 28.1347315 ], [ -82.0352435, 28.136538555555553 ], [ -82.036401833333329, 28.138067527777778 ], [ -82.038136944444446, 28.139080694444445 ], [ -82.040179, 28.139420527777776 ], [ -82.0422105, 28.139034166666665 ], [ -82.04391558333333, 28.137981694444445 ], [ -82.045029083333333, 28.13642675 ], [ -82.045377944444439, 28.134611138888889 ], [ -82.044907916666659, 28.132817111111112 ], [ -82.043692138888886, 28.13132363888889 ], [ -82.041919666666658, 28.130362833333333 ], [ -82.039866, 28.13008413888889 ], [ -82.037850472222217, 28.130530805555555 ], [ -82.036186361111106, 28.131633472222223 ], [ -82.03513241666667, 28.133220666666666 ], [ -82.034841972222225, 28.1347315 ] ] } },
{ "type": "Feature", "properties": { "style": "solid", "thickness": 1 }, "geometry": { "type": "LineString", "coordinates": [ [ -82.027917416666668, 28.135271111111109 ], [ -82.031082833333329, 28.134650833333332 ], [ -82.033969555555558, 28.13334311111111 ], [ -82.036391, 28.131432416666666 ], [ -82.038190777777771, 28.129042222222221 ], [ -82.039252583333337, 28.126327 ], [ -82.039522694444443, 28.123940777777779 ] ] } },
{ "type": "Feature", "properties": { "style": "solid", "thickness": 1 }, "geometry": { "type": "LineString", "coordinates": [ [ -82.039522694444443, 28.123940777777779 ], [ -82.040222611111105, 28.12674675 ], [ -82.041697944444437, 28.129305638888891 ], [ -82.043853416666664, 28.131452111111113 ], [ -82.046549805555557, 28.133047444444443 ], [ -82.049612833333327, 28.133988555555554 ], [ -82.052304694444445, 28.134227805555554 ] ] } },
{ "type": "Feature", "properties": { "style": "solid", "thickness": 1 }, "geometry": { "type": "LineString", "coordinates": [ [ -82.040699611111108, 28.145559194444445 ], [ -82.041091555555553, 28.1427065 ], [ -82.042282166666666, 28.140033527777778 ], [ -82.0441945, 28.137712972222221 ], [ -82.046704972222216, 28.135894694444445 ], [ -82.049651416666663, 28.134696138888888 ], [ -82.052304694444445, 28.134227805555554 ] ] } },
{ "type": "Feature", "properties": { "style": "solid", "thickness": 1 }, "geometry": { "type": "LineString", "coordinates": [ [ -82.040699611111108, 28.145559194444445 ], [ -82.039999583333326, 28.142753222222222 ], [ -82.038524111111116, 28.140194305555553 ], [ -82.036368555555555, 28.13804775 ], [ -82.033672222222222, 28.136452222222221 ], [ -82.03060925, 28.135510777777778 ], [ -82.027917416666668, 28.135271111111109 ] ] } },
{ "type": "Feature", "properties": { "style": "solid", "thickness": 1 }, "geometry": { "type": "LineString", "coordinates": [ [ -82.017772333333326, 28.13970825 ], [ -82.017444416666663, 28.133661805555555 ], [ -82.017360666666661, 28.13336536111111 ], [ -82.016855472222218, 28.132786833333334 ], [ -82.016498333333331, 28.132442027777778 ], [ -82.015945083333335, 28.132225583333334 ], [ -82.015199, 28.13219736111111 ], [ -82.014118472222222, 28.132243388888888 ], [ -82.013513944444441, 28.132329138888888 ], [ -82.012719777777775, 28.132663 ], [ -82.01226975, 28.133102166666667 ], [ -82.012019083333328, 28.133472888888889 ], [ -82.011913194444446, 28.134017416666666 ], [ -82.012234333333339, 28.139944166666666 ] ] } },
{ "type": "Feature", "properties": { "style": "solid", "thickness": 1 }, "geometry": { "type": "LineString", "coordinates": [ [ -82.006759027777775, 28.136336916666668 ], [ -82.003515916666672, 28.132694583333333 ] ] } },
{ "type": "Feature", "properties": { "style": "solid", "thickness": 1 }, "geometry": { "type": "LineString", "coordinates": [ [ -82.00898602777778, 28.132461888888891 ], [ -82.009397777777778, 28.140064888888887 ], [ -82.006020916666671, 28.140208555555557 ], [ -82.005744305555552, 28.140100305555556 ], [ -82.0051235, 28.139886694444446 ], [ -82.00448327777778, 28.139313888888889 ], [ -82.004180722222216, 28.138726694444443 ], [ -82.004141861111108, 28.138008305555555 ], [ -82.004379611111105, 28.137398166666667 ], [ -82.004955027777783, 28.136773666666667 ], [ -82.005549888888893, 28.136508333333332 ], [ -82.005813555555562, 28.136377111111109 ], [ -82.009190277777776, 28.136233472222223 ] ] } },
{ "type": "Feature", "properties": { "style": "solid", "thickness": 1 }, "geometry": { "type": "LineString", "coordinates": [ [ -82.00074705555555, 28.132812277777777 ], [ -82.001158222222216, 28.140415277777777 ] ] } },
{ "type": "Feature", "properties": { "style": "solid", "thickness": 1 }, "geometry": { "type": "LineString", "coordinates": [ [ -81.997646277777775, 28.140564472222223 ], [ -81.993993777777774, 28.133099083333335 ], [ -81.991297722222228, 28.140833944444445 ] ] } },
{ "type": "Feature", "properties": { "style": "solid", "thickness": 1 }, "geometry": { "type": "LineString", "coordinates": [ [ -81.98434130555556, 28.14112888888889 ], [ -81.988461138888894, 28.14095425 ], [ -81.988050861111105, 28.13335122222222 ], [ -81.983863777777785, 28.133528694444443 ] ] } },
{ "type": "Feature", "properties": { "style": "solid", "thickness": 1 }, "geometry": { "type": "LineString", "coordinates": [ [ -81.98825438888889, 28.137122805555556 ], [ -81.984269777777783, 28.137291694444443 ] ] } },
{ "type": "Feature", "properties": { "style": "solid", "thickness": 1 }, "geometry": { "type": "LineString", "coordinates": [ [ -82.251010333333326, 28.076943722222222 ], [ -82.255127277777774, 28.076761111111111 ], [ -82.254698527777776, 28.069158777777776 ], [ -82.250514388888888, 28.06934436111111 ] ] } },
{ "type": "Feature", "properties": { "style": "solid", "thickness": 1 }, "geometry": { "type": "LineString", "coordinates": [ [ -82.254911222222219, 28.072930027777776 ], [ -82.250929388888892, 28.073106638888888 ] ] } },
{ "type": "Feature", "properties": { "style": "solid", "thickness": 1 }, "geometry": { "type": "LineString", "coordinates": [ [ -82.24573275, 28.073336972222222 ], [ -82.242483472222219, 28.06970022222222 ] ] } },
{ "type": "Feature", "properties": { "style": "solid", "thickness": 1 }, "geometry": { "type": "LineString", "coordinates": [ [ -82.247949888888897, 28.069458055555554 ], [ -82.248378166666669, 28.077060388888889 ], [ -82.245003611111116, 28.077209916666668 ], [ -82.244726916666664, 28.077102166666666 ], [ -82.244106, 28.07688961111111 ], [ -82.243464888888894, 28.076317916666667 ], [ -82.243161222222227, 28.07573125 ], [ -82.243120777777776, 28.075012916666665 ], [ -82.243357055555563, 28.074402361111112 ], [ -82.24393075, 28.073776833333334 ], [ -82.244524666666663, 28.0735105 ], [ -82.244787888888894, 28.073378805555556 ], [ -82.24816233333334, 28.073229305555554 ] ] } },
{ "type": "Feature", "properties": { "style": "solid", "thickness": 1 }, "geometry": { "type": "LineString", "coordinates": [ [ -82.240144222222227, 28.077425083333335 ], [ -82.2397165, 28.069822722222224 ] ] } },
{ "type": "Feature", "properties": { "style": "solid", "thickness": 1 }, "geometry": { "type": "LineString", "coordinates": [ [ -82.235483916666666, 28.077571277777778 ], [ -82.239928666666671, 28.073593972222223 ], [ -82.234992416666671, 28.07003175 ] ] } },
{ "type": "Feature", "properties": { "style": "solid", "thickness": 1 }, "geometry": { "type": "LineString", "coordinates": [ [ -82.228468111111113, 28.077941388888888 ], [ -82.232585138888894, 28.077759472222223 ], [ -82.232157944444452, 28.070157083333331 ], [ -82.227973722222231, 28.070341972222224 ] ] } },
{ "type": "Feature", "properties": { "style": "solid", "thickness": 1 }, "geometry": { "type": "LineString", "coordinates": [ [ -82.23236986111111, 28.073928333333335 ], [ -82.228387944444449, 28.074104305555554 ] ] } },
{ "type": "Feature", "properties": { "style": "solid", "thickness": 1 }, "geometry": { "type": "LineString", "coordinates": [ [ -82.225835916666668, 28.078057666666666 ], [ -82.222668416666664, 28.073456722222222 ], [ -82.220099027777778, 28.07831086111111 ] ] } },
{ "type": "Feature", "properties": { "style": "solid", "thickness": 1 }, "geometry": { "type": "LineString", "coordinates": [ [ -82.222668416666664, 28.073456722222222 ], [ -82.222510583333332, 28.070643222222223 ] ] } },
{ "type": "Feature", "properties": { "style": "solid", "thickness": 1 }, "geometry": { "type": "LineString", "coordinates": [ [ -82.127321166666661, 28.211859 ], [ -82.126967055555554, 28.20545372222222 ], [ -82.127014777777774, 28.205091638888888 ], [ -82.127332777777767, 28.204717805555553 ], [ -82.127721694444432, 28.204400888888888 ], [ -82.127985361111101, 28.204269444444442 ], [ -82.128387499999988, 28.204191972222223 ], [ -82.129063222222214, 28.204162666666665 ], [ -82.129472, 28.204204916666665 ], [ -82.130103333333324, 28.204597555555555 ], [ -82.13024841666666, 28.204771277777777 ] ] } },
{ "type": "Feature", "properties": { "style": "solid", "thickness": 1 }, "geometry": { "type": "LineString", "coordinates": [ [ -82.124550444444438, 28.211979194444442 ], [ -82.124216333333322, 28.205933083333331 ], [ -82.124132222222215, 28.205636694444443 ], [ -82.123626111111108, 28.205058583333333 ], [ -82.123268388888889, 28.204714055555556 ], [ -82.12271458333332, 28.204498055555554 ], [ -82.121967944444435, 28.204470416666666 ], [ -82.12088675, 28.204517277777779 ], [ -82.120281888888883, 28.2046035 ], [ -82.119487527777764, 28.204937944444445 ], [ -82.119037638888884, 28.205377472222221 ], [ -82.118787166666664, 28.205748361111109 ], [ -82.118681777777766, 28.206292972222222 ], [ -82.119008972222218, 28.212219388888887 ] ] } },
{ "type": "Feature", "properties": { "style": "solid", "thickness": 1 }, "geometry": { "type": "LineString", "coordinates": [ [ -82.116170638888889, 28.212342305555556 ], [ -82.112507527777765, 28.204880166666666 ], [ -82.109818166666656, 28.21261725 ] ] } },
{ "type": "Feature", "properties": { "style": "solid", "thickness": 1 }, "geometry": { "type": "LineString", "coordinates": [ [ -82.1066285, 28.2051345 ], [ -82.1033305, 28.212897722222223 ], [ -82.099397944444434, 28.205446916666666 ] ] } },
{ "type": "Feature", "properties": { "style": "solid", "thickness": 1 }, "geometry": { "type": "LineString", "coordinates": [ [ -82.105547361111107, 28.207641444444445 ], [ -82.100681833333326, 28.207851694444443 ] ] } },
{ "type": "Feature", "properties": { "style": "solid", "thickness": 1 }, "geometry": { "type": "LineString", "coordinates": [ [ -82.093150694444446, 28.212557138888886 ], [ -82.093791805555554, 28.213129527777777 ], [ -82.093930277777773, 28.213183583333333 ], [ -82.09481538888889, 28.213265388888889 ], [ -82.095552194444437, 28.213113583333332 ], [ -82.0959445, 28.212856638888887 ], [ -82.096333527777773, 28.212539833333334 ], [ -82.096641805555549, 28.211986472222222 ], [ -82.096566055555556, 28.210609638888887 ], [ -82.09613094444444, 28.210088361111112 ], [ -82.095847472222218, 28.209860583333331 ], [ -82.094814055555545, 28.209545138888888 ], [ -82.093648777777773, 28.209295388888886 ], [ -82.092818083333327, 28.208971194444445 ], [ -82.092528027777774, 28.208623666666664 ], [ -82.09234680555555, 28.207791416666666 ], [ -82.092439194444438, 28.20700736111111 ], [ -82.09275075, 28.206513888888889 ], [ -82.09307547222221, 28.206259861111111 ], [ -82.093335888888888, 28.20606861111111 ], [ -82.093663916666657, 28.205874444444444 ], [ -82.094397361111106, 28.205662777777778 ], [ -82.094802833333333, 28.205645277777776 ], [ -82.095214861111103, 28.205747527777778 ], [ -82.095768638888885, 28.205963638888889 ], [ -82.096119666666667, 28.2061885 ], [ -82.09661905555555, 28.206647 ] ] } },
{ "type": "Feature", "properties": { "style": "solid", "thickness": 1 }, "geometry": { "type": "LineString", "coordinates": [ [ -82.115226611111112, 28.200210944444443 ], [ -82.114213055555553, 28.200254833333332 ], [ -82.113803611111109, 28.192831833333333 ] ] } },
{ "type": "Feature", "properties": { "style": "solid", "thickness": 1 }, "geometry": { "type": "LineString", "coordinates": [ [ -82.109088944444437, 28.19699625 ], [ -82.107129416666666, 28.197081 ], [ -82.106063083333325, 28.196167027777779 ], [ -82.105908166666666, 28.195813694444446 ], [ -82.105756555555544, 28.195520222222221 ], [ -82.105716972222211, 28.194801861111113 ], [ -82.105957583333321, 28.19425138888889 ], [ -82.106333305555552, 28.193695111111111 ], [ -82.106725527777769, 28.19343811111111 ], [ -82.106985888888886, 28.193246833333333 ], [ -82.107516555555549, 28.193043888888891 ], [ -82.108732749999987, 28.192991277777779 ], [ -82.109283194444444, 28.193147472222222 ], [ -82.109705111111111, 28.19342925 ], [ -82.110066027777776, 28.193833666666666 ], [ -82.110295138888887, 28.194303805555556 ], [ -82.110385805555552, 28.194719944444444 ], [ -82.110418805555554, 28.195318555555556 ], [ -82.110367722222222, 28.195620805555556 ], [ -82.110184833333321, 28.19598875 ], [ -82.109924444444445, 28.196180027777778 ], [ -82.109088944444437, 28.19699625 ], [ -82.109723472222214, 28.197448833333333 ], [ -82.110087722222218, 28.19791313888889 ], [ -82.110239361111098, 28.198206611111111 ], [ -82.11029213888888, 28.199164416666665 ], [ -82.10999388888888, 28.199897388888889 ], [ -82.109801083333323, 28.20008575 ], [ -82.109206138888879, 28.2003515 ], [ -82.108810583333323, 28.20054863888889 ], [ -82.107932166666657, 28.20058661111111 ], [ -82.107314111111108, 28.200433333333333 ], [ -82.106399388888889, 28.199812833333333 ], [ -82.10624775, 28.199519361111111 ], [ -82.106188416666654, 28.198441805555557 ], [ -82.106358138888879, 28.197834416666666 ], [ -82.106422416666661, 28.197771638888888 ], [ -82.106747083333332, 28.197517583333333 ], [ -82.107129416666666, 28.197081 ] ] } }
]
}
