{
"type": "FeatureCollection",
"name": "tpa236sgp",
"features": [
{ "type": "Feature", "properties": { "style": "solid", "thickness": 1 }, "geometry": { "type": "LineString", "coordinates": [ [ -82.596968305555549, 27.768155166666666 ], [ -82.59738316666666, 27.774205333333331 ], [ -82.59861591666666, 27.780166777777776 ], [ -82.600648666666658, 27.785952277777781 ], [ -82.603451833333324, 27.791477305555556 ], [ -82.606984527777769, 27.796661 ], [ -82.611195194444434, 27.801427583333336 ], [ -82.616022305555546, 27.805707333333334 ], [ -82.621395333333325, 27.809437611111111 ], [ -82.627235666666664, 27.812563861111112 ], [ -82.633457888888898, 27.815040305555556 ], [ -82.639971, 27.81683075 ], [ -82.646679694444458, 27.817908972222224 ], [ -82.65348575, 27.818259166666667 ], [ -82.660289555555565, 27.81787625 ], [ -82.666991583333342, 27.816765777777778 ], [ -82.673493694444446, 27.814944055555557 ], [ -82.679700777777782, 27.812437722222224 ], [ -82.685522, 27.809283444444446 ], [ -82.690872222222225, 27.805527388888891 ], [ -82.695673222222226, 27.8012245 ], [ -82.699854833333333, 27.796437722222223 ], [ -82.703355944444453, 27.791237111111112 ], [ -82.7061255, 27.785698722222225 ], [ -82.708123055555561, 27.779903527777776 ], [ -82.709319555555552, 27.773936277777779 ], [ -82.709697638888898, 27.767884194444445 ], [ -82.709251888888886, 27.76183575 ], [ -82.707989, 27.755879333333333 ], [ -82.705927527777774, 27.750102 ], [ -82.703097722222225, 27.74458813888889 ], [ -82.699541, 27.739418305555557 ], [ -82.69530947222222, 27.734668027777779 ], [ -82.69046497222223, 27.730406638888887 ], [ -82.685078305555564, 27.726696361111109 ], [ -82.679228194444448, 27.723591416666665 ], [ -82.673000055555562, 27.721137083333332 ], [ -82.666484833333342, 27.71936922222222 ], [ -82.659777638888897, 27.718313638888887 ], [ -82.652976388888888, 27.71798572222222 ], [ -82.646180333333334, 27.718390277777775 ], [ -82.639488694444452, 27.719521361111109 ], [ -82.632999138888877, 27.721362527777774 ], [ -82.626806416666653, 27.723886833333331 ], [ -82.621000944444432, 27.7270575 ], [ -82.6156675, 27.730828166666665 ], [ -82.610884027777772, 27.735143805555555 ], [ -82.606720444444434, 27.739941444444444 ], [ -82.603237611111112, 27.745150944444447 ], [ -82.600486527777775, 27.75069625 ], [ -82.598507472222224, 27.756496361111111 ], [ -82.5973295, 27.762466555555555 ], [ -82.596968305555549, 27.768155166666666 ] ] } },
{ "type": "Feature", "properties": { "style": "solid", "thickness": 1 }, "geometry": { "type": "LineString", "coordinates": [ [ -82.521223194444445, 27.986027333333336 ], [ -82.521223194444445, 27.987861555555558 ] ] } },
{ "type": "Feature", "properties": { "style": "solid", "thickness": 1 }, "geometry": { "type": "LineString", "coordinates": [ [ -82.520706611111109, 27.985843888888891 ], [ -82.520706638888882, 27.988045 ] ] } },
{ "type": "Feature", "properties": { "style": "solid", "thickness": 1 }, "geometry": { "type": "LineString", "coordinates": [ [ -82.52019005555556, 27.985843888888891 ], [ -82.52019005555556, 27.988045 ] ] } },
{ "type": "Feature", "properties": { "style": "solid", "thickness": 1 }, "geometry": { "type": "LineString", "coordinates": [ [ -82.519673472222223, 27.986027305555556 ], [ -82.519673472222223, 27.987861555555558 ] ] } },
{ "type": "Feature", "properties": { "style": "solid", "thickness": 1 }, "geometry": { "type": "LineString", "coordinates": [ [ -82.519156888888887, 27.986944444444447 ], [ -82.519164916666668, 27.987074472222222 ], [ -82.51919075, 27.98721038888889 ], [ -82.519236861111111, 27.987349666666667 ], [ -82.519305138888882, 27.987488916666667 ], [ -82.519396611111105, 27.987624222222223 ], [ -82.519511083333327, 27.987751194444446 ], [ -82.519646944444446, 27.987865333333335 ], [ -82.519801222222227, 27.987962638888892 ], [ -82.519969666666668, 27.988039833333335 ], [ -82.520147166666661, 27.988094833333335 ], [ -82.52032825, 27.988126916666669 ], [ -82.520507638888887, 27.988136694444446 ], [ -82.520680666666664, 27.988125861111111 ], [ -82.520843583333331, 27.98809702777778 ], [ -82.52099375, 27.988053222222224 ], [ -82.521129583333334, 27.987997583333335 ], [ -82.521253638888894, 27.987931305555556 ], [ -82.52137477777778, 27.98784913888889 ], [ -82.52149030555556, 27.987749833333336 ], [ -82.521596222222215, 27.987633305555555 ], [ -82.521688111111104, 27.987500416666666 ], [ -82.521761722222223, 27.987353111111112 ], [ -82.521813222222221, 27.9871945 ], [ -82.52183975, 27.987028611111111 ], [ -82.521839722222225, 27.98686025 ], [ -82.521813222222221, 27.986694388888889 ], [ -82.521761722222223, 27.986535777777778 ], [ -82.521688111111104, 27.986388472222224 ], [ -82.521596194444442, 27.986255555555555 ], [ -82.52149030555556, 27.986139027777778 ], [ -82.52137475, 27.98603975 ], [ -82.521253611111106, 27.985957555555558 ], [ -82.521129583333334, 27.985891305555558 ], [ -82.52099375, 27.985835666666667 ], [ -82.520843583333331, 27.985791861111114 ], [ -82.520680666666664, 27.985763027777779 ], [ -82.520507638888887, 27.985752194444444 ], [ -82.52032825, 27.985761972222225 ], [ -82.520147166666661, 27.985794055555555 ], [ -82.519969666666668, 27.985849055555555 ], [ -82.519801222222227, 27.98592625 ], [ -82.519646944444446, 27.986023527777778 ], [ -82.519511083333327, 27.986137694444444 ], [ -82.519396611111105, 27.98626463888889 ], [ -82.519305138888882, 27.986399944444447 ], [ -82.519236861111111, 27.986539222222223 ], [ -82.51919075, 27.986678472222223 ], [ -82.519164916666668, 27.986814388888888 ], [ -82.519156888888887, 27.986944444444447 ] ] } },
{ "type": "Feature", "properties": { "style": "solid", "thickness": 1 }, "geometry": { "type": "LineString", "coordinates": [ [ -82.651992944444444, 27.768123527777778 ], [ -82.652390416666677, 27.768969638888887 ], [ -82.653345666666667, 27.76931447222222 ], [ -82.654293611111115, 27.768954055555554 ], [ -82.654673527777788, 27.76810161111111 ], [ -82.654260666666673, 27.767261333333334 ], [ -82.653299277777776, 27.766930333333331 ], [ -82.65235802777778, 27.767304361111112 ], [ -82.651992944444444, 27.768123527777778 ] ] } },
{ "type": "Feature", "properties": { "style": "solid", "thickness": 1 }, "geometry": { "type": "LineString", "coordinates": [ [ -82.654054166666668, 27.767204527777778 ], [ -82.654056, 27.769038805555553 ] ] } },
{ "type": "Feature", "properties": { "style": "solid", "thickness": 1 }, "geometry": { "type": "LineString", "coordinates": [ [ -82.65353844444445, 27.7670215 ], [ -82.653540638888899, 27.769222638888888 ] ] } },
{ "type": "Feature", "properties": { "style": "solid", "thickness": 1 }, "geometry": { "type": "LineString", "coordinates": [ [ -82.653022916666671, 27.767021916666664 ], [ -82.65302511111112, 27.769223055555553 ] ] } },
{ "type": "Feature", "properties": { "style": "solid", "thickness": 1 }, "geometry": { "type": "LineString", "coordinates": [ [ -82.652507583333346, 27.76720575 ], [ -82.652509388888888, 27.769040027777777 ] ] } }
]
}
