{
"type": "FeatureCollection",
"name": "PBI-H",
"crs": { "type": "name", "properties": { "name": "urn:ogc:def:crs:OGC:1.3:CRS84" } },
"features": [
{ "type": "Feature", "properties": { "minAlt": 998, "maxAlt": 999 }, "geometry": { "type": "Polygon", "coordinates": [ ] } },
{ "type": "Feature", "properties": { "minAlt": 0, "maxAlt": 50 }, "geometry": { "type": "Polygon", "coordinates": [ [ [ -80.183069444444442, 27.311430555555557 ], [ -80.081736111111098, 27.346786111111115 ], [ -80.055580555555537, 27.355897222222218 ], [ -79.885108333333321, 27.415116666666666 ], [ -79.933333333333323, 27.531111111111109 ], [ -79.961452777777779, 27.53147222222222 ], [ -80.06805, 27.532786111111111 ], [ -80.096169444444428, 27.533119444444441 ], [ -80.206144444444448, 27.536591666666666 ], [ -80.234169444444433, 27.538683333333328 ], [ -80.34325555555553, 27.54676944444445 ], [ -80.352597222222215, 27.547458333333338 ], [ -80.361219444444444, 27.55074166666666 ], [ -80.434266666666659, 27.578536111111102 ], [ -80.442891666666654, 27.581813888888888 ], [ -80.452263888888893, 27.582158333333336 ], [ -80.5386, 27.585361111111109 ], [ -80.652744444444451, 27.58936111111111 ], [ -80.766894444444432, 27.593341666666671 ], [ -80.795011111111094, 27.594305555555557 ], [ -80.772572222222223, 27.353255555555549 ], [ -80.744538888888869, 27.354691666666668 ], [ -80.632408333333316, 27.360383333333328 ], [ -80.604375, 27.361788888888888 ], [ -80.492236111111112, 27.367477777777779 ], [ -80.4642, 27.368855555555555 ], [ -80.351752777777762, 27.37423055555556 ], [ -80.337733333333318, 27.37490833333333 ], [ -80.325363888888873, 27.368972222222219 ], [ -80.20849166666666, 27.31281111111111 ], [ -80.196138888888896, 27.306863888888898 ], [ -80.183069444444442, 27.311430555555557 ] ] ] } }
]
}
