{
"type": "FeatureCollection",
"name": "PBI-A-E",
"crs": { "type": "name", "properties": { "name": "urn:ogc:def:crs:OGC:1.3:CRS84" } },
"features": [
{ "type": "Feature", "properties": { "minAlt": 998, "maxAlt": 999 }, "geometry": { "type": "Polygon", "coordinates": [ ] } },
{ "type": "Feature", "properties": { "minAlt": 0, "maxAlt": 30 }, "geometry": { "type": "Polygon", "coordinates": [ [ [ -80.096611111111102, 26.845869444444435 ], [ -80.092641666666665, 26.644794444444447 ], [ -80.130519444444417, 26.567083333333329 ], [ -80.181977777777789, 26.569091666666662 ], [ -80.205983333333336, 26.661136111111102 ], [ -80.212206806240147, 26.687848214612469 ], [ -80.238463888888873, 26.688791666666667 ], [ -80.25705, 26.689583333333331 ], [ -80.278267859032965, 26.689815642579845 ], [ -80.292541666666651, 26.713708333333333 ], [ -80.299644444444425, 26.737955555555558 ], [ -80.308036111111093, 26.76658611111111 ], [ -80.351255555555554, 26.799972222222216 ], [ -80.290827777777778, 26.805341666666667 ], [ -80.263022222222219, 26.80780833333333 ], [ -80.20260555555555, 26.815513888888884 ], [ -80.193408333333338, 26.816838888888888 ], [ -80.187925, 26.823594444444442 ], [ -80.16705, 26.849316666666667 ], [ -80.096611111111102, 26.845869444444435 ] ] ] } },
{ "type": "Feature", "properties": { "minAlt": 0, "maxAlt": 40 }, "geometry": { "type": "Polygon", "coordinates": [ [ [ -80.590125, 26.79397777777778 ], [ -80.588394444444447, 26.785766666666667 ], [ -80.573491666666655, 26.732722222222222 ], [ -80.568280555555546, 26.716675 ], [ -80.54625, 26.662372222222224 ], [ -80.542872222222201, 26.654586111111104 ], [ -80.53735, 26.647861111111112 ], [ -80.483936111111092, 26.582763888888888 ], [ -80.181977777777789, 26.569091666666662 ], [ -80.1841, 26.577227777777779 ], [ -80.197497222222211, 26.628588888888885 ], [ -80.199619444444451, 26.636725 ], [ -80.205983333333336, 26.661136111111098 ], [ -80.212206806240147, 26.687848214612469 ], [ -80.25705, 26.689583333333324 ], [ -80.278267859032965, 26.689815642579845 ], [ -80.292541666666651, 26.713708333333333 ], [ -80.308036111111093, 26.76658611111111 ], [ -80.351255555555554, 26.799972222222216 ], [ -80.479088888888896, 26.796813888888888 ], [ -80.590125, 26.79397777777778 ] ] ] } },
{ "type": "Feature", "properties": { "minAlt": 30, "maxAlt": 40 }, "geometry": { "type": "Polygon", "coordinates": [ [ [ -80.436572222222196, 26.863483333333324 ], [ -80.426980555555559, 26.85635 ], [ -80.358422222222202, 26.805311111111109 ], [ -80.351255555555554, 26.799972222222216 ], [ -80.479088888888896, 26.796813888888888 ], [ -80.507016666666672, 26.796108333333329 ], [ -80.580816666666649, 26.794219444444451 ], [ -80.590125, 26.79397777777778 ], [ -80.588394444444447, 26.785766666666667 ], [ -80.573491666666655, 26.732722222222222 ], [ -80.568280555555546, 26.716675 ], [ -80.54625, 26.662372222222224 ], [ -80.542872222222186, 26.654586111111104 ], [ -80.53735, 26.647861111111112 ], [ -80.48945, 26.589491666666667 ], [ -80.483936111111092, 26.582763888888888 ], [ -80.493222222222229, 26.583136111111109 ], [ -80.560008333333329, 26.585802777777772 ], [ -80.597155555555545, 26.587272222222218 ], [ -80.673813888888887, 26.590272222222225 ], [ -80.6831, 26.590633333333336 ], [ -80.7341861111111, 26.724177777777772 ], [ -80.755169444444434, 26.77923055555555 ], [ -80.769163888888883, 26.815772222222218 ], [ -80.795111111111112, 26.883466666666667 ], [ -80.785808333333335, 26.882952777777778 ], [ -80.690558333333342, 26.877652777777779 ], [ -80.662652777777765, 26.876094444444448 ], [ -80.585166666666652, 26.871713888888884 ], [ -80.502966666666666, 26.867186111111106 ], [ -80.436572222222196, 26.863483333333324 ] ] ] } },
{ "type": "Feature", "properties": { "minAlt": 30, "maxAlt": 30 }, "geometry": { "type": "Polygon", "coordinates": [ [ [ -80.436572222222196, 26.863483333333324 ], [ -80.426980555555559, 26.85635 ], [ -80.358422222222188, 26.805311111111109 ], [ -80.351255555555554, 26.799972222222216 ], [ -80.341988888888878, 26.800797222222222 ], [ -80.290827777777778, 26.805341666666667 ], [ -80.263022222222219, 26.80780833333333 ], [ -80.20260555555555, 26.81551388888888 ], [ -80.193408333333338, 26.816838888888888 ], [ -80.187925, 26.823594444444442 ], [ -80.172533333333334, 26.842561111111102 ], [ -80.16705, 26.849316666666667 ], [ -80.436572222222196, 26.863483333333324 ] ] ] } }
]
}
