{
"type": "FeatureCollection",
"name": "HST-H",
"crs": { "type": "name", "properties": { "name": "urn:ogc:def:crs:OGC:1.3:CRS84" } },
"features": [
{ "type": "Feature", "properties": { "minAlt": 0, "maxAlt": 30 }, "geometry": { "type": "Polygon", "coordinates": [ [ [ -80.820556, 25.182222 ], [ -80.473333, 25.031111 ], [ -80.133333, 25.133333 ], [ -80.1875, 25.254166666666663 ], [ -80.268889, 25.503333 ], [ -80.270885683505668, 25.505720894306144 ], [ -80.28337237558614, 25.520650115699805 ], [ -80.289206486090649, 25.527624803611552 ], [ -80.305833333333325, 25.5475 ], [ -80.305833333333325, 25.5475 ], [ -80.313813888888888, 25.555625 ], [ -80.313813888888888, 25.555625 ], [ -80.322772222222184, 25.562858333333335 ], [ -80.322772222222184, 25.562858333333335 ], [ -80.326127746165042, 25.564991110029194 ], [ -80.332575, 25.569088888888885 ], [ -80.332575, 25.569088888888885 ], [ -80.343075, 25.574225 ], [ -80.343075, 25.574225 ], [ -80.354116666666656, 25.578188888888882 ], [ -80.354116666666656, 25.578188888888882 ], [ -80.365536111111112, 25.580925 ], [ -80.365536111111112, 25.580925 ], [ -80.377163888888887, 25.582386111111109 ], [ -80.377163888888887, 25.582386111111109 ], [ -80.388822222222203, 25.582555555555547 ], [ -80.400338888888882, 25.581427777777776 ], [ -80.411541666666665, 25.579022222222225 ], [ -80.411541666666665, 25.579022222222225 ], [ -80.411553908592836, 25.579018058127801 ], [ -80.422263888888864, 25.575375 ], [ -80.422263888888864, 25.575375 ], [ -80.432347222222234, 25.57053611111111 ], [ -80.432347222222234, 25.57053611111111 ], [ -80.441636111111094, 25.564583333333335 ], [ -80.441636111111094, 25.564583333333335 ], [ -80.446451764404316, 25.560651825324474 ], [ -80.448611111111106, 25.558888888888891 ], [ -80.448611111111106, 25.558888888888891 ], [ -80.522201439452161, 25.493907245435054 ], [ -80.52222211405244, 25.493888984430686 ], [ -80.522222222222197, 25.493888888888883 ], [ -80.522222222222197, 25.493888888888883 ], [ -80.594999326463025, 25.48395375099404 ], [ -80.754166666666649, 25.46222222222222 ], [ -80.820556, 25.182222 ] ] ] } }
]
}
