{
"type": "FeatureCollection",
"name": "CAR-41",
"crs": { "type": "name", "properties": { "name": "urn:ogc:def:crs:OGC:1.3:CRS84" } },
"features": [
{ "type": "Feature", "properties": { "minAlt": 240, "maxAlt": 999 }, "geometry": { "type": "Polygon", "coordinates": [ [ [ -78.583333333299819, 24.950000000000156 ], [ -77.871231, 24.607789 ], [ -78.088889, 24.158889 ], [ -78.142222, 24.049722 ], [ -78.166667, 24.0 ], [ -78.583333333299706, 24.000000000000451 ] ] ] } },
{ "type": "Feature", "properties": { "minAlt": 70, "maxAlt": 999 }, "geometry": { "type": "Polygon", "coordinates": [ [ [ -78.583622, 24.953653 ], [ -78.770144, 25.043964 ], [ -79.000094, 25.154675 ], [ -79.0, 24.666667 ], [ -78.583333, 24.392222 ], [ -78.583333333299819, 24.950000000000156 ] ] ] } },
{ "type": "Feature", "properties": { "minAlt": 40, "maxAlt": 999 }, "geometry": { "type": "Polygon", "coordinates": [ [ [ -80.306053, 25.217139 ], [ -80.1875, 25.254167 ], [ -80.133333, 25.133333 ], [ -80.273881, 25.091267 ], [ -80.306053, 25.217139 ] ] ] } },
{ "type": "Feature", "properties": { "minAlt": 170, "maxAlt": 999 }, "geometry": { "type": "Polygon", "coordinates": [ [ [ -80.306053, 25.217139 ], [ -80.1875, 25.254167 ], [ -79.870833, 25.354167 ], [ -79.7, 25.466667 ], [ -79.700006, 25.488419 ], [ -79.822694, 25.543333 ], [ -80.241667, 25.458333 ], [ -80.306053, 25.217139 ] ] ] } },
{ "type": "Feature", "properties": { "minAlt": 0, "maxAlt": 999 }, "geometry": { "type": "Polygon", "coordinates": [ [ [ -79.9828, 24.001269 ], [ -79.833056, 24.000556 ], [ -79.165278, 24.0 ], [ -78.983333, 24.0 ], [ -78.583333, 24.0 ], [ -78.583333, 24.049167 ], [ -78.583333, 24.392222 ], [ -79.0, 24.666667 ], [ -79.000094, 25.154675 ], [ -79.700006, 25.488419 ], [ -79.7, 25.466667 ], [ -79.870833, 25.354167 ], [ -80.1875, 25.254167 ], [ -80.133333, 25.133333 ], [ -80.273881, 25.091267 ], [ -80.169125, 24.681006 ], [ -79.9828, 24.001269 ] ] ] } }
]
}
