{
"type": "FeatureCollection",
"name": "CAR-40",
"crs": { "type": "name", "properties": { "name": "urn:ogc:def:crs:OGC:1.3:CRS84" } },
"features": [
{ "type": "Feature", "properties": { "minAlt": 240, "maxAlt": 999 }, "geometry": { "type": "Polygon", "coordinates": [ [ [ -80.054166666699928, 26.216666666700007 ], [ -80.433442, 26.077869 ], [ -80.366666666699984, 25.866666666699928 ], [ -80.266666666699962, 25.541666666699996 ], [ -80.241666666699928, 25.458333333300118 ], [ -79.822694, 25.543333 ], [ -79.700006, 25.488419 ], [ -79.000094, 25.154675 ], [ -78.770144, 25.043964 ], [ -78.583622, 24.953653 ], [ -77.871231, 24.607789 ], [ -77.741666666699814, 24.883333333300243 ], [ -77.813888888899953, 25.633333333300072 ], [ -78.508333333300016, 26.0 ], [ -78.635, 26.116944444400133 ], [ -79.506514, 26.088897 ], [ -80.054166666699928, 26.216666666700007 ] ] ] } }
]
}
