{
"type": "FeatureCollection",
"name": "RSW-E-W",
"crs": { "type": "name", "properties": { "name": "urn:ogc:def:crs:OGC:1.3:CRS84" } },
"features": [
{ "type": "Feature", "properties": { "minAlt": 50, "maxAlt": 100 }, "geometry": { "type": "Polygon", "coordinates": [ [ [ -81.699020435118911, 27.060177554714077 ], [ -81.69898974945508, 27.06016605130214 ], [ -81.669526082337001, 26.584901524852842 ], [ -81.66930855555556, 26.581385305555553 ], [ -81.647521777777769, 26.44688625 ], [ -81.592175472222223, 26.450681305555559 ], [ -81.295721527777772, 26.339716861111107 ], [ -81.087497027777772, 26.370828527777771 ], [ -81.160010416666665, 26.538830861111116 ], [ -81.316663611111096, 26.89999505555555 ], [ -81.350108361111111, 26.915704194444444 ], [ -81.366941388888861, 26.923606166666666 ], [ -81.37109975, 26.925268305555548 ], [ -81.424996916666672, 26.946661722222228 ], [ -81.542478305555548, 27.001415055555551 ], [ -81.577766388888875, 27.01471275 ], [ -81.699020435118911, 27.060177554714077 ] ] ] } }
]
}
