{
"type": "FeatureCollection",
"name": "RSW-W-W",
"crs": { "type": "name", "properties": { "name": "urn:ogc:def:crs:OGC:1.3:CRS84" } },
"features": [
{ "type": "Feature", "properties": { "minAlt": 60, "maxAlt": 100 }, "geometry": { "type": "Polygon", "coordinates": [ [ [ -81.698996027777781, 27.060267111111113 ], [ -81.699020435118911, 27.06017755471408 ], [ -81.849684027774174, 27.116740972220867 ], [ -81.849684027777769, 27.116740972222214 ], [ -82.10110783333333, 27.09721725 ], [ -82.088330055555531, 27.071383916666665 ], [ -82.161941138888892, 27.04471725 ], [ -82.161941138889233, 27.044717249999895 ], [ -82.253885583333329, 27.018328388888893 ], [ -82.35083, 27.000272833333334 ], [ -82.445829972222228, 26.988328388888881 ], [ -82.543329944444437, 26.9844395 ], [ -82.645552138888903, 26.988883944444442 ], [ -82.494441055555541, 26.611661833333329 ], [ -82.441107749999986, 26.499995166666668 ], [ -82.060409305555552, 26.719396361111102 ], [ -81.996709416666647, 26.754077555555554 ], [ -81.778960722222223, 26.766474722222224 ], [ -81.698996027777781, 27.060267111111113 ] ] ] } },
{ "type": "Feature", "properties": { "minAlt": 0, "maxAlt": 100 }, "geometry": { "type": "Polygon", "coordinates": [ [ [ -81.778960722222223, 26.76647472222222 ], [ -81.862350712220234, 26.587415289849663 ], [ -81.862570759884278, 26.586942420120529 ], [ -81.862819888998089, 26.586407053676915 ], [ -81.858270599008435, 26.584284364800219 ], [ -81.760260833333334, 26.538543666666666 ], [ -81.757803717979115, 26.534437602894045 ], [ -81.77001925, 26.526485222222217 ], [ -82.100359083333316, 26.308743888888891 ], [ -82.290863630728438, 26.183237761456326 ], [ -82.441107749999972, 26.499995166666668 ], [ -82.060409305555552, 26.719396361111102 ], [ -81.996709416666647, 26.754077555555554 ], [ -81.778960722222223, 26.76647472222222 ] ] ] } },
{ "type": "Feature", "properties": { "minAlt": 40, "maxAlt": 50 }, "geometry": { "type": "Polygon", "coordinates": [ [ [ -81.757803717979115, 26.534437602894045 ], [ -81.755511861111103, 26.530607527777775 ], [ -81.76482719444445, 26.381886111111111 ], [ -81.892686166666678, 26.316331944444443 ], [ -82.100359083333302, 26.308743888888891 ], [ -81.757803717979115, 26.534437602894045 ] ] ] } },
{ "type": "Feature", "properties": { "minAlt": 50, "maxAlt": 100 }, "geometry": { "type": "Polygon", "coordinates": [ [ [ -81.757803717979115, 26.534437602894045 ], [ -81.680040749999989, 26.585020972222221 ], [ -81.669942299777432, 26.59162918529411 ], [ -81.699020435118911, 27.060177554714077 ], [ -81.778960722222223, 26.76647472222222 ], [ -81.862350712220234, 26.587415289849663 ], [ -81.86257075988425, 26.586942420120554 ], [ -81.862819888998089, 26.586407053676915 ], [ -81.760260833333334, 26.538543666666666 ], [ -81.757803717979115, 26.534437602894045 ] ] ] } }
]
}
