{
"type": "FeatureCollection",
"name": "RSW-G-W",
"crs": { "type": "name", "properties": { "name": "urn:ogc:def:crs:OGC:1.3:CRS84" } },
"features": [
{ "type": "Feature", "properties": { "minAlt": 0, "maxAlt": 30 }, "geometry": { "type": "Polygon", "coordinates": [ [ [ -82.100359083333302, 26.308743888888891 ], [ -81.757803717979115, 26.534437602894045 ], [ -81.755511861111103, 26.530607527777775 ], [ -81.76482719444445, 26.381886111111111 ], [ -81.892686166666678, 26.316331944444443 ], [ -82.100359083333302, 26.308743888888891 ] ] ] } },
{ "type": "Feature", "properties": { "minAlt": 60, "maxAlt": 100 }, "geometry": { "type": "Polygon", "coordinates": [ [ [ -82.100359083333302, 26.308743888888891 ], [ -81.757803717979115, 26.534437602894045 ], [ -81.755511861111103, 26.530607527777775 ], [ -81.76482719444445, 26.381886111111111 ], [ -81.892686166666678, 26.316331944444443 ], [ -82.100359083333302, 26.308743888888891 ] ] ] } },
{ "type": "Feature", "properties": { "minAlt": 0, "maxAlt": 100 }, "geometry": { "type": "Polygon", "coordinates": [ [ [ -82.308330027777771, 25.783328694444442 ], [ -82.308330027777771, 25.849995333333329 ], [ -82.283052249999983, 26.166661916666662 ], [ -82.290863630728438, 26.183237761456329 ], [ -82.100359083333316, 26.308743888888891 ], [ -81.892686166666678, 26.316331944444443 ], [ -81.76482719444445, 26.381886111111111 ], [ -81.775588096281695, 26.153520640179533 ], [ -81.775613281327196, 26.152985642368385 ], [ -81.775633518774654, 26.152555743011902 ], [ -81.775635055293066, 26.152523103046128 ], [ -81.775638888888864, 26.152441666666661 ], [ -81.782621173933265, 25.890985011458501 ], [ -81.785473861111115, 25.783996861111113 ], [ -82.308330027777771, 25.783328694444442 ] ] ] } }
]
}
