{
"type": "FeatureCollection",
"name": "RSW-G-E",
"crs": { "type": "name", "properties": { "name": "urn:ogc:def:crs:OGC:1.3:CRS84" } },
"features": [
{ "type": "Feature", "properties": { "minAlt": 60, "maxAlt": 100 }, "geometry": { "type": "Polygon", "coordinates": [ [ [ -82.291686404776698, 26.184983560759406 ], [ -81.854303145556472, 26.47154719913695 ], [ -81.862447777777774, 26.57633625 ], [ -81.862164823356821, 26.587272647605911 ], [ -81.856776, 26.583137444444436 ], [ -81.849761833333318, 26.582141555555552 ], [ -81.740291239342284, 26.545837364476764 ], [ -81.740284194444428, 26.545835027777773 ], [ -81.69919769444445, 26.408167638888887 ], [ -81.765638519877911, 26.364671236909036 ], [ -82.191471818040938, 26.085505675109651 ], [ -82.294929972222221, 26.017580138888885 ], [ -82.283052249999983, 26.166661916666659 ], [ -82.291686404776698, 26.184983560759406 ] ] ] } },
{ "type": "Feature", "properties": { "minAlt": 0, "maxAlt": 100 }, "geometry": { "type": "Polygon", "coordinates": [ [ [ -81.785473722222221, 25.783996861111113 ], [ -81.78262110376275, 25.890983945569385 ], [ -81.775638888888878, 26.152441666666661 ], [ -81.77563351843628, 26.152555743325557 ], [ -81.775588093342563, 26.153520637597417 ], [ -81.765638519877911, 26.364671236909036 ], [ -81.870022630702252, 26.296301680452917 ], [ -82.191471818040938, 26.085505675109655 ], [ -82.262477975695418, 26.038890760763138 ], [ -82.294929972222221, 26.017580138888885 ], [ -82.283052249999983, 26.166661916666655 ], [ -82.308330027777771, 25.849995333333329 ], [ -82.308330027777771, 25.783328694444442 ], [ -81.785473722222221, 25.783996861111113 ] ] ] } }
]
}
