{
"type": "FeatureCollection",
"name": "RSW-S-E",
"crs": { "type": "name", "properties": { "name": "urn:ogc:def:crs:OGC:1.3:CRS84" } },
"features": [
{ "type": "Feature", "properties": { "minAlt": 0, "maxAlt": 100 }, "geometry": { "type": "Polygon", "coordinates": [ [ [ -81.416663638888878, 25.783328666666666 ], [ -81.416663611111105, 25.849995305555552 ], [ -81.412000991171467, 25.899956204059237 ], [ -81.372665355619901, 26.320600836606939 ], [ -81.371941388888885, 26.328328527777771 ], [ -81.513042222222211, 26.425316444444441 ], [ -81.67260269444445, 26.425510416666665 ], [ -81.69919769444445, 26.408167638888887 ], [ -81.765638519877911, 26.364671236909039 ], [ -81.76562941666667, 26.36486425 ], [ -81.765638519877911, 26.364671236909039 ], [ -81.765842970954367, 26.360336227430622 ], [ -81.775588093342563, 26.153520637597417 ], [ -81.775633518436265, 26.152555743325571 ], [ -81.775638888888878, 26.152441666666661 ], [ -81.78262110376275, 25.890983945569381 ], [ -81.785473722222221, 25.783996861111113 ], [ -81.416663638888878, 25.783328666666666 ] ] ] } },
{ "type": "Feature", "properties": { "minAlt": 0, "maxAlt": 30 }, "geometry": { "type": "Polygon", "coordinates": [ [ [ -81.740284194444428, 26.54583502777777 ], [ -81.69919769444445, 26.408167638888887 ], [ -81.67260269444445, 26.425510416666658 ], [ -81.513903959901739, 26.425317492030413 ], [ -81.513042222222211, 26.425316444444441 ], [ -81.406618671966726, 26.352172057521951 ], [ -81.371941388888885, 26.328328527777771 ], [ -81.340949499999979, 26.332965194444441 ], [ -81.295723472222221, 26.339716722222217 ], [ -81.087497027777772, 26.370828527777771 ], [ -81.160160828687637, 26.53888102844185 ], [ -81.160281222222224, 26.538893833333333 ], [ -81.229462694444436, 26.549798472222225 ], [ -81.740284194444428, 26.54583502777777 ] ] ] } }
]
}
