{
"type": "FeatureCollection",
"name": "ATL-19",
"crs": { "type": "name", "properties": { "name": "urn:ogc:def:crs:OGC:1.3:CRS84" } },
"features": [
{ "type": "Feature", "properties": { "minAlt": 0, "maxAlt": 999 }, "geometry": { "type": "Polygon", "coordinates": [ [ [ -77.499999999999886, 30.029444444400156 ], [ -77.85666666669988, 30.06555555560027 ], [ -77.924444444399853, 30.072222222200196 ], [ -78.05833333329997, 27.466666666700291 ], [ -76.999999999999886, 27.466666666700291 ], [ -76.431111111099995, 28.131666666700198 ], [ -76.382222222199857, 28.188333333300307 ], [ -76.543747222199897, 28.668500000000279 ], [ -76.573611111099922, 28.746683333300155 ], [ -76.848822222199885, 29.561613888900297 ], [ -76.876069444399889, 29.641833333300212 ], [ -76.907222222199891, 29.733333333300266 ], [ -76.918055555600006, 29.766666666700246 ], [ -76.999999999999886, 30.000000000000114 ], [ -77.033333333299879, 30.000000000000114 ], [ -77.21666666669995, 30.000000000000114 ], [ -77.499999999999886, 30.029444444400156 ] ] ] } }
]
}
