{
"type": "FeatureCollection",
"name": "ATL-18",
"crs": { "type": "name", "properties": { "name": "urn:ogc:def:crs:OGC:1.3:CRS84" } },
"features": [
{ "type": "Feature", "properties": { "minAlt": 0, "maxAlt": 999 }, "geometry": { "type": "Polygon", "coordinates": [ [ [ -77.924444444399967, 30.072222222200025 ], [ -78.570277777800015, 30.134722222200139 ], [ -78.669166666699937, 30.144166666700016 ], [ -79.033333333299936, 28.0 ], [ -78.05833333329997, 27.466666666700121 ], [ -77.924444444399967, 30.072222222200025 ] ] ] } }
]
}
