{"type":"FeatureCollection","crs":{"type":"name","properties":{"name":"urn:ogc:def:crs:OGC:1.3:CRS84"}},"features":[{"type":"Feature","geometry":{"type":"LineString","coordinates":[[-80.921482181466146,24.527022146894396],[-80.931783398328974,24.512272389590336],[-80.933335950110262,24.510277855102117],[-80.928613600184988,24.000555363040192],[-80.918933046799395,24.000555390800656],[-80.909252492413785,24.000555418561117],[-80.899571938028174,24.000555446321581],[-80.889891384642581,24.000555474082041],[-80.880210830256971,24.000555501842509],[-80.870530276871264,24.000555529602973],[-80.861325140590367,24.000555556000098],[-80.541388889,24.000555556000098],[-80.568335332432156,24.64944542694602],[-80.688890855838707,24.633334215429731],[-80.700915749521855,24.627651678189139],[-80.725855130010132,24.618686887008462],[-80.748047294891165,24.613259639539358],[-80.772638169652993,24.609793938311785],[-80.788302233770423,24.599200673664818],[-80.807999838762967,24.588399072157287],[-80.83348124014455,24.577770143641569],[-80.860368371100151,24.570114883687392],[-80.875401259911058,24.563155560549156],[-80.912927154741396,24.541955688963668],[-80.921482181466146,24.527022146894396]]}}]}