{"type":"FeatureCollection","name":"NQX-007S NQX RNAV 32","crs":{"type":"name","properties":{"name":"urn:ogc:def:crs:OGC:1.3:CRS84"}},"features":[{"type":"Feature","properties":{},"geometry":{"type":"LineString","coordinates":[[-81.593613057419716,24.506936904428571],[-81.592828060259151,24.505865475857142],[-81.591650564518318,24.505508333],[-81.590865567357753,24.505508333],[-81.589688071616919,24.505865475857142],[-81.588903074456354,24.506936904428571],[-81.588510575876072,24.508722618714284],[-81.588510575876072,24.509794047285713],[-81.588903074456354,24.511579761571426],[-81.589688071616919,24.512651190142854],[-81.590865567357753,24.513008333],[-81.591650564518318,24.513008333],[-81.592828060259151,24.512651190142854],[-81.593613057419716,24.511579761571426],[-81.594005556,24.509794047285713],[-81.594005556,24.508722618714284],[-81.593613057419716,24.506936904428571]]}},{"type":"Feature","properties":{},"geometry":{"type":"LineString","coordinates":[[-81.585763085814108,24.509436904428568],[-81.582230598591579,24.509436904428568],[-81.581445601431028,24.509079761571428],[-81.580660604270463,24.507651190142855],[-81.580660604270463,24.507294047285711],[-81.581445601431028,24.505865475857142],[-81.582230598591579,24.505508333],[-81.585763085814108,24.505508333],[-81.585763085814108,24.509436904428568],[-81.585763085814108,24.513008333],[-81.582230598591579,24.513008333],[-81.581445601431028,24.512651190142854],[-81.580660604270463,24.511579761571426],[-81.580660604270463,24.511222618714285],[-81.581445601431028,24.509794047285713],[-81.582230598591579,24.509436904428568]]}},{"type":"Feature","properties":{},"geometry":{"type":"LineString","coordinates":[[-81.577520615628231,24.505508333],[-81.576735618467666,24.508008333],[-81.57516562414655,24.513008333],[-81.574773125566267,24.513008333],[-81.573203131245151,24.508008333],[-81.572418134084586,24.505508333],[-81.573203131245151,24.508008333],[-81.576735618467666,24.508008333]]}},{"type":"Feature","properties":{},"geometry":{"type":"LineString","coordinates":[[-81.56927814544234,24.505508333],[-81.566923153960659,24.505508333],[-81.565745658219811,24.505865475857142],[-81.564568162478977,24.506936904428571],[-81.564175663898695,24.508722618714284],[-81.564175663898695,24.510151190142857],[-81.564568162478977,24.51193690442857],[-81.565745658219811,24.512651190142854],[-81.566923153960659,24.513008333],[-81.56927814544234,24.513008333],[-81.56927814544234,24.505508333]]}},{"type":"Feature","properties":{},"geometry":{"type":"LineString","coordinates":[[-81.555933193712818,24.513008333],[-81.561035675256463,24.513008333],[-81.561035675256463,24.509794047285713],[-81.557895686614216,24.509794047285713],[-81.561035675256463,24.509794047285713],[-81.561035675256463,24.505508333],[-81.555933193712818,24.505508333]]}},{"type":"Feature","properties":{},"geometry":{"type":"LineString","coordinates":[[-81.349736111,24.630545238428571],[-81.346200208926675,24.630545238428571],[-81.345414452910376,24.63018809557143],[-81.344628696894077,24.628759524142858],[-81.344628696894077,24.628402381285714],[-81.345414452910376,24.626973809857144],[-81.346200208926675,24.626616667],[-81.349736111,24.626616667],[-81.349736111,24.630545238428571],[-81.349736111,24.634116667],[-81.346200208926675,24.634116667],[-81.345414452910376,24.633759524142857],[-81.344628696894077,24.632688095571428],[-81.344628696894077,24.632330952714288],[-81.345414452910376,24.630902381285715],[-81.346200208926675,24.630545238428571]]}},{"type":"Feature","properties":{},"geometry":{"type":"LineString","coordinates":[[-81.341485672828895,24.634116667],[-81.339521282788155,24.634116667],[-81.337556892747415,24.634116667],[-81.339521282788155,24.634116667],[-81.339521282788155,24.626616667],[-81.341485672828895,24.626616667],[-81.339521282788155,24.626616667],[-81.337556892747415,24.626616667]]}},{"type":"Feature","properties":{},"geometry":{"type":"LineString","coordinates":[[-81.333235234657792,24.626616667],[-81.333235234657792,24.630545238428571],[-81.333235234657792,24.634116667],[-81.329699332584468,24.634116667],[-81.328913576568169,24.633759524142857],[-81.32812782055187,24.632688095571428],[-81.32812782055187,24.632330952714288],[-81.328913576568169,24.630902381285715],[-81.329699332584468,24.630545238428571],[-81.333235234657792,24.630545238428571]]}},{"type":"Feature","properties":{},"geometry":{"type":"LineString","coordinates":[[-81.324984796486689,24.634116667],[-81.323020406445949,24.634116667],[-81.321056016405208,24.634116667],[-81.323020406445949,24.634116667],[-81.323020406445949,24.626616667],[-81.324984796486689,24.626616667],[-81.323020406445949,24.626616667],[-81.321056016405208,24.626616667]]}},{"type":"Feature","properties":{},"geometry":{"type":"LineString","coordinates":[[-81.316734358315571,24.626616667],[-81.316734358315571,24.634116667],[-81.316341480307429,24.634116667],[-81.312019822217792,24.626616667],[-81.31162694420965,24.626616667],[-81.31162694420965,24.634116667]]}},{"type":"Feature","properties":{},"geometry":{"type":"LineString","coordinates":[[-81.515628316179715,24.453093650571429],[-81.516020632414737,24.453807936285717],[-81.516412948649759,24.454165079142857],[-81.517197581119817,24.454522222],[-81.518766846059904,24.454522222],[-81.519551478529962,24.454165079142857],[-81.519943794764984,24.453807936285717],[-81.520336111,24.453093650571429],[-81.520336111,24.452379364857144],[-81.519943794764984,24.45166507914286],[-81.51798221358986,24.450950793428571],[-81.516020632414737,24.449879364857143],[-81.515628316179715,24.449165079142858],[-81.515628316179715,24.448450793428574],[-81.516020632414737,24.447736507714286],[-81.516412948649759,24.447379364857145],[-81.517197581119817,24.447022222],[-81.518766846059904,24.447022222],[-81.519551478529962,24.447379364857145],[-81.519943794764984,24.447736507714286],[-81.520336111,24.448450793428574]]}},{"type":"Feature","properties":{},"geometry":{"type":"LineString","coordinates":[[-81.512097470064504,24.447022222],[-81.51131283759446,24.449522222],[-81.509743572654358,24.454522222],[-81.509351256419336,24.454522222],[-81.507781991479234,24.449522222],[-81.506997359009191,24.447022222],[-81.507781991479234,24.449522222],[-81.51131283759446,24.449522222]]}},{"type":"Feature","properties":{},"geometry":{"type":"LineString","coordinates":[[-81.498758718073674,24.454165079142857],[-81.49993566677874,24.454522222],[-81.501112615483819,24.454522222],[-81.502289564188885,24.454165079142857],[-81.503466512893965,24.453450793428573],[-81.503858829128987,24.45166507914286],[-81.503858829128987,24.450236507714287],[-81.503466512893965,24.448450793428574],[-81.502289564188885,24.447379364857145],[-81.501112615483819,24.447022222],[-81.49993566677874,24.447022222],[-81.498758718073674,24.447379364857145],[-81.498758718073674,24.450593650571431],[-81.49993566677874,24.450593650571431]]}},{"type":"Feature","properties":{},"geometry":{"type":"LineString","coordinates":[[-81.495620188193485,24.454522222],[-81.495620188193485,24.447022222],[-81.49012776090315,24.447022222]]}},{"type":"Feature","properties":{},"geometry":{"type":"LineString","coordinates":[[-81.482281436202655,24.454522222],[-81.487381547257968,24.454522222],[-81.487381547257968,24.451307936285716],[-81.484243017377779,24.451307936285716],[-81.487381547257968,24.451307936285716],[-81.487381547257968,24.447022222],[-81.482281436202655,24.447022222]]}},{"type":"Feature","properties":{},"geometry":{"type":"LineString","coordinates":[[-81.54222877307437,24.459998121047597],[-81.556016633599071,24.470948211266833]]}},{"type":"Feature","properties":{},"geometry":{"type":"LineString","coordinates":[[-81.569806892708925,24.481897050324775],[-81.583599551762944,24.492844637369405]]}},{"type":"Feature","properties":{},"geometry":{"type":"LineString","coordinates":[[-81.370730029712064,24.627818705864815],[-81.529350165008211,24.460819946513794]]}},{"type":"Feature","properties":{},"geometry":{"type":"LineString","coordinates":[[-81.597394612120326,24.503790971548327],[-81.602110289399349,24.507532121091117]]}},{"type":"Feature","properties":{},"geometry":{"type":"LineString","coordinates":[[-81.615904446031948,24.518481079143001],[-81.629704786722385,24.529424840151762]]}},{"type":"Feature","properties":{},"geometry":{"type":"LineString","coordinates":[[-81.643507533279461,24.540367345506716],[-81.657312687063211,24.551308594353809]]}},{"type":"Feature","properties":{},"geometry":{"type":"LineString","coordinates":[[-81.532282272768015,24.454499119682914],[-81.532337940540856,24.454992664064534],[-81.532489942778739,24.455471100030984],[-81.53273346584804,24.45591903382315],[-81.533060607935212,24.456322072544197],[-81.533460920433669,24.456667269595016],[-81.533921476703426,24.456943550384061],[-81.534427513087465,24.457142000294773],[-81.534962754769069,24.457256232556951],[-81.535510007084781,24.45728261536663],[-81.536051658575317,24.457220266759975],[-81.536570305508505,24.457071229243773],[-81.537049277218614,24.456840243567719],[-81.537473191646654,24.456534776808155],[-81.537828417269054,24.45616459431821],[-81.538103529231421,24.455741666116424],[-81.538289680228999,24.455279534228623],[-81.538380904744457,24.454793064171653],[-81.538374282534079,24.45429793098122],[-81.538270002707492,24.453809983544716],[-81.538071424798247,24.453344915734803],[-81.537784938235191,24.452917721790541],[-81.537419744473098,24.452542088064817],[-81.536987578052376,24.452230113638237],[-81.536502336610923,24.451991826324686],[-81.53597961126593,24.451834856145027],[-81.535436203065657,24.451764246989242],[-81.534889578593592,24.451782317981809],[-81.534357306293032,24.451888439148007],[-81.533856509062105,24.452079199580083],[-81.533403239507834,24.452348511969966],[-81.533012081874034,24.452687684154981],[-81.532695637622979,24.453085813957927],[-81.532464044227325,24.453530131537747],[-81.532324773124785,24.454006341963307],[-81.532282272768015,24.454499119682914]]}},{"type":"Feature","properties":{},"geometry":{"type":"LineString","coordinates":[[-81.535421676013826,24.460921438423604],[-81.53522070270661,24.459690546374112],[-81.53477242528281,24.458509797356207],[-81.534092234358013,24.457419828835896],[-81.533203618731704,24.456458213952587],[-81.532137165972742,24.455658020680332],[-81.530929573703389,24.45504681876433],[-81.52962246741906,24.454645667155035],[-81.528260853223017,24.454468399661835]]}},{"type":"Feature","properties":{},"geometry":{"type":"LineString","coordinates":[[-81.535250554979399,24.44812335040757],[-81.53508247943185,24.44935140750971],[-81.534665693083738,24.450525580876167],[-81.534014576144031,24.451605414372835],[-81.533151472045617,24.452553711447358],[-81.532106197209743,24.453337797882341],[-81.530914696827566,24.453930670542569],[-81.529618029731182,24.454311928029611],[-81.528260853223017,24.454468399661835]]}},{"type":"Feature","properties":{},"geometry":{"type":"LineString","coordinates":[[-81.542411273014565,24.454576043586513],[-81.541049647674214,24.454398886644121],[-81.539742533031671,24.453997817947943],[-81.538534960041815,24.453386701731134],[-81.537468476859075,24.452586533310502],[-81.536579888870477,24.451624921213281],[-81.535899750435021,24.450534985902813],[-81.535451503434984,24.449354212033278],[-81.535250554979399,24.44812335040757]]}},{"type":"Feature","properties":{},"geometry":{"type":"LineString","coordinates":[[-81.542411273014565,24.454576043586513],[-81.541054140637513,24.454732631341699],[-81.539757492820641,24.455113974527926],[-81.538566042141696,24.455706908035708],[-81.537520761733674,24.456491049746106],[-81.536657685272985,24.457439349606702],[-81.536006540695553,24.458519180317296],[-81.53558975434747,24.459693353683761],[-81.535421676013826,24.460921438423604]]}},{"type":"Feature","properties":{},"geometry":{"type":"LineString","coordinates":[[-81.536634286193021,24.451695147984189],[-81.536363547430696,24.45194092707149]]}},{"type":"Feature","properties":{},"geometry":{"type":"LineString","coordinates":[[-81.536276778785464,24.451195353538189],[-81.535633302252322,24.451779537316327]]}},{"type":"Feature","properties":{},"geometry":{"type":"LineString","coordinates":[[-81.535961923065059,24.45065686409616],[-81.534690127727544,24.45181140444879]]}},{"type":"Feature","properties":{},"geometry":{"type":"LineString","coordinates":[[-81.535693505733676,24.450076180704109],[-81.534026172510082,24.451589804312434]]}},{"type":"Feature","properties":{},"geometry":{"type":"LineString","coordinates":[[-81.535477512363471,24.449447932177449],[-81.534893720599257,24.449977884342438]]}},{"type":"Feature","properties":{},"geometry":{"type":"LineString","coordinates":[[-81.538457115346375,24.453337758322462],[-81.538186376584022,24.45358353740977]]}},{"type":"Feature","properties":{},"geometry":{"type":"LineString","coordinates":[[-81.539011025301562,24.453659241407905],[-81.538367545982339,24.454243452823746]]}},{"type":"Feature","properties":{},"geometry":{"type":"LineString","coordinates":[[-81.539607556520096,24.453942054348936],[-81.538335783248158,24.455096652763046]]}},{"type":"Feature","properties":{},"geometry":{"type":"LineString","coordinates":[[-81.540250553765389,24.454182676126024],[-81.538583242607373,24.45569635779583]]}},{"type":"Feature","properties":{},"geometry":{"type":"LineString","coordinates":[[-81.540945977757929,24.454375705130801],[-81.540362180421567,24.454905712571197]]}},{"type":"Feature","properties":{},"geometry":{"type":"LineString","coordinates":[[-81.535778513180048,24.459066876851026],[-81.535194690992057,24.459596853867652]]}},{"type":"Feature","properties":{},"geometry":{"type":"LineString","coordinates":[[-81.536646061269224,24.45745495688103],[-81.534978669984127,24.458968602554918]]}},{"type":"Feature","properties":{},"geometry":{"type":"LineString","coordinates":[[-81.535982106051748,24.457233356744673],[-81.534710252652772,24.458387919162867]]}},{"type":"Feature","properties":{},"geometry":{"type":"LineString","coordinates":[[-81.535038873465496,24.457265245942693],[-81.534395341656946,24.457849424148684]]}},{"type":"Feature","properties":{},"geometry":{"type":"LineString","coordinates":[[-81.534308573011714,24.457103850615383],[-81.534037834249389,24.457349629702684]]}},{"type":"Feature","properties":{},"geometry":{"type":"LineString","coordinates":[[-81.532485749430535,24.455461185001695],[-81.532214983030471,24.455706961302923]]}},{"type":"Feature","properties":{},"geometry":{"type":"LineString","coordinates":[[-81.532304607669943,24.4548012723738],[-81.531661075861379,24.455385450579783]]}},{"type":"Feature","properties":{},"geometry":{"type":"LineString","coordinates":[[-81.532336425679503,24.45394807800664],[-81.531064575066594,24.455102612787115]]}},{"type":"Feature","properties":{},"geometry":{"type":"LineString","coordinates":[[-81.532088966320302,24.453348372973849],[-81.530421552969671,24.454861960586257]]}},{"type":"Feature","properties":{},"geometry":{"type":"LineString","coordinates":[[-81.530309984374981,24.454138902075528],[-81.529726164973056,24.454668851454436]]}},{"type":"Feature","properties":{},"geometry":{"type":"LineString","coordinates":[[-81.605951717768008,24.512985230682911],[-81.606007385540849,24.513478775064531],[-81.606159387778732,24.513957211030981],[-81.606402910848033,24.514405144823147],[-81.606730052935205,24.514808183544194],[-81.607130365433662,24.515153380595013],[-81.607590921703419,24.515429661384058],[-81.608096958087458,24.51562811129477],[-81.608632199769062,24.515742343556948],[-81.609179452084774,24.515768726366627],[-81.609721103575311,24.515706377759972],[-81.610239750508498,24.51555734024377],[-81.610718722218607,24.515326354567716],[-81.611142636646647,24.515020887808152],[-81.611497862269047,24.514650705318207],[-81.611772974231414,24.514227777116421],[-81.611959125228992,24.51376564522862],[-81.61205034974445,24.51327917517165],[-81.612043727534072,24.512784041981217],[-81.611939447707485,24.512296094544713],[-81.61174086979824,24.5118310267348],[-81.611454383235184,24.511403832790538],[-81.611089189473091,24.511028199064814],[-81.610657023052369,24.510716224638234],[-81.610171781610916,24.510477937324683],[-81.609649056265923,24.510320967145024],[-81.60910564806565,24.510250357989239],[-81.608559023593585,24.510268428981806],[-81.608026751293025,24.510374550148004],[-81.607525954062098,24.51056531058008],[-81.607072684507827,24.510834622969963],[-81.606681526874027,24.511173795154978],[-81.606365082622972,24.511571924957924],[-81.606133489227318,24.512016242537744],[-81.605994218124778,24.512492452963304],[-81.605951717768008,24.512985230682911]]}},{"type":"Feature","properties":{},"geometry":{"type":"LineString","coordinates":[[-81.609091121013819,24.519407549423601],[-81.608890147706603,24.518176657374109],[-81.608441870282803,24.516995908356204],[-81.607761679358006,24.515905939835893],[-81.606873063731697,24.514944324952584],[-81.605806610972735,24.514144131680329],[-81.604599018703382,24.513532929764327],[-81.603291912419053,24.513131778155032],[-81.60193029822301,24.512954510661832]]}},{"type":"Feature","properties":{},"geometry":{"type":"LineString","coordinates":[[-81.608919999979392,24.506609461407567],[-81.608751924431843,24.507837518509707],[-81.608335138083731,24.509011691876164],[-81.607684021144024,24.510091525372832],[-81.60682091704561,24.511039822447355],[-81.605775642209736,24.511823908882338],[-81.604584141827559,24.512416781542566],[-81.603287474731175,24.512798039029608],[-81.60193029822301,24.512954510661832]]}},{"type":"Feature","properties":{},"geometry":{"type":"LineString","coordinates":[[-81.616080718014558,24.51306215458651],[-81.614719092674207,24.512884997644118],[-81.613411978031664,24.51248392894794],[-81.612204405041808,24.511872812731131],[-81.611137921859068,24.511072644310499],[-81.61024933387047,24.510111032213278],[-81.609569195435014,24.50902109690281],[-81.609120948434978,24.507840323033275],[-81.608919999979392,24.506609461407567]]}},{"type":"Feature","properties":{},"geometry":{"type":"LineString","coordinates":[[-81.616080718014558,24.51306215458651],[-81.614723585637506,24.513218742341696],[-81.613426937820634,24.513600085527923],[-81.612235487141689,24.514193019035705],[-81.611190206733667,24.514977160746103],[-81.610327130272978,24.515925460606699],[-81.609675985695546,24.517005291317293],[-81.609259199347463,24.518179464683758],[-81.609091121013819,24.519407549423601]]}},{"type":"Feature","properties":{},"geometry":{"type":"LineString","coordinates":[[-81.610303731193014,24.510181258984186],[-81.610032992430689,24.510427038071487]]}},{"type":"Feature","properties":{},"geometry":{"type":"LineString","coordinates":[[-81.609946223785457,24.509681464538186],[-81.609302747252315,24.510265648316324]]}},{"type":"Feature","properties":{},"geometry":{"type":"LineString","coordinates":[[-81.609631368065052,24.509142975096157],[-81.608359572727537,24.510297515448787]]}},{"type":"Feature","properties":{},"geometry":{"type":"LineString","coordinates":[[-81.609362950733669,24.508562291704106],[-81.607695617510075,24.510075915312431]]}},{"type":"Feature","properties":{},"geometry":{"type":"LineString","coordinates":[[-81.609146957363464,24.507934043177446],[-81.60856316559925,24.508463995342435]]}},{"type":"Feature","properties":{},"geometry":{"type":"LineString","coordinates":[[-81.612126560346368,24.511823869322459],[-81.611855821584015,24.512069648409767]]}},{"type":"Feature","properties":{},"geometry":{"type":"LineString","coordinates":[[-81.612680470301555,24.512145352407902],[-81.612036990982332,24.512729563823743]]}},{"type":"Feature","properties":{},"geometry":{"type":"LineString","coordinates":[[-81.613277001520089,24.512428165348933],[-81.612005228248151,24.513582763763043]]}},{"type":"Feature","properties":{},"geometry":{"type":"LineString","coordinates":[[-81.613919998765383,24.512668787126021],[-81.612252687607366,24.514182468795827]]}},{"type":"Feature","properties":{},"geometry":{"type":"LineString","coordinates":[[-81.614615422757922,24.512861816130798],[-81.614031625421561,24.513391823571194]]}},{"type":"Feature","properties":{},"geometry":{"type":"LineString","coordinates":[[-81.609447958180041,24.517552987851023],[-81.60886413599205,24.518082964867649]]}},{"type":"Feature","properties":{},"geometry":{"type":"LineString","coordinates":[[-81.610315506269217,24.515941067881027],[-81.608648114984121,24.517454713554915]]}},{"type":"Feature","properties":{},"geometry":{"type":"LineString","coordinates":[[-81.609651551051741,24.51571946774467],[-81.608379697652765,24.516874030162864]]}},{"type":"Feature","properties":{},"geometry":{"type":"LineString","coordinates":[[-81.608708318465489,24.51575135694269],[-81.608064786656939,24.516335535148681]]}},{"type":"Feature","properties":{},"geometry":{"type":"LineString","coordinates":[[-81.607978018011707,24.51558996161538],[-81.607707279249382,24.515835740702681]]}},{"type":"Feature","properties":{},"geometry":{"type":"LineString","coordinates":[[-81.606155194430528,24.513947296001692],[-81.605884428030464,24.51419307230292]]}},{"type":"Feature","properties":{},"geometry":{"type":"LineString","coordinates":[[-81.605974052669936,24.513287383373797],[-81.605330520861372,24.51387156157978]]}},{"type":"Feature","properties":{},"geometry":{"type":"LineString","coordinates":[[-81.606005870679496,24.512434189006637],[-81.604734020066587,24.513588723787112]]}},{"type":"Feature","properties":{},"geometry":{"type":"LineString","coordinates":[[-81.605758411320295,24.511834483973846],[-81.604090997969664,24.513348071586254]]}},{"type":"Feature","properties":{},"geometry":{"type":"LineString","coordinates":[[-81.603979429374974,24.512625013075525],[-81.603395609973049,24.513154962454433]]}},{"type":"Feature","properties":{},"geometry":{"type":"LineString","coordinates":[[-81.361682272768007,24.634093564682914],[-81.361737940540849,24.634587109064533],[-81.361889942778731,24.635065545030983],[-81.362133465848032,24.63551347882315],[-81.362460607935205,24.635916517544196],[-81.362860920433661,24.636261714595015],[-81.363321476703419,24.63653799538406],[-81.363827513087458,24.636736445294773],[-81.364362754769061,24.63685067755695],[-81.364910007084774,24.636877060366629],[-81.36545165857531,24.636814711759975],[-81.365970305508498,24.636665674243773],[-81.366449277218607,24.636434688567718],[-81.366873191646647,24.636129221808154],[-81.367228417269047,24.635759039318209],[-81.367503529231413,24.635336111116423],[-81.367689680228992,24.634873979228622],[-81.36778090474445,24.634387509171653],[-81.367774282534072,24.633892375981219],[-81.367670002707484,24.633404428544715],[-81.367471424798239,24.632939360734802],[-81.367184938235184,24.632512166790541],[-81.366819744473091,24.632136533064816],[-81.366387578052368,24.631824558638236],[-81.365902336610915,24.631586271324686],[-81.365379611265922,24.631429301145026],[-81.36483620306565,24.631358691989242],[-81.364289578593585,24.631376762981809],[-81.363757306293024,24.631482884148006],[-81.363256509062097,24.631673644580083],[-81.362803239507826,24.631942956969965],[-81.362412081874027,24.63228212915498],[-81.362095637622971,24.632680258957926],[-81.361864044227318,24.633124576537746],[-81.361724773124777,24.633600786963306],[-81.361682272768007,24.634093564682914]]}},{"type":"Feature","properties":{},"geometry":{"type":"LineString","coordinates":[[-81.364821676013818,24.640515883423603],[-81.364620702706603,24.639284991374112],[-81.364172425282803,24.638104242356206],[-81.363492234358006,24.637014273835895],[-81.362603618731697,24.636052658952586],[-81.361537165972734,24.635252465680331],[-81.360329573703382,24.63464126376433],[-81.359022467419052,24.634240112155034],[-81.35766085322301,24.634062844661834]]}},{"type":"Feature","properties":{},"geometry":{"type":"LineString","coordinates":[[-81.364650554979391,24.62771779540757],[-81.364482479431842,24.628945852509709],[-81.364065693083731,24.630120025876167],[-81.363414576144024,24.631199859372835],[-81.36255147204561,24.632148156447357],[-81.361506197209735,24.63293224288234],[-81.360314696827558,24.633525115542568],[-81.359018029731175,24.63390637302961],[-81.35766085322301,24.634062844661834]]}},{"type":"Feature","properties":{},"geometry":{"type":"LineString","coordinates":[[-81.371811273014558,24.634170488586513],[-81.370449647674207,24.63399333164412],[-81.369142533031663,24.633592262947943],[-81.367934960041808,24.632981146731133],[-81.366868476859068,24.632180978310501],[-81.36597988887047,24.63121936621328],[-81.365299750435014,24.630129430902812],[-81.364851503434977,24.628948657033277],[-81.364650554979391,24.62771779540757]]}},{"type":"Feature","properties":{},"geometry":{"type":"LineString","coordinates":[[-81.371811273014558,24.634170488586513],[-81.370454140637506,24.634327076341698],[-81.369157492820634,24.634708419527925],[-81.367966042141688,24.635301353035707],[-81.366920761733667,24.636085494746105],[-81.366057685272978,24.637033794606701],[-81.365406540695545,24.638113625317295],[-81.364989754347462,24.63928779868376],[-81.364821676013818,24.640515883423603]]}},{"type":"Feature","properties":{},"geometry":{"type":"LineString","coordinates":[[-81.366034286193013,24.631289592984189],[-81.365763547430689,24.63153537207149]]}},{"type":"Feature","properties":{},"geometry":{"type":"LineString","coordinates":[[-81.365676778785456,24.630789798538189],[-81.365033302252314,24.631373982316326]]}},{"type":"Feature","properties":{},"geometry":{"type":"LineString","coordinates":[[-81.365361923065052,24.63025130909616],[-81.364090127727536,24.63140584944879]]}},{"type":"Feature","properties":{},"geometry":{"type":"LineString","coordinates":[[-81.365093505733668,24.629670625704108],[-81.363426172510074,24.631184249312433]]}},{"type":"Feature","properties":{},"geometry":{"type":"LineString","coordinates":[[-81.364877512363464,24.629042377177448],[-81.36429372059925,24.629572329342437]]}},{"type":"Feature","properties":{},"geometry":{"type":"LineString","coordinates":[[-81.367857115346368,24.632932203322461],[-81.367586376584015,24.633177982409769]]}},{"type":"Feature","properties":{},"geometry":{"type":"LineString","coordinates":[[-81.368411025301555,24.633253686407905],[-81.367767545982332,24.633837897823746]]}},{"type":"Feature","properties":{},"geometry":{"type":"LineString","coordinates":[[-81.369007556520089,24.633536499348935],[-81.36773578324815,24.634691097763046]]}},{"type":"Feature","properties":{},"geometry":{"type":"LineString","coordinates":[[-81.369650553765382,24.633777121126023],[-81.367983242607366,24.635290802795829]]}},{"type":"Feature","properties":{},"geometry":{"type":"LineString","coordinates":[[-81.370345977757921,24.6339701501308],[-81.36976218042156,24.634500157571196]]}},{"type":"Feature","properties":{},"geometry":{"type":"LineString","coordinates":[[-81.365178513180041,24.638661321851025],[-81.36459469099205,24.639191298867651]]}},{"type":"Feature","properties":{},"geometry":{"type":"LineString","coordinates":[[-81.366046061269216,24.637049401881029],[-81.36437866998412,24.638563047554918]]}},{"type":"Feature","properties":{},"geometry":{"type":"LineString","coordinates":[[-81.36538210605174,24.636827801744673],[-81.364110252652765,24.637982364162866]]}},{"type":"Feature","properties":{},"geometry":{"type":"LineString","coordinates":[[-81.364438873465488,24.636859690942693],[-81.363795341656939,24.637443869148683]]}},{"type":"Feature","properties":{},"geometry":{"type":"LineString","coordinates":[[-81.363708573011706,24.636698295615382],[-81.363437834249382,24.636944074702683]]}},{"type":"Feature","properties":{},"geometry":{"type":"LineString","coordinates":[[-81.361885749430527,24.635055630001695],[-81.361614983030464,24.635301406302922]]}},{"type":"Feature","properties":{},"geometry":{"type":"LineString","coordinates":[[-81.361704607669935,24.634395717373799],[-81.361061075861372,24.634979895579782]]}},{"type":"Feature","properties":{},"geometry":{"type":"LineString","coordinates":[[-81.361736425679496,24.633542523006639],[-81.360464575066587,24.634697057787115]]}},{"type":"Feature","properties":{},"geometry":{"type":"LineString","coordinates":[[-81.361488966320294,24.632942817973849],[-81.359821552969663,24.634456405586256]]}},{"type":"Feature","properties":{},"geometry":{"type":"LineString","coordinates":[[-81.359709984374973,24.633733347075527],[-81.359126164973048,24.634263296454435]]}}]}