{"type":"FeatureCollection","name":"NQX-210S MVA 3NM","crs":{"type":"name","properties":{"name":"urn:ogc:def:crs:OGC:1.3:CRS84"}},"features":[{"type":"Feature","geometry":{"type":"LineString","coordinates":[[-81.564644811845909,24.680066283608308],[-81.565482617055125,24.688775962702071],[-81.564652326705371,24.697486237015021],[-81.563515202536735,24.701369216081794],[-81.563516139661331,24.701378956906318],[-81.562685767965377,24.710089216769237],[-81.560212023865517,24.71853538879402],[-81.556169771922299,24.726460763174316],[-81.55068161171333,24.733624412969846],[-81.543914179620614,24.739808528824298],[-81.536073100084465,24.744825054551608],[-81.527396737959094,24.748521419850761],[-81.5181489417606,24.750785193696167],[-81.508611,24.751547514875941],[-81.499073058239389,24.750785193696167],[-81.48982526204091,24.748521419850761],[-81.481148899915524,24.744825054551608],[-81.473307820379389,24.739808528824298],[-81.466540388286674,24.733624412969846],[-81.461052228077705,24.726460763174316],[-81.457009976134472,24.71853538879402],[-81.454536232034627,24.710089216769237],[-81.453705860338673,24.701378956906318],[-81.454543752002337,24.692669292608311],[-81.455684353755359,24.688786147477927],[-81.455683382944841,24.688775962702071],[-81.456521188154056,24.680066283608308],[-81.459001293805983,24.671621811768336],[-81.463048045562346,24.663699050642279],[-81.468538264392237,24.656538610773534],[-81.475305015791037,24.650357913269239],[-81.483142695998836,24.645344601075397],[-81.491813279017506,24.641650856133474],[-81.501053534653821,24.639388792855019],[-81.510583,24.638627065789059],[-81.520112465346173,24.639388792855019],[-81.529352720982487,24.641650856133474],[-81.538023304001129,24.645344601075397],[-81.545860984208957,24.650357913269239],[-81.552627735607757,24.656538610773534],[-81.558117954437634,24.663699050642279],[-81.562164706193983,24.671621811768336],[-81.564644811845909,24.680066283608308]]}},{"type":"Feature","geometry":{"type":"LineString","coordinates":[[-81.867381,24.986539],[-81.9327,24.956089],[-81.945125981717396,24.951831755086104],[-81.999962523951652,24.933042540868723],[-81.99980651251083,24.792968009221983],[-81.993367366789641,24.794833687830238],[-81.870731,24.830361],[-81.86911939403852,24.905519225633615],[-81.867381,24.986539]]}},{"type":"Feature","geometry":{"type":"LineString","coordinates":[[-81.720811,25.061761],[-81.681659052738439,25.192626843827505],[-81.672021646642989,25.224818465417272],[-81.64319353851802,25.321061497343241],[-81.6389,25.335389],[-81.63351721883069,25.353319406482822],[-81.603311,25.453889],[-81.651069,25.488539],[-81.717761,25.490611],[-81.71878382594285,25.340254940626036],[-81.718819,25.335081],[-81.719739563591844,25.208847795954547],[-81.720811,25.061761]]}},{"type":"Feature","geometry":{"type":"LineString","coordinates":[[-81.554,24.998789],[-81.519231,25.021531],[-81.460890421169708,25.092516640859163],[-81.430168641240783,25.129880692040761],[-81.39821381777341,25.168732256541215],[-81.385489,25.1842],[-81.396119,25.2055],[-81.395845715019391,25.24090828256951],[-81.395611,25.271311],[-81.377361,25.335061],[-81.373069,25.364769],[-81.396939,25.389661],[-81.417319,25.335111],[-81.448402515548793,25.258707385981428],[-81.462168120843742,25.224856006751612],[-81.495193587235761,25.143603761780074],[-81.508977107518419,25.109676281981667],[-81.554,24.998789]]}},{"type":"Feature","geometry":{"type":"LineString","coordinates":[[-80.379491562218348,24.84751383076863],[-80.403781,24.816419],[-80.692684744081646,24.663811789761215],[-80.786620510348769,24.614151934816039],[-80.909069,24.549389],[-81.045889,24.430061],[-81.2081,24.449431],[-81.458389,24.418419],[-81.664969,24.3606],[-81.842881,24.252731],[-82.004219,24.2848],[-82.005522,24.163142],[-82.005828,24.134608],[-81.873283,24.109006],[-81.41565,24.305431],[-81.017664,24.3025],[-80.775119,24.46345],[-80.709010193531157,24.4979195939707],[-80.621715713718459,24.543421071312675],[-80.350436036263474,24.684694381029345]]}},{"type":"Feature","geometry":{"type":"LineString","coordinates":[[-80.62052968241116,25.334110403922889],[-81.377361,25.335061],[-81.395611,25.271311],[-81.396119,25.2055],[-81.385489,25.1842],[-81.398213817773396,25.168732256541212],[-81.430168641240783,25.129880692040761],[-81.460890421169694,25.092516640859163],[-81.519231,25.021531],[-81.554,24.998789],[-81.498009636313938,25.136672956808699],[-81.495193587235761,25.143603761780074],[-81.494979257061075,25.144131250905644],[-81.462168120843742,25.224856006751612],[-81.452421685715663,25.248824708572872],[-81.448402515548793,25.258707385981428],[-81.417319,25.335111],[-81.6389,25.335389],[-81.663783022314234,25.252331012944861],[-81.672021646642989,25.224818465417268],[-81.67402831023233,25.218116351834471],[-81.681659052738425,25.192626843827501],[-81.720811,25.061761],[-81.719739563591844,25.208847795954544],[-81.718819,25.335081],[-81.861161,25.333131],[-81.867381,24.986539],[-81.867807494940138,24.966666666666665],[-81.86911939403852,24.905519225633615],[-81.870731,24.830361],[-81.99980651251083,24.792968009221983],[-81.999722222222204,24.717222222222219],[-82.004219,24.2848]]}},{"type":"Feature","geometry":{"type":"LineString","coordinates":[[-80.62052968241116,25.334110403922889],[-80.676764193813824,25.40189207498641],[-80.76281123584171,25.488534683523021],[-80.856969587380277,25.567981679709018],[-80.958521185658014,25.639614029608417],[-81.066685978926515,25.702872486386831],[-81.180628048935503,25.757262301834931],[-81.299462346166337,25.802357426109559],[-81.422261976320129,25.837804148422524],[-81.548065965488547,25.863324136720788],[-81.675887421448365,25.878716840625454],[-81.804722,25.883861228926246],[-81.933556578551617,25.878716840625454],[-82.061378034511421,25.863324136720788],[-82.187182023679838,25.837804148422524],[-82.309981653833631,25.802357426109559],[-82.428815951064479,25.757262301834931],[-82.542758021073482,25.702872486386831],[-82.650922814341968,25.639614029608417],[-82.752474412619691,25.567981679709018],[-82.846632764158286,25.488534683523021],[-82.932679806186158,25.40189207498641],[-83.009964924867077,25.308727503437453],[-83.077909714998427,25.209763656677403],[-83.136012013606717,25.105766336056874],[-83.183849193030738,24.997538242222188],[-83.221080709756578,24.885912530630947],[-83.247449914944923,24.771746195616263],[-83.262785141099954,24.655913340749294],[-83.26700008657123,24.539298391631593],[-83.260093525517505,24.422789305159231],[-83.242148375611066,24.30727082685058],[-83.213330159198676,24.193617845123175],[-83.173884895960072,24.082688888534708],[-83.124136466459944,23.975319809047225],[-83.064483486520984,23.872317691394318],[-82.995395732214391,23.774455025675838],[-82.917410154626978,23.682464177406043],[-82.831126522566905,23.597032186416889],[-82.737202730142798,23.518795923276269],[-82.636349804812426,23.448337629219044],[-82.529326650131637,23.386180862998316],[-82.416934556122726,23.332786875531923],[-82.300011508967756,23.288551430730621],[-82.17942633065698,23.253802088434586],[-82.056072678300083,23.22879596293981],[-81.930862932051028,23.213717968156566],[-81.804722,23.208679557999073],[-81.678581067948969,23.213717968156566],[-81.553371321699899,23.22879596293981],[-81.430017669343016,23.253802088434586],[-81.309432491032211,23.288551430730621],[-81.19250944387727,23.332786875531923],[-81.080117349868331,23.386180862998316],[-80.973094195187556,23.448337629219044],[-80.87224126985717,23.518795923276269],[-80.778317477433092,23.597032186416889],[-80.692033845373004,23.682464177406043],[-80.614048267785606,23.774455025675838],[-80.544960513478983,23.872317691394318],[-80.485307533540023,23.975319809047225],[-80.43555910403991,24.082688888534708],[-80.396113840801306,24.193617845123175],[-80.367295624388916,24.30727082685058],[-80.349350474482478,24.422789305159231],[-80.342443913428752,24.539298391631593],[-80.346658858900042,24.655913340749294],[-80.350468728835835,24.684700811099834]]}},{"type":"Feature","geometry":{"type":"LineString","coordinates":[[-80.599479075132905,25.308727503437453],[-80.531534285001555,25.209763656677403],[-80.473431986393251,25.105766336056874],[-80.425594806969244,24.997538242222188],[-80.388363290243419,24.885912530630947]]}},{"type":"Feature","geometry":{"type":"LineString","coordinates":[[-80.62052968241116,25.334110403922889],[-80.676764193813824,25.40189207498641],[-80.599479075132905,25.308727503437453]]}},{"type":"Feature","geometry":{"type":"LineString","coordinates":[[-80.388363290243419,24.885912530630947],[-80.379502527668251,24.847561313397151],[-80.361994085055059,24.771746195616263]]}},{"type":"Feature","geometry":{"type":"LineString","coordinates":[[-80.361994085055059,24.771746195616263],[-80.350468728835835,24.684700811099834]]}},{"type":"Feature","geometry":{"type":"LineString","coordinates":[[-81.861161,25.333131],[-81.870561,25.53795],[-81.965561,25.61925],[-82.049961,25.735189],[-82.097488536731845,25.855999498585891]]}},{"type":"Feature","geometry":{"type":"LineString","coordinates":[[-81.889460198667322,24.587507822724852],[-81.886639948667323,24.587690378280406],[-81.884971726445087,24.566604933835961]]}},{"type":"Feature","geometry":{"type":"LineString","coordinates":[[-81.864279004222865,24.589306878280407],[-81.872928004222871,24.588748156058184],[-81.874458559778432,24.579419878280408],[-81.872820254222873,24.580209433835961],[-81.871383365333983,24.581156878280407],[-81.86799919866732,24.581375544947072],[-81.866280254222872,24.581144739391519],[-81.864507615333977,24.580233739391517],[-81.862439643111756,24.577974489391519],[-81.861902615333989,24.575958211613742],[-81.861701337556198,24.573407517169297],[-81.862681698667316,24.571464156058184],[-81.863850004222869,24.569508683835963],[-81.864373726445095,24.568962128280408],[-81.865434559778421,24.568039044947074],[-81.867287587556206,24.567577517169298],[-81.869355448667321,24.567443906058184],[-81.870886198667321,24.567686822724852],[-81.87281980977842,24.568245489391519],[-81.874619198667318,24.569496489391518],[-81.87484750422287,24.569994461613742]]}},{"type":"Feature","geometry":{"type":"LineString","coordinates":[[-81.435022021209974,25.590827920015276],[-81.435095604543321,25.591848642237498],[-81.434805660098874,25.593061670015278],[-81.434164493432206,25.594637142237499],[-81.433486493432198,25.595702253348609],[-81.432408187876646,25.596449336681943],[-81.430929548987763,25.59687836445972],[-81.428111104543305,25.597044836681942],[-81.426019743432207,25.596826642237499],[-81.425043493432199,25.59637175334861],[-81.423642493432197,25.595258558904167],[-81.423205465654419,25.594430142237499],[-81.422731715654422,25.59309136445972],[-81.422535743432206,25.590369475570832],[-81.422838048987757,25.589326586681942],[-81.424271771209987,25.585654281126388],[-81.426354798987759,25.583139531126388],[-81.429691521209975,25.579696475570834],[-81.433705965654426,25.575188197793054],[-81.421870632321088,25.575887197793055]]}},{"type":"Feature","geometry":{"type":"LineString","coordinates":[[-81.401603937876644,25.585282225570833],[-81.401970465654429,25.590385836681943],[-81.402741826765535,25.593244697793054],[-81.403215382321093,25.594583531126389],[-81.403852382321091,25.595571058904167],[-81.406253826765536,25.597479697793055],[-81.40856974343221,25.598197475570835],[-81.409321326765536,25.598153197793053],[-81.411514965654419,25.597169725570833],[-81.413435021209978,25.595006447793054],[-81.414113187876652,25.593941447793053],[-81.41439107676554,25.592558336681943],[-81.414746743432204,25.589633058904166],[-81.414379687876647,25.584529475570832],[-81.413608104543314,25.581670697793054],[-81.41313449343221,25.580331892237499],[-81.412309632321097,25.579355475570832],[-81.41009632676554,25.577435864459723],[-81.407780798987758,25.576718114459723],[-81.407029326765539,25.576762392237502],[-81.404836021209988,25.577745781126389],[-81.40272821565442,25.579920003348612],[-81.402237910098876,25.580973920015278],[-81.401959910098867,25.582357003348612],[-81.401603937876644,25.585282225570833]]}},{"type":"Feature","geometry":{"type":"LineString","coordinates":[[-80.719465027777773,24.600065222222224],[-80.716645222222226,24.60023002777778],[-80.715140277777763,24.579134722222229]]}},{"type":"Feature","geometry":{"type":"LineString","coordinates":[[-80.697094388888885,24.60137116666667],[-80.699544527777775,24.598665833333339],[-80.70163072222222,24.596152527777782],[-80.70335297222222,24.59383125],[-80.704383888888884,24.592404444444448],[-80.705202555555545,24.590648333333338],[-80.705457277777768,24.588925166666669],[-80.705536138888874,24.587383055555559],[-80.705317972222218,24.584320833333337],[-80.704669222222208,24.583162861111116],[-80.703844666666654,24.582186],[-80.703008,24.581039],[-80.698964,24.57990825],[-80.6967085,24.580039805555561],[-80.694349777777774,24.581373138888893],[-80.693998083333327,24.581735305555561],[-80.692591222222219,24.58318394444445],[-80.692427472222221,24.583535138888895],[-80.691845027777774,24.585960722222225],[-80.691966055555554,24.587661972222225],[-80.692426722222208,24.588830944444449],[-80.692875277777773,24.589829777777783],[-80.693711916666658,24.590976833333336],[-80.695300472222215,24.592080055555559],[-80.696852722222218,24.592672888888892],[-80.697804694444443,24.592788222222225],[-80.699120555555552,24.592711472222227],[-80.700048305555555,24.592486527777783],[-80.703146972222214,24.590939111111116],[-80.705469388888886,24.589095277777783]]}},{"type":"Feature","geometry":{"type":"LineString","coordinates":[[-80.758276712369806,24.260984917881711],[-80.742790017925358,24.253661640103935]]}},{"type":"Feature","geometry":{"type":"LineString","coordinates":[[-80.743146545703141,24.261668890103934],[-80.757732545703135,24.252988251215044]]}},{"type":"Feature","geometry":{"type":"LineString","coordinates":[[-80.750890156814251,24.265330723437266],[-80.74980287903648,24.249337334548379]]}},{"type":"Feature","geometry":{"type":"LineString","coordinates":[[-80.73387937903648,24.268681834548378],[-80.731079434592033,24.268839667881711],[-80.729648601258702,24.247741862326155]]}},{"type":"Feature","geometry":{"type":"LineString","coordinates":[[-80.721179240147592,24.263761084548378],[-80.721248406814254,24.264781973437266],[-80.720955767925361,24.265993973437268],[-80.72031287903647,24.267567306770598],[-80.719635379036475,24.268630195659487],[-80.718561490147593,24.269373806770599],[-80.717091212369809,24.269798112326153],[-80.714291240147588,24.269955612326154],[-80.712214906814253,24.269730778992823],[-80.711247045703146,24.269272834548378],[-80.709859795703139,24.268155278992822],[-80.709428934592026,24.267325528992821],[-80.708963517925369,24.265985362326155],[-80.708779379036471,24.263263028992821],[-80.709083629036471,24.262221195659489],[-80.710521740147584,24.25855369565949],[-80.712600323480927,24.256045723437268],[-80.715927684592032,24.252613501215045],[-80.719932267925373,24.248118334548376],[-80.708174434592038,24.248779723437266]]}},{"type":"Feature","geometry":{"type":"LineString","coordinates":[[-80.740736379036477,24.298024028992824],[-80.740805712369806,24.299044890103936],[-80.740513184592032,24.300256973437268],[-80.739870351258702,24.301830390103934],[-80.73919282348092,24.302893362326156],[-80.738118740147584,24.303637112326157],[-80.736648129036482,24.304061640103935],[-80.733847351258703,24.304219501215044],[-80.731770379036476,24.30399494565949],[-80.730802156814249,24.303537112326158],[-80.729414351258697,24.302419723437268],[-80.728983212369812,24.301590028992823],[-80.728517462369808,24.300249917881711],[-80.728332823480926,24.29752758454838],[-80.728636990147592,24.296485695659491],[-80.730074962369812,24.292818001215046],[-80.732153740147581,24.290309723437268],[-80.735481545703138,24.286877028992823],[-80.739486573480917,24.282381278992823],[-80.727725434592031,24.283044223437269]]}},{"type":"Feature","geometry":{"type":"LineString","coordinates":[[-80.721162017925366,24.305104640103934],[-80.706784517925371,24.305912973437266],[-80.715404101258699,24.283737723437266]]}},{"type":"Feature","geometry":{"type":"LineString","coordinates":[[-81.957221305555592,24.886624944444442],[-81.954401500000046,24.88678975],[-81.952896555555583,24.865694444444447]]}},{"type":"Feature","geometry":{"type":"LineString","coordinates":[[-81.934850666666705,24.887930888888889],[-81.937300805555594,24.885225555555557],[-81.939387,24.88271225],[-81.941109250000039,24.880390972222223],[-81.942140166666704,24.878964166666666],[-81.942958833333364,24.877208055555556],[-81.943213555555587,24.875484888888888],[-81.943292416666694,24.873942777777778],[-81.943074250000038,24.870880555555555],[-81.942425500000027,24.869722583333335],[-81.941600944444474,24.868745722222222],[-81.940764277777816,24.867598722222223],[-81.936720277777809,24.866467972222225],[-81.934464777777819,24.86659952777778],[-81.932106055555593,24.867932861111111],[-81.931754361111146,24.86829502777778],[-81.930347500000039,24.869743666666668],[-81.93018375000004,24.870094861111113],[-81.929601305555593,24.872520444444444],[-81.929722333333373,24.874221694444444],[-81.930183,24.875390666666668],[-81.930631555555593,24.8763895],[-81.931468194444477,24.877536555555555],[-81.933056750000034,24.878639777777778],[-81.934609,24.87923261111111],[-81.935560972222262,24.879347944444444],[-81.936876833333372,24.879271194444446],[-81.937804583333374,24.87904625],[-81.940903250000034,24.877498833333334],[-81.943225666666706,24.875655]]}},{"type":"Feature","geometry":{"type":"LineString","coordinates":[[-81.444370866332591,25.199584368542997],[-81.441551060777044,25.199749174098553],[-81.440046116332582,25.178653868543002]]}},{"type":"Feature","geometry":{"type":"LineString","coordinates":[[-81.422000227443704,25.200890312987443],[-81.424450366332593,25.198184979654112],[-81.426536560777038,25.195671674098556],[-81.428258810777038,25.193350396320778],[-81.429289727443702,25.191923590765221],[-81.430108394110363,25.190167479654111],[-81.430363116332586,25.188444312987443],[-81.430441977443692,25.186902201876332],[-81.430223810777036,25.18383997965411],[-81.429575060777026,25.18268200743189],[-81.428750505221473,25.181705146320777],[-81.427913838554815,25.180558146320777],[-81.423869838554808,25.179427396320779],[-81.421614338554818,25.179558951876334],[-81.419255616332592,25.180892285209666],[-81.418903921888145,25.181254451876335],[-81.417497060777038,25.182703090765223],[-81.417333310777039,25.183054285209668],[-81.416750866332592,25.185479868542998],[-81.416871894110372,25.187181118542998],[-81.417332560777027,25.188350090765223],[-81.417781116332591,25.189348924098557],[-81.418617755221476,25.190495979654109],[-81.420206310777033,25.191599201876333],[-81.421758560777036,25.192192035209665],[-81.422710532999261,25.192307368542998],[-81.424026394110371,25.192230618543],[-81.424954144110373,25.192005674098557],[-81.428052810777032,25.190458257431889],[-81.430375227443704,25.188614424098557]]}},{"type":"Feature","geometry":{"type":"LineString","coordinates":[[-81.118077515766416,24.927133405127325],[-81.115257265766417,24.927315960682879],[-81.113589043544181,24.906230516238434]]}},{"type":"Feature","geometry":{"type":"LineString","coordinates":[[-81.092896321321959,24.92893246068288],[-81.101545321321964,24.928373738460657],[-81.103075876877526,24.919045460682881],[-81.101437571321966,24.919835016238434],[-81.100000682433077,24.920782460682879],[-81.096616515766414,24.921001127349545],[-81.094897571321965,24.920770321793992],[-81.093124932433071,24.919859321793989],[-81.09105696021085,24.917600071793991],[-81.090519932433082,24.915583794016214],[-81.090318654655292,24.91303309957177],[-81.09129901576641,24.911089738460657],[-81.092467321321962,24.909134266238436],[-81.092991043544188,24.90858771068288],[-81.094051876877515,24.907664627349547],[-81.095904904655299,24.90720309957177],[-81.097972765766414,24.907069488460657],[-81.099503515766415,24.907312405127325],[-81.101437126877514,24.907871071793991],[-81.103236515766412,24.909122071793991],[-81.103464821321964,24.909620044016215]]}},{"type":"Feature","geometry":{"type":"LineString","coordinates":[[-81.693848123885132,25.371596922238151],[-81.693917457218461,25.372617783349263],[-81.693624929440688,25.373829866682595],[-81.692982096107357,25.375403283349261],[-81.692304568329575,25.376466255571483],[-81.69123048499624,25.377210005571484],[-81.689759873885137,25.377634533349262],[-81.686959096107358,25.377792394460371],[-81.684882123885131,25.377567838904817],[-81.683913901662905,25.377110005571485],[-81.682526096107352,25.375992616682595],[-81.682094957218467,25.37516292223815],[-81.681629207218464,25.373822811127038],[-81.681444568329582,25.371100477793707],[-81.681748734996248,25.370058588904818],[-81.683186707218468,25.366390894460373],[-81.685265484996236,25.363882616682595],[-81.688593290551793,25.36044992223815],[-81.692598318329573,25.35595417223815],[-81.680837179440687,25.356617116682596]]}},{"type":"Feature","geometry":{"type":"LineString","coordinates":[[-81.674273762774021,25.378677533349261],[-81.659896262774026,25.379485866682593],[-81.668515846107354,25.357310616682593]]}},{"type":"Feature","geometry":{"type":"LineString","coordinates":[[-81.531495024345375,24.702823435980225],[-81.528674774345376,24.703005991535779],[-81.52700655212314,24.681920547091334]]}},{"type":"Feature","geometry":{"type":"LineString","coordinates":[[-81.506313829900918,24.70462249153578],[-81.514962829900924,24.704063769313557],[-81.516493385456485,24.694735491535781],[-81.514855079900926,24.695525047091333],[-81.513418191012036,24.696472491535779],[-81.510034024345373,24.696691158202444],[-81.508315079900925,24.696460352646891],[-81.50654244101203,24.695549352646889],[-81.504474468789809,24.693290102646891],[-81.503937441012042,24.691273824869114],[-81.503736163234251,24.68872313042467],[-81.504716524345369,24.686779769313556],[-81.505884829900921,24.684824297091335],[-81.506408552123148,24.68427774153578],[-81.507469385456474,24.683354658202447],[-81.509322413234258,24.68289313042467],[-81.511390274345374,24.682759519313556],[-81.512921024345374,24.683002435980224],[-81.514854635456473,24.683561102646891],[-81.516654024345371,24.684812102646891],[-81.516882329900923,24.685310074869115]]}},{"type":"Feature","geometry":{"type":"LineString","coordinates":[[-81.48348690928421,24.692565008145955],[-81.483853437061995,24.697668619257065],[-81.484624798173101,24.700527480368176],[-81.48509835372866,24.701866313701512],[-81.485735353728657,24.702853841479289],[-81.488136798173102,24.704762480368178],[-81.490452714839776,24.705480258145958],[-81.491204298173102,24.705435980368176],[-81.493397937061985,24.704452508145955],[-81.495317992617544,24.702289230368176],[-81.495996159284218,24.701224230368176],[-81.496274048173106,24.699841119257066],[-81.49662971483977,24.696915841479289],[-81.496262659284213,24.691812258145955],[-81.495491075950881,24.688953480368177],[-81.495017464839776,24.687614674812622],[-81.494192603728663,24.686638258145955],[-81.491979298173106,24.684718647034845],[-81.489663770395325,24.684000897034846],[-81.488912298173105,24.684045174812624],[-81.486718992617554,24.685028563701511],[-81.484611187061986,24.687202785923734],[-81.484120881506442,24.688256702590401],[-81.483842881506433,24.689639785923735],[-81.48348690928421,24.692565008145955]]}},{"type":"Feature","geometry":{"type":"LineString","coordinates":[[-82.837019840068137,24.468334649761815],[-82.82153314562369,24.461011371984039]]}},{"type":"Feature","geometry":{"type":"LineString","coordinates":[[-82.821889673401472,24.469018621984038],[-82.836475673401466,24.460337983095148]]}},{"type":"Feature","geometry":{"type":"LineString","coordinates":[[-82.829633284512582,24.47268045531737],[-82.828546006734811,24.456687066428483]]}},{"type":"Feature","geometry":{"type":"LineString","coordinates":[[-82.812622506734812,24.476031566428482],[-82.809822562290364,24.476189399761815],[-82.808391728957034,24.455091594206259]]}},{"type":"Feature","geometry":{"type":"LineString","coordinates":[[-82.799922367845923,24.471110816428482],[-82.799991534512586,24.47213170531737],[-82.799698895623692,24.473343705317372],[-82.799056006734801,24.474917038650702],[-82.798378506734807,24.475979927539591],[-82.797304617845924,24.476723538650702],[-82.79583434006814,24.477147844206257],[-82.79303436784592,24.477305344206258],[-82.790958034512585,24.477080510872927],[-82.789990173401478,24.476622566428482],[-82.78860292340147,24.475505010872926],[-82.788172062290357,24.474675260872925],[-82.7877066456237,24.473335094206259],[-82.787522506734803,24.470612760872925],[-82.787826756734802,24.469570927539593],[-82.789264867845915,24.465903427539594],[-82.791343451179259,24.463395455317372],[-82.794670812290363,24.459963233095149],[-82.798675395623704,24.45546806642848],[-82.78691756229037,24.45612945531737]]}},{"type":"Feature","geometry":{"type":"LineString","coordinates":[[-82.819479506734808,24.505373760872928],[-82.819548840068137,24.50639462198404],[-82.819256312290364,24.507606705317372],[-82.818613478957033,24.509180121984038],[-82.817935951179251,24.51024309420626],[-82.816861867845915,24.510986844206261],[-82.815391256734813,24.511411371984039],[-82.812590478957034,24.511569233095148],[-82.810513506734807,24.511344677539594],[-82.809545284512581,24.510886844206262],[-82.808157478957028,24.509769455317372],[-82.807726340068143,24.508939760872927],[-82.80726059006814,24.507599649761815],[-82.807075951179257,24.504877316428484],[-82.807380117845923,24.503835427539595],[-82.808818090068144,24.50016773309515],[-82.810896867845912,24.497659455317372],[-82.814224673401469,24.494226760872927],[-82.818229701179249,24.489731010872926],[-82.806468562290362,24.490393955317373]]}},{"type":"Feature","geometry":{"type":"LineString","coordinates":[[-82.799905145623697,24.512454371984038],[-82.785527645623702,24.51326270531737],[-82.79414722895703,24.49108745531737]]}},{"type":"Feature","geometry":{"type":"LineString","coordinates":[[-82.220727549671167,24.998568570391225],[-82.20524085522672,24.991245292613449]]}},{"type":"Feature","geometry":{"type":"LineString","coordinates":[[-82.205597383004502,24.999252542613448],[-82.220183383004496,24.990571903724558]]}},{"type":"Feature","geometry":{"type":"LineString","coordinates":[[-82.213340994115612,25.00291437594678],[-82.212253716337841,24.986920987057893]]}},{"type":"Feature","geometry":{"type":"LineString","coordinates":[[-82.196330216337842,25.006265487057892],[-82.193530271893394,25.006423320391225],[-82.192099438560064,24.985325514835669]]}},{"type":"Feature","geometry":{"type":"LineString","coordinates":[[-82.183630077448953,25.001344737057892],[-82.183699244115616,25.00236562594678],[-82.183406605226722,25.003577625946782],[-82.182763716337831,25.005150959280112],[-82.182086216337837,25.006213848169001],[-82.181012327448954,25.006957459280112],[-82.17954204967117,25.007381764835667],[-82.176742077448949,25.007539264835668],[-82.174665744115615,25.007314431502337],[-82.173697883004508,25.006856487057892],[-82.1723106330045,25.005738931502336],[-82.171879771893387,25.004909181502335],[-82.17141435522673,25.003569014835669],[-82.171230216337833,25.000846681502335],[-82.171534466337832,24.999804848169003],[-82.172972577448945,24.996137348169004],[-82.175051160782289,24.993629375946782],[-82.178378521893393,24.990197153724559],[-82.182383105226734,24.98570198705789],[-82.1706252718934,24.98636337594678]]}},{"type":"Feature","geometry":{"type":"LineString","coordinates":[[-82.203187216337838,25.035607681502338],[-82.203256549671167,25.03662854261345],[-82.202964021893393,25.037840625946782],[-82.202321188560063,25.039414042613448],[-82.201643660782281,25.04047701483567],[-82.200569577448945,25.041220764835671],[-82.199098966337843,25.041645292613449],[-82.196298188560064,25.041803153724558],[-82.194221216337837,25.041578598169004],[-82.19325299411561,25.041120764835672],[-82.191865188560058,25.040003375946782],[-82.191434049671173,25.039173681502337],[-82.190968299671169,25.037833570391225],[-82.190783660782287,25.035111237057894],[-82.191087827448953,25.034069348169005],[-82.192525799671174,25.03040165372456],[-82.194604577448942,25.027893375946782],[-82.197932383004499,25.024460681502337],[-82.201937410782278,25.019964931502336],[-82.190176271893392,25.020627875946783]]}},{"type":"Feature","geometry":{"type":"LineString","coordinates":[[-82.183612855226727,25.042688292613448],[-82.169235355226732,25.04349662594678],[-82.17785493856006,25.02132137594678]]}},{"type":"Feature","geometry":{"type":"LineString","coordinates":[[-81.821454170470574,23.900813321210386],[-81.805967476026126,23.89349004343261]]}},{"type":"Feature","geometry":{"type":"LineString","coordinates":[[-81.806324003803908,23.901497293432609],[-81.820910003803903,23.892816654543719]]}},{"type":"Feature","geometry":{"type":"LineString","coordinates":[[-81.814067614915018,23.905159126765941],[-81.812980337137247,23.889165737877054]]}},{"type":"Feature","geometry":{"type":"LineString","coordinates":[[-81.797056837137248,23.908510237877053],[-81.7942568926928,23.908668071210386],[-81.79282605935947,23.88757026565483]]}},{"type":"Feature","geometry":{"type":"LineString","coordinates":[[-81.784356698248359,23.903589487877053],[-81.784425864915022,23.904610376765941],[-81.784133226026128,23.905822376765943],[-81.783490337137238,23.907395710099273],[-81.782812837137243,23.908458598988162],[-81.781738948248361,23.909202210099274],[-81.780268670470576,23.909626515654828],[-81.777468698248356,23.909784015654829],[-81.775392364915021,23.909559182321498],[-81.774424503803914,23.909101237877053],[-81.773037253803906,23.907983682321497],[-81.772606392692794,23.907153932321496],[-81.772140976026137,23.90581376565483],[-81.771956837137239,23.903091432321496],[-81.772261087137238,23.902049598988164],[-81.773699198248352,23.898382098988165],[-81.775777781581695,23.895874126765943],[-81.779105142692799,23.89244190454372],[-81.78310972602614,23.887946737877051],[-81.771351892692806,23.888608126765941]]}},{"type":"Feature","geometry":{"type":"LineString","coordinates":[[-81.803913837137245,23.937852432321499],[-81.803983170470573,23.938873293432611],[-81.8036906426928,23.940085376765943],[-81.80304780935947,23.941658793432609],[-81.802370281581688,23.942721765654831],[-81.801296198248352,23.943465515654832],[-81.799825587137249,23.94389004343261],[-81.797024809359471,23.944047904543719],[-81.794947837137244,23.943823348988165],[-81.793979614915017,23.943365515654833],[-81.792591809359465,23.942248126765943],[-81.792160670470579,23.941418432321498],[-81.791694920470576,23.940078321210386],[-81.791510281581694,23.937355987877055],[-81.79181444824836,23.936314098988166],[-81.79325242047058,23.932646404543721],[-81.795331198248348,23.930138126765943],[-81.798659003803905,23.926705432321498],[-81.802664031581685,23.922209682321498],[-81.790902892692799,23.922872626765944]]}},{"type":"Feature","geometry":{"type":"LineString","coordinates":[[-81.784339476026133,23.944933043432609],[-81.769961976026138,23.945741376765941],[-81.778581559359466,23.923566126765941]]}},{"type":"Feature","geometry":{"type":"LineString","coordinates":[[-81.634763591981411,25.128631311685698],[-81.631943341981412,25.128813867241252],[-81.630275119759176,25.107728422796807]]}},{"type":"Feature","geometry":{"type":"LineString","coordinates":[[-81.609582397536954,25.130430367241253],[-81.61823139753696,25.12987164501903],[-81.619761953092521,25.120543367241254],[-81.618123647536962,25.121332922796807],[-81.616686758648072,25.122280367241252],[-81.613302591981409,25.122499033907918],[-81.61158364753696,25.122268228352365],[-81.609811008648066,25.121357228352363],[-81.607743036425845,25.119097978352364],[-81.607206008648077,25.117081700574587],[-81.607004730870287,25.114531006130143],[-81.607985091981405,25.11258764501903],[-81.609153397536957,25.110632172796809],[-81.609677119759183,25.110085617241253],[-81.61073795309251,25.10916253390792],[-81.612590980870294,25.108701006130143],[-81.614658841981409,25.10856739501903],[-81.61618959198141,25.108810311685698],[-81.618123203092509,25.109368978352364],[-81.619922591981407,25.110619978352364],[-81.620150897536959,25.111117950574588]]}},{"type":"Feature","geometry":{"type":"LineString","coordinates":[[-81.561204067795416,24.341092758666345],[-81.558384262239869,24.341257564221902],[-81.556879317795406,24.32016225866635]]}},{"type":"Feature","geometry":{"type":"LineString","coordinates":[[-81.538833428906528,24.342398703110792],[-81.541283567795418,24.339693369777461],[-81.543369762239863,24.337180064221904],[-81.545092012239863,24.334858786444126],[-81.546122928906527,24.33343198088857],[-81.546941595573188,24.33167586977746],[-81.547196317795411,24.329952703110791],[-81.547275178906517,24.328410591999681],[-81.547057012239861,24.325348369777458],[-81.546408262239851,24.324190397555238],[-81.545583706684297,24.323213536444126],[-81.54474704001764,24.322066536444126],[-81.540703040017632,24.320935786444128],[-81.538447540017643,24.321067341999683],[-81.536088817795417,24.322400675333014],[-81.53573712335097,24.322762841999683],[-81.534330262239862,24.324211480888572],[-81.534166512239864,24.324562675333016],[-81.533584067795417,24.326988258666347],[-81.533705095573197,24.328689508666347],[-81.534165762239851,24.329858480888571],[-81.534614317795416,24.330857314221905],[-81.535450956684301,24.332004369777458],[-81.537039512239858,24.333107591999681],[-81.538591762239861,24.333700425333014],[-81.539543734462086,24.333815758666347],[-81.540859595573195,24.333739008666349],[-81.541787345573198,24.333514064221905],[-81.544886012239857,24.331966647555237],[-81.547208428906529,24.330122814221905]]}},{"type":"Feature","geometry":{"type":"LineString","coordinates":[[-82.311353013096436,24.510952821059863],[-82.295866318651989,24.503629543282088]]}},{"type":"Feature","geometry":{"type":"LineString","coordinates":[[-82.296222846429771,24.511636793282086],[-82.310808846429765,24.502956154393196]]}},{"type":"Feature","geometry":{"type":"LineString","coordinates":[[-82.303966457540881,24.515298626615419],[-82.30287917976311,24.499305237726531]]}},{"type":"Feature","geometry":{"type":"LineString","coordinates":[[-82.286955679763111,24.51864973772653],[-82.284155735318663,24.518807571059863],[-82.282724901985333,24.497709765504307]]}},{"type":"Feature","geometry":{"type":"LineString","coordinates":[[-82.274255540874222,24.51372898772653],[-82.274324707540885,24.514749876615419],[-82.274032068651991,24.515961876615421],[-82.2733891797631,24.51753520994875],[-82.272711679763106,24.518598098837639],[-82.271637790874223,24.519341709948751],[-82.270167513096439,24.519766015504306],[-82.267367540874218,24.519923515504306],[-82.265291207540884,24.519698682170976],[-82.264323346429777,24.51924073772653],[-82.262936096429769,24.518123182170974],[-82.262505235318656,24.517293432170973],[-82.262039818651999,24.515953265504308],[-82.261855679763102,24.513230932170973],[-82.262159929763101,24.512189098837641],[-82.263598040874214,24.508521598837643],[-82.265676624207558,24.50601362661542],[-82.269003985318662,24.502581404393197],[-82.273008568652003,24.498086237726529],[-82.261250735318669,24.498747626615419]]}},{"type":"Feature","geometry":{"type":"LineString","coordinates":[[-82.293812679763107,24.547991932170977],[-82.293882013096436,24.549012793282088],[-82.293589485318662,24.55022487661542],[-82.292946651985332,24.551798293282086],[-82.29226912420755,24.552861265504308],[-82.291195040874214,24.55360501550431],[-82.289724429763112,24.554029543282088],[-82.286923651985333,24.554187404393197],[-82.284846679763106,24.553962848837642],[-82.283878457540879,24.55350501550431],[-82.282490651985327,24.55238762661542],[-82.282059513096442,24.551557932170976],[-82.281593763096438,24.550217821059864],[-82.281409124207556,24.547495487726533],[-82.281713290874222,24.546453598837644],[-82.283151263096443,24.542785904393199],[-82.285230040874211,24.540277626615421],[-82.288557846429768,24.536844932170975],[-82.292562874207547,24.532349182170975],[-82.280801735318661,24.533012126615422]]}},{"type":"Feature","geometry":{"type":"LineString","coordinates":[[-82.274238318651996,24.555072543282087],[-82.259860818652001,24.555880876615419],[-82.268480401985329,24.533705626615419]]}}]}