{"type":"FeatureCollection","crs":{"type":"name","properties":{"name":"urn:ogc:def:crs:OGC:1.3:CRS84"}},"features":[{"type":"Feature","geometry":{"type":"LineString","coordinates":[[-82.463611111111121,24.185833333333335],[-82.711111111111109,24.079166666666666],[-82.779444444444437,24.201666666666664],[-82.531823888888894,24.308265555555558]]}},{"type":"Feature","geometry":{"type":"LineString","coordinates":[[-82.463611111111121,24.185833333333335],[-82.462360555555563,24.186372222222221]]}},{"type":"Feature","geometry":{"type":"LineString","coordinates":[[-82.531823888888894,24.308265555555558],[-82.495555555555555,24.243611111111111]]}},{"type":"Feature","geometry":{"type":"LineString","coordinates":[[-82.462360555555563,24.186372222222221],[-82.495555555555555,24.243611111111111]]}},{"type":"Feature","geometry":{"type":"LineString","coordinates":[[-82.38333333333334,24.0],[-82.518888888888881,24.0],[-82.55638888888889,24.06722222222222],[-82.436797777777784,24.142275833333333]]}},{"type":"Feature","geometry":{"type":"LineString","coordinates":[[-82.38333333333334,24.0],[-82.38333333333334,24.05]]}},{"type":"Feature","geometry":{"type":"LineString","coordinates":[[-82.436797777777784,24.142275833333333],[-82.38333333333334,24.05]]}},{"type":"Feature","geometry":{"type":"LineString","coordinates":[[-81.295,24.743611111111111],[-81.231944444444451,24.7725],[-81.20472222222223,24.716944444444444],[-81.201388888888886,24.61888888888889],[-81.272869166666666,24.593870833333334]]}},{"type":"Feature","geometry":{"type":"LineString","coordinates":[[-81.295,24.743611111111111],[-81.296459166666665,24.7429425]]}},{"type":"Feature","geometry":{"type":"LineString","coordinates":[[-81.272869166666666,24.593870833333334],[-81.275,24.7],[-81.296459166666665,24.7429425]]}},{"type":"Feature","geometry":{"type":"LineString","coordinates":[[-82.0,24.966666666666665],[-82.0,25.053333333333335],[-81.596388888888882,25.053333333333335],[-81.641552222222231,24.952058888888889]]}},{"type":"Feature","geometry":{"type":"LineString","coordinates":[[-82.0,24.966666666666665],[-81.7,24.966666666666665],[-81.641552222222231,24.952058888888889]]}}]}