{"type":"FeatureCollection","crs":{"type":"name","properties":{"name":"urn:ogc:def:crs:OGC:1.3:CRS84"}},"features":[{"type":"Feature","geometry":{"type":"LineString","coordinates":[[-79.980277777999987,24.695555556],[-79.8075,24.01],[-79.833055556,24.000555556000098],[-79.842758752,24.000555556000098],[-79.852461948,24.000555556000098],[-79.862165144999892,24.000555556000098],[-79.871868341,24.000555556000098],[-79.881571536999985,24.000555556000098],[-79.891274734,24.000555556000098],[-79.90097793,24.000555556000098],[-79.910681126,24.000555556000098],[-79.920384322999979,24.000555556000098],[-79.930087518999983,24.000555556000098],[-79.939790714999987,24.000555556000098],[-79.949493912,24.000555556000098],[-79.959197108,24.000555556000098],[-79.968900304,24.000555556000098],[-79.978603500999981,24.000555556000098],[-79.988306696999985,24.000555556000098],[-79.998009892999988,24.000555556000098],[-80.00771309,24.000555556000098],[-80.017416286,24.000555556000098],[-80.027119482,24.000555556000098],[-80.036822679,24.000555556000098],[-80.046525875,24.000555556000098],[-80.056229072,24.000555556000098],[-80.065932267999983,24.000555556000098],[-80.075635463999987,24.000555556000098],[-80.08533866099998,24.000555556000098],[-80.095041857,24.000555556000098],[-80.104745053,24.000555556000098],[-80.11444825,24.000555556000098],[-80.124151445999985,24.000555556000098],[-80.133854641999989,24.000555556000098],[-80.143557839,24.000555556000098],[-80.153261035,24.000555556000098],[-80.162964231,24.000555556000098],[-80.172667427999983,24.000555556000098],[-80.182370623999986,24.000555556000098],[-80.19207382,24.000555556000098],[-80.201777017,24.000555556000098],[-80.211480213,24.000555556000098],[-80.221183408999892,24.000555556000098],[-80.230886605999984,24.000555556000098],[-80.240589801999988,24.000555556000098],[-80.250292998,24.000555556000098],[-80.259996195,24.000555556000098],[-80.269699391,24.000555556000098],[-80.279402588,24.000555556000098],[-80.289105783999986,24.000555556000098],[-80.29880898,24.000555556000098],[-80.308512177,24.000555556000098],[-80.318215373,24.000555556000098],[-80.327918569,24.000555556000098],[-80.337621765999984,24.000555556000098],[-80.347324961999988,24.000555556000098],[-80.357028157999906,24.000555556000098],[-80.366731355,24.000555556000098],[-80.376434551,24.000555556000098],[-80.386137747,24.000555556000098],[-80.395840943999985,24.000555556000098],[-80.405544139999989,24.000555556000098],[-80.415247335999894,24.000555556000098],[-80.424950533,24.000555556000098],[-80.434653729,24.000555556000098],[-80.444356925,24.000555556000098],[-80.454060122,24.000555556000098],[-80.463763318,24.000555556000098],[-80.473466513999895,24.000555556000098],[-80.483169710999988,24.000555556000098],[-80.492872906999892,24.000555556000098],[-80.502576104,24.000555556000098],[-80.5122793,24.000555556000098],[-80.521982496,24.000555556000098],[-80.531685692999986,24.000555556000098],[-80.541388889,24.000555556000098],[-80.568335332432156,24.64944542694602],[-79.980277777999987,24.695555556]]}}]}