{"type":"FeatureCollection","name":"NQX-011S NQX TACAN 32","crs":{"type":"name","properties":{"name":"urn:ogc:def:crs:OGC:1.3:CRS84"}},"features":[{"type":"Feature","properties":{},"geometry":{"type":"LineString","coordinates":[[-81.800475,24.592273105560292],[-81.799260449109568,24.592175941307456],[-81.798082807215806,24.591887401270238],[-81.79697786119273,24.591416253843128],[-81.795979187843912,24.590776816519536],[-81.795117133256795,24.589988520630733],[-81.794417890522638,24.589075320650831],[-81.793902703873002,24.588064966050414],[-81.79358722341459,24.586988157859224],[-81.79348103004051,24.585877615599784],[-81.793587344901383,24.584767082970544],[-81.79390293219349,24.583690302508376],[-81.79441819813799,24.582679990391295],[-81.795117483064075,24.581766842524932],[-81.795979537651192,24.580978602094177],[-81.796978168808081,24.580339216884116],[-81.798083035536294,24.579868111940335],[-81.79926057059636,24.579579599632151],[-81.800475,24.579482445009504],[-81.801689429403652,24.579579599632151],[-81.802866964463718,24.579868111940335],[-81.80397183119193,24.580339216884116],[-81.80497046234882,24.580978602094177],[-81.805832516935936,24.581766842524932],[-81.806531801862022,24.582679990391295],[-81.807047067806522,24.583690302508376],[-81.807362655098629,24.584767082970544],[-81.807468969959501,24.585877615599784],[-81.807362776585421,24.586988157859224],[-81.80704729612701,24.588064966050414],[-81.806532109477374,24.589075320650831],[-81.805832866743216,24.589988520630733],[-81.8049708121561,24.590776816519536],[-81.803972138807282,24.591416253843128],[-81.802867192784205,24.591887401270238],[-81.801689550890444,24.592175941307456],[-81.800475,24.592273105560292]]}},{"type":"Feature","properties":{},"geometry":{"type":"LineString","coordinates":[[-81.9180048343095,24.502690260349031],[-81.9180048343095,24.506618831777601],[-81.9180048343095,24.510190260349031],[-81.914472562976655,24.510190260349031],[-81.913687613791581,24.509833117491887],[-81.912902664606506,24.508761688920458],[-81.912902664606506,24.508404546063318],[-81.913687613791581,24.506975974634745],[-81.914472562976655,24.506618831777601],[-81.9180048343095,24.506618831777601]]}},{"type":"Feature","properties":{},"geometry":{"type":"LineString","coordinates":[[-81.909762867866192,24.502690260349031],[-81.908977918681117,24.505190260349032],[-81.907408020310967,24.510190260349031],[-81.907015545718423,24.510190260349031],[-81.905445647348273,24.505190260349032],[-81.904660698163198,24.502690260349031],[-81.905445647348273,24.505190260349032],[-81.908977918681117,24.505190260349032]]}},{"type":"Feature","properties":{},"geometry":{"type":"LineString","coordinates":[[-81.901520901422899,24.502690260349031],[-81.901520901422899,24.510190260349031],[-81.901128426830354,24.510190260349031],[-81.896811206312435,24.502690260349031],[-81.896418731719905,24.502690260349031],[-81.896418731719905,24.510190260349031]]}},{"type":"Feature","properties":{},"geometry":{"type":"LineString","coordinates":[[-81.893278934979591,24.502690260349031],[-81.890924087424366,24.502690260349031],[-81.889746663646747,24.503047403206175],[-81.888569239869128,24.504118831777603],[-81.888176765276597,24.505904546063316],[-81.888176765276597,24.507333117491889],[-81.888569239869128,24.509118831777602],[-81.889746663646747,24.509833117491887],[-81.890924087424366,24.510190260349031],[-81.893278934979591,24.510190260349031],[-81.893278934979591,24.502690260349031]]}},{"type":"Feature","properties":{},"geometry":{"type":"LineString","coordinates":[[-81.583671776933031,24.429707462594351],[-81.593045368094835,24.444010481627117]]}},{"type":"Feature","properties":{},"geometry":{"type":"LineString","coordinates":[[-81.602421086709981,24.458312922831983],[-81.611798934585607,24.472614785694734]]}},{"type":"Feature","properties":{},"geometry":{"type":"LineString","coordinates":[[-81.621178913529974,24.486916069700811],[-81.621292755095141,24.487089615923686]]}},{"type":"Feature","properties":{},"geometry":{"type":"LineString","coordinates":[[-81.63067182744895,24.501391978223005],[-81.640056612969346,24.515691817213071]]}},{"type":"Feature","properties":{},"geometry":{"type":"LineString","coordinates":[[-81.649443535086988,24.529991075730869],[-81.65883259561447,24.544289753260351]]}},{"type":"Feature","properties":{},"geometry":{"type":"LineString","coordinates":[[-81.668223796365524,24.558587849285111],[-81.677617139154933,24.572885363288393]]}},{"type":"Feature","properties":{},"geometry":{"type":"LineString","coordinates":[[-81.805927580825454,24.57918708326023],[-81.860622559732249,24.512015498765564]]}},{"type":"Feature","properties":{},"geometry":{"type":"LineString","coordinates":[[-81.857344632016236,24.502818354292717],[-81.587708313889209,24.425061700898482]]}},{"type":"Feature","properties":{},"geometry":{"type":"LineString","coordinates":[[-81.610980556,24.494241667],[-81.608233475948026,24.494241667],[-81.605486395896037,24.494241667],[-81.608233475948026,24.494241667],[-81.608233475948026,24.486741667]]}},{"type":"Feature","properties":{},"geometry":{"type":"LineString","coordinates":[[-81.602739315844062,24.494241667],[-81.602739315844062,24.486741667],[-81.602346875836631,24.486741667],[-81.600384675799503,24.489598809857142],[-81.599992235792087,24.489598809857142],[-81.598030035754945,24.486741667],[-81.597637595747528,24.486741667],[-81.597637595747528,24.494241667]]}},{"type":"Feature","properties":{},"geometry":{"type":"LineString","coordinates":[[-81.594498075688122,24.486741667],[-81.594498075688122,24.494241667],[-81.594105635680691,24.494241667],[-81.589788795599006,24.486741667],[-81.589396355591589,24.486741667],[-81.589396355591589,24.494241667]]}},{"type":"Feature","properties":{},"geometry":{"type":"LineString","coordinates":[[-81.586256835532168,24.494241667],[-81.586256835532168,24.490670238428571],[-81.586256835532168,24.486741667],[-81.586256835532168,24.490670238428571],[-81.585079515509889,24.491384524142859],[-81.582332435457914,24.494241667],[-81.585079515509889,24.491384524142859],[-81.581155115435635,24.486741667]]}},{"type":"Feature","properties":{},"geometry":{"type":"LineString","coordinates":[[-81.578015595376229,24.494241667],[-81.575268515324254,24.49031309557143],[-81.575268515324254,24.486741667],[-81.575268515324254,24.49031309557143],[-81.572521435272265,24.494241667]]}},{"type":"Feature","properties":{},"geometry":{"type":"LineString","coordinates":[[-81.559279509218612,24.421126984571426],[-81.559671726033727,24.421841270285714],[-81.560063942848842,24.422198413142855],[-81.560848376479072,24.422555556],[-81.562417243739546,24.422555556],[-81.563201677369776,24.422198413142855],[-81.563593894184891,24.421841270285714],[-81.563986111,24.421126984571426],[-81.563986111,24.420412698857142],[-81.563593894184891,24.419698413142857],[-81.561632810109302,24.418984127428569],[-81.559671726033727,24.41791269885714],[-81.559279509218612,24.417198413142856],[-81.559279509218612,24.416484127428571],[-81.559671726033727,24.415769841714283],[-81.560063942848842,24.415412698857143],[-81.560848376479072,24.415055556],[-81.562417243739546,24.415055556],[-81.563201677369776,24.415412698857143],[-81.563593894184891,24.415769841714283],[-81.563986111,24.416484127428571]]}},{"type":"Feature","properties":{},"geometry":{"type":"LineString","coordinates":[[-81.555749557882564,24.415055556],[-81.555749557882564,24.418984127428569],[-81.555749557882564,24.422555556],[-81.552219606546515,24.422555556],[-81.551435172916285,24.422198413142855],[-81.550650739286056,24.421126984571426],[-81.550650739286056,24.420769841714286],[-81.551435172916285,24.419341270285713],[-81.552219606546515,24.418984127428569],[-81.555749557882564,24.418984127428569]]}},{"type":"Feature","properties":{},"geometry":{"type":"LineString","coordinates":[[-81.547513004765122,24.415055556],[-81.546728571134892,24.417555556],[-81.545159703874418,24.422555556],[-81.544767487059303,24.422555556],[-81.543198619798844,24.417555556],[-81.542414186168614,24.415055556],[-81.543198619798844,24.417555556],[-81.546728571134892,24.417555556]]}},{"type":"Feature","properties":{},"geometry":{"type":"LineString","coordinates":[[-81.53927645164768,24.415055556],[-81.53849201801745,24.417555556],[-81.536923150756976,24.422555556],[-81.536530933941862,24.422555556],[-81.534962066681402,24.417555556],[-81.534177633051172,24.415055556],[-81.534962066681402,24.417555556],[-81.53849201801745,24.417555556]]}},{"type":"Feature","properties":{},"geometry":{"type":"LineString","coordinates":[[-81.531039898530238,24.415055556],[-81.528686597639535,24.415055556],[-81.52750994719419,24.415412698857143],[-81.526333296748845,24.416484127428571],[-81.52594107993373,24.418269841714284],[-81.52594107993373,24.419698413142857],[-81.526333296748845,24.42148412742857],[-81.52750994719419,24.422198413142855],[-81.528686597639535,24.422555556],[-81.531039898530238,24.422555556],[-81.531039898530238,24.415055556]]}},{"type":"Feature","properties":{},"geometry":{"type":"LineString","coordinates":[[-81.780369554468166,24.585877778],[-81.785475,24.585877778],[-81.785475,24.582663492285715],[-81.782333187365026,24.582663492285715],[-81.785475,24.582663492285715],[-81.785475,24.578377778],[-81.780369554468166,24.578377778]]}},{"type":"Feature","properties":{},"geometry":{"type":"LineString","coordinates":[[-81.777227741833187,24.585877778],[-81.774478655777585,24.58194920657143],[-81.774478655777585,24.578377778],[-81.774478655777585,24.58194920657143],[-81.77172956972197,24.585877778]]}},{"type":"Feature","properties":{},"geometry":{"type":"LineString","coordinates":[[-81.768980483666368,24.585877778],[-81.768980483666368,24.578377778],[-81.768587757086991,24.578377778],[-81.76662412419013,24.581234920857142],[-81.766231397610767,24.581234920857142],[-81.764267764713907,24.578377778],[-81.763875038134529,24.578377778],[-81.763875038134529,24.585877778]]}},{"type":"Feature","properties":{},"geometry":{"type":"LineString","coordinates":[[-81.87202432049213,24.502261167731739],[-81.866072222000014,24.511665810997886],[-81.860120123507883,24.502261167731739],[-81.87202432049213,24.502261167731739]]}},{"type":"Feature","properties":{},"geometry":{"type":"LineString","coordinates":[[-81.584938209492122,24.419491723731742],[-81.578986111,24.42889636699789],[-81.573034012507875,24.419491723731742],[-81.584938209492122,24.419491723731742]]}},{"type":"Feature","properties":{},"geometry":{"type":"LineString","coordinates":[[-81.631932654492132,24.491177834731744],[-81.625980556000016,24.500582477997892],[-81.620028457507885,24.491177834731744],[-81.631932654492132,24.491177834731744]]}},{"type":"Feature","properties":{},"geometry":{"type":"LineString","coordinates":[[-81.885036968536298,24.502690260349031],[-81.884252019351223,24.505190260349032],[-81.882682120981073,24.510190260349031],[-81.882289646388529,24.510190260349031],[-81.880719748018379,24.505190260349032],[-81.879934798833304,24.502690260349031],[-81.880719748018379,24.505190260349032],[-81.884252019351223,24.505190260349032]]}}]}