{"type":"FeatureCollection","name":"NQX-025S LABELS","crs":{"type":"name","properties":{"name":"urn:ogc:def:crs:OGC:1.3:CRS84"}},"features":[{"type":"Feature","geometry":{"type":"LineString","coordinates":[[-82.015566218417518,24.634533102846966],[-82.016744955282434,24.634175959989822],[-82.017923692147335,24.634175959989822],[-82.01910242901225,24.634533102846966],[-82.020281165877151,24.635604531418394],[-82.020674078165456,24.637390245704108],[-82.020674078165456,24.63881881713268],[-82.020281165877151,24.640604531418393],[-82.01910242901225,24.641318817132678],[-82.017923692147335,24.641675959989822],[-82.016744955282434,24.641675959989822],[-82.015566218417518,24.641318817132678]]}},{"type":"Feature","geometry":{"type":"LineString","coordinates":[[-82.012422920111106,24.641675959989822],[-82.012422920111106,24.638461674275536],[-82.012422920111106,24.634175959989822],[-82.012422920111106,24.638461674275536],[-82.007315060363169,24.638461674275536],[-82.007315060363169,24.634175959989822],[-82.007315060363169,24.638461674275536],[-82.007315060363169,24.641675959989822]]}},{"type":"Feature","geometry":{"type":"LineString","coordinates":[[-81.999063902308819,24.641675959989822],[-82.004171762056757,24.641675959989822],[-82.004171762056757,24.638461674275536],[-82.001028463750345,24.638461674275536],[-82.004171762056757,24.638461674275536],[-82.004171762056757,24.634175959989822],[-81.999063902308819,24.634175959989822]]}},{"type":"Feature","geometry":{"type":"LineString","coordinates":[[-81.995920604002407,24.641675959989822],[-81.993170217984286,24.641675959989822],[-81.990419831966179,24.641675959989822],[-81.993170217984286,24.641675959989822],[-81.993170217984286,24.634175959989822]]}},{"type":"Feature","geometry":{"type":"LineString","coordinates":[[-81.982954498488425,24.640247388561249],[-81.98334741077673,24.640961674275538],[-81.983740323065035,24.641318817132678],[-81.984526147641645,24.641675959989822],[-81.986097796794851,24.641675959989822],[-81.986883621371447,24.641318817132678],[-81.987276533659752,24.640961674275538],[-81.987669445948058,24.640247388561249],[-81.987669445948058,24.639533102846965],[-81.987276533659752,24.63881881713268],[-81.985311972218241,24.638104531418392],[-81.98334741077673,24.637033102846964],[-81.982954498488425,24.636318817132679],[-81.982954498488425,24.635604531418394],[-81.98334741077673,24.634890245704106],[-81.983740323065035,24.634533102846966],[-81.984526147641645,24.634175959989822],[-81.986097796794851,24.634175959989822],[-81.986883621371447,24.634533102846966],[-81.987276533659752,24.634890245704106],[-81.987669445948058,24.635604531418394]]}},{"type":"Feature","geometry":{"type":"LineString","coordinates":[[-82.019943946895253,24.550116979289296],[-82.019158646938948,24.552616979289297],[-82.017588047026351,24.557616979289296],[-82.017195397048198,24.557616979289296],[-82.015624797135601,24.552616979289297],[-82.01483949717931,24.550116979289296],[-82.015624797135601,24.552616979289297],[-82.019158646938948,24.552616979289297]]}},{"type":"Feature","geometry":{"type":"LineString","coordinates":[[-82.011698297354101,24.557616979289296],[-82.008949747507046,24.557616979289296],[-82.006201197660005,24.557616979289296],[-82.008949747507046,24.557616979289296],[-82.008949747507046,24.550116979289296]]}},{"type":"Feature","geometry":{"type":"LineString","coordinates":[[-82.003452647812964,24.550116979289296],[-82.003452647812964,24.557616979289296],[-82.003059997834811,24.557616979289296],[-81.998740848075172,24.550116979289296],[-81.99834819809702,24.550116979289296],[-81.99834819809702,24.557616979289296]]}},{"type":"Feature","geometry":{"type":"LineString","coordinates":[[-81.995206998271811,24.550116979289296],[-81.994421698315506,24.552616979289297],[-81.992851098402909,24.557616979289296],[-81.992458448424756,24.557616979289296],[-81.990887848512159,24.552616979289297],[-81.990102548555868,24.550116979289296],[-81.990887848512159,24.552616979289297],[-81.994421698315506,24.552616979289297]]}},{"type":"Feature","geometry":{"type":"LineString","coordinates":[[-81.986961348730674,24.557616979289296],[-81.986961348730674,24.550116979289296],[-81.986568698752521,24.550116979289296],[-81.984605448861771,24.552974122146438],[-81.984212798883618,24.552974122146438],[-81.982249548992883,24.550116979289296],[-81.98185689901473,24.550116979289296],[-81.98185689901473,24.557616979289296]]}},{"type":"Feature","geometry":{"type":"LineString","coordinates":[[-82.018569161623475,24.464246201984636],[-82.016215009854662,24.456746201984636],[-82.013860858085849,24.464246201984636]]}},{"type":"Feature","geometry":{"type":"LineString","coordinates":[[-82.010329630432622,24.456746201984636],[-82.009544913176356,24.459246201984637],[-82.007975478663809,24.464246201984636],[-82.007583120035676,24.464246201984636],[-82.006013685523129,24.459246201984637],[-82.005228968266849,24.456746201984636],[-82.006013685523129,24.459246201984637],[-82.009544913176356,24.459246201984637]]}},{"type":"Feature","geometry":{"type":"LineString","coordinates":[[-82.002090099241769,24.456746201984636],[-82.002090099241769,24.464246201984636],[-82.001697740613636,24.464246201984636],[-81.997381795704143,24.456746201984636],[-81.996989437075996,24.456746201984636],[-81.996989437075996,24.464246201984636]]}},{"type":"Feature","geometry":{"type":"LineString","coordinates":[[-81.988749905885143,24.464246201984636],[-81.993850568050917,24.464246201984636],[-81.993850568050917,24.46103191627035],[-81.990711699025823,24.46103191627035],[-81.993850568050917,24.46103191627035],[-81.993850568050917,24.456746201984636],[-81.988749905885143,24.456746201984636]]}},{"type":"Feature","geometry":{"type":"LineString","coordinates":[[-81.98561103686005,24.456746201984636],[-81.983256885091237,24.456746201984636],[-81.982079809206823,24.45710334484178],[-81.980902733322424,24.458174773413209],[-81.980510374694276,24.459960487698922],[-81.980510374694276,24.461389059127495],[-81.980902733322424,24.463174773413208],[-81.982079809206823,24.463889059127492],[-81.983256885091237,24.464246201984636],[-81.98561103686005,24.464246201984636],[-81.98561103686005,24.456746201984636]]}},{"type":"Feature","geometry":{"type":"LineString","coordinates":[[-81.896262261713403,24.565493106210091],[-81.892728375668611,24.565493106210091],[-81.891943067658659,24.565135963352951],[-81.891157759648706,24.563707391924378],[-81.891157759648706,24.563350249067234],[-81.891943067658659,24.561921677638665],[-81.892728375668611,24.561564534781521],[-81.896262261713403,24.561564534781521],[-81.896262261713403,24.565493106210091],[-81.896262261713403,24.569064534781521],[-81.892728375668611,24.569064534781521],[-81.891943067658659,24.568707391924377],[-81.891157759648706,24.567635963352949],[-81.891157759648706,24.567278820495808],[-81.891943067658659,24.565850249067235],[-81.892728375668611,24.565493106210091]]}},{"type":"Feature","geometry":{"type":"LineString","coordinates":[[-81.88330467954917,24.569064534781521],[-81.88330467954917,24.562993106210094],[-81.883697333554153,24.562278820495806],[-81.884089987559136,24.561921677638665],[-81.884875295569088,24.561564534781521],[-81.886445911588993,24.561564534781521],[-81.887231219598945,24.561921677638665],[-81.887623873603914,24.562278820495806],[-81.888016527608897,24.562993106210094],[-81.888016527608897,24.569064534781521]]}},{"type":"Feature","geometry":{"type":"LineString","coordinates":[[-81.87505894544465,24.567635963352949],[-81.875451599449633,24.568350249067237],[-81.875844253454616,24.568707391924377],[-81.876629561464568,24.569064534781521],[-81.878200177484473,24.569064534781521],[-81.878985485494425,24.568707391924377],[-81.879378139499394,24.568350249067237],[-81.879770793504377,24.567635963352949],[-81.879770793504377,24.566921677638664],[-81.879378139499394,24.56620739192438],[-81.877414869474521,24.565493106210091],[-81.875451599449633,24.564421677638663],[-81.87505894544465,24.563707391924378],[-81.87505894544465,24.562993106210094],[-81.875451599449633,24.562278820495806],[-81.875844253454616,24.561921677638665],[-81.876629561464568,24.561564534781521],[-81.878200177484473,24.561564534781521],[-81.878985485494425,24.561921677638665],[-81.879378139499394,24.562278820495806],[-81.879770793504377,24.562993106210094]]}},{"type":"Feature","geometry":{"type":"LineString","coordinates":[[-81.871525059399872,24.565493106210091],[-81.86799117335508,24.565493106210091],[-81.867205865345127,24.565135963352951],[-81.866420557335175,24.563707391924378],[-81.866420557335175,24.563350249067234],[-81.867205865345127,24.561921677638665],[-81.86799117335508,24.561564534781521],[-81.871525059399872,24.561564534781521],[-81.871525059399872,24.565493106210091],[-81.871525059399872,24.569064534781521],[-81.86799117335508,24.569064534781521],[-81.867205865345127,24.568707391924377],[-81.866420557335175,24.567635963352949],[-81.866420557335175,24.567278820495808],[-81.867205865345127,24.565850249067235],[-81.86799117335508,24.565493106210091]]}},{"type":"Feature","geometry":{"type":"LineString","coordinates":[[-81.863279325295352,24.569064534781521],[-81.860530747260512,24.565135963352951],[-81.860530747260512,24.561564534781521],[-81.860530747260512,24.565135963352951],[-81.857782169225672,24.569064534781521]]}},{"type":"Feature","geometry":{"type":"LineString","coordinates":[[-81.41716391980421,24.576063061868204],[-81.414415254758396,24.576063061868204],[-81.411666589712581,24.576063061868204],[-81.414415254758396,24.576063061868204],[-81.414415254758396,24.568563061868204]]}},{"type":"Feature","geometry":{"type":"LineString","coordinates":[[-81.408917924666767,24.568563061868204],[-81.40813259179653,24.571063061868205],[-81.406561926056071,24.576063061868204],[-81.406169259620953,24.576063061868204],[-81.404598593880493,24.571063061868205],[-81.403813261010256,24.568563061868204],[-81.404598593880493,24.571063061868205],[-81.40813259179653,24.571063061868205]]}},{"type":"Feature","geometry":{"type":"LineString","coordinates":[[-81.400671929529338,24.576063061868204],[-81.400671929529338,24.568563061868204],[-81.395174599437709,24.568563061868204]]}},{"type":"Feature","geometry":{"type":"LineString","coordinates":[[-81.387321270735384,24.576063061868204],[-81.392425934391895,24.576063061868204],[-81.392425934391895,24.572848776153918],[-81.389284602910962,24.572848776153918],[-81.392425934391895,24.572848776153918],[-81.392425934391895,24.568563061868204],[-81.387321270735384,24.568563061868204]]}},{"type":"Feature","geometry":{"type":"LineString","coordinates":[[-81.379075275597955,24.576063061868204],[-81.384179939254466,24.576063061868204],[-81.384179939254466,24.572848776153918],[-81.381038607773533,24.572848776153918],[-81.384179939254466,24.572848776153918],[-81.384179939254466,24.568563061868204],[-81.379075275597955,24.568563061868204]]}},{"type":"Feature","geometry":{"type":"LineString","coordinates":[[-81.568853189868776,24.448012165058696],[-81.568068447134991,24.450512165058697],[-81.566498961667435,24.455512165058696],[-81.566106590300549,24.455512165058696],[-81.564537104832993,24.450512165058697],[-81.563752362099208,24.448012165058696],[-81.564537104832993,24.450512165058697],[-81.568068447134991,24.450512165058697]]}},{"type":"Feature","geometry":{"type":"LineString","coordinates":[[-81.560613391164097,24.455512165058696],[-81.560613391164097,24.451940736487266],[-81.560613391164097,24.448012165058696],[-81.560613391164097,24.451940736487266],[-81.559436277063426,24.452655022201554],[-81.5566896774952,24.455512165058696],[-81.559436277063426,24.452655022201554],[-81.555512563394529,24.448012165058696]]}},{"type":"Feature","geometry":{"type":"LineString","coordinates":[[-81.54766513605675,24.455512165058696],[-81.54766513605675,24.449440736487269],[-81.548057507423636,24.44872645077298],[-81.548449878790521,24.44836930791584],[-81.549234621524306,24.448012165058696],[-81.550804106991862,24.448012165058696],[-81.551588849725633,24.44836930791584],[-81.551981221092532,24.44872645077298],[-81.552373592459418,24.449440736487269],[-81.552373592459418,24.455512165058696]]}},{"type":"Feature","geometry":{"type":"LineString","coordinates":[[-81.544133793754753,24.448012165058696],[-81.544133793754753,24.455512165058696],[-81.543741422387868,24.455512165058696],[-81.539425337352085,24.448012165058696],[-81.539032965985186,24.448012165058696],[-81.539032965985186,24.455512165058696]]}},{"type":"Feature","geometry":{"type":"LineString","coordinates":[[-81.531185538647406,24.454083593630124],[-81.531577910014292,24.454797879344412],[-81.531970281381177,24.455155022201552],[-81.532755024114962,24.455512165058696],[-81.534324509582518,24.455512165058696],[-81.535109252316289,24.455155022201552],[-81.535501623683189,24.454797879344412],[-81.535893995050074,24.454083593630124],[-81.535893995050074,24.453369307915839],[-81.535501623683189,24.452655022201554],[-81.533539766848733,24.451940736487266],[-81.531577910014292,24.450869307915838],[-81.531185538647406,24.450155022201553],[-81.531185538647406,24.449440736487269],[-81.531577910014292,24.44872645077298],[-81.531970281381177,24.44836930791584],[-81.532755024114962,24.448012165058696],[-81.534324509582518,24.448012165058696],[-81.535109252316289,24.44836930791584],[-81.535501623683189,24.44872645077298],[-81.535893995050074,24.449440736487269]]}},{"type":"Feature","geometry":{"type":"LineString","coordinates":[[-81.687966911227079,24.546514042859677],[-81.687966911227079,24.542942614288247],[-81.687966911227079,24.539014042859677],[-81.687966911227079,24.542942614288247],[-81.686788932694711,24.543656900002535],[-81.68404031611918,24.546514042859677],[-81.686788932694711,24.543656900002535],[-81.682862337586812,24.539014042859677]]}},{"type":"Feature","geometry":{"type":"LineString","coordinates":[[-81.67461648786022,24.546514042859677],[-81.679721061500487,24.546514042859677],[-81.679721061500487,24.543299757145391],[-81.676579785414162,24.543299757145391],[-81.679721061500487,24.543299757145391],[-81.679721061500487,24.539014042859677],[-81.67461648786022,24.539014042859677]]}},{"type":"Feature","geometry":{"type":"LineString","coordinates":[[-81.671475211773895,24.546514042859677],[-81.668726595198365,24.542585471431106],[-81.668726595198365,24.539014042859677],[-81.668726595198365,24.542585471431106],[-81.665977978622834,24.546514042859677]]}},{"type":"Feature","geometry":{"type":"LineString","coordinates":[[-81.658124788407036,24.539371185716821],[-81.659302766939405,24.539014042859677],[-81.660480745471773,24.539014042859677],[-81.661658724004141,24.539371185716821],[-81.662836702536509,24.540442614288249],[-81.663229362047304,24.542228328573962],[-81.663229362047304,24.543656900002535],[-81.662836702536509,24.545442614288248],[-81.661658724004141,24.546156900002533],[-81.660480745471773,24.546514042859677],[-81.659302766939405,24.546514042859677],[-81.658124788407036,24.546156900002533]]}},{"type":"Feature","geometry":{"type":"LineString","coordinates":[[-81.654983512320726,24.546514042859677],[-81.652234895745195,24.542585471431106],[-81.652234895745195,24.539014042859677],[-81.652234895745195,24.542585471431106],[-81.649486279169665,24.546514042859677]]}},{"type":"Feature","geometry":{"type":"LineString","coordinates":[[-81.544261087660018,24.568309362116555],[-81.540727122548461,24.568309362116555],[-81.539941796968122,24.567952219259414],[-81.53915647138777,24.566523647830842],[-81.53915647138777,24.566166504973697],[-81.539941796968122,24.564737933545128],[-81.540727122548461,24.564380790687984],[-81.544261087660018,24.564380790687984],[-81.544261087660018,24.568309362116555],[-81.544261087660018,24.571880790687985],[-81.540727122548461,24.571880790687985],[-81.539941796968122,24.571523647830841],[-81.53915647138777,24.570452219259412],[-81.53915647138777,24.570095076402271],[-81.539941796968122,24.568666504973699],[-81.540727122548461,24.568309362116555]]}},{"type":"Feature","geometry":{"type":"LineString","coordinates":[[-81.531303215584316,24.571880790687985],[-81.531303215584316,24.565809362116557],[-81.531695878374492,24.565095076402269],[-81.532088541164654,24.564737933545128],[-81.532873866745007,24.564380790687984],[-81.534444517905698,24.564380790687984],[-81.535229843486036,24.564737933545128],[-81.535622506276212,24.565095076402269],[-81.536015169066388,24.565809362116557],[-81.536015169066388,24.571880790687985]]}},{"type":"Feature","geometry":{"type":"LineString","coordinates":[[-81.527769250472758,24.564380790687984],[-81.527769250472758,24.568309362116555],[-81.527769250472758,24.571880790687985],[-81.5242352853612,24.571880790687985],[-81.523449959780862,24.571523647830841],[-81.52266463420051,24.570452219259412],[-81.52266463420051,24.570095076402271],[-81.523449959780862,24.568666504973699],[-81.5242352853612,24.568309362116555],[-81.527769250472758,24.568309362116555],[-81.5242352853612,24.568309362116555],[-81.52266463420051,24.564380790687984]]}},{"type":"Feature","geometry":{"type":"LineString","coordinates":[[-81.519523331879142,24.564380790687984],[-81.519523331879142,24.568309362116555],[-81.519523331879142,24.571880790687985],[-81.515989366767585,24.571880790687985],[-81.515204041187246,24.571523647830841],[-81.514418715606894,24.570452219259412],[-81.514418715606894,24.570095076402271],[-81.515204041187246,24.568666504973699],[-81.515989366767585,24.568309362116555],[-81.519523331879142,24.568309362116555]]}},{"type":"Feature","geometry":{"type":"LineString","coordinates":[[-81.511980778114477,24.572259352889859],[-81.509232138583272,24.568330781461288],[-81.509232138583272,24.564759352889858],[-81.509232138583272,24.568330781461288],[-81.506483499052052,24.572259352889859]]}}]}